Model Marker Errors from IK
version=1
nRows=501
nColumns=4
inDegrees=no
endheader
time	total_squared_error	marker_error_RMS	marker_error_max
      1.90000000	      0.03219253	      0.02297273	      0.06588867
      1.90500000	      0.03192969	      0.02287876	      0.06592833
      1.91000000	      0.03208233	      0.02293338	      0.06611841
      1.91500000	      0.03183877	      0.02284616	      0.06629060
      1.92000000	      0.03185301	      0.02285127	      0.06653529
      1.92500000	      0.03187363	      0.02285866	      0.06675114
      1.93000000	      0.03184035	      0.02284673	      0.06687464
      1.93500000	      0.03175923	      0.02281761	      0.06694661
      1.94000000	      0.03167493	      0.02278730	      0.06698945
      1.94500000	      0.03171572	      0.02280197	      0.06720245
      1.95000000	      0.03176919	      0.02282118	      0.06729212
      1.95500000	      0.03179747	      0.02283134	      0.06734485
      1.96000000	      0.03167875	      0.02278868	      0.06759719
      1.96500000	      0.03164934	      0.02277810	      0.06785874
      1.97000000	      0.03166756	      0.02278465	      0.06800445
      1.97500000	      0.03177514	      0.02282332	      0.06849742
      1.98000000	      0.03172730	      0.02280613	      0.06851137
      1.98500000	      0.03167534	      0.02278745	      0.06878437
      1.99000000	      0.03184294	      0.02284766	      0.06902677
      1.99500000	      0.03178843	      0.02282809	      0.06921686
      2.00000000	      0.03176122	      0.02281832	      0.06950855
      2.00500000	      0.03184639	      0.02284889	      0.07002473
      2.01000000	      0.03182024	      0.02283951	      0.07037110
      2.01500000	      0.03194655	      0.02288480	      0.07059543
      2.02000000	      0.03202649	      0.02291341	      0.07083405
      2.02500000	      0.03206042	      0.02292555	      0.07114615
      2.03000000	      0.03204088	      0.02291856	      0.07175504
      2.03500000	      0.03210991	      0.02294323	      0.07205746
      2.04000000	      0.03217282	      0.02296570	      0.07195497
      2.04500000	      0.03205418	      0.02292331	      0.07237982
      2.05000000	      0.03210297	      0.02294076	      0.07267773
      2.05500000	      0.03222518	      0.02298438	      0.07287376
      2.06000000	      0.03210733	      0.02294231	      0.07296767
      2.06500000	      0.03221011	      0.02297900	      0.07348325
      2.07000000	      0.03219430	      0.02297336	      0.07369690
      2.07500000	      0.03206763	      0.02292812	      0.07399824
      2.08000000	      0.03198460	      0.02289842	      0.07421025
      2.08500000	      0.03212653	      0.02294917	      0.07415771
      2.09000000	      0.03230072	      0.02301130	      0.07468253
      2.09500000	      0.03213460	      0.02295205	      0.07495984
      2.10000000	      0.03229393	      0.02300888	      0.07529171
      2.10500000	      0.03232487	      0.02301990	      0.07536434
      2.11000000	      0.03232482	      0.02301988	      0.07584701
      2.11500000	      0.03227761	      0.02300307	      0.07606119
      2.12000000	      0.03240008	      0.02304667	      0.07651789
      2.12500000	      0.03245343	      0.02306563	      0.07655372
      2.13000000	      0.03240490	      0.02304838	      0.07652278
      2.13500000	      0.03255544	      0.02310185	      0.07714048
      2.14000000	      0.03252946	      0.02309264	      0.07747010
      2.14500000	      0.03267990	      0.02314597	      0.07777714
      2.15000000	      0.03279567	      0.02318693	      0.07818109
      2.15500000	      0.03274455	      0.02316886	      0.07842139
      2.16000000	      0.03281209	      0.02319274	      0.07881970
      2.16500000	      0.03296617	      0.02324713	      0.07903070
      2.17000000	      0.03310067	      0.02329450	      0.07956390
      2.17500000	      0.03293130	      0.02323483	      0.07963197
      2.18000000	      0.03313668	      0.02330717	      0.07971310
      2.18500000	      0.03324584	      0.02334553	      0.08003953
      2.19000000	      0.03314144	      0.02330885	      0.07983254
      2.19500000	      0.03336382	      0.02338692	      0.08045682
      2.20000000	      0.03337973	      0.02339249	      0.08032328
      2.20500000	      0.03349864	      0.02343412	      0.08067894
      2.21000000	      0.03371356	      0.02350918	      0.08092451
      2.21500000	      0.03394521	      0.02358980	      0.08120470
      2.22000000	      0.03397037	      0.02359854	      0.08133675
      2.22500000	      0.03429701	      0.02371173	      0.08183699
      2.23000000	      0.03437115	      0.02373734	      0.08173419
      2.23500000	      0.03462540	      0.02382498	      0.08222763
      2.24000000	      0.03480642	      0.02388717	      0.08236490
      2.24500000	      0.03520242	      0.02402267	      0.08260085
      2.25000000	      0.03529151	      0.02405305	      0.08275683
      2.25500000	      0.03571527	      0.02419703	      0.08296780
      2.26000000	      0.03578865	      0.02422187	      0.08304076
      2.26500000	      0.03624879	      0.02437709	      0.08323902
      2.27000000	      0.03637006	      0.02441783	      0.08329386
      2.27500000	      0.03681032	      0.02456518	      0.08357874
      2.28000000	      0.03710759	      0.02466417	      0.08387494
      2.28500000	      0.03735652	      0.02474676	      0.08410715
      2.29000000	      0.03756718	      0.02481643	      0.08403454
      2.29500000	      0.03787214	      0.02491696	      0.08417691
      2.30000000	      0.03829787	      0.02505662	      0.08449138
      2.30500000	      0.03849963	      0.02512253	      0.08451372
      2.31000000	      0.03890551	      0.02525461	      0.08504388
      2.31500000	      0.03901947	      0.02529157	      0.08513500
      2.32000000	      0.03969450	      0.02550940	      0.08523268
      2.32500000	      0.03992680	      0.02558393	      0.08530533
      2.33000000	      0.04027977	      0.02569677	      0.08542344
      2.33500000	      0.04096317	      0.02591385	      0.08586638
      2.34000000	      0.04124918	      0.02600415	      0.08600230
      2.34500000	      0.04165888	      0.02613298	      0.08570435
      2.35000000	      0.04202827	      0.02624858	      0.08635956
      2.35500000	      0.04258879	      0.02642304	      0.08641285
      2.36000000	      0.04311976	      0.02658724	      0.08656671
      2.36500000	      0.04373824	      0.02677724	      0.08673800
      2.37000000	      0.04430561	      0.02695035	      0.08711416
      2.37500000	      0.04469750	      0.02706928	      0.08697886
      2.38000000	      0.04532672	      0.02725914	      0.08735461
      2.38500000	      0.04602710	      0.02746894	      0.08763845
      2.39000000	      0.04684271	      0.02771125	      0.08780333
      2.39500000	      0.04754932	      0.02791947	      0.08783524
      2.40000000	      0.04972310	      0.02855053	      0.08834503
      2.40500000	      0.05030508	      0.02871713	      0.08838273
      2.41000000	      0.05111621	      0.02894772	      0.08867977
      2.41500000	      0.05230301	      0.02928184	      0.08869232
      2.42000000	      0.05329263	      0.02955756	      0.08899078
      2.42500000	      0.05409552	      0.02977939	      0.08894293
      2.43000000	      0.05484498	      0.02998496	      0.08886404
      2.43500000	      0.05602574	      0.03030602	      0.08914961
      2.44000000	      0.05680779	      0.03051680	      0.08846092
      2.44500000	      0.05798854	      0.03083232	      0.08900701
      2.45000000	      0.05870243	      0.03102152	      0.08905258
      2.45500000	      0.05996893	      0.03135438	      0.08907801
      2.46000000	      0.06085128	      0.03158420	      0.08903676
      2.46500000	      0.06165975	      0.03179333	      0.08888212
      2.47000000	      0.06261090	      0.03203761	      0.08884607
      2.47500000	      0.06386324	      0.03235643	      0.08885494
      2.48000000	      0.06476845	      0.03258493	      0.08890445
      2.48500000	      0.06566313	      0.03280922	      0.08862369
      2.49000000	      0.06663837	      0.03305196	      0.08868718
      2.49500000	      0.06791888	      0.03336801	      0.08849949
      2.50000000	      0.06878568	      0.03358026	      0.08879358
      2.50500000	      0.06986620	      0.03384298	      0.08856218
      2.51000000	      0.07099185	      0.03411453	      0.08855106
      2.51500000	      0.07214944	      0.03439154	      0.08866288
      2.52000000	      0.07329916	      0.03466447	      0.08811824
      2.52500000	      0.07419424	      0.03487548	      0.08854384
      2.53000000	      0.07529643	      0.03513357	      0.08859202
      2.53500000	      0.07633151	      0.03537423	      0.08855711
      2.54000000	      0.07771099	      0.03569245	      0.08877835
      2.54500000	      0.07895533	      0.03597707	      0.08831937
      2.55000000	      0.07989127	      0.03618968	      0.08873675
      2.55500000	      0.08107677	      0.03645720	      0.08907945
      2.56000000	      0.08232404	      0.03673655	      0.08956379
      2.56500000	      0.08355100	      0.03700930	      0.09027874
      2.57000000	      0.08459670	      0.03724018	      0.09082974
      2.57500000	      0.08580937	      0.03750615	      0.09131792
      2.58000000	      0.08685520	      0.03773401	      0.09197453
      2.58500000	      0.08812879	      0.03800966	      0.09255892
      2.59000000	      0.08951745	      0.03830795	      0.09323047
      2.59500000	      0.09059600	      0.03853804	      0.09390862
      2.60000000	      0.09196794	      0.03882874	      0.09453109
      2.60500000	      0.09305826	      0.03905823	      0.09502194
      2.61000000	      0.09458338	      0.03937699	      0.09579806
      2.61500000	      0.09576012	      0.03962118	      0.09624599
      2.62000000	      0.09712291	      0.03990212	      0.09718231
      2.62500000	      0.09882659	      0.04025056	      0.09821786
      2.63000000	      0.10019085	      0.04052744	      0.09824882
      2.63500000	      0.10097236	      0.04068519	      0.09905655
      2.64000000	      0.10303581	      0.04109880	      0.09998552
      2.64500000	      0.10430677	      0.04135151	      0.10066312
      2.65000000	      0.10619583	      0.04172428	      0.10132970
      2.65500000	      0.10766956	      0.04201279	      0.10188819
      2.66000000	      0.10848972	      0.04217250	      0.10257908
      2.66500000	      0.11039257	      0.04254074	      0.10354470
      2.67000000	      0.11224585	      0.04289634	      0.10408805
      2.67500000	      0.11370711	      0.04317466	      0.10476663
      2.68000000	      0.11520174	      0.04345749	      0.10542491
      2.68500000	      0.11704914	      0.04380455	      0.10643205
      2.69000000	      0.11871932	      0.04411596	      0.10712752
      2.69500000	      0.12026377	      0.04440200	      0.10761974
      2.70000000	      0.12173129	      0.04467208	      0.10822340
      2.70500000	      0.12306101	      0.04491541	      0.10878261
      2.71000000	      0.12476109	      0.04522459	      0.10971815
      2.71500000	      0.12635521	      0.04551260	      0.11023374
      2.72000000	      0.12761331	      0.04573862	      0.11044680
      2.72500000	      0.12912364	      0.04600849	      0.11119541
      2.73000000	      0.13061318	      0.04627310	      0.11185837
      2.73500000	      0.13208972	      0.04653391	      0.11223789
      2.74000000	      0.13341064	      0.04676601	      0.11260694
      2.74500000	      0.13446148	      0.04694983	      0.11328346
      2.75000000	      0.13595499	      0.04720985	      0.11395909
      2.75500000	      0.13770694	      0.04751306	      0.11454620
      2.76000000	      0.13898243	      0.04773259	      0.11469119
      2.76500000	      0.14067301	      0.04802202	      0.11549375
      2.77000000	      0.14212275	      0.04826884	      0.11640198
      2.77500000	      0.14374912	      0.04854424	      0.11676421
      2.78000000	      0.14599226	      0.04892153	      0.11760268
      2.78500000	      0.14719028	      0.04912184	      0.11819364
      2.79000000	      0.14900462	      0.04942367	      0.11876909
      2.79500000	      0.15066654	      0.04969852	      0.11942717
      2.80000000	      0.15219720	      0.04995034	      0.12104831
      2.80500000	      0.15344832	      0.05015522	      0.12061729
      2.81000000	      0.15509184	      0.05042310	      0.12124271
      2.81500000	      0.15648609	      0.05064924	      0.12170651
      2.82000000	      0.15750714	      0.05081421	      0.12219846
      2.82500000	      0.15918423	      0.05108402	      0.12292940
      2.83000000	      0.16125770	      0.05141565	      0.12502200
      2.83500000	      0.16246858	      0.05160833	      0.12654682
      2.84000000	      0.16357670	      0.05178403	      0.12432681
      2.84500000	      0.16498370	      0.05200626	      0.12504451
      2.85000000	      0.16646857	      0.05223976	      0.12612612
      2.85500000	      0.16738490	      0.05238334	      0.12561097
      2.86000000	      0.16887908	      0.05261663	      0.12598218
      2.86500000	      0.17025216	      0.05283010	      0.12736755
      2.87000000	      0.17153567	      0.05302886	      0.12713189
      2.87500000	      0.17271651	      0.05321107	      0.12736694
      2.88000000	      0.17428728	      0.05345249	      0.12851295
      2.88500000	      0.17514372	      0.05358366	      0.12816940
      2.89000000	      0.17679155	      0.05383514	      0.12875327
      2.89500000	      0.17855931	      0.05410362	      0.13006543
      2.90000000	      0.17915837	      0.05419430	      0.12955403
      2.90500000	      0.18048814	      0.05439505	      0.13009081
      2.91000000	      0.18162026	      0.05456539	      0.13036460
      2.91500000	      0.18342560	      0.05483591	      0.13185688
      2.92000000	      0.18421999	      0.05495453	      0.13105081
      2.92500000	      0.18538934	      0.05512866	      0.13136585
      2.93000000	      0.18658199	      0.05530571	      0.13192777
      2.93500000	      0.18824881	      0.05555219	      0.13321131
      2.94000000	      0.18971978	      0.05576881	      0.13445380
      2.94500000	      0.18993001	      0.05579970	      0.13284902
      2.95000000	      0.19125197	      0.05599356	      0.13433853
      2.95500000	      0.19190681	      0.05608933	      0.13335285
      2.96000000	      0.19313473	      0.05626849	      0.13367407
      2.96500000	      0.19428832	      0.05643629	      0.13519316
      2.97000000	      0.19505714	      0.05654784	      0.13409681
      2.97500000	      0.19626497	      0.05672265	      0.13430088
      2.98000000	      0.19749420	      0.05690000	      0.13460098
      2.98500000	      0.19890451	      0.05710280	      0.13569327
      2.99000000	      0.20025719	      0.05729664	      0.13663858
      2.99500000	      0.20056595	      0.05734079	      0.13521768
      3.00000000	      0.20193187	      0.05753571	      0.13662162
      3.00500000	      0.20279629	      0.05765873	      0.13576447
      3.01000000	      0.20371719	      0.05778950	      0.13696661
      3.01500000	      0.20439036	      0.05788490	      0.13603228
      3.02000000	      0.20592761	      0.05810217	      0.13667913
      3.02500000	      0.20721118	      0.05828297	      0.13786315
      3.03000000	      0.20753280	      0.05832818	      0.13656078
      3.03500000	      0.20866347	      0.05848686	      0.13748514
      3.04000000	      0.21014428	      0.05869402	      0.13680116
      3.04500000	      0.21124899	      0.05884809	      0.13713960
      3.05000000	      0.21211336	      0.05896837	      0.13773830
      3.05500000	      0.21331769	      0.05913553	      0.13901241
      3.06000000	      0.21438171	      0.05928283	      0.13796501
      3.06500000	      0.21520243	      0.05939620	      0.13857727
      3.07000000	      0.21656509	      0.05958395	      0.13870852
      3.07500000	      0.21742636	      0.05970232	      0.13989071
      3.08000000	      0.21756205	      0.05972094	      0.13914191
      3.08500000	      0.21875761	      0.05988481	      0.14025116
      3.09000000	      0.22121796	      0.06022063	      0.14128846
      3.09500000	      0.22211546	      0.06034266	      0.14006725
      3.10000000	      0.22179186	      0.06029869	      0.14033575
      3.10500000	      0.22309629	      0.06047575	      0.14090807
      3.11000000	      0.22439275	      0.06065121	      0.14089135
      3.11500000	      0.22543968	      0.06079254	      0.14176129
      3.12000000	      0.22651992	      0.06093801	      0.14265093
      3.12500000	      0.22748383	      0.06106753	      0.14297527
      3.13000000	      0.22788709	      0.06112163	      0.14136081
      3.13500000	      0.22854704	      0.06121007	      0.14126493
      3.14000000	      0.22963331	      0.06135536	      0.14227121
      3.14500000	      0.23020022	      0.06143105	      0.14288247
      3.15000000	      0.23093770	      0.06152937	      0.14363529
      3.15500000	      0.23131553	      0.06157969	      0.14425613
      3.16000000	      0.23133058	      0.06158169	      0.14258316
      3.16500000	      0.23211356	      0.06168582	      0.14295885
      3.17000000	      0.23239126	      0.06172271	      0.14339531
      3.17500000	      0.23234338	      0.06171635	      0.14244642
      3.18000000	      0.23274770	      0.06177003	      0.14339519
      3.18500000	      0.23249155	      0.06173603	      0.14321253
      3.19000000	      0.23225746	      0.06170494	      0.14350557
      3.19500000	      0.23397503	      0.06193268	      0.14325719
      3.20000000	      0.23187810	      0.06165452	      0.14329411
      3.20500000	      0.23175012	      0.06163751	      0.14318770
      3.21000000	      0.23031090	      0.06144582	      0.14294606
      3.21500000	      0.22987840	      0.06138810	      0.14287404
      3.22000000	      0.22920183	      0.06129769	      0.14243459
      3.22500000	      0.22822650	      0.06116713	      0.14215186
      3.23000000	      0.22735209	      0.06104984	      0.14208973
      3.23500000	      0.22667286	      0.06095858	      0.14177399
      3.24000000	      0.22610839	      0.06088263	      0.14196920
      3.24500000	      0.22538812	      0.06078558	      0.14165502
      3.25000000	      0.22470446	      0.06069332	      0.14130259
      3.25500000	      0.22369230	      0.06055648	      0.14121787
      3.26000000	      0.22269806	      0.06042175	      0.14078686
      3.26500000	      0.22263824	      0.06041363	      0.14101922
      3.27000000	      0.22131928	      0.06023442	      0.14052901
      3.27500000	      0.22071479	      0.06015210	      0.14059424
      3.28000000	      0.21989403	      0.06004015	      0.14061382
      3.28500000	      0.21834004	      0.05982763	      0.13998598
      3.29000000	      0.21728709	      0.05968319	      0.14002728
      3.29500000	      0.21638309	      0.05955891	      0.13974280
      3.30000000	      0.21560713	      0.05945202	      0.13962007
      3.30500000	      0.21454252	      0.05930506	      0.13890564
      3.31000000	      0.21414052	      0.05924947	      0.13849468
      3.31500000	      0.21381824	      0.05920487	      0.13809180
      3.32000000	      0.21312510	      0.05910883	      0.13777398
      3.32500000	      0.21304875	      0.05909824	      0.13781530
      3.33000000	      0.21149974	      0.05888301	      0.13731479
      3.33500000	      0.21048945	      0.05874221	      0.13693071
      3.34000000	      0.20917623	      0.05855868	      0.13698943
      3.34500000	      0.20693146	      0.05824362	      0.13719626
      3.35000000	      0.20668805	      0.05820935	      0.13661158
      3.35500000	      0.20494733	      0.05796371	      0.13617310
      3.36000000	      0.20583129	      0.05808858	      0.13597525
      3.36500000	      0.20408384	      0.05784148	      0.13571489
      3.37000000	      0.20218375	      0.05757159	      0.13529266
      3.37500000	      0.19994923	      0.05725256	      0.13505046
      3.38000000	      0.20075151	      0.05736731	      0.13502561
      3.38500000	      0.19891170	      0.05710383	      0.13480441
      3.39000000	      0.19712393	      0.05684663	      0.13464939
      3.39500000	      0.19696735	      0.05682405	      0.13497985
      3.40000000	      0.19557815	      0.05662331	      0.13412956
      3.40500000	      0.19425292	      0.05643114	      0.13406321
      3.41000000	      0.19313155	      0.05626803	      0.13368436
      3.41500000	      0.19302090	      0.05625191	      0.13354608
      3.42000000	      0.19147175	      0.05602572	      0.13321551
      3.42500000	      0.19018562	      0.05583724	      0.13270943
      3.43000000	      0.18893709	      0.05565366	      0.13214851
      3.43500000	      0.18751516	      0.05544384	      0.13200356
      3.44000000	      0.18683638	      0.05534340	      0.13164471
      3.44500000	      0.18655590	      0.05530184	      0.13146049
      3.45000000	      0.18532224	      0.05511869	      0.13122456
      3.45500000	      0.18418370	      0.05494911	      0.13106660
      3.46000000	      0.18362314	      0.05486543	      0.13077117
      3.46500000	      0.18244301	      0.05468884	      0.13033923
      3.47000000	      0.18164343	      0.05456887	      0.12996388
      3.47500000	      0.18128891	      0.05451559	      0.12982489
      3.48000000	      0.18075691	      0.05443554	      0.12957469
      3.48500000	      0.18007191	      0.05433230	      0.12949514
      3.49000000	      0.17827437	      0.05406043	      0.12917950
      3.49500000	      0.17735066	      0.05392020	      0.12908611
      3.50000000	      0.17623192	      0.05374986	      0.12880051
      3.50500000	      0.17468179	      0.05351295	      0.12854971
      3.51000000	      0.17365669	      0.05335570	      0.12854725
      3.51500000	      0.17267481	      0.05320465	      0.12788602
      3.52000000	      0.17168527	      0.05305198	      0.12747446
      3.52500000	      0.16995292	      0.05278365	      0.12708244
      3.53000000	      0.16870749	      0.05258989	      0.12665595
      3.53500000	      0.16745479	      0.05239428	      0.12631601
      3.54000000	      0.16594285	      0.05215721	      0.12592113
      3.54500000	      0.16057704	      0.05130702	      0.12382549
      3.55000000	      0.15889244	      0.05103718	      0.12342234
      3.55500000	      0.15796857	      0.05088859	      0.12339376
      3.56000000	      0.15679568	      0.05069932	      0.12314760
      3.56500000	      0.15479653	      0.05037507	      0.12238717
      3.57000000	      0.15319536	      0.05011386	      0.12189442
      3.57500000	      0.15172747	      0.04987320	      0.12148506
      3.58000000	      0.15045211	      0.04966315	      0.12112995
      3.58500000	      0.14872430	      0.04937715	      0.12062970
      3.59000000	      0.14715939	      0.04911669	      0.12010459
      3.59500000	      0.14582688	      0.04889381	      0.11961979
      3.60000000	      0.14452941	      0.04867581	      0.11955132
      3.60500000	      0.14329757	      0.04846793	      0.11903149
      3.61000000	      0.14148692	      0.04816075	      0.11854848
      3.61500000	      0.14044058	      0.04798234	      0.11842191
      3.62000000	      0.13906326	      0.04774647	      0.11783319
      3.62500000	      0.13746032	      0.04747049	      0.11740000
      3.63000000	      0.13607478	      0.04723065	      0.11684862
      3.63500000	      0.13473311	      0.04699723	      0.11668285
      3.64000000	      0.13347823	      0.04677785	      0.11635567
      3.64500000	      0.13236672	      0.04658268	      0.11589467
      3.65000000	      0.13055211	      0.04626228	      0.11554505
      3.65500000	      0.12938731	      0.04605544	      0.11518122
      3.66000000	      0.12795515	      0.04579984	      0.11430283
      3.66500000	      0.12682199	      0.04559659	      0.11431200
      3.67000000	      0.12539926	      0.04534011	      0.11366149
      3.67500000	      0.12419809	      0.04512244	      0.11338193
      3.68000000	      0.12247121	      0.04480764	      0.11261699
      3.68500000	      0.12096846	      0.04453189	      0.11204169
      3.69000000	      0.11963538	      0.04428584	      0.11149527
      3.69500000	      0.11804665	      0.04399081	      0.11062217
      3.70000000	      0.11636557	      0.04367645	      0.11028337
      3.70500000	      0.11492342	      0.04340496	      0.10953931
      3.71000000	      0.11391341	      0.04321381	      0.10897717
      3.71500000	      0.11293672	      0.04302815	      0.10840715
      3.72000000	      0.11133138	      0.04272124	      0.10751913
      3.72500000	      0.11028726	      0.04252044	      0.10688153
      3.73000000	      0.10905238	      0.04228172	      0.10609668
      3.73500000	      0.10747535	      0.04197489	      0.10565168
      3.74000000	      0.10625333	      0.04173557	      0.10536739
      3.74500000	      0.10527577	      0.04154314	      0.10463091
      3.75000000	      0.10439566	      0.04136912	      0.10444611
      3.75500000	      0.10291388	      0.04107448	      0.10311889
      3.76000000	      0.10156378	      0.04080417	      0.10313314
      3.76500000	      0.10111444	      0.04071380	      0.10278903
      3.77000000	      0.09954137	      0.04039586	      0.10183077
      3.77500000	      0.09859720	      0.04020383	      0.10127973
      3.78000000	      0.09759735	      0.03999946	      0.10143375
      3.78500000	      0.09609099	      0.03968957	      0.10022214
      3.79000000	      0.09533973	      0.03953412	      0.09977439
      3.79500000	      0.09411089	      0.03927851	      0.09921453
      3.80000000	      0.09308581	      0.03906401	      0.09914498
      3.80500000	      0.09200858	      0.03883732	      0.09840217
      3.81000000	      0.09058537	      0.03853578	      0.09765051
      3.81500000	      0.08969669	      0.03834629	      0.09758693
      3.82000000	      0.08849216	      0.03808794	      0.09685806
      3.82500000	      0.08715916	      0.03779998	      0.09647704
      3.83000000	      0.08621240	      0.03759412	      0.09573304
      3.83500000	      0.08467261	      0.03725689	      0.09519621
      3.84000000	      0.08372396	      0.03704759	      0.09439347
      3.84500000	      0.08227051	      0.03672461	      0.09378329
      3.85000000	      0.08111419	      0.03646561	      0.09310251
      3.85500000	      0.07984269	      0.03617868	      0.09270586
      3.86000000	      0.07848635	      0.03587006	      0.09170088
      3.86500000	      0.07753962	      0.03565307	      0.09121445
      3.87000000	      0.07628435	      0.03536330	      0.09128942
      3.87500000	      0.07497439	      0.03505836	      0.09124279
      3.88000000	      0.07376110	      0.03477353	      0.09112160
      3.88500000	      0.07264305	      0.03450898	      0.09099426
      3.89000000	      0.07145038	      0.03422452	      0.09113270
      3.89500000	      0.07041590	      0.03397586	      0.09086273
      3.90000000	      0.06915401	      0.03367005	      0.09084443
      3.90500000	      0.06817553	      0.03343100	      0.09069702
      3.91000000	      0.06671108	      0.03306999	      0.08996071
      3.91500000	      0.06603060	      0.03290089	      0.09082571
      3.92000000	      0.06464764	      0.03255453	      0.09034494
      3.92500000	      0.06349375	      0.03226269	      0.09032610
      3.93000000	      0.06253395	      0.03201791	      0.09029441
      3.93500000	      0.06139536	      0.03172509	      0.09011961
      3.94000000	      0.06035569	      0.03145533	      0.09025295
      3.94500000	      0.05895083	      0.03108709	      0.08936214
      3.95000000	      0.05790226	      0.03080937	      0.09000829
      3.95500000	      0.05688178	      0.03053667	      0.08990413
      3.96000000	      0.05566339	      0.03020786	      0.08962723
      3.96500000	      0.05475059	      0.02995915	      0.08980235
      3.97000000	      0.05366353	      0.02966024	      0.08903482
      3.97500000	      0.05260168	      0.02936533	      0.08964378
      3.98000000	      0.05141989	      0.02903358	      0.08960250
      3.98500000	      0.05063527	      0.02881122	      0.08937983
      3.99000000	      0.04953669	      0.02849696	      0.08944615
      3.99500000	      0.04823465	      0.02811996	      0.08931680
      4.00000000	      0.04723683	      0.02782758	      0.08920287
      4.00500000	      0.04633288	      0.02756003	      0.08908449
      4.01000000	      0.04529093	      0.02724838	      0.08881569
      4.01500000	      0.04427889	      0.02694222	      0.08854315
      4.02000000	      0.04328829	      0.02663915	      0.08861013
      4.02500000	      0.04245810	      0.02638247	      0.08849701
      4.03000000	      0.04146097	      0.02607083	      0.08814340
      4.03500000	      0.04071962	      0.02583669	      0.08793233
      4.04000000	      0.03985351	      0.02556044	      0.08696272
      4.04500000	      0.03977077	      0.02553389	      0.08703769
      4.05000000	      0.03899825	      0.02528469	      0.08632498
      4.05500000	      0.03832810	      0.02506650	      0.08553528
      4.06000000	      0.03763581	      0.02483909	      0.08483489
      4.06500000	      0.03690729	      0.02459751	      0.08418679
      4.07000000	      0.03610017	      0.02432706	      0.08240728
      4.07500000	      0.03576296	      0.02421318	      0.08230348
      4.08000000	      0.03521095	      0.02402559	      0.08122167
      4.08500000	      0.03478411	      0.02387952	      0.08028585
      4.09000000	      0.03435474	      0.02373167	      0.07956956
      4.09500000	      0.03379111	      0.02353620	      0.07803717
      4.10000000	      0.03369881	      0.02350403	      0.07782408
      4.10500000	      0.03347311	      0.02342519	      0.07688550
      4.11000000	      0.03314186	      0.02330899	      0.07603947
      4.11500000	      0.03303994	      0.02327313	      0.07528095
      4.12000000	      0.03275142	      0.02317129	      0.07457367
      4.12500000	      0.03261491	      0.02312295	      0.07390112
      4.13000000	      0.03262611	      0.02312692	      0.07300685
      4.13500000	      0.03252214	      0.02309004	      0.07239495
      4.14000000	      0.03236085	      0.02303271	      0.07184137
      4.14500000	      0.03251040	      0.02308587	      0.07118487
      4.15000000	      0.03213933	      0.02295374	      0.07058387
      4.15500000	      0.03194595	      0.02288458	      0.06919380
      4.16000000	      0.03186413	      0.02285526	      0.06929158
      4.16500000	      0.03165709	      0.02278088	      0.06838584
      4.17000000	      0.03162356	      0.02276882	      0.06777270
      4.17500000	      0.03156898	      0.02274916	      0.06727636
      4.18000000	      0.03138945	      0.02268438	      0.06671935
      4.18500000	      0.03132952	      0.02266271	      0.06607877
      4.19000000	      0.03127417	      0.02264269	      0.06538734
      4.19500000	      0.03124750	      0.02263303	      0.06490645
      4.20000000	      0.03109516	      0.02257779	      0.06450412
      4.20500000	      0.03111378	      0.02258455	      0.06360243
      4.21000000	      0.03117211	      0.02260571	      0.06378358
      4.21500000	      0.03100584	      0.02254534	      0.06307455
      4.22000000	      0.03102852	      0.02255359	      0.06266421
      4.22500000	      0.03109603	      0.02257811	      0.06235790
      4.23000000	      0.03106991	      0.02256862	      0.06206944
      4.23500000	      0.03099002	      0.02253959	      0.06170376
      4.24000000	      0.03111563	      0.02258522	      0.06145209
      4.24500000	      0.03112265	      0.02258777	      0.06123249
      4.25000000	      0.03124009	      0.02263035	      0.06105495
      4.25500000	      0.03129879	      0.02265160	      0.06088905
      4.26000000	      0.03132224	      0.02266008	      0.06071006
      4.26500000	      0.03133326	      0.02266407	      0.06059276
      4.27000000	      0.03133977	      0.02266642	      0.06034456
      4.27500000	      0.03134413	      0.02266800	      0.06016252
      4.28000000	      0.03147014	      0.02271352	      0.06017425
      4.28500000	      0.03158307	      0.02275424	      0.06014013
      4.29000000	      0.03155488	      0.02274408	      0.06006501
      4.29500000	      0.03158202	      0.02275386	      0.05993096
      4.30000000	      0.03153226	      0.02273592	      0.05971820
      4.30500000	      0.03152790	      0.02273435	      0.05962891
      4.31000000	      0.03157900	      0.02275277	      0.05940148
      4.31500000	      0.03164148	      0.02277527	      0.05931639
      4.32000000	      0.03172658	      0.02280587	      0.05920540
      4.32500000	      0.03178219	      0.02282585	      0.05896085
      4.33000000	      0.03178821	      0.02282802	      0.05888987
      4.33500000	      0.03176634	      0.02282016	      0.05874031
      4.34000000	      0.03174986	      0.02281424	      0.05876777
      4.34500000	      0.03175499	      0.02281608	      0.05862760
      4.35000000	      0.03171390	      0.02280132	      0.05824185
      4.35500000	      0.03184011	      0.02284664	      0.05811368
      4.36000000	      0.03184415	      0.02284809	      0.05780604
      4.36500000	      0.03191892	      0.02287490	      0.05751988
      4.37000000	      0.03195645	      0.02288834	      0.05743435
      4.37500000	      0.03203030	      0.02291478	      0.05725731
      4.38000000	      0.03195279	      0.02288703	      0.05720338
      4.38500000	      0.03199963	      0.02290380	      0.05723477
      4.39000000	      0.03219517	      0.02297367	      0.05715053
      4.39500000	      0.03203382	      0.02291603	      0.05711771
      4.40000000	      0.03211532	      0.02294517	      0.05714983
