Inverse Dynamics Generalized Forces
version=1
nRows=136
nColumns=40
inDegrees=no
endheader
time	pelvis_tilt_moment	pelvis_list_moment	pelvis_rotation_moment	pelvis_tx_force	pelvis_ty_force	pelvis_tz_force	hip_flexion_r_moment	hip_adduction_r_moment	hip_rotation_r_moment	hip_flexion_l_moment	hip_adduction_l_moment	hip_rotation_l_moment	lumbar_extension_moment	lumbar_bending_moment	lumbar_rotation_moment	knee_angle_r_moment	knee_angle_r_beta_force	knee_angle_l_moment	knee_angle_l_beta_force	arm_flex_r_moment	arm_add_r_moment	arm_rot_r_moment	arm_flex_l_moment	arm_add_l_moment	arm_rot_l_moment	ankle_angle_r_moment	ankle_angle_l_moment	elbow_flex_r_moment	elbow_flex_l_moment	subtalar_angle_r_moment	subtalar_angle_l_moment	pro_sup_r_moment	pro_sup_l_moment	mtp_angle_r_moment	mtp_angle_l_moment	wrist_flex_r_moment	wrist_dev_r_moment	wrist_flex_l_moment	wrist_dev_l_moment
      5.40500000	  21976.25896735	-754141.31254917	-335868.81168789	     16.06928380	    768.30386306	    885.92329760	  25910.85370049	-152915.73107590	 763100.61691416	     31.62926085	     -8.37000519	      1.00575675	     93.56626976	    -13.91857322	      0.90820965	-280398.99953127	     -0.02965922	      5.43298695	     -0.02907902	     -6.22818581	     -0.91459784	      3.15830068	     -6.93620860	     -0.66021784	      3.29780210	 223323.29560614	      1.13898852	      0.72039831	      0.66496163	-469816.15375399	     -0.25680253	      0.07526374	      0.07516108	     -0.04238793	     -0.04282319	      0.31160311	      0.01130134	      0.31798273	      0.01611438
      5.41000000	  21335.60461253	-758213.73256612	-336964.04451159	     14.02890859	    778.86668023	    890.84202589	  24993.31309326	-153492.67829197	 767255.92582740	     31.62994300	     -8.19355101	      1.00049016	     95.65351527	    -14.44545635	      0.86893585	-280878.06553125	     -0.02965225	      5.45495779	     -0.02911829	     -6.30463121	     -0.97899800	      3.19342622	     -7.06858806	     -0.67280643	      3.36253394	 223290.83931257	      1.13717940	      0.73746228	      0.70077694	-471461.38189168	     -0.25490047	      0.07683833	      0.07593874	     -0.04259688	     -0.04280202	      0.31617260	      0.01091575	      0.32453919	      0.01336055
      5.41500000	  20824.71105646	-759099.24967677	-336228.36575702	     12.48117829	    790.00825684	    891.81688942	  24122.59933878	-153015.40721272	 768058.84903770	     31.63633621	     -8.01272924	      0.99398394	     97.78673283	    -14.95621307	      0.83436806	-280339.13190569	     -0.02964698	      5.47524061	     -0.02915850	     -6.38100873	     -1.04190113	      3.22824759	     -7.19902650	     -0.68636532	      3.42584071	 222415.01589957	      1.13544640	      0.75405563	      0.73682377	-470737.16297480	     -0.25293556	      0.07839537	      0.07670054	     -0.04280266	     -0.04278662	      0.32063896	      0.01054602	      0.33093384	      0.01056189
      5.42000000	  20067.15114413	-758492.89606971	-334622.25838987	     10.94839073	    801.04587552	    891.39448306	  22957.37902902	-152030.68852122	 767375.51602328	     31.65189105	     -7.82555627	      0.98570912	     99.95943468	    -15.44266373	      0.80779306	-279018.89183775	     -0.02964482	      5.49262389	     -0.02919919	     -6.45608303	     -1.10177243	      3.26179162	     -7.32486885	     -0.70063966	      3.48588384	 220825.07243992	      1.13382713	      0.76962862	      0.77276414	-468821.86368599	     -0.25090181	      0.07988821	      0.07740976	     -0.04299950	     -0.04277977	      0.32482097	      0.01021028	      0.33693821	      0.00770951
      5.42500000	  18627.74678306	-758444.80935968	-333350.31743122	      8.87661853	    811.35382848	    892.37960342	  21111.06309887	-151247.70225226	 767462.99801859	     31.67975927	     -7.63117509	      0.97536366	    102.16925857	    -15.89705919	      0.79169045	-277225.45740289	     -0.02964689	      5.50605091	     -0.02923982	     -6.52881880	     -1.15723653	      3.29326753	     -7.44371836	     -0.71549808	      3.54100584	 218706.95409684	      1.13235318	      0.78372289	      0.80830591	-467188.53415331	     -0.24879975	      0.08128175	      0.07803397	     -0.04318200	     -0.04278373	      0.32857103	      0.00992453	      0.34234910	      0.00479715
      5.43000000	  16551.84448896	-758259.30704797	-332347.99149587	      6.51523672	    821.30537143	    893.36978076	  18663.65610289	-150764.03326714	 767643.66778419	     31.72244450	     -7.43019160	      0.96295821	    104.41912236	    -16.31195988	      0.78774291	-274783.48635236	     -0.02965384	      5.51472536	     -0.02927983	     -6.59847326	     -1.20708543	      3.32214724	     -7.55354563	     -0.73097769	      3.58980557	 215979.79497966	      1.13105771	      0.79598075	      0.84319891	-465652.16164559	     -0.24663648	      0.08255550	      0.07854728	     -0.04334527	     -0.04280111	      0.33178718	      0.00970405	      0.34699780	      0.00182439
      5.43500000	  14016.17109681	-757012.00789725	-331361.86449044	      4.30418318	    831.37963377	    892.60489818	  15814.96531861	-150544.13131338	 766956.21526779	     31.78152228	     -7.22486315	      0.94887710	    106.71744200	    -16.68004489	      0.79706557	-271558.63702285	     -0.02966578	      5.51819492	     -0.02931859	     -6.66464115	     -1.25027467	      3.34821576	     -7.65276936	     -0.74731365	      3.63119957	 212611.16923201	      1.12998200	      0.80617864	      0.87724233	-463825.59694374	     -0.24442471	      0.08370505	      0.07893205	     -0.04348467	     -0.04283582	      0.33442189	      0.00956099	      0.35075843	     -0.00120220
      5.44000000	  11264.59328046	-755619.77612222	-330598.06237833	      2.66337678	    841.42264031	    891.15483061	  12783.40019945	-150583.04811926	 766235.00486267	     31.85766434	     -7.01896701	      0.93384619	    109.07711864	    -16.99414934	      0.82031328	-268075.48558152	     -0.02968237	      5.51635543	     -0.02935566	     -6.72724434	     -1.28594616	      3.37156430	     -7.74029962	     -0.76496512	      3.66446019	 209027.46522936	      1.12916618	      0.81428509	      0.91031641	-462113.68063869	     -0.24217871	      0.08474076	      0.07917963	     -0.04359501	     -0.04289200	      0.33648370	      0.00949676	      0.35355442	     -0.00427258
      5.44500000	   8540.55041528	-755167.03151681	-330249.84189727	      1.93863967	    851.23319114	    890.43832560	   9772.31802410	-150830.38435459	 766469.80487662	     31.95076043	     -6.81658342	      0.91857379	    111.51214933	    -17.24920443	      0.85714945	-264905.60068749	     -0.02970326	      5.50936427	     -0.02939097	     -6.78650041	     -1.31350567	      3.39252768	     -7.81548092	     -0.78458827	      3.68919036	 205674.88890587	      1.12862509	      0.82050098	      0.94237871	-460939.57528975	     -0.23990584	      0.08568232	      0.07928938	     -0.04367125	     -0.04297128	      0.33802778	      0.00949493	      0.35535633	     -0.00737764
      5.45000000	   6000.28466015	-755547.64624935	-330019.66585349	      2.24135800	    861.01522352	    890.45546165	   6897.95036553	-151032.86657255	 767466.26830933	     32.05964805	     -6.61967854	      0.90308369	    114.03228194	    -17.44643824	      0.90510618	-262133.60876777	     -0.02972888	      5.49755707	     -0.02942502	     -6.84286180	     -1.33273292	      3.41158353	     -7.87790773	     -0.80692578	      3.70522989	 202609.83426640	      1.12832561	      0.82526504	      0.97339734	-460018.82007122	     -0.23759611	      0.08655073	      0.07926619	     -0.04371271	     -0.04307014	      0.33913892	      0.00951713	      0.35617031	     -0.01051189
      5.45500000	   3653.51086726	-756453.63140957	-329596.64922490	      3.38246637	    870.95729428	    891.04111098	   4139.26844075	-150974.43342104	 768875.41289809	     32.18165146	     -6.42676511	      0.88642946	    116.63998529	    -17.59533312	      0.95894983	-259642.53663397	     -0.02976074	      5.48143203	     -0.02945880	     -6.89691218	     -1.34381316	      3.42924553	     -7.92732883	     -0.83269895	      3.71260072	 199712.73092092	      1.12818837	      0.82922372	      1.00330402	-458996.44549389	     -0.23522174	      0.08736234	      0.07911820	     -0.04372596	     -0.04318008	      0.33991459	      0.00950219	      0.35602954	     -0.01367414
      5.46000000	   1008.37931898	-757965.56598163	-329122.53641711	      4.56588794	    880.87507262	    892.63725446	   1013.22996715	-150801.77937820	 770922.36900652	     32.31262444	     -6.23438352	      0.86721578	    119.33245588	    -17.71016778	      1.01132971	-256991.70809817	     -0.02980085	      5.46162884	     -0.02949347	     -6.94928240	     -1.34722242	      3.44600484	     -7.96381247	     -0.86256983	      3.71156770	 196543.96229441	      1.12811825	      0.83316468	      1.03202297	-457949.50754033	     -0.23275270	      0.08812825	      0.07885625	     -0.04372233	     -0.04329100	      0.34045481	      0.00937074	      0.35499569	     -0.01686483
      5.46500000	  -2375.91513233	-760350.72199036	-328917.62252827	      5.01361241	    890.53840126	    895.71753833	  -2896.22241165	-150795.13542813	 774024.21518995	     32.44748271	     -6.03952215	      0.84433016	    122.10510303	    -17.80511532	      1.05394347	-253862.00296054	     -0.02985083	      5.43884402	     -0.02952990	     -7.00063665	     -1.34357276	      3.46233628	     -7.98796799	     -0.89712513	      3.70272475	 192788.66800168	      1.12803712	      0.83794345	      1.05951276	-457174.40916104	     -0.23017628	      0.08885666	      0.07849440	     -0.04371362	     -0.04339468	      0.34085991	      0.00903375	      0.35316243	     -0.02008040
      5.47000000	  -6240.67065097	-764231.61080132	-329564.33125380	      4.64764821	    899.90074600	    900.29698089	  -7281.48687409	-151402.42852514	 778795.37642740	     32.58073375	     -5.84082548	      0.81728951	    124.95269151	    -17.89211439	      1.07824559	-250739.57626257	     -0.02991132	      5.41373632	     -0.02956848	     -7.05168494	     -1.33354275	      3.47871811	     -8.00099734	     -0.93685251	      3.68700673	 188946.27777526	      1.12789922	      0.84443273	      1.08576651	-457413.39318498	     -0.22750969	      0.08955427	      0.07805001	     -0.04371050	     -0.04348621	      0.34123046	      0.00840007	      0.35065343	     -0.02330883
      5.47500000	 -10215.80607561	-770287.10931599	-331580.90933946	      3.56042773	    908.92672531	    906.53487328	 -11736.22860605	-152998.65365128	 785863.42304114	     32.70696688	     -5.63896982	      0.78631037	    127.86887270	    -17.98080549	      1.07567527	-248225.14740327	     -0.02998181	      5.38686298	     -0.02960914	     -7.10316203	     -1.31789201	      3.49561307	     -8.00461862	     -0.98213275	      3.66564370	 185613.71081768	      1.12769602	      0.85348206	      1.11079512	-459373.42554924	     -0.22480811	      0.09022613	      0.07754308	     -0.04372242	     -0.04356387	      0.34166259	      0.00738179	      0.34761680	     -0.02652813
      5.48000000	 -14157.20261057	-779031.85637478	-334943.38388475	      1.75982326	    917.43045410	    915.65610675	 -16155.40008906	-155475.17503656	 795667.63602111	     32.82160522	     -5.43706574	      0.75231435	    130.84566424	    -18.07885269	      1.03778335	-246594.63270260	     -0.03006062	      5.35860678	     -0.02965144	     -7.15577498	     -1.29750710	      3.51341491	     -8.00095884	     -1.03325154	      3.64009354	 182990.40605724	      1.12744867	      0.86587509	      1.13462454	-463150.70003937	     -0.22216754	      0.09087514	      0.07699519	     -0.04375643	     -0.04362775	      0.34223884	      0.00589945	      0.34421812	     -0.02970750
      5.48500000	 -18012.85290172	-790590.70499078	-339362.42674741	     -0.73266462	    925.34634027	    928.51530017	 -20539.78400231	-158555.28773151	 808259.63260561	     32.92178055	     -5.24101416	      0.71688287	    133.87299302	    -18.19223323	      0.95654913	-245891.47706143	     -0.03014494	      5.32910592	     -0.02969475	     -7.21016734	     -1.27344016	      3.53241027	     -7.99243601	     -1.09042364	      3.61195366	 181055.84437410	      1.12718177	      0.88229680	      1.15730227	-468492.74765448	     -0.21971784	      0.09150182	      0.07642807	     -0.04381393	     -0.04367693	      0.34302106	      0.00388725	      0.34063047	     -0.03280989
      5.49000000	 -21918.10485145	-803700.45638275	-344054.85973272	     -3.96971577	    933.17623685	    943.46011655	 -25056.03592172	-161786.12481818	 822347.15729813	     33.00658189	     -5.05932234	      0.68217661	    136.93850599	    -18.32519598	      0.82502851	-245524.33926042	     -0.03023090	      5.29829656	     -0.02973839	     -7.26693534	     -1.24692017	      3.55279724	     -7.98164021	     -1.15381009	      3.58286556	 179279.79553059	      1.12690150	      0.90331268	      1.17888650	-474386.36315579	     -0.21760827	      0.09210467	      0.07586215	     -0.04388868	     -0.04370757	      0.34405136	      0.00129732	      0.33702256	     -0.03579370
      5.49500000	 -25978.63579905	-816895.91351729	-348302.40503824	     -7.92539812	    941.33869808	    958.40059935	 -29810.73243555	-164812.26419164	 836451.90750906	     33.07646460	     -4.90219743	      0.65083216	    140.02797258	    -18.47967363	      0.63825890	-244882.60213843	     -0.03031360	      5.26606825	     -0.02978189	     -7.32666766	     -1.21934661	      3.57473694	     -7.97123591	     -1.22349126	      3.55444127	 177155.59415863	      1.12660145	      0.92934375	      1.19940553	-479854.72816159	     -0.21599410	      0.09268030	      0.07531604	     -0.04396843	     -0.04371415	      0.34535811	     -0.00189679	      0.33354890	     -0.03861100
      5.50000000	 -29963.88884073	-829264.98756434	-352135.85517865	    -12.35521790	    949.31931021	    972.05979788	 -34488.21950188	-167873.25249272	 849656.58351173	     33.13267467	     -4.78044296	      0.62578440	    143.12604618	    -18.65452799	      0.39416425	-243919.95835768	     -0.03038725	      5.23236848	     -0.02982500	     -7.38995179	     -1.19227309	      3.59838036	     -7.96389527	     -1.29939043	      3.52821994	 174789.62935123	      1.12627956	      0.96063558	      1.21881759	-484822.04144385	     -0.21502663	      0.09322314	      0.07480696	     -0.04403823	     -0.04369159	      0.34695891	     -0.00569748	      0.33034368	     -0.04120468
      5.50500000	 -33614.84019811	-840167.58391163	-355657.92722578	    -16.89820007	    956.65702391	    983.63978119	 -38749.47895060	-171212.16490772	 861304.30147436	     33.17720049	     -4.70467998	      0.60999815	    146.21741477	    -18.84517855	      0.09417101	-242706.15788522	     -0.03044546	      5.19719413	     -0.02986765	     -7.45732332	     -1.16736749	      3.62385732	     -7.96224832	     -1.38120463	      3.50564951	 172374.70618131	      1.12594213	      0.99723405	      1.23700389	-489335.09791842	     -0.21484213	      0.09372573	      0.07435197	     -0.04408227	     -0.04363614	      0.34886026	     -0.01008157	      0.32752022	     -0.04350805
      5.51000000	 -36912.99902907	-849556.85480562	-358442.16546795	    -21.02076791	    964.03648134	    993.45837676	 -42621.25773964	-174428.78525999	 871275.57017991	     33.21277828	     -4.68478587	      0.60619126	    149.28889537	    -19.04351329	     -0.25653816	-241199.81110891	     -0.03048189	      5.16058356	     -0.02990976	     -7.52916418	     -1.14636238	      3.65125017	     -7.96884783	     -1.46840747	      3.48810535	 169807.32708755	      1.12559920	      1.03896214	      1.25379366	-492968.30085760	     -0.21554766	      0.09418189	      0.07397080	     -0.04408416	     -0.04354567	      0.35105859	     -0.01499877	      0.32517938	     -0.04544626
      5.51500000	 -39965.21023181	-857880.03437477	-360279.00264703	    -24.32852960	    972.17284271	   1002.24610047	 -46258.70041089	-177232.66203339	 879988.24847421	     33.24259937	     -4.72906170	      0.61652986	    152.33192315	    -19.23801970	     -0.64907896	-239403.14581425	     -0.03049103	      5.12264932	     -0.02995095	     -7.60558165	     -1.13104080	      3.68057035	     -7.98613115	     -1.56030044	      3.47693327	 166984.93315260	      1.12526217	      1.08538479	      1.26900562	-495572.40862921	     -0.21720136	      0.09459189	      0.07368969	     -0.04402757	     -0.04342056	      0.35354426	     -0.02036810	      0.32342454	     -0.04693908
      5.52000000	 -43142.79976849	-866959.42120733	-362405.80635172	    -27.23932349	    980.72979931	   1011.27615205	 -49962.40442451	-180479.03995805	 889456.66566822	     33.26981318	     -4.84218107	      0.64198839	    155.34252859	    -19.41598570	     -1.07160774	-237588.76572402	     -0.03046956	      5.08357004	     -0.02999061	     -7.68634306	     -1.12331887	      3.71174690	     -8.01625863	     -1.65599782	      3.47342207	 164097.87496375	      1.12493289	      1.13578980	      1.28248536	-498623.75417311	     -0.21977944	      0.09496569	      0.07354209	     -0.04389868	     -0.04326398	      0.35630517	     -0.02607543	      0.32236871	     -0.04790928
      5.52500000	 -46740.83877685	-878132.05049241	-365839.12983611	    -30.21304295	    989.21084406	   1021.36463709	 -53961.07449085	-184931.48139109	 901171.88070807	     33.29694369	     -5.02205778	      0.68145588	    158.31688378	    -19.56865954	     -1.51097086	-235932.90507396	     -0.03041809	      5.04354211	     -0.03002823	     -7.77094107	     -1.12542858	      3.74463253	     -8.06080343	     -1.75430297	      3.47864784	 161280.48216216	      1.12458107	      1.18922609	      1.29411864	-503312.91560152	     -0.22314301	      0.09531942	      0.07356330	     -0.04369041	     -0.04308003	      0.35932602	     -0.03197775	      0.32212201	     -0.04829890
      5.53000000	 -50463.89428197	-889358.28217370	-369237.47248218	    -32.82954273	    997.59743079	   1030.84392687	 -58011.13105268	-189720.16384415	 912907.27588087	     33.32566129	     -5.25866797	      0.73157132	    161.24653510	    -19.69448548	     -1.95402468	-234011.44850426	     -0.03034173	      5.00276493	     -0.03006398	     -7.85876101	     -1.13999026	      3.77903139	     -8.12059206	     -1.85362786	      3.49332033	 158209.37499362	      1.12414151	      1.24457368	      1.30383005	-508026.67583768	     -0.22704830	      0.09566782	      0.07378235	     -0.04340478	     -0.04287194	      0.36258344	     -0.03791287	      0.32276897	     -0.04808200
      5.53500000	 -53843.46664824	-898562.64612472	-371192.12306361	    -34.53928240	   1005.97379481	   1038.16603011	 -61704.12764410	-193884.50224285	 922357.18230643	     33.35731336	     -5.53665804	      0.78771699	    164.11851173	    -19.79610872	     -2.38737018	-231573.98730056	     -0.03024861	      4.96145468	     -0.03009896	     -7.94922987	     -1.16977983	      3.81473999	     -8.19590252	     -1.95210294	      3.51777360	 154734.47314550	      1.12354833	      1.30059068	      1.31158355	-511115.72261502	     -0.23120487	      0.09601931	      0.07421713	     -0.04305056	     -0.04264271	      0.36604135	     -0.04370753	      0.32435356	     -0.04726192
      5.54000000	 -56353.63729490	-907013.10436615	-372431.50387388	    -34.90640381	   1014.46593953	   1044.62395643	 -64490.28197219	-197901.29181151	 930700.33305190	     33.39373300	     -5.83894889	      0.84516750	    166.91841344	    -19.87536784	     -2.79631901	-229566.27494424	     -0.03014789	      4.91982373	     -0.03013508	     -8.04188077	     -1.21736943	      3.85158064	     -8.28676573	     -2.04780767	      3.55204273	 151747.06389778	      1.12277081	      1.35594779	      1.31737249	-513638.82855975	     -0.23533012	      0.09637510	      0.07487436	     -0.04263936	     -0.04239696	      0.36964966	     -0.04918339	      0.32687653	     -0.04585874
      5.54500000	 -57728.90279316	-916285.73020666	-373902.85183760	    -33.78895252	   1023.13941881	   1051.74636894	 -66074.85145724	-202435.80967174	 939499.96727543	     33.43770593	     -6.14871886	      0.89960696	    169.63248508	    -19.93178494	     -3.16453252	-228776.39885766	     -0.03004890	      4.87801376	     -0.03017477	     -8.13634198	     -1.28490837	      3.88941033	     -8.39306945	     -2.13898592	      3.59590757	 149963.84513499	      1.12181570	      1.40929275	      1.32119141	-516881.72061888	     -0.23917137	      0.09673020	      0.07575172	     -0.04218345	     -0.04214075	      0.37334680	     -0.05416496	      0.33029884	     -0.04389927
      5.55000000	 -58754.79252739	-925795.20792286	-375293.48635199	    -32.19063537	   1031.76101974	   1059.16271154	 -67262.72828960	-207344.01802856	 948338.13165225	     33.49307911	     -6.45035474	      0.94729329	    172.24854980	    -19.96369428	     -3.47453233	-228259.26000927	     -0.02996087	      4.83605976	     -0.03022072	     -8.23225921	     -1.37404377	      3.92808252	     -8.51445857	     -2.22418817	      3.64886769	 148461.97159925	      1.12070718	      1.45934418	      1.32302170	-520312.41425243	     -0.24251287	      0.09707416	      0.07683945	     -0.04169464	     -0.04187967	      0.37706074	     -0.05849138	      0.33454424	     -0.04141494
      5.55500000	 -60276.61828419	-934780.90526036	-376183.73541833	    -31.13134745	   1040.09284475	   1066.31675657	 -68923.63605402	-212393.96110934	 956628.25522664	     33.56451466	     -6.73022660	      0.98522302	    174.75614789	    -19.96921579	     -3.70861419	-226962.26003373	     -0.02989270	      4.79395013	     -0.03027521	     -8.32920277	     -1.48585941	      3.96736526	     -8.65017314	     -2.30231638	      3.71006789	 146218.79330548	      1.11947592	      1.50499113	      1.32286681	-523248.71404366	     -0.24518349	      0.09738878	      0.07811839	     -0.04118391	     -0.04161775	      0.38070257	     -0.06203145	      0.33949550	     -0.03844898
      5.56000000	 -62351.94276655	-943982.40632748	-377001.05612898	    -30.63833433	   1048.14964339	   1073.83257287	 -71110.43470449	-217912.98201282	 965131.97218289	     33.65678632	     -6.97746205	      1.01139046	    177.14618500	    -19.94670802	     -3.84986501	-225080.97022398	     -0.02985246	      4.75174922	     -0.03033946	     -8.42662319	     -1.62075807	      4.00687743	     -8.79894635	     -2.37261372	      3.77824317	 143393.35227454	      1.11817438	      1.54538520	      1.32081409	-526259.12086467	     -0.24707300	      0.09764390	      0.07955665	     -0.04066234	     -0.04135869	      0.38415954	     -0.06469866	      0.34499066	     -0.03506739
      5.56500000	 -64761.93700010	-954136.57503901	-378174.74407638	    -30.37681574	   1056.05877083	   1082.30944512	 -73595.58863646	-224247.85119843	 974535.00478483	     33.77385943	     -7.18473210	      1.02504670	    179.41164544	    -19.89526657	     -3.88320037	-223071.34046123	     -0.02984729	      4.70973261	     -0.03041636	     -8.52383586	     -1.77828662	      4.04608892	     -8.95899236	     -2.43468522	      3.85174712	 140414.07416688	      1.11690704	      1.58001677	      1.31706269	-529971.84547550	     -0.24815264	      0.09779717	      0.08111045	     -0.04014317	     -0.04110856	      0.38729967	     -0.06646226	      0.35083048	     -0.03136268
      5.57000000	 -66943.57910906	-964414.43531735	-379294.01766559	    -29.58660408	   1064.14369312	   1091.13812173	 -75820.91136616	-231170.70106708	 983837.19006874	     33.91826491	     -7.34852155	      1.02664518	    181.54940144	    -19.81513012	     -3.79637283	-221233.96579212	     -0.02988349	      4.66850240	     -0.03050845	     -8.62001456	     -1.95695686	      4.08437123	     -9.12804435	     -2.48853113	      3.92863917	 137660.49807826	      1.11584878	      1.60877348	      1.31191468	-533977.95525880	     -0.24847570	      0.09779857	      0.08272845	     -0.03964292	     -0.04087746	      0.38998735	     -0.06735403	      0.35679405	     -0.02745010
      5.57500000	 -68524.25876096	-973973.73226732	-379834.46445931	    -27.80606447	   1072.60491617	   1099.72559843	 -77434.46938867	-238321.11347316	 992066.35050525	     34.09104352	     -7.46927024	      1.01778564	    183.56175232	    -19.70772759	     -3.58089679	-219683.49854411	     -0.02996679	      4.62900698	     -0.03061848	     -8.71422481	     -2.15411874	      4.12106797	     -9.30341046	     -2.53452298	      4.00676809	 135302.94116499	      1.11524333	      1.63198098	      1.30577905	-537714.18243266	     -0.24817860	      0.09759577	      0.08435464	     -0.03918138	     -0.04067900	      0.39210091	     -0.06747150	      0.36265191	     -0.02346513
      5.58000000	 -70257.43465344	-983555.28988857	-379623.66413897	    -26.14267814	   1080.95019459	   1108.82946419	 -79266.04014371	-245455.26290312	1000088.81669017	     34.29205607	     -7.55119476	      1.00104445	    185.45734806	    -19.57564700	     -3.23297282	-217894.93761927	     -0.03010238	      4.59242420	     -0.03074942	     -8.80549421	     -2.36596036	      4.15556126	     -9.48204512	     -2.57334524	      4.08384081	 132665.18541268	      1.11538476	      1.65040150	      1.29918921	-541028.50203838	     -0.24747510	      0.09713935	      0.08592924	     -0.03878074	     -0.04052848	      0.39354660	     -0.06697467	      0.36817474	     -0.01956289
      5.58500000	 -72964.50460860	-993926.84340363	-378660.95136918	    -25.77583993	   1088.70551064	   1119.06085454	 -82184.35632976	-252516.44207352	1008834.88494488	     34.52025199	     -7.60206705	      0.97981457	    187.25120809	    -19.42286702	     -2.75450700	-215292.13531551	     -0.03029466	      4.55997400	     -0.03090412	     -8.89288804	     -2.58769522	      4.18731896	     -9.66065913	     -2.60592579	      4.15750762	 129044.84264128	      1.11659832	      1.66517806	      1.29280513	-543937.86164890	     -0.24665510	      0.09638812	      0.08738962	     -0.03846486	     -0.04044143	      0.39426796	     -0.06607480	      0.37314174	     -0.01591503
      5.59000000	 -76621.93965749	-1004351.02092416	-377403.16342352	    -26.56499491	   1096.13377898	   1129.12849027	 -86051.69322505	-260094.15713450	1017619.11343047	     34.77370077	     -7.63307809	      0.95822261	    188.96285829	    -19.25510173	     -2.15409079	-211752.03055890	     -0.03054582	      4.53271907	     -0.03108465	     -8.97558186	     -2.81390380	      4.21591543	     -9.83588290	     -2.63330473	      4.22546587	 124510.70238233	      1.11922273	      1.67775677	      1.28741995	-546804.00275782	     -0.24608697	      0.09531226	      0.08866985	     -0.03825825	     -0.04043264	      0.39424880	     -0.06501971	      0.37734807	     -0.01270711
      5.59500000	 -80857.86179320	-1013929.27115863	-376175.87616092	    -27.95975479	   1103.53198921	   1137.77270370	 -90393.54655861	-268635.32132929	1025489.75769684	     35.04921528	     -7.65871806	      0.94113969	    190.61259107	    -19.07981896	     -1.44764593	-207440.33360210	     -0.03085288	      4.51143845	     -0.03129176	     -9.05294673	     -3.03895493	      4.24102787	    -10.00446567	     -2.65644614	      4.28555161	 119429.32552133	      1.12358710	      1.68981046	      1.28399441	-549885.29428944	     -0.24621326	      0.09389274	      0.08969696	     -0.03818416	     -0.04051540	      0.39350845	     -0.06408017	      0.38060714	     -0.01014121
      5.60000000	 -84707.34626536	-1022618.90932452	-374169.27649898	    -29.10398923	   1110.59946905	   1145.77099022	 -94337.98850578	-277335.63717795	1032099.55061219	     35.34166478	     -7.69627482	      0.93414159	    192.21725603	    -18.90587027	     -0.65857082	-203255.13132773	     -0.03121540	      4.49663628	     -0.03152462	     -9.12466637	     -3.25744290	      4.26243086	    -10.16348526	     -2.67605659	      4.33580854	 114600.56714069	      1.12998239	      1.70315581	      1.28369438	-552585.83671635	     -0.24753197	      0.09211840	      0.09038561	     -0.03826245	     -0.04070029	      0.39209211	     -0.06353755	      0.38274862	     -0.00844144
      5.60500000	 -87403.57347420	-1030823.75037967	-370683.02671433	    -29.42595629	   1116.98201410	   1154.30257815	 -97215.13786192	-285455.32920970	1037620.78418207	     35.64361779	     -7.76489333	      0.94330797	    193.78745769	    -18.74328995	      0.18226728	-200030.47355839	     -0.03162894	      4.48857748	     -0.03178098	     -9.19085453	     -3.46457590	      4.28000947	    -10.31054818	     -2.69243083	      4.37455778	 110706.42852547	      1.13863106	      1.71966208	      1.28789578	-554466.00843920	     -0.25056993	      0.08998453	      0.09063497	     -0.03850866	     -0.04099337	      0.39006348	     -0.06367067	      0.38361780	     -0.00785518
      5.61000000	 -89623.95476310	-1039980.20272115	-366674.30445874	    -29.73727203	   1122.76372969	   1164.14361864	 -99648.39898648	-293853.59242426	1043666.57869536	     35.94577638	     -7.88465640	      0.97490957	    195.32724740	    -18.60355088	      1.03643480	-197553.25699573	     -0.03208597	      4.48721944	     -0.03205706	     -9.25209655	     -3.65652312	      4.29377874	    -10.44399127	     -2.70532871	      4.40050750	 107471.62005331	      1.14965640	      1.74114600	      1.29814219	-556653.07955659	     -0.25585485	      0.08749588	      0.09033090	     -0.03893237	     -0.04139442	      0.38750328	     -0.06473900	      0.38308313	     -0.00864435
      5.61500000	 -92171.69138496	-1050972.81453450	-363024.88536980	    -30.89497976	   1128.12361134	   1175.20508096	-102366.74344986	-303417.03045392	1051305.25014759	     36.23784768	     -8.07560777	      1.03495048	    196.83536166	    -18.49934409	      1.85958170	-195325.40878331	     -0.03257543	      4.49210083	     -0.03234708	     -9.30940447	     -3.83078166	      4.30389190	    -10.56310053	     -2.71392549	      4.41290937	 104405.90208938	      1.16305427	      1.76924213	      1.31606323	-560081.26519910	     -0.26387580	      0.08467025	      0.08935496	     -0.03953487	     -0.04189609	      0.38450857	     -0.06696116	      0.38105423	     -0.01106702
      5.62000000	 -94868.12624864	-1061336.43349476	-358789.01701544	    -32.61072072	   1133.15655486	   1184.35361346	-105164.23862474	-313396.49888418	1058053.59828598	     36.50919728	     -8.35614080	      1.12849041	    198.30631238	    -18.44282347	      2.60753272	-192853.97932150	     -0.03308271	      4.50230655	     -0.03264307	     -9.36414854	     -3.98643688	      4.31064976	    -10.66827651	     -2.71686397	      4.41169414	 101220.79607238	      1.17866991	      1.80529156	      1.34328008	-563371.33658779	     -0.27502513	      0.08153532	      0.08759951	     -0.04030714	     -0.04248427	      0.38118803	     -0.07049787	      0.37750392	     -0.01535742
      5.62500000	 -97454.60947518	-1068983.34230579	-353080.23453966	    -34.50448961	   1137.89643835	   1189.33509284	-107772.49979288	-322950.39070539	1061817.88021797	     36.74915946	     -8.74090009	      1.25891132	    199.73102787	    -18.44298968	      3.24481833	-189841.63310910	     -0.03359009	      4.51649461	     -0.03293474	     -9.41797908	     -4.12403629	      4.31451345	    -10.76104247	     -2.71236174	      4.39751359	  97767.79110658	      1.19618037	      1.85032791	      1.38132102	-565243.45766716	     -0.28954068	      0.07811857	      0.08498349	     -0.04122928	     -0.04313850	      0.37765550	     -0.07545179	      0.37248415	     -0.02171108
      5.63000000	-100340.07248584	-1076804.08164540	-346777.98033178	    -37.10289880	   1142.15075315	   1194.42426026	-110626.82481759	-332805.37635130	1065525.62987886	     36.94716517	     -9.23900581	      1.42742732	    201.09770610	    -18.50393014	      3.74988050	-186680.00438469	     -0.03407744	      4.53295472	     -0.03320976	     -9.47267892	     -4.24507094	      4.31607867	    -10.84390786	     -2.69832656	      4.37170252	  94166.65089579	      1.21508560	      1.90516463	      1.43155809	-567100.37453177	     -0.30747024	      0.07443891	      0.08146265	     -0.04227115	     -0.04383203	      0.37402556	     -0.08188465	      0.36613273	     -0.03027599
      5.63500000	-103942.74030925	-1087890.76641365	-340816.80292667	    -40.91850095	   1145.81934927	   1203.86098873	-114161.84896498	-343913.61405371	1072258.57062516	     37.09279346	     -9.85304029	      1.63291791	    202.39306593	    -18.62464190	      4.11518502	-183781.05470147	     -0.03452272	      4.54973468	     -0.03345445	     -9.52994891	     -4.35136803	      4.31600123	    -10.92021390	     -2.67250128	      4.33623148	  90556.34609500	      1.23471458	      1.97050588	      1.49516241	-570511.81496564	     -0.32865731	      0.07050475	      0.07703328	     -0.04339340	     -0.04453195	      0.37041170	     -0.08983847	      0.35867578	     -0.04114727
      5.64000000	-108074.33172858	-1101086.83725936	-334986.04320541	    -45.53372051	   1149.35422472	   1215.13712646	-118134.79546471	-356202.47062091	1080817.94456365	     37.17604461	    -10.57862310	      1.87189711	    203.60331035	    -18.79967523	      4.34505539	-181027.13330797	     -0.03490241	      4.56483152	     -0.03365474	     -9.59120868	     -4.44460679	      4.31492153	    -10.99403340	     -2.63266038	      4.29368594	  86959.11539003	      1.25425102	      2.04701197	      1.57305838	-575093.43854461	     -0.35273529	      0.06631668	      0.07173364	     -0.04454831	     -0.04520031	      0.36692670	     -0.09934872	      0.35043022	     -0.05436084
      5.64500000	-112400.70235492	-1114183.89189555	-328779.95143785	    -50.29927115	   1153.26512169	   1224.56277290	-122152.36787559	-369198.92240260	1088974.01695250	     37.18771607	    -11.40401424	      2.13838363	    204.71427115	    -19.01945047	      4.45323262	-178178.46621930	     -0.03519228	      4.57641424	     -0.03379733	     -9.65744503	     -4.52598654	      4.31340800	    -11.07005838	     -2.57685711	      4.24723803	  83360.09880700	      1.27277059	      2.13529759	      1.66585244	-579902.17347005	     -0.37911440	      0.06187184	      0.06564506	     -0.04568020	     -0.04579639	      0.36368314	     -0.11044682	      0.34180370	     -0.06988285
      5.65000000	-116562.15508943	-1124885.75809240	-321364.45869938	    -54.59655500	   1157.68653816	   1230.43360082	-125840.22384701	-381950.07564193	1094465.10100914	     37.11922448	    -12.30919823	      2.42355279	    205.71112945	    -19.27007398	      4.46053569	-174997.91216547	     -0.03536884	      4.58302904	     -0.03387069	     -9.72908957	     -4.59604648	      4.31190166	    -11.15340862	     -2.50373958	      4.20055444	  79687.24212061	      1.28926150	      2.23587591	      1.77372458	-583586.85048025	     -0.40694751	      0.05716820	      0.05889158	     -0.04672552	     -0.04627864	      0.36079130	     -0.12315573	      0.33328507	     -0.08759596
      5.65500000	-120282.38729848	-1131992.81302610	-312280.41707833	    -58.00879770	   1162.58238437	   1232.56010971	-128922.28777025	-393792.96195952	1096143.71601384	     36.96190768	    -13.26467246	      2.71527261	    206.57811759	    -19.53324366	      4.39297405	-171462.36239614	     -0.03541153	      4.58374008	     -0.03386574	     -9.80591621	     -4.65462791	      4.31065593	    -11.24940353	     -2.41293680	      4.15762901	  75982.43797877	      1.30261631	      2.34907206	      1.89628850	-585361.48034786	     -0.43508578	      0.05220792	      0.05163686	     -0.04761270	     -0.04660475	      0.35835352	     -0.13748122	      0.32542108	     -0.10728469
      5.66000000	-123687.37821629	-1138988.05480674	-302669.32209372	    -60.86378535	   1167.58103550	   1234.82018232	-131531.17042809	-405996.50627413	1097354.99070442	     36.70651680	    -14.23015512	      2.99757677	    207.29780152	    -19.78655661	      4.28026287	-168363.08205927	     -0.03530530	      4.57825035	     -0.03377627	     -9.88694572	     -4.70097647	      4.30967196	    -11.36332872	     -2.30544140	      4.12257056	  72757.73172062	      1.31162468	      2.47492087	      2.03245569	-587170.34687304	     -0.46204504	      0.04699958	      0.04407858	     -0.04826331	     -0.04673152	      0.35645628	     -0.15340052	      0.31878473	     -0.12862387
      5.66500000	-126897.20109871	-1149025.17848735	-293464.39036772	    -63.50086769	   1172.45953198	   1240.48986143	-133785.01563102	-419846.66599938	1101048.60333291	     36.34336237	    -15.15267530	      3.25004472	    207.84887998	    -20.00529409	      4.15400627	-166395.50763905	     -0.03504387	      4.56695439	     -0.03359946	     -9.97035004	     -4.73403803	      4.30863023	    -11.50010973	     -2.18385952	      4.09935490	  70464.17518593	      1.31498999	      2.61307168	      2.18033944	-590777.94956121	     -0.48599638	      0.04155935	      0.03644146	     -0.04859628	     -0.04661506	      0.35516201	     -0.17085159	      0.31394245	     -0.15117669
      5.67000000	-129591.51456995	-1159078.14010625	-283709.48801500	    -65.48867727	   1177.92208399	   1246.29412296	-135348.13192839	-434194.17633606	1104296.03730306	     35.86321779	    -15.96643414	      3.44823719	    208.20280047	    -20.16718788	      4.04532290	-165111.52812765	     -0.03463239	      4.55072751	     -0.03333676	    -10.05342241	     -4.75295357	      4.30685142	    -11.66388732	     -2.05242218	      4.09154981	  68882.96070341	      1.31137079	      2.76272425	      2.33720018	-594488.64209300	     -0.50484965	      0.03591101	      0.02896913	     -0.04853328	     -0.04620930	      0.35450325	     -0.18972435	      0.31142135	     -0.17440401
      5.67500000	-131424.97087151	-1166138.83091861	-272645.80920453	    -66.40616573	   1184.63609775	   1249.08098799	-135868.74018556	-447859.78580358	1104242.38195646	     35.25864495	    -16.59931123	      3.56677235	    208.32238296	    -20.25764748	      3.98288292	-164112.71056424	     -0.03408654	      4.53057282	     -0.03299479	    -10.13272329	     -4.75757689	      4.30334387	    -11.85771282	     -1.91677120	      4.10208118	  67848.32292265	      1.29945963	      2.92258366	      2.49945705	-596700.46601171	     -0.51649701	      0.03008671	      0.02191501	     -0.04800081	     -0.04546263	      0.35448217	     -0.20984967	      0.31167740	     -0.19768076
      5.68000000	-132404.57241881	-1173600.40430071	-261597.08524493	    -66.37894676	   1192.31502921	   1252.55969484	-135333.97042181	-462590.23022170	1103940.68868632	     34.52507755	    -16.98418309	      3.58374740	    208.16411326	    -20.27065976	      3.99202538	-164284.85516233	     -0.03342846	      4.50752487	     -0.03258612	    -10.20438283	     -4.74882127	      4.29693392	    -12.08345316	     -1.78361299	      4.13307444	  68040.03074273	      1.27809410	      3.09080879	      2.66282525	-599654.66916475	     -0.51910789	      0.02412968	      0.01553190	     -0.04692911	     -0.04431707	      0.35507536	     -0.23098526	      0.31506799	     -0.22031929
      5.68500000	-132547.13932760	-1185127.20748461	-251748.66623607	    -65.66870607	   1200.43576591	   1260.84506082	-133736.25004868	-480326.21315048	1106573.00127613	     33.66174095	    -17.06752957	      3.48358714	    207.68097209	    -20.20602478	      4.09414124	-166563.14916566	     -0.03268388	      4.48280538	     -0.03212969	    -10.26441017	     -4.72885588	      4.28640066	    -12.34166557	     -1.66024562	      4.18570345	  70162.90298102	      1.24636188	      3.26496978	      2.82257904	-605669.78863436	     -0.51131381	      0.01809713	      0.01005968	     -0.04525195	     -0.04271101	      0.35623955	     -0.25280509	      0.32182927	     -0.24160396
      5.69000000	-131543.36006439	-1198843.58393548	-242264.92833895	    -64.55561743	   1208.47132153	   1272.96336641	-130792.12237159	-500132.44138319	1110285.99487094	     32.67345591	    -16.81286282	      3.25772552	    206.82266796	    -20.06698387	      4.30537246	-170802.05340697	     -0.03188207	      4.45786233	     -0.03165699	    -10.30892667	     -4.70125195	      4.27055749	    -12.63124212	     -1.55390650	      4.25998504	  74165.33743404	      1.20368728	      3.44205025	      2.97389219	-613474.03674726	     -0.49227590	      0.01206034	      0.00571082	     -0.04290959	     -0.04058319	      0.35791363	     -0.27489796	      0.33205498	     -0.26083883
      5.69500000	-128985.97268991	-1211974.21715011	-232171.36508171	    -63.03807277	   1216.23305744	   1286.80689768	-126133.31848158	-520570.40239992	1112479.70239153	     31.57262643	    -16.20432188	      2.90565356	    205.53389589	    -19.85893023	      4.63475319	-176738.08036934	     -0.03105680	      4.43434466	     -0.03121058	    -10.33434543	     -4.67105901	      4.24828310	    -12.94889780	     -1.47100394	      4.35455431	  79934.63304371	      1.14993886	      3.61850442	      3.11222971	-621301.22907880	     -0.46180044	      0.00610174	      0.00265450	     -0.03985336	     -0.03787622	      0.36001639	     -0.29677590	      0.34567805	     -0.27740474
      5.70000000	-124387.31531405	-1223969.69076993	-221592.11076524	    -60.15188363	   1224.81409029	   1300.93983721	-119270.18963603	-541616.29827728	1112450.16177053	     30.38022508	    -15.24947106	      2.43571942	    203.75297274	    -19.58809093	      5.08243346	-184755.83929457	     -0.03027648	      4.41420369	     -0.03083169	    -10.33754178	     -4.64474414	      4.21853421	    -13.28871582	     -1.41637606	      4.46652199	  87924.69305111	      1.08554392	      3.79035080	      3.23374574	-629120.89548911	     -0.42042915	      0.00031084	      0.00100227	     -0.03605179	     -0.03454079	      0.36244405	     -0.31789083	      0.36246255	     -0.29081694
      5.70500000	-117606.34545949	-1235264.24224568	-210955.38691170	    -55.20455649	   1235.35506605	   1314.81938679	-110052.07022794	-563761.59238628	1110399.10332818	     29.12570266	    -13.97788236	      1.86399461	    201.41245828	    -19.26043673	      5.63846503	-195149.83219306	     -0.02958654	      4.39996395	     -0.03057737	    -10.31603928	     -4.62998394	      4.18036672	    -13.64191849	     -1.39269082	      4.59148841	  98434.77937514	      1.01156294	      3.95327797	      3.33561190	-637467.64299791	     -0.36938015	     -0.00521919	      0.00079847	     -0.03149202	     -0.03054156	      0.36507017	     -0.33765505	      0.38201008	     -0.30077100
      5.71000000	-110020.47150949	-1247767.99621508	-200755.56583884	    -49.63166152	   1247.88178376	   1330.89914657	 -99848.46039430	-588051.88831358	1108180.03931664	     27.84553300	    -12.44107627	      1.21379099	    198.44222036	    -18.88148178	      6.28234863	-207114.94900917	     -0.02905139	      4.39505880	     -0.03051686	    -10.26818146	     -4.63533066	      4.13296513	    -13.99686039	     -1.40011252	      4.72370341	 110500.36654346	      0.92974503	      4.10276685	      3.41624054	-647293.71119857	     -0.31054726	     -0.01039326	      0.00201690	     -0.02618683	     -0.02586137	      0.36774944	     -0.35546208	      0.40377944	     -0.30717039
      5.71500000	-102687.21120445	-1262978.22648952	-191327.34645217	    -44.55865285	   1262.29646631	   1351.28243633	 -89697.66025386	-615418.67523950	1107129.62632379	     26.58165872	    -10.71127555	      0.51459239	    194.77454952	    -18.45681256	      6.98345165	-220066.19468499	     -0.02875162	      4.40395420	     -0.03073109	    -10.19321990	     -4.66973944	      4.07565572	    -14.33917225	     -1.43635368	      4.85632760	 123415.38786809	      0.84254926	      4.23425994	      3.47541163	-659397.79669954	     -0.24646358	     -0.01511502	      0.00456406	     -0.02017754	     -0.02050522	      0.37032456	     -0.37071093	      0.42711762	     -0.31013639
      5.72000000	 -93807.14570764	-1279419.12905390	-182601.13566118	    -37.75559331	   1279.11169989	   1373.77435471	 -77793.89426907	-645454.97242759	1105248.87923884	     25.37952171	     -8.87861377	     -0.19947028	    190.34992785	    -17.99267218	      7.70245404	-235450.80002310	     -0.02878336	      4.43212721	     -0.03131180	    -10.09129065	     -4.74190895	      4.00788459	    -14.65210011	     -1.49709492	      4.98178516	 138779.50953269	      0.75313796	      4.34338093	      3.51430121	-673486.75728308	     -0.18022869	     -0.01928887	      0.00828720	     -0.01353730	     -0.01450429	      0.37263268	     -0.38283689	      0.45129943	     -0.31000238
      5.72500000	 -81379.56702071	-1295608.69341377	-174451.74204273	    -26.93845423	   1298.63246201	   1396.07097538	 -62151.25089741	-677526.80903200	1100548.83045947	     24.28551423	     -7.04703926	     -0.89150661	    185.12176053	    -17.49637290	      8.39372042	-254897.62584231	     -0.02925913	      4.48592166	     -0.03236031	     -9.96332063	     -4.85944681	      3.92917829	    -14.91712514	     -1.57661274	      5.09221696	 158346.89446140	      0.66534196	      4.42618329	      3.53539581	-689149.22307373	     -0.11539899	     -0.02282462	      0.01298542	     -0.00637443	     -0.00792016	      0.37450954	     -0.39134795	      0.47557288	     -0.30729224
      5.73000000	 -65530.07407309	-1312781.77539323	-166535.80083120	    -12.94499754	   1319.72812400	   1419.76389312	 -42916.71074332	-711786.53773951	1094106.62317277	     23.34390796	     -5.32944892	     -1.52395760	    179.05982150	    -16.97678477	      9.00821444	-278651.50339028	     -0.03030807	      4.57219174	     -0.03398582	     -9.81089385	     -5.02796697	      3.83911803	    -15.11485372	     -1.66846935	      5.18001225	 182156.09966800	      0.58358973	      4.47941054	      3.54228513	-706579.98843621	     -0.05585326	     -0.02564321	      0.01842340	      0.00116494	     -0.00084847	      0.37579438	     -0.39586212	      0.49920696	     -0.30268198
      5.73500000	 -46942.51608394	-1332175.73097026	-158480.89964057	      2.92674510	   1341.48593204	   1446.50979856	 -20776.30306666	-748501.84019602	1087118.92934235	     22.59360058	     -3.84131472	     -2.06111765	    172.15304212	    -16.44500115	      9.49672540	-306428.86015557	     -0.03207541	      4.69765166	     -0.03630281	     -9.63605488	     -5.25023149	      3.73733571	    -15.22611500	     -1.76623349	      5.23835054	 209721.60625797	      0.51278599	      4.50074339	      3.53931036	-725966.15241243	     -0.00561335	     -0.02768134	      0.02434699	      0.00889601	      0.00657788	      0.37633801	     -0.39614130	      0.52153411	     -0.29694280
      5.74000000	 -26229.52040508	-1352657.78749395	-150328.24812570	     20.70517058	   1365.39559708	   1474.30531277	   3659.13622986	-787302.34645431	1078516.09386791	     22.06526148	     -2.69347341	     -2.47185763	    164.41060733	    -15.91497330	      9.81307236	-337412.96340460	     -0.03472104	      4.86791280	     -0.03942805	     -9.44108253	     -5.52539571	      3.62353774	    -15.23321871	     -1.86424270	      5.26166468	 240320.30834129	      0.45813975	      4.48899576	      3.53103693	-746896.25799212	      0.03137013	     -0.02889560	      0.03049828	      0.01659709	      0.01418701	      0.37601118	     -0.39211729	      0.54197530	     -0.29086438
      5.74500000	  -4045.72486555	-1372818.33764466	-142180.03833479	     40.40069153	   1392.93441676	   1500.80825625	  29719.05515938	-827578.26312197	1067034.56103930	     21.77935779	     -1.98616898	     -2.73180785	    155.86061674	    -15.40355584	      9.91675450	-370654.75739280	     -0.03841653	      5.08621939	     -0.04347700	     -9.22830937	     -5.84841790	      3.49757829	    -15.12129857	     -1.95841143	      5.24595714	 273125.48277247	      0.42495302	      4.44422635	      3.52156498	-768852.03049011	      0.05141083	     -0.02926649	      0.03662864	      0.02401450	      0.02176905	      0.37471114	     -0.38390587	      0.56004174	     -0.28516006
      5.75000000	  18461.02401368	-1392178.30414311	-133819.75664965	     60.69117106	   1423.32958904	   1525.89475182	  56225.53718063	-868769.45069714	1052550.98756143	     21.74552337	     -1.79718436	     -2.82786433	    146.54931630	    -14.92953442	      9.77510260	-404932.11699310	     -0.04314922	      5.35211042	     -0.04852336	     -8.99993571	     -6.20973218	      3.35958925	    -14.87954983	     -2.04703024	      5.18894524	 306914.13545914	      0.41830905	      4.36777675	      3.51379806	-791388.42794254	      0.05150365	     -0.02879878	      0.04251277	      0.03085785	      0.02907708	      0.37237449	     -0.37180770	      0.57532402	     -0.28036675
      5.75500000	  40431.40676112	-1410724.00462376	-125013.13000586	     80.39484511	   1455.26123930	   1550.01508865	  82295.25386861	-910502.37673007	1035329.22219102	     21.96254504	     -2.17701850	     -2.75900250	    136.54318024	    -14.51182854	      9.36525194	-439393.85672256	     -0.04884435	      5.65975589	     -0.05444088	     -8.75775118	     -6.59526600	      3.21014796	    -14.50214302	     -2.13132977	      5.09004719	 340823.05040517	      0.44278827	      4.26227947	      3.50886361	-814320.12016174	      0.02947427	     -0.02751625	      0.04796493	      0.03683716	      0.03583359	      0.36900213	     -0.35630105	      0.58748261	     -0.27676409
      5.76000000	  62865.47455424	-1429641.73865123	-115766.44630907	    100.29067218	   1487.72085259	   1573.31484732	 108948.80022027	-953281.77365856	1016009.26656396	     22.41737545	     -3.17422946	     -2.52468226	    125.93153857	    -14.16700172	      8.67570367	-475336.25374784	     -0.05547016	      5.99577090	     -0.06117197	     -8.50284372	     -6.98682507	      3.05047255	    -13.98875194	     -2.21554972	      4.95024838	 376083.30501501	      0.50239512	      4.13161408	      3.50578423	-838471.19286123	     -0.01694348	     -0.02545345	      0.05285336	      0.04165532	      0.04175249	      0.36468959	     -0.33802509	      0.59624198	     -0.27432714
      5.76500000	  86787.02780634	-1449633.17375056	-106006.85150508	    121.23312698	   1519.77963929	   1595.51902424	 137221.02568725	-997343.11887364	 994842.26602447	     23.08875648	     -4.79541337	     -2.13993809	    114.82725321	    -13.90602660	      7.70714487	-513941.11406420	     -0.06291492	      6.33912539	     -0.06859504	     -8.23544471	     -7.36283565	      2.88265207	    -13.34470565	     -2.30642278	      4.77188851	 413859.78314540	      0.59993184	      3.98073750	      3.50139484	-864384.27451114	     -0.08867715	     -0.02264648	      0.05710930	      0.04501990	      0.04653212	      0.35965428	     -0.31774640	      0.60138410	     -0.27271267
      5.77000000	 111328.21919299	-1467988.55793363	 -95351.69453335	    142.34197965	   1550.89619691	   1614.71524114	 166127.07769945	-1040521.67287383	 970263.91150480	     23.94965166	     -7.01235708	     -1.63033742	    103.36476929	    -13.73095265	      6.47255743	-553531.59788815	     -0.07099361	      6.66067089	     -0.07652372	     -7.95496250	     -7.69944563	      2.70987612	    -12.58073408	     -2.41215534	      4.55839027	 452691.16580523	      0.73677642	      3.81537783	      3.49052933	-890355.41789940	     -0.18554317	     -0.01912444	      0.06072800	      0.04665761	      0.04987043	      0.35425309	     -0.29630764	      0.60274030	     -0.27128313
      5.77500000	 135251.66543035	-1481611.54271821	 -83586.48832459	    162.45813354	   1580.36254642	   1628.89508850	 194269.06719159	-1080223.66381652	 940781.95945693	     24.97053470	     -9.76036946	     -1.03067823	     91.69521457	    -13.63243672	      4.99692310	-591863.64361627	     -0.07949465	      6.92408386	     -0.08470837	     -7.66016988	     -7.97201344	      2.53657006	    -11.71234407	     -2.54110499	      4.31397304	 490606.61420574	      0.91259550	      3.64162017	      3.46648028	-914407.85858976	     -0.30609693	     -0.01490465	      0.06376175	      0.04632291	      0.05147691	      0.34898075	     -0.27456372	      0.60018545	     -0.26916879
      5.78000000	 157851.31767810	-1489541.27557044	 -71076.45608749	    180.97498467	   1606.79775976	   1637.08914334	 220848.40694598	-1115454.12646337	 906221.59194882	     26.12343285	    -12.92607493	     -0.38730890	     79.97930677	    -13.58844960	      3.31698010	-627735.13182552	     -0.08909175	      7.08728279	     -0.09288890	     -7.34950288	     -8.15697624	      2.36836460	    -10.75890597	     -2.70035545	      4.04343260	 526648.13213526	      1.12499660	      3.46538747	      3.42165977	-936084.40149072	     -0.44705503	     -0.00999219	      0.06630927	      0.04379524	      0.05108231	      0.34444452	     -0.25330660	      0.59364333	     -0.26535625
      5.78500000	 178547.82166803	-1491282.82097724	 -58304.96688036	    197.34790906	   1628.58346795	   1638.81536467	 245202.29805367	-1145515.46133153	 866753.71154694	     27.38953164	    -16.31165763	      0.23299075	     68.37927533	    -13.56425472	      1.48126183	-660191.27480122	     -0.10004617	      7.10381683	     -0.10154985	     -7.02146841	     -8.23399182	      2.21187694	     -9.74246178	     -2.89433155	      3.75201771	 560065.91040681	      1.36905576	      3.29183895	      3.34839513	-955168.06024006	     -0.60185075	     -0.00438229	      0.06850450	      0.03894903	      0.04844066	      0.34131715	     -0.23318205	      0.58310690	     -0.25879374
      5.79000000	 196719.32992943	-1485904.83707343	 -45637.69681909	    210.79669069	   1644.14295577	   1632.88794830	 266594.36981279	-1169231.29830469	 822489.83400225	     28.74158444	    -19.81728357	      0.80559806	     57.04986863	    -13.51401956	     -0.44949254	-688087.18320694	     -0.11231228	      6.93800903	     -0.11080091	     -6.67518762	     -8.18819332	      2.07428653	     -8.68630826	     -3.12360458	      3.44536965	 589894.59824617	      1.63876941	      3.12475193	      3.23980448	-970944.28658079	     -0.76664864	      0.00193305	      0.07050396	      0.03170788	      0.04339130	      0.34026813	     -0.21460756	      0.56866655	     -0.24850838
      5.79500000	 211763.77000743	-1473000.33921693	 -33369.74688157	    220.50381726	   1651.83972638	   1618.81689529	 284323.70944786	-1185724.16435431	 774063.90822424	     30.15778611	    -23.27860345	      1.29158680	     46.12858288	    -13.38437114	     -2.40190432	-710437.63895520	     -0.12573076	      6.55961385	     -0.12053125	     -6.31110756	     -8.01239640	      1.96272074	     -7.61356722	     -3.38400840	      3.12953848	 615259.16904038	      1.92569860	      2.96593479	      3.09064931	-982815.21493776	     -0.93450592	      0.00895510	      0.07247362	      0.02207131	      0.03582429	      0.34187646	     -0.19769788	      0.55054294	     -0.23372177
      5.80000000	 223114.21094568	-1454669.73567576	 -21518.82699970	    225.94328383	   1649.82412937	   1598.89732035	 297844.12619277	-1196026.71613683	 723795.38729519	     31.61548285	    -26.53122940	      1.66058673	     35.72703466	    -13.12059393	     -4.29251523	-727099.28795702	     -0.13705255	      5.95258799	     -0.13055398	     -5.93177448	     -7.70895829	      1.88350476	     -6.54598512	     -3.66620428	      2.81110962	 635955.34763810	      2.21969949	      2.81471312	      2.89801109	-991533.11776338	     -1.09743516	      0.01667277	      0.07457708	      0.01002114	      0.02570736	      0.34653975	     -0.18220379	      0.52912319	     -0.21393879
      5.80500000	 229766.53475960	-1432586.49870758	 -10014.78613080	    226.17139809	   1636.72469351	   1575.59791282	 306174.32054337	-1201074.73897663	 673738.78169313	     33.10624571	    -29.32995483	      1.87031430	     25.92611772	    -12.67581166	     -6.03710155	-737407.67820452	     -0.14546415	      5.12394990	     -0.13921298	     -5.54225614	     -7.29048935	      1.84135114	     -5.50313493	     -3.95609742	      2.49730754	 651307.48808148	      2.50901114	      2.66770870	      2.66160145	-997627.95976909	     -1.24371654	      0.02506700	      0.07696271	     -0.00420335	      0.01304231	      0.35440210	     -0.16749543	      0.50497931	     -0.18898282
      5.81000000	 228986.86049542	-1404135.64986444	   1031.83920382	    219.06976607	   1612.75542101	   1547.43035194	 306397.86619478	-1198532.85418693	 623931.76268228	     34.60265417	    -31.54492830	      1.92113699	     16.77547053	    -12.02034950	     -7.56348948	-737643.40057801	     -0.15073931	      4.09576269	     -0.14468221	     -5.14983858	     -6.77852356	      1.83865829	     -4.50212614	     -4.23642963	      2.19583621	 657770.60323526	      2.78151844	      2.51925588	      2.38359682	-998871.54301612	     -1.36449574	      0.03411605	      0.07974881	     -0.02031521	     -0.00201230	      0.36532147	     -0.15263675	      0.47884061	     -0.15896979
      5.81500000	 218675.48564846	-1366216.01979018	  11237.47278838	    202.76445749	   1577.50566366	   1511.84483509	 296205.39603981	-1185645.78955526	 574092.43377043	     36.05809181	    -33.12089920	      1.83813943	      8.29578251	    -11.14681345	     -8.81927460	-724476.07088551	     -0.15273522	      2.90977025	     -0.14714127	     -4.76315594	     -6.20039389	      1.87513193	     -3.55773944	     -4.48908382	      1.91441036	 652162.41352933	      3.02513685	      2.36246899	      2.06815026	-992737.99555236	     -1.45294342	      0.04378848	      0.08301150	     -0.03795011	     -0.01915729	      0.37888021	     -0.13654725	      0.45152356	     -0.12424909
      5.82000000	 201017.65957748	-1318365.64718619	  19898.62418154	    177.73330032	   1525.70758185	   1466.50948052	 277732.51838078	-1161819.75160646	 524067.12085833	     37.43139589	    -33.95940931	      1.64108757	      0.48322737	    -10.06995116	     -9.77193891	-699553.13315957	     -0.15483116	      1.63061924	     -0.14647562	     -4.39119181	     -5.58561146	      1.94779508	     -2.68273059	     -4.69722364	      1.66016077	 636095.71688671	      3.22819237	      2.19054239	      1.72085851	-978624.62054859	     -1.50097051	      0.05402615	      0.08677854	     -0.05670785	     -0.03802673	      0.39442640	     -0.11819011	      0.42384967	     -0.08534765
      5.82500000	 179044.36931954	-1260382.73787825	  26404.22000590	    145.46044071	   1453.37570611	   1409.63840931	 253992.35574567	-1126620.64720975	 473631.60253434	     38.70494334	    -33.91094614	      1.34632591	     -6.68375473	     -8.82392184	    -10.40598189	-665459.32674942	     -0.15538317	      0.33576430	     -0.14375622	     -4.04240395	     -4.96275454	      2.05131177	     -1.88811356	     -4.84686007	      1.43909537	 611957.05499498	      3.37993838	      1.99786568	      1.34830632	-955910.98536497	     -1.49954892	      0.06472963	      0.09102818	     -0.07601926	     -0.05818169	      0.41113357	     -0.09673025	      0.39657548	     -0.04292768
      5.83000000	 155070.88913220	-1190412.70762234	  30388.96674461	    110.04057535	   1365.57445225	   1339.25689996	 227193.35228277	-1078073.42748522	 422235.12287985	     39.84934123	    -32.89580544	      0.99160896	    -13.23597041	     -7.45900104	    -10.72073204	-623503.35572222	     -0.15426202	     -0.88750050	     -0.14032863	     -3.72406859	     -4.35716386	      2.17853299	     -1.18335896	     -4.92784913	      1.25570629	 580728.53140623	      3.47238077	      1.78078579	      0.95768218	-922434.63647363	     -1.44350312	      0.07575324	      0.09569239	     -0.09532216	     -0.07908951	      0.42807088	     -0.07164054	      0.37034324	      0.00224791
      5.83500000	 130602.37499079	-1106864.63434094	  31705.44331658	     75.06129223	   1268.65787339	   1253.91603741	 198754.37118073	-1014425.22837057	 369826.72280062	     40.80016048	    -30.94582547	      0.63504974	    -19.20483503	     -6.03775648	    -10.72917589	-574311.75197550	     -0.15090275	     -1.95006318	     -0.13540022	     -3.44186655	     -3.78945717	      2.32115277	     -0.57649410	     -4.93434626	      1.11276117	 542551.82765496	      3.50125727	      1.53801643	      0.55647273	-876029.83560317	     -1.33371478	      0.08690773	      0.10066326	     -0.11406596	     -0.10012794	      0.44427364	     -0.04275778	      0.34565450	      0.04934367
      5.84000000	 104439.67271167	-1010748.20131198	  30495.82022701	     39.66625248	   1164.06393324	   1154.84904190	 167557.09773862	-936511.28817092	 317951.39497511	     41.53219765	    -28.03427967	      0.31906037	    -24.61475498	     -4.63012729	    -10.45713428	-516975.84541507	     -0.14377233	     -2.77573874	     -0.12897713	     -3.19965274	     -3.27479466	      2.47034652	     -0.07408777	     -4.86476752	      1.01127545	 495984.76114635	      3.46512687	      1.27073729	      0.15224831	-816775.14959267	     -1.17135596	      0.09796640	      0.10580085	     -0.13176194	     -0.12067477	      0.45880299	     -0.01029558	      0.32286416	      0.09747304
      5.84500000	  75504.83713245	-905153.33491506	  27100.44894978	      2.32834524	   1052.80271297	   1044.58318282	 132747.05993466	-847271.03555369	 268524.76521958	     42.03688177	    -24.15442820	      0.08263600	    -29.47705037	     -3.30731817	     -9.94240053	-451680.42306245	     -0.13480637	     -3.30606715	     -0.12093379	     -2.99937944	     -2.82275818	      2.61732439	      0.31892212	     -4.72137856	      0.95063034	 440649.10951081	      3.36620602	      0.98242634	     -0.24746622	-746801.43371440	     -0.96044691	      0.10867301	      0.11094191	     -0.14782722	     -0.14012557	      0.47079013	      0.02517956	      0.30219101	      0.14571360
      5.85000000	  45522.04122264	-797023.90392788	  22242.61035963	    -35.55440665	    937.83311063	    926.44755651	  96516.99939579	-753261.70316388	 223722.69725378	     42.34680188	    -19.27790227	     -0.04729555	    -33.78601428	     -2.13510456	     -9.23357749	-382956.40032981	     -0.12463903	     -3.50546347	     -0.11045850	     -2.84121106	     -2.43770962	      2.75380252	      0.59955970	     -4.50963732	      0.92879573	 380548.31847999	      3.20997448	      0.67848404	     -0.63524381	-671547.41733644	     -0.70576995	      0.11875164	      0.11590864	     -0.16186577	     -0.15796129	      0.47946894	      0.06280284	      0.28374088	      0.19311626
      5.85500000	  16001.94036057	-687286.11495113	  16709.79432671	    -72.25339351	    822.54285164	    802.21238688	  60456.78585624	-655488.81414082	 183637.66976675	     42.39929369	    -13.68497346	     -0.02447442	    -37.51781722	     -1.16739432	     -8.38823078	-312619.85159681	     -0.11379679	     -3.37710675	     -0.09908889	     -2.72382922	     -2.11951711	      2.87239836	      0.76723781	     -4.23740790	      0.94261486	 317227.03383712	      3.00689639	      0.36572730	     -1.00374647	-591656.05223434	     -0.42393045	      0.12791836	      0.12051697	     -0.17359627	     -0.17361615	      0.48420111	      0.10148773	      0.26753741	      0.23870878
      5.86000000	 -12653.82663885	-559893.75041347	  11003.77198173	   -106.89334615	    709.40375509	    667.54706587	  23926.49412594	-538748.12374407	 144195.46207376	     42.17799226	     -7.57735604	      0.16390058	    -40.63264614	     -0.44075839	     -7.47023412	-233960.43292642	     -0.10280367	     -2.94607725	     -0.08737505	     -2.64482641	     -1.86449070	      2.96692508	      0.82420559	     -3.91415668	      0.98810790	 243585.17785700	      2.76898768	      0.05184411	     -1.34569333	-493114.44472842	     -0.12886965	      0.13589319	      0.12458417	     -0.18286017	     -0.18670082	      0.48449379	      0.14001157	      0.25355539	      0.28149771
      5.86500000	 -38775.81160021	-416500.87251142	   5606.87364983	   -138.79598188	    600.56672089	    520.14665344	 -11289.95740302	-404687.11497804	 105677.41736218	     41.65223258	     -1.23233899	      0.51542871	    -43.08007472	      0.02916215	     -6.54646427	-149063.83337564	     -0.09187588	     -2.26410073	     -0.07576174	     -2.60105686	     -1.66636858	      3.03254932	      0.77595086	     -3.55019049	      1.06074943	 161216.95781184	      2.50996208	     -0.25511523	     -1.65385398	-377015.82738286	      0.16368371	      0.14240964	      0.12793545	     -0.18963608	     -0.19694659	      0.48000600	      0.17709781	      0.24174953	      0.32047379
      5.87000000	 -64415.41781439	-297182.44460779	    936.34956604	   -167.22871001	    498.13045325	    372.02610328	 -44550.25517820	-292580.11205225	  76865.59022786	     40.77119823	      5.00501218	      1.01127685	    -44.80705854	      0.24848022	     -5.68288246	 -73987.73481630	     -0.08122969	     -1.40416313	     -0.06459463	     -2.58888042	     -1.51727906	      3.06580946	      0.63148721	     -3.15594809	      1.15566673	  87241.99799550	      2.24416403	     -0.54717616	     -1.92110350	-279947.42814492	      0.43715101	      0.14722129	      0.13040797	     -0.19401668	     -0.20421111	      0.47054354	      0.21148969	      0.23206971	      0.35462345
      5.87500000	 -89599.93786013	-198986.63315616	  -3187.48939643	   -187.70162555	    404.45372679	    238.17347315	 -76021.22901452	-200117.31556278	  55362.75656274	     39.46232876	     10.74247152	      1.61696560	    -45.76712892	      0.24308079	     -4.93995599	  -7840.83509462	     -0.07111245	     -0.45259171	     -0.05413438	     -2.60429463	     -1.40860533	      3.06454683	      0.40342437	     -2.74136433	      1.26774058	  21322.45030403	      1.98544193	     -0.81678303	     -2.14056509	-200338.77010637	      0.67519220	      0.15010660	      0.13185235	     -0.19618508	     -0.20847323	      0.45604908	      0.24201197	      0.22445874	      0.38294866
      5.88000000	 -75140.06169676	 -89330.37678931	  -4351.73466279	   -180.70486630	    323.76324302	    131.12539680	 -68832.23994976	 -92829.57803557	  28228.02408906	     37.63711238	     15.57604385	      2.28537595	    -45.92897067	      0.05452112	     -4.36753768	  28010.26389136	     -0.06170146	      0.50060334	     -0.04454580	     -2.64295052	     -1.33163803	      3.02781752	      0.10769506	     -2.31536634	      1.39164857	 -18793.76384148	      1.74606133	     -1.05701812	     -2.30586699	 -99599.68219030	      0.86298496	      0.15087430	      0.13213477	     -0.19639107	     -0.20982150	      0.43659691	      0.26761607	      0.21883871	      0.40450010
      5.88500000	 -18780.85242579	 -14792.68022307	  -1302.59843064	   -135.02456428	    258.20420572	     60.23112266	 -17678.81729638	 -15892.55625362	   5248.28769189	     35.20801639	     19.14044110	      2.96171448	    -45.28295807	     -0.26525468	     -3.99947842	  10355.99889562	     -0.05309723	      1.37173372	     -0.03587628	     -2.70004694	     -1.27794964	      2.95581170	     -0.23712394	     -1.88559969	      1.52187642	  -8233.33533690	      1.53573087	     -1.26170111	     -2.41152852	 -18315.42811296	      0.98877911	      0.14937005	      0.13114179	     -0.19491771	     -0.20844013	      0.41239470	      0.28740748	      0.21509048	      0.41842672
      5.89000000	     19.79671126	    -25.07010731	     -4.97313620	    -87.61224258	    200.68652690	     24.61377496	     39.30967916	      5.79460554	      3.33359575	     32.10305722	     21.14588614	      3.59056352	    -43.84508422	     -0.65936615	     -3.84867362	     -2.30801973	     -0.04532854	      2.09178057	     -0.02817511	     -2.77013686	     -1.23948937	      2.84977819	     -0.61084773	     -1.45848793	      1.65267327	      1.49699056	      1.36096679	     -1.42541038	     -2.45346129	      0.79662432	      1.04473976	      0.14548395	      0.12878639	     -0.19204386	     -0.20457942	      0.38378898	      0.30065871	      0.21302311	      0.42404013
      5.89500000	   -726.14980081	   -516.62301881	    -51.29803565	    -74.20288051	    144.26394780	     17.99325358	   -673.97538539	   -531.51203088	    194.39921859	     28.29246155	     21.42763767	      4.12215121	    -41.65828005	     -1.07123365	     -3.90463830	    453.80466647	     -0.03836659	      2.61339888	     -0.02143439	     -2.84691790	     -1.20843140	      2.71194772	     -0.99297130	     -1.03963158	      1.77795503	   -367.24087506	      1.22459221	     -1.54347778	     -2.42952726	   -660.62117740	      1.02822770	      0.13915966	      0.12501110	     -0.18800982	     -0.19853024	      0.35127041	      0.30681284	      0.21233205	      0.42088784
      5.90000000	     18.82839330	    -27.34485409	     -5.58611089	    -77.44649660	     92.61231338	     22.77673658	     33.86299497	      2.65770932	      3.76086785	     23.80953723	     19.97496725	      4.51782824	    -38.79112972	     -1.44981868	     -4.13593002	     -2.90724162	     -0.03214428	      2.91424410	     -0.01560005	     -2.92309425	     -1.17690255	      2.54543138	     -1.36403076	     -0.63435189	      1.89123422	      1.42437852	      1.12569109	     -1.61202189	     -2.34002808	      0.62735953	      0.94236817	      0.13040652	      0.11978478	     -0.18299539	     -0.19059797	      0.31547403	      0.30548468	      0.21255618	      0.40882074
      5.90500000	    -40.22406485	    -63.70671282	    -13.08747399	    -73.18502230	     50.47450587	     22.85706828	    -23.31195124	    -41.14396574	     14.46346639	     18.76242451	     16.93912216	      4.75331295	    -35.33421855	     -1.75390627	     -4.49606866	     29.81201548	     -0.02657639	      2.99658630	     -0.01058567	     -2.99041844	     -1.13680687	      2.35408361	     -1.70676503	     -0.24809264	      1.98568224	    -24.81765651	      1.06001996	     -1.62808824	     -2.18797412	    -48.20796884	      0.79594332	      0.11931277	      0.11309607	     -0.17711429	     -0.18108474	      0.27716933	      0.29646939	      0.21305527	      0.38803501
      5.91000000	     14.70847374	    -26.31939779	     -5.93157944	    -63.14753038	     16.71488711	     19.38109864	     27.89090185	     -4.25820110	      3.53394780	     13.33200688	     12.61779013	      4.81924117	    -31.39488207	     -1.95344001	     -4.92873447	     -4.21248581	     -0.02157692	      2.88384285	     -0.00628718	     -3.04001205	     -1.07990987	      2.14236285	     -2.00694287	      0.11342339	      2.05440697	      1.47003945	      1.02079787	     -1.58992069	     -1.97908313	      0.30134821	      0.60253928	      0.10605526	      0.10495251	     -0.17042128	     -0.17028012	      0.23723954	      0.27976552	      0.21303011	      0.35908122
      5.91500000	      8.89419642	    -26.98598966	     -5.48787725	    -53.81282780	    -10.91730550	     16.68533799	     21.83595289	    -10.81542274	      4.64904468	      7.75433147	      7.41856999	      4.71938434	    -27.09126640	     -2.02760201	     -5.37085811	     -2.83976171	     -0.01707131	      2.61527452	     -0.00259679	     -3.06297138	     -0.99821272	      1.91520430	     -2.25395754	      0.44419234	      2.09095485	     -0.24583097	      0.99970554	     -1.49734406	     -1.72158008	     -3.28561094	      0.37903987	      0.09090318	      0.09539036	     -0.16292771	     -0.15845708	      0.19664974	      0.25561073	      0.21158823	      0.32285168
      5.92000000	      9.21694890	    -22.59551503	     -5.77968538	    -44.76860514	    -33.14214172	     14.52829144	     21.88325110	    -12.80749975	      2.74131314	      2.29034124	      1.80807060	      4.46752959	    -22.54642663	     -1.96145895	     -5.75561532	     -5.79588663	     -0.01300238	      2.24000809	      0.00058585	     -3.05115383	     -0.88455707	      1.67787380	     -2.44122252	      0.73803072	      2.08992081	      1.55843950	      0.98791865	     -1.35220740	     -1.42585555	     -0.09535292	      0.14369852	      0.07421568	      0.08448903	     -0.15462204	     -0.14587002	      0.15640084	      0.22452296	      0.20783370	      0.28055209
      5.92500000	      6.16847595	    -20.40501158	     -5.71442464	    -34.42110058	    -50.36739005	     11.85623270	     18.60272338	    -17.23763204	      2.11858509	     -2.81014122	     -3.74456963	      4.08416757	    -17.88301146	     -1.74303365	     -6.01676376	     -6.32422228	     -0.00933092	      1.81116463	      0.00334611	     -2.99798358	     -0.73336967	      1.43577732	     -2.56621637	      0.98880269	      2.04748503	      1.43741020	      0.97703917	     -1.15879785	     -1.10397374	     -0.56727852	     -0.08589432	      0.05643308	      0.07238111	     -0.14549075	     -0.13275342	      0.11747064	      0.18733532	      0.20095511	      0.23365197
      5.93000000	      4.55188899	    -17.55853450	     -5.03472676	    -23.15197592	    -63.36500595	      8.87167314	     16.42746525	    -20.53156674	      1.60579744	     -7.34175252	     -8.82087008	      3.59384935	    -13.21887810	     -1.36174794	     -6.09406525	     -7.17822378	     -0.00603257	      1.38058675	      0.00575063	     -2.89912216	     -0.54146679	      1.19423952	     -2.63010742	      1.19075482	      1.96178402	      1.61267263	      0.95983279	     -0.92410274	     -0.76903138	     -0.46666544	     -0.29462197	      0.03806201	      0.05925547	     -0.13553334	     -0.11932020	      0.08075158	      0.14521199	      0.19030146	      0.18381145
      5.93500000	      3.02211791	    -14.97766996	     -4.39566994	    -11.80438447	    -72.93037638	      6.00495229	     14.04002869	    -23.47351964	      1.03253501	    -11.16720193	    -13.09537834	      3.02354462	     -8.66381437	     -0.80859539	     -5.93888315	     -7.66428275	     -0.00309277	      0.99451149	      0.00784663	     -2.75290893	     -0.30880719	      0.95829788	     -2.63709594	      1.33892925	      1.83313686	      1.60514608	      0.93071587	     -0.65780226	     -0.43441690	     -0.62954403	     -0.47116497	      0.01965530	      0.04535577	     -0.12476924	     -0.10575908	      0.04699932	      0.09963354	      0.17544857	      0.13279214
      5.94000000	      1.96356938	    -12.53552761	     -3.74281409	     -0.82274067	    -79.69709351	      3.33864481	     11.77998540	    -25.69340546	      0.37830549	    -14.22700114	    -16.36191087	      2.40181417	     -4.31726878	     -0.07793786	     -5.51899543	     -7.95778136	     -0.00050126	      0.69040810	      0.00966358	     -2.56052965	     -0.03901738	      0.73255038	     -2.59364674	      1.42966146	      1.66414285	      1.57711622	      0.88597206	     -0.37193345	     -0.11303862	     -0.74259264	     -0.60867934	      0.00178779	      0.03097555	     -0.11323886	     -0.09223091	      0.01680093	      0.05234606	      0.15625258	      0.08236105
      5.94500000	      1.38162788	    -10.27279320	     -2.94988421	      9.38702266	    -84.22788188	      0.86425196	      9.67878315	    -27.11483374	     -0.20913928	    -16.53486811	    -18.54127860	      1.75831193	     -0.26655758	      0.82962835	     -4.82195672	     -8.02986979	      0.00175284	      0.49510219	      0.01121662	     -2.32590481	      0.26045462	      0.52104696	     -2.50769632	      1.46111357	      1.45960567	      1.51399360	      0.82372203	     -0.08024946	      0.18340356	     -0.83826893	     -0.70480036	     -0.01497131	      0.01644843	     -0.10100275	     -0.07886483	     -0.00943879	      0.00527626	      0.13287891	      0.03419511
      5.95000000	      1.12404015	     -8.18422277	     -2.04985793	     18.29372934	    -87.06223123	     -1.37536819	      7.67893433	    -27.77095918	     -0.71996998	    -18.16213687	    -19.67129242	      1.12313651	      3.41477991	      1.90409964	     -3.85666561	     -7.87689256	      0.00368460	      0.42424004	      0.01251091	     -2.05533600	      0.57862556	      0.32720775	     -2.38788799	      1.43371543	      1.22625483	      1.42603063	      0.74370087	      0.20265864	      0.44503157	     -0.89642322	     -0.76106441	     -0.03008806	      0.00213334	     -0.08814209	     -0.06575630	     -0.03149683	     -0.03958047	      0.10579902	     -0.01020571
      5.95500000	      0.94122615	     -6.25850558	     -1.11135256	     25.40985182	    -88.68534428	     -3.35658240	      5.65899227	    -27.78558935	     -1.16154777	    -19.21651728	    -19.88263273	      0.52575051	      6.66811816	      3.12335758	     -2.65295930	     -7.48144811	      0.00531499	      0.48295494	      0.01354617	     -1.75698734	      0.90173344	      0.15378662	     -2.24292127	      1.35040808	      0.97231193	      1.30736611	      0.64691905	      0.46239756	      0.66424234	     -0.92923949	     -0.78192741	     -0.04309238	     -0.01160342	     -0.07476122	     -0.05296846	     -0.04931637	     -0.08028925	      0.07575866	     -0.04958925
      5.96000000	      0.63606809	     -4.44549950	     -0.16148043	     30.39943090	    -89.50290170	     -5.10613382	      3.55006101	    -27.27869349	     -1.51560883	    -19.82018714	    -19.36608489	     -0.00656762	      9.45032241	      4.45164652	     -1.25928929	     -6.85174400	      0.00667055	      0.66733197	      0.01432067	     -1.44026937	      1.21441500	      0.00288477	     -2.08108027	      1.21664248	      0.70697214	      1.16166405	      0.53529591	      0.68586393	      0.83598941	     -0.93829317	     -0.77359632	     -0.05360254	     -0.02440730	     -0.06099160	     -0.04053816	     -0.06297747	     -0.11510991	      0.04372570	     -0.08300271
      5.96500000	      0.04730319	     -2.69326857	      0.77745462	     33.07995061	    -89.83148932	     -6.66942418	      1.30666329	    -26.37498847	     -1.76196815	    -20.09089658	    -18.33727645	     -0.45052191	     11.73427656	      5.83988276	      0.26114632	     -6.00760989	      0.00778127	      0.96622165	      0.01483395	     -1.11518182	      1.50115203	     -0.12402476	     -1.90992674	      1.04012452	      0.43983376	      0.99373754	      0.41133668	      0.86227278	      0.95790422	     -0.92593009	     -0.74288027	     -0.06134497	     -0.03595530	     -0.04699515	     -0.02848643	     -0.07266280	     -0.14262362	      0.01082141	     -0.10982542
      5.97000000	     -0.94869000	     -0.96985471	      1.66849996	     33.42029908	    -89.88372690	     -8.08625206	     -1.10116844	    -25.19894944	     -1.89338561	    -20.12834340	    -17.00451095	     -0.78848329	     13.50914839	      7.22820046	      1.83528186	     -4.97598640	      0.00867713	      1.36310218	      0.01508805	     -0.79168684	      1.74779687	     -0.22609159	     -1.73611149	      0.83033605	      0.18030260	      0.80813300	      0.27788493	      0.98400956	      1.03026868	     -0.89582739	     -0.69622352	     -0.06616991	     -0.04597573	     -0.03296521	     -0.01683152	     -0.07862770	     -0.16183931	     -0.02176117	     -0.12978307
      5.97500000	     -2.41758550	      0.72940225	      2.47036686	     31.54609061	    -89.74861868	     -9.38387801	     -3.67478102	    -23.85804402	     -1.90925539	    -20.00657835	    -15.54405105	     -1.00973159	     14.78011213	      8.55053870	      3.38568506	     -3.79144800	      0.00938399	      1.83780871	      0.01508744	     -0.47915678	      1.94296223	     -0.30309923	     -1.56530288	      0.59787229	     -0.06295431	      0.60973716	      0.13795363	      1.04722176	      1.05583568	     -0.85183430	     -0.63902682	     -0.06806132	     -0.05426485	     -0.01912397	     -0.00560138	     -0.08117681	     -0.17226904	     -0.05284033	     -0.14294033
      5.98000000	     -4.35931520	      2.38029620	      3.14460567	     27.72510119	    -89.37637194	    -10.57205382	     -6.38104169	    -22.43397965	     -1.81230182	    -19.77203464	    -14.08541396	     -1.11103746	     15.56827838	      9.74052652	      4.83644816	     -2.49593308	      0.00991976	      2.36801191	      0.01483795	     -0.18591121	      2.07903520	     -0.35547279	     -1.40222969	      0.35362431	     -0.28243642	      0.40432946	     -0.00537178	      1.05208478	      1.03950078	     -0.79673007	     -0.57530621	     -0.06713737	     -0.06069581	     -0.00571655	      0.00515671	     -0.08064414	     -0.17396249	     -0.08131744	     -0.14967043
      5.98500000	     -6.71645402	      3.93204369	      3.65606445	     22.33338861	    -88.57035719	    -11.63890256	     -9.15820667	    -20.98448129	     -1.61031057	    -19.44597078	    -12.70713636	     -1.09651041	     15.91076556	     10.73782676	      6.11904809	     -1.13600815	      0.01029142	      2.93037273	      0.01434522	      0.08109865	      2.15264729	     -0.38426074	     -1.25078340	      0.10789626	     -0.47211574	      0.19804698	     -0.14896810	      1.00270473	      0.98786805	     -0.73272111	     -0.50767711	     -0.06364108	     -0.06522038	      0.00699733	      0.01537057	     -0.07737608	     -0.16749434	     -0.10623471	     -0.15060755
      5.99000000	     -9.38809290	      5.31620438	      3.97518647	     15.81549967	    -86.98533868	    -12.55207987	    -11.92383531	    -19.54782650	     -1.31669508	    -19.02972065	    -11.44166642	     -0.97680546	     15.85940920	     11.49410636	      7.17758059	      0.23976182	      0.01049350	      3.50133881	      0.01361288	      0.31638140	      2.16456019	     -0.39108790	     -1.11416403	     -0.13038089	     -0.62762363	     -0.00298782	     -0.28965921	      0.90668472	      0.90877896	     -0.66187663	     -0.43759953	     -0.05792446	     -0.06786656	      0.01875326	      0.02494115	     -0.07172179	     -0.15390757	     -0.12681934	     -0.14659138
      5.99500000	    -12.24616678	      6.46056383	      4.08274941	      8.64401174	    -84.13194355	    -13.26493967	    -14.58246242	    -18.14778580	     -0.94928470	    -18.51146649	    -10.28687867	     -0.76785837	     15.47764343	     11.97786008	      7.97309049	      1.58291238	      0.01050778	      4.05765520	      0.01264084	      0.51577893	      2.11901090	     -0.37808786	     -0.99508140	     -0.35424764	     -0.74630328	     -0.19277415	     -0.42417253	      0.77443200	      0.81084237	     -0.58619889	     -0.36579246	     -0.05042890	     -0.06873268	      0.02929344	      0.03374393	     -0.06403191	     -0.13462244	     -0.14251123	     -0.13860881
      6.00000000	    -15.15328567	      7.30458392	      3.97471280	      1.27967590	    -79.38850035	    -13.72496789	    -17.03401332	    -16.79896271	     -0.52905522	    -17.87365401	     -9.22109164	     -0.48933580	     14.83674512	     12.17763719	      8.48715760	      2.84713366	      0.01030408	      4.57676438	      0.01142422	      0.67623589	      2.02262867	     -0.34783146	     -0.89593404	     -0.55915321	     -0.82716561	     -0.36557962	     -0.54909853	      0.61830096	      0.70297208	     -0.50769366	     -0.29271537	     -0.04166283	     -0.06797699	      0.03837880	      0.04163288	     -0.05466244	     -0.11132309	     -0.15297516	     -0.12773450
      6.00500000	    -17.97941661	      7.81345997	      3.66630396	     -5.86405331	    -72.02121060	    -13.88342807	    -19.18222913	    -15.51140716	     -0.07905279	    -17.10001400	     -8.21835783	     -0.16303726	     14.01226419	     12.10315309	      8.72447788	      3.99027292	      0.00984206	      5.03721317	      0.00995299	      0.79556985	      1.88308476	     -0.30326808	     -0.81888411	     -0.74324827	     -0.87080143	     -0.51616868	     -0.66088153	      0.45166484	      0.59394450	     -0.42849098	     -0.21901507	     -0.03217729	     -0.06580393	      0.04580155	      0.04844685	     -0.04398077	     -0.08583352	     -0.15810167	     -0.11507329
      6.01000000	    -20.61545085	      7.98687744	      3.19284477	    -12.44682668	    -61.21260457	    -13.70717504	    -20.94166032	    -14.29342604	      0.37681558	    -16.18106056	     -7.26118681	      0.18852714	     13.08041222	     11.78298170	      8.71201810	      4.97600074	      0.00907381	      5.41905938	      0.00821226	      0.87225987	      1.70763762	     -0.24766339	     -0.76586543	     -0.90745749	     -0.87922949	     -0.64001176	     -0.75585389	      0.28798880	      0.49200302	     -0.35086886	     -0.14585520	     -0.02253717	     -0.06245085	      0.05139645	      0.05401739	     -0.03236765	     -0.05999222	     -0.15799683	     -0.10170704
      6.01500000	    -22.98297458	      7.85903198	      2.60371883	    -18.21322468	    -46.09827542	    -13.19249677	    -22.24255022	    -13.15257648	      0.81509066	    -15.11732674	     -6.34867060	      0.54328985	     12.11423737	     11.25803581	      8.49177378	      5.77500333	      0.00794701	      5.70424811	      0.00618318	      0.90528501	      1.50180933	     -0.18451467	     -0.73857960	     -1.05521172	     -0.85563378	     -0.73344570	     -0.83031095	      0.13997299	      0.40455629	     -0.27716262	     -0.07507705	     -0.01328568	     -0.05817908	      0.05504939	      0.05817642	     -0.02020900	     -0.03553487	     -0.15295759	     -0.08864901
      6.02000000	    -25.03941112	      7.49148543	      1.95163338	    -22.98946121	    -25.81137356	    -12.37651329	    -23.03342790	    -12.09528347	      1.21399039	    -13.92006283	     -5.49914548	      0.88051864	     11.17972254	     10.57305252	      8.10966536	      6.36565471	      0.00640830	      5.87697390	      0.00384446	      0.89407591	      1.26854281	     -0.11745030	     -0.73846362	     -1.19181845	     -0.80401540	     -0.79379019	     -0.88062452	      0.01886579	      0.33800109	     -0.20962072	     -0.00917490	     -0.00490893	     -0.05326841	      0.05670211	      0.06076314	     -0.00788108	     -0.01400066	     -0.14343392	     -0.07681113
      6.02500000	    -26.77801037	      6.96395259	      1.28441030	    -26.67001439	      0.46825039	    -11.34002088	    -23.28152118	    -11.12560218	      1.55445953	    -12.60966693	     -4.74779260	      1.18150304	     10.33194566	      9.76988761	      7.60759977	      6.73413959	      0.00440675	      5.92408280	      0.00117425	      0.83855529	      1.00807377	     -0.05009878	     -0.76660573	     -1.32365194	     -0.72884560	     -0.81940639	     -0.90340051	     -0.06596782	      0.29762783	     -0.15024767	      0.04889745	      0.00218764	     -0.04800851	      0.05635256	      0.06163094	      0.00426523	      0.00332664	     -0.12998469	     -0.06698297
      6.03000000	    -28.22320831	      6.36531404	      0.64215846	    -29.20328533	     33.46444713	    -10.20035478	    -22.97158220	    -10.24377364	      1.82100025	    -11.21265936	     -4.14045199	      1.43013682	      9.61205470	      8.88393125	      7.02125052	      6.87409147	      0.00189698	      5.83556106	     -0.00184784	      0.73919046	      0.71844121	      0.01409827	     -0.82362732	     -1.45740533	     -0.63477826	     -0.80968956	     -0.89568116	     -0.10723654	      0.28754790	     -0.10065442	      0.09604358	      0.00768925	     -0.04268510	      0.05405105	      0.06065551	      0.01592129	      0.01544555	     -0.11323443	     -0.05981677
      6.03500000	    -29.42230156	      5.78405226	      0.05690580	    -30.58058669	     73.75676233	     -9.09737819	    -22.10383929	     -9.44516322	      2.00225156	     -9.75795399	     -3.72522490	      1.61347416	      9.04604582	      7.94246982	      6.38048514	      6.78588744	     -0.00115796	      5.60508579	     -0.00523843	      0.59704910	      0.39637007	      0.07210176	     -0.90955085	     -1.59951646	     -0.52642341	     -0.76500797	     -0.85518071	     -0.09977327	      0.31063245	     -0.06193893	      0.12940589	      0.01137467	     -0.03756412	      0.04989351	      0.05774487	      0.02683827	      0.02164432	     -0.09383332	     -0.05581581
      6.04000000	    -30.43518521	      5.29821356	     -0.44782794	    -30.82625064	    121.73484494	     -8.17609635	    -20.69162220	     -8.71995438	      2.09129447	     -8.27281392	     -3.54352126	      1.72221635	      8.64497709	      6.96406132	      5.70985845	      6.47573539	     -0.00478384	      5.23051954	     -0.00900812	      0.41386975	      0.03826575	      0.12146799	     -1.02366848	     -1.75575435	     -0.40816298	     -0.68660481	     -0.78052383	     -0.04053501	      0.36846928	     -0.03461860	      0.14674606	      0.01311627	     -0.03287711	      0.04401310	      0.05285023	      0.03684099	      0.02149959	     -0.07242108	     -0.05532524
      6.04500000	    -31.32470832	      4.96653708	     -0.85775126	    -29.98865011	    177.55759602	     -7.56883230	    -18.75920556	     -8.05376125	      2.08571246	     -6.77908791	     -3.62220707	      1.75103233	      8.40555134	      5.95884912	      5.02881874	      5.95468868	     -0.00899254	      4.71421478	     -0.01315936	      0.19210274	     -0.35885811	      0.16050275	     -1.16446333	     -1.93091148	     -0.28398510	     -0.57647572	     -0.67143571	      0.07142331	      0.46132683	     -0.01862271	      0.14675692	      0.01287779	     -0.02880874	      0.03657101	      0.04597500	      0.04583636	      0.01486978	     -0.04959517	     -0.05852325
      6.05000000	    -32.14937636	      4.82245784	     -1.16823325	    -28.13539780	    241.12006867	     -7.37895744	    -16.34026329	     -7.42908936	      1.98745161	     -5.29072113	     -3.96819709	      1.69868326	      8.31093444	      4.92991209	      4.35185235	      5.23772702	     -0.01377963	      4.06309702	     -0.01768439	     -0.06509901	     -0.79661339	      0.18836634	     -1.32960608	     -2.12855999	     -0.15733667	     -0.43723634	     -0.52885184	      0.23500318	      0.58813861	     -0.01333865	      0.12925382	      0.01070994	     -0.02548708	      0.02774718	      0.03718011	      0.05381615	      0.00188357	     -0.02588493	     -0.06541450
      6.05500000	    -32.95900696	      4.87221073	     -1.38395413	    -25.35213112	    312.03032356	     -7.66699157	    -13.47697288	     -6.82736133	      1.80248911	     -3.81314285	     -4.56629158	      1.56796894	      8.33194054	      3.87563638	      3.68867651	      4.34301842	     -0.01912213	      3.28856554	     -0.02256349	     -0.35388113	     -1.27467118	      0.20509067	     -1.51594313	     -2.35087313	     -0.03104488	     -0.27199715	     -0.35495771	      0.44714619	      0.74655618	     -0.01770106	      0.09522480	      0.00674321	     -0.02297905	      0.01773203	      0.02658712	      0.06085056	     -0.01707719	     -0.00173574	     -0.07583367
      6.06000000	    -33.79324809	      5.09741260	     -1.51769855	    -21.74087618	    389.59893158	     -8.44053750	    -10.21952796	     -6.23114988	      1.54032046	     -2.34443263	     -5.38039214	      1.36549597	      8.42847779	      2.79286390	      3.04449362	      3.29138683	     -0.02497686	      2.40621909	     -0.02776387	     -0.66965095	     -1.79044149	      0.21149413	     -1.71943617	     -2.59853334	      0.09267539	     -0.08425503	     -0.15316496	      0.70295361	      0.93307331	     -0.03031197	      0.04674288	      0.00117774	     -0.02129106	      0.00672004	      0.01437982	      0.06707237	     -0.04140026	      0.02249610	     -0.08945955
      6.06500000	    -34.68215392	      5.46120367	     -1.58849799	    -17.41764268	    472.84491983	     -9.65034291	     -6.62567393	     -5.62629663	      1.21329860	     -0.87800160	     -6.35750047	      1.10125343	      8.55160960	      1.68030751	      2.42030311	      2.10589069	     -0.03127946	      1.43541481	     -0.03323918	     -1.00706459	     -2.33904985	      0.20903096	     -1.93516140	     -2.87072420	      0.21219533	      0.12220284	      0.07199421	      0.99585138	      1.14316930	     -0.04957777	     -0.01324092	     -0.00572845	     -0.02037184	     -0.00509509	      0.00080197	      0.07265721	     -0.07027098	      0.04654352	     -0.10583070
      6.07000000	    -35.64829929	      5.91625992	     -1.61936313	    -12.51274693	    560.52154629	    -11.19291868	     -2.76019950	     -5.00368822	      0.83592373	      0.59357123	     -7.43350097	      0.78804514	      8.64657170	      0.54164264	      1.81332111	      0.81147739	     -0.03794502	      0.39870898	     -0.03892987	     -1.36007251	     -2.91358092	      0.19960775	     -2.15742727	     -3.16520237	      0.32645642	      0.34338231	      0.31505303	      1.31780160	      1.37146448	     -0.07384109	     -0.08118658	     -0.01367194	     -0.02011639	     -0.01752332	     -0.01384988	      0.07780326	     -0.10270397	      0.07022711	     -0.12436146
      6.07500000	    -36.71035566	      6.41332257	     -1.63483163	     -7.17475071	    651.16391642	    -12.91797447	      1.30534630	     -4.36052897	      0.42422828	      2.07447925	     -8.53984118	      0.44088161	      8.65638585	     -0.61213331	      1.21764338	     -0.56518833	     -0.04487023	     -0.67882153	     -0.04476454	     -1.72199346	     -3.50550184	      0.18537675	     -2.37994013	     -3.47848933	      0.43490690	      0.57513507	      0.56984517	      1.65956100	      1.61193132	     -0.10148203	     -0.15328682	     -0.02231739	     -0.02037348	     -0.03037866	     -0.02923654	      0.08271065	     -0.13757836	      0.09344641	     -0.14436644
      6.08000000	    -37.88733093	      6.90948492	     -1.65861436	     -1.57318130	    743.15939837	    -14.63941558	      5.49293506	     -3.70089553	     -0.00474774	      3.56274043	     -9.61035382	      0.07633232	      8.52538112	     -1.76124848	      0.62522377	     -1.99573977	     -0.05193758	     -1.77045045	     -0.05066294	     -2.08565554	     -4.10523340	      0.16853797	     -2.59603196	     -3.80623705	      0.53737435	      0.81317436	      0.82976840	      2.01100804	      1.85816575	     -0.13097882	     -0.22577842	     -0.03131149	     -0.02095849	     -0.04347623	     -0.04498799	      0.08756384	     -0.17367814	      0.11616163	     -0.16509512
