Model Marker Errors from IK
version=1
nRows=681
nColumns=4
inDegrees=no
endheader
time	total_squared_error	marker_error_RMS	marker_error_max
      1.50000000	      0.02688933	      0.02099544	      0.04517002
      1.50500000	      0.02681689	      0.02096715	      0.04490499
      1.51000000	      0.02691723	      0.02100633	      0.04499673
      1.51500000	      0.02677238	      0.02094974	      0.04499811
      1.52000000	      0.02679485	      0.02095853	      0.04485816
      1.52500000	      0.02679079	      0.02095694	      0.04478854
      1.53000000	      0.02677256	      0.02094981	      0.04481318
      1.53500000	      0.02678714	      0.02095551	      0.04484888
      1.54000000	      0.02679724	      0.02095946	      0.04495914
      1.54500000	      0.02678263	      0.02095375	      0.04488848
      1.55000000	      0.02683804	      0.02097541	      0.04515240
      1.55500000	      0.02688721	      0.02099462	      0.04520917
      1.56000000	      0.02687003	      0.02098791	      0.04536773
      1.56500000	      0.02690797	      0.02100272	      0.04539172
      1.57000000	      0.02695449	      0.02102087	      0.04544934
      1.57500000	      0.02701474	      0.02104435	      0.04565635
      1.58000000	      0.02703508	      0.02105227	      0.04582684
      1.58500000	      0.02708695	      0.02107246	      0.04586293
      1.59000000	      0.02717792	      0.02110781	      0.04606748
      1.59500000	      0.02719560	      0.02111467	      0.04630394
      1.60000000	      0.02716449	      0.02110260	      0.04641414
      1.60500000	      0.02723272	      0.02112908	      0.04633758
      1.61000000	      0.02726867	      0.02114302	      0.04672325
      1.61500000	      0.02732697	      0.02116561	      0.04673355
      1.62000000	      0.02738450	      0.02118788	      0.04684556
      1.62500000	      0.02746581	      0.02121931	      0.04698873
      1.63000000	      0.02743730	      0.02120830	      0.04693418
      1.63500000	      0.02745927	      0.02121679	      0.04704239
      1.64000000	      0.02750095	      0.02123288	      0.04706981
      1.64500000	      0.02757993	      0.02126335	      0.04713834
      1.65000000	      0.02764351	      0.02128785	      0.04717650
      1.65500000	      0.02767420	      0.02129966	      0.04728567
      1.66000000	      0.02767273	      0.02129909	      0.04721395
      1.66500000	      0.02777185	      0.02133720	      0.04724686
      1.67000000	      0.02783553	      0.02136165	      0.04737958
      1.67500000	      0.02795069	      0.02140580	      0.04746124
      1.68000000	      0.02801858	      0.02143177	      0.04756821
      1.68500000	      0.02809097	      0.02145944	      0.04768347
      1.69000000	      0.02817338	      0.02149090	      0.04783704
      1.69500000	      0.02829376	      0.02153676	      0.04795617
      1.70000000	      0.02840687	      0.02157977	      0.04838051
      1.70500000	      0.02854042	      0.02163044	      0.04856016
      1.71000000	      0.02856925	      0.02164136	      0.04880706
      1.71500000	      0.02869490	      0.02168889	      0.04924805
      1.72000000	      0.02885446	      0.02174911	      0.04950454
      1.72500000	      0.02891403	      0.02177155	      0.04976394
      1.73000000	      0.02904885	      0.02182225	      0.05008648
      1.73500000	      0.02919989	      0.02187891	      0.05026020
      1.74000000	      0.02931430	      0.02192173	      0.05073419
      1.74500000	      0.02938023	      0.02194637	      0.05099253
      1.75000000	      0.02950339	      0.02199232	      0.05119393
      1.75500000	      0.02954644	      0.02200836	      0.05152757
      1.76000000	      0.02969910	      0.02206514	      0.05176043
      1.76500000	      0.02970337	      0.02206673	      0.05205709
      1.77000000	      0.02976529	      0.02208972	      0.05230226
      1.77500000	      0.03002025	      0.02218412	      0.05252020
      1.78000000	      0.03017029	      0.02223949	      0.05270981
      1.78500000	      0.03021360	      0.02225545	      0.05316132
      1.79000000	      0.03028313	      0.02228104	      0.05337970
      1.79500000	      0.03056497	      0.02238448	      0.05412586
      1.80000000	      0.03056840	      0.02238574	      0.05382414
      1.80500000	      0.03078020	      0.02246316	      0.05447661
      1.81000000	      0.03060772	      0.02240013	      0.05442443
      1.81500000	      0.03071267	      0.02243850	      0.05459903
      1.82000000	      0.03081979	      0.02247760	      0.05475667
      1.82500000	      0.03094434	      0.02252297	      0.05517115
      1.83000000	      0.03108913	      0.02257560	      0.05525087
      1.83500000	      0.03129674	      0.02265086	      0.05543790
      1.84000000	      0.03149101	      0.02272105	      0.05576105
      1.84500000	      0.03169451	      0.02279435	      0.05598520
      1.85000000	      0.03181141	      0.02283634	      0.05613547
      1.85500000	      0.03194746	      0.02288512	      0.05635710
      1.86000000	      0.03225676	      0.02299564	      0.05747131
      1.86500000	      0.03242194	      0.02305444	      0.05688855
      1.87000000	      0.03262823	      0.02312767	      0.05716934
      1.87500000	      0.03284697	      0.02320506	      0.05774881
      1.88000000	      0.03305120	      0.02327709	      0.05776231
      1.88500000	      0.03325467	      0.02334863	      0.05808781
      1.89000000	      0.03340023	      0.02339967	      0.05793486
      1.89500000	      0.03363789	      0.02348278	      0.05835585
      1.90000000	      0.03395697	      0.02359389	      0.05862930
      1.90500000	      0.03444639	      0.02376331	      0.05993164
      1.91000000	      0.03435666	      0.02373234	      0.05903594
      1.91500000	      0.03462478	      0.02382476	      0.05930983
      1.92000000	      0.03483303	      0.02389630	      0.05957576
      1.92500000	      0.03499256	      0.02395096	      0.05956041
      1.93000000	      0.03516142	      0.02400868	      0.05972181
      1.93500000	      0.03539315	      0.02408767	      0.05990370
      1.94000000	      0.03562318	      0.02416581	      0.06001678
      1.94500000	      0.03600504	      0.02429499	      0.06016380
      1.95000000	      0.03620399	      0.02436202	      0.06032414
      1.95500000	      0.03645336	      0.02444578	      0.06028699
      1.96000000	      0.03672627	      0.02453712	      0.06036294
      1.96500000	      0.03693972	      0.02460832	      0.06030882
      1.97000000	      0.03726094	      0.02471508	      0.06027577
      1.97500000	      0.03753211	      0.02480485	      0.06037941
      1.98000000	      0.03780916	      0.02489623	      0.06047122
      1.98500000	      0.03814492	      0.02500653	      0.06063737
      1.99000000	      0.03843966	      0.02510296	      0.06063328
      1.99500000	      0.03870092	      0.02518812	      0.06046723
      2.00000000	      0.03920109	      0.02535036	      0.06063154
      2.00500000	      0.03954541	      0.02546145	      0.06066860
      2.01000000	      0.03975364	      0.02552839	      0.06059505
      2.01500000	      0.04019371	      0.02566931	      0.06081876
      2.02000000	      0.04075292	      0.02584726	      0.06129823
      2.02500000	      0.04105531	      0.02594297	      0.06160741
      2.03000000	      0.04165091	      0.02613048	      0.06232895
      2.03500000	      0.04207763	      0.02626399	      0.06285673
      2.04000000	      0.04242025	      0.02637070	      0.06319540
      2.04500000	      0.04307283	      0.02657277	      0.06376918
      2.05000000	      0.04366794	      0.02675571	      0.06416616
      2.05500000	      0.04422252	      0.02692507	      0.06516424
      2.06000000	      0.04446947	      0.02700014	      0.06519346
      2.06500000	      0.04495692	      0.02714772	      0.06554086
      2.07000000	      0.04549116	      0.02730855	      0.06608797
      2.07500000	      0.04607074	      0.02748196	      0.06646664
      2.08000000	      0.04645410	      0.02759606	      0.06692267
      2.08500000	      0.04694120	      0.02774037	      0.06747621
      2.09000000	      0.04755026	      0.02791975	      0.06789886
      2.09500000	      0.04806918	      0.02807168	      0.06826280
      2.10000000	      0.04866161	      0.02824414	      0.06962713
      2.10500000	      0.04916703	      0.02839044	      0.06940245
      2.11000000	      0.04947641	      0.02847962	      0.06932616
      2.11500000	      0.05020641	      0.02868895	      0.06959891
      2.12000000	      0.05079213	      0.02885581	      0.07039993
      2.12500000	      0.05132578	      0.02900700	      0.07073763
      2.13000000	      0.05174456	      0.02912510	      0.07150139
      2.13500000	      0.05229601	      0.02927988	      0.07116376
      2.14000000	      0.05280244	      0.02942131	      0.07200435
      2.14500000	      0.05361203	      0.02964601	      0.07299974
      2.15000000	      0.05416092	      0.02979738	      0.07249334
      2.15500000	      0.05472127	      0.02995113	      0.07398607
      2.16000000	      0.05527456	      0.03010216	      0.07303941
      2.16500000	      0.05596065	      0.03028841	      0.07360136
      2.17000000	      0.05659707	      0.03046015	      0.07390014
      2.17500000	      0.05707741	      0.03058914	      0.07445096
      2.18000000	      0.05753906	      0.03071259	      0.07530199
      2.18500000	      0.05809477	      0.03086055	      0.07553120
      2.19000000	      0.05867559	      0.03101443	      0.07542334
      2.19500000	      0.05933249	      0.03118756	      0.07578165
      2.20000000	      0.05995994	      0.03135203	      0.07644900
      2.20500000	      0.06042897	      0.03147442	      0.07730369
      2.21000000	      0.06099655	      0.03162188	      0.07697387
      2.21500000	      0.06162161	      0.03178349	      0.07745440
      2.22000000	      0.06237348	      0.03197681	      0.07871148
      2.22500000	      0.06305661	      0.03215144	      0.07824626
      2.23000000	      0.06372456	      0.03232128	      0.07876570
      2.23500000	      0.06443603	      0.03250121	      0.07965196
      2.24000000	      0.06507390	      0.03266168	      0.08026505
      2.24500000	      0.06580236	      0.03284398	      0.07985258
      2.25000000	      0.06656187	      0.03303299	      0.08031465
      2.25500000	      0.06734028	      0.03322558	      0.08065027
      2.26000000	      0.06810097	      0.03341271	      0.08179955
      2.26500000	      0.06891449	      0.03361169	      0.08178739
      2.27000000	      0.06960151	      0.03377882	      0.08208721
      2.27500000	      0.07038784	      0.03396909	      0.08276351
      2.28000000	      0.07110267	      0.03414114	      0.08302305
      2.28500000	      0.07202512	      0.03436189	      0.08345104
      2.29000000	      0.07279540	      0.03454515	      0.08398839
      2.29500000	      0.07359400	      0.03473412	      0.08484119
      2.30000000	      0.07452840	      0.03495393	      0.08488078
      2.30500000	      0.07500929	      0.03506651	      0.08578680
      2.31000000	      0.07568630	      0.03522441	      0.08550993
      2.31500000	      0.07641698	      0.03539403	      0.08610427
      2.32000000	      0.07714320	      0.03556181	      0.08661906
      2.32500000	      0.07797344	      0.03575266	      0.08726340
      2.33000000	      0.07874265	      0.03592858	      0.08780841
      2.33500000	      0.07977349	      0.03616299	      0.08826966
      2.34000000	      0.08022717	      0.03626568	      0.08861428
      2.34500000	      0.08083634	      0.03640310	      0.08895266
      2.35000000	      0.08206007	      0.03667761	      0.08969731
      2.35500000	      0.08281639	      0.03684624	      0.09052325
      2.36000000	      0.08366479	      0.03703450	      0.09100373
      2.36500000	      0.08431987	      0.03717920	      0.09144777
      2.37000000	      0.08534844	      0.03740528	      0.09166819
      2.37500000	      0.08628759	      0.03761051	      0.09212616
      2.38000000	      0.08703615	      0.03777330	      0.09269194
      2.38500000	      0.08772005	      0.03792141	      0.09302409
      2.39000000	      0.08868909	      0.03813030	      0.09376011
      2.39500000	      0.08936537	      0.03827540	      0.09399898
      2.40000000	      0.09003594	      0.03841873	      0.09469790
      2.40500000	      0.09115156	      0.03865602	      0.09483488
      2.41000000	      0.09188713	      0.03881168	      0.09537263
      2.41500000	      0.09356211	      0.03916382	      0.09681770
      2.42000000	      0.09345330	      0.03914104	      0.09624690
      2.42500000	      0.09426548	      0.03931076	      0.09666458
      2.43000000	      0.09515564	      0.03949593	      0.09718106
      2.43500000	      0.09589799	      0.03964969	      0.09730549
      2.44000000	      0.09665135	      0.03980513	      0.09768755
      2.44500000	      0.09750128	      0.03997977	      0.09810051
      2.45000000	      0.09822465	      0.04012780	      0.09836411
      2.45500000	      0.09915105	      0.04031659	      0.09900636
      2.46000000	      0.10001648	      0.04049215	      0.09908862
      2.46500000	      0.10085384	      0.04066130	      0.09957764
      2.47000000	      0.10132554	      0.04075628	      0.09996732
      2.47500000	      0.10223891	      0.04093956	      0.10054728
      2.48000000	      0.10312765	      0.04111712	      0.10083429
      2.48500000	      0.10382228	      0.04125536	      0.10099884
      2.49000000	      0.10468613	      0.04142664	      0.10178735
      2.49500000	      0.10528535	      0.04154503	      0.10182630
      2.50000000	      0.10591464	      0.04166900	      0.10214209
      2.50500000	      0.10647467	      0.04177902	      0.10257383
      2.51000000	      0.10706305	      0.04189429	      0.10272176
      2.51500000	      0.10774725	      0.04202795	      0.10296314
      2.52000000	      0.10817147	      0.04211060	      0.10337370
      2.52500000	      0.10892651	      0.04225731	      0.10366539
      2.53000000	      0.10943745	      0.04235630	      0.10371563
      2.53500000	      0.11002195	      0.04246927	      0.10418387
      2.54000000	      0.11063730	      0.04258787	      0.10464605
      2.54500000	      0.11129016	      0.04271333	      0.10461028
      2.55000000	      0.11169711	      0.04279136	      0.10479597
      2.55500000	      0.11227295	      0.04290152	      0.10505025
      2.56000000	      0.11267908	      0.04297904	      0.10522040
      2.56500000	      0.11314855	      0.04306848	      0.10535081
      2.57000000	      0.11370212	      0.04317371	      0.10559361
      2.57500000	      0.11406166	      0.04324191	      0.10567564
      2.58000000	      0.11447606	      0.04332040	      0.10603216
      2.58500000	      0.11511015	      0.04344021	      0.10604250
      2.59000000	      0.11556975	      0.04352684	      0.10605685
      2.59500000	      0.11573870	      0.04355865	      0.10657895
      2.60000000	      0.11631616	      0.04366718	      0.10673113
      2.60500000	      0.11670603	      0.04374030	      0.10672279
      2.61000000	      0.11763591	      0.04391421	      0.10697710
      2.61500000	      0.11755324	      0.04389877	      0.10700868
      2.62000000	      0.11802607	      0.04398697	      0.10721114
      2.62500000	      0.11854792	      0.04408411	      0.10706652
      2.63000000	      0.11903535	      0.04417464	      0.10780155
      2.63500000	      0.11961826	      0.04428267	      0.10790721
      2.64000000	      0.12014699	      0.04438043	      0.10774032
      2.64500000	      0.12043002	      0.04443268	      0.10800940
      2.65000000	      0.12081626	      0.04450387	      0.10838557
      2.65500000	      0.12084046	      0.04450833	      0.10816598
      2.66000000	      0.12113961	      0.04456339	      0.10832396
      2.66500000	      0.12155191	      0.04463916	      0.10890183
      2.67000000	      0.12252784	      0.04481800	      0.10921635
      2.67500000	      0.12223077	      0.04476364	      0.10894856
      2.68000000	      0.12267031	      0.04484405	      0.10896623
      2.68500000	      0.12377711	      0.04504590	      0.10939743
      2.69000000	      0.12415296	      0.04511424	      0.10968048
      2.69500000	      0.12406861	      0.04509891	      0.10973642
      2.70000000	      0.12455639	      0.04518748	      0.10988479
      2.70500000	      0.12488544	      0.04524712	      0.11014682
      2.71000000	      0.12591561	      0.04543336	      0.11061178
      2.71500000	      0.12577451	      0.04540790	      0.11030279
      2.72000000	      0.12674374	      0.04558252	      0.11085919
      2.72500000	      0.12736904	      0.04569483	      0.11090069
      2.73000000	      0.12784786	      0.04578064	      0.11128732
      2.73500000	      0.12840920	      0.04588103	      0.11129512
      2.74000000	      0.12891811	      0.04597186	      0.11142879
      2.74500000	      0.12946569	      0.04606939	      0.11194945
      2.75000000	      0.13013052	      0.04618752	      0.11236071
      2.75500000	      0.13060177	      0.04627108	      0.11255455
      2.76000000	      0.13099896	      0.04634139	      0.11277136
      2.76500000	      0.13169275	      0.04646394	      0.11309997
      2.77000000	      0.13226315	      0.04656445	      0.11315823
      2.77500000	      0.13292393	      0.04668063	      0.11367172
      2.78000000	      0.13338781	      0.04676201	      0.11347144
      2.78500000	      0.13391264	      0.04685391	      0.11424876
      2.79000000	      0.13460946	      0.04697566	      0.11440354
      2.79500000	      0.13508045	      0.04705777	      0.11462625
      2.80000000	      0.13554907	      0.04713932	      0.11500769
      2.80500000	      0.13614558	      0.04724293	      0.11551335
      2.81000000	      0.13680399	      0.04735703	      0.11553818
      2.81500000	      0.13721751	      0.04742855	      0.11576490
      2.82000000	      0.13788703	      0.04754412	      0.11618790
      2.82500000	      0.13852366	      0.04765375	      0.11636323
      2.83000000	      0.13909546	      0.04775200	      0.11672504
      2.83500000	      0.13984761	      0.04788093	      0.11697161
      2.84000000	      0.14053737	      0.04799887	      0.11686134
      2.84500000	      0.14174155	      0.04820407	      0.11691111
      2.85000000	      0.14190553	      0.04823194	      0.11790384
      2.85500000	      0.14253898	      0.04833947	      0.11796764
      2.86000000	      0.14334450	      0.04847587	      0.11852320
      2.86500000	      0.14412103	      0.04860699	      0.11875149
      2.87000000	      0.14479958	      0.04872128	      0.11902952
      2.87500000	      0.14540800	      0.04882354	      0.11933970
      2.88000000	      0.14613001	      0.04894460	      0.11913081
      2.88500000	      0.14664668	      0.04903105	      0.11949040
      2.89000000	      0.14748602	      0.04917117	      0.11996413
      2.89500000	      0.14820020	      0.04929007	      0.12030480
      2.90000000	      0.14894890	      0.04941442	      0.12008128
      2.90500000	      0.14948408	      0.04950312	      0.12073598
      2.91000000	      0.15031130	      0.04963990	      0.12105665
      2.91500000	      0.15105224	      0.04976210	      0.12126482
      2.92000000	      0.15202909	      0.04992274	      0.12132471
      2.92500000	      0.15313119	      0.05010337	      0.12127209
      2.93000000	      0.15322823	      0.05011924	      0.12182430
      2.93500000	      0.15415479	      0.05027055	      0.12228554
      2.94000000	      0.15501244	      0.05041019	      0.12247837
      2.94500000	      0.15597045	      0.05056573	      0.12290015
      2.95000000	      0.15668515	      0.05068145	      0.12316497
      2.95500000	      0.15745091	      0.05080514	      0.12336964
      2.96000000	      0.15885726	      0.05103153	      0.12360089
      2.96500000	      0.15949682	      0.05113416	      0.12418732
      2.97000000	      0.16040850	      0.05128009	      0.12418994
      2.97500000	      0.16114440	      0.05139758	      0.12467175
      2.98000000	      0.16235894	      0.05159091	      0.12474330
      2.98500000	      0.16296185	      0.05168661	      0.12533630
      2.99000000	      0.16398240	      0.05184820	      0.12543837
      2.99500000	      0.16477930	      0.05197403	      0.12591541
      3.00000000	      0.16599594	      0.05216555	      0.12602917
      3.00500000	      0.16619491	      0.05219681	      0.12633252
      3.01000000	      0.16721083	      0.05235610	      0.12651217
      3.01500000	      0.16823081	      0.05251554	      0.12672699
      3.02000000	      0.16907074	      0.05264648	      0.12682326
      3.02500000	      0.16899197	      0.05263421	      0.12728289
      3.03000000	      0.17009395	      0.05280554	      0.12742318
      3.03500000	      0.17094303	      0.05293718	      0.12819062
      3.04000000	      0.17159244	      0.05303764	      0.12827583
      3.04500000	      0.17235879	      0.05315594	      0.12806896
      3.05000000	      0.17327905	      0.05329766	      0.12826421
      3.05500000	      0.17451213	      0.05348696	      0.12867084
      3.06000000	      0.17426155	      0.05344854	      0.12940290
      3.06500000	      0.17530858	      0.05360887	      0.12946140
      3.07000000	      0.17627275	      0.05375609	      0.12949555
      3.07500000	      0.17709728	      0.05388167	      0.12984613
      3.08000000	      0.17760100	      0.05395824	      0.13039402
      3.08500000	      0.17835177	      0.05407217	      0.13035417
      3.09000000	      0.17884101	      0.05414628	      0.13072643
      3.09500000	      0.17977290	      0.05428717	      0.13084480
      3.10000000	      0.18037414	      0.05437787	      0.13127520
      3.10500000	      0.18146544	      0.05454212	      0.13134758
      3.11000000	      0.18194265	      0.05461379	      0.13166192
      3.11500000	      0.18276725	      0.05473741	      0.13130197
      3.12000000	      0.18320083	      0.05480230	      0.13211080
      3.12500000	      0.18434185	      0.05497270	      0.13211729
      3.13000000	      0.18495844	      0.05506456	      0.13244955
      3.13500000	      0.18548768	      0.05514328	      0.13256194
      3.14000000	      0.18654736	      0.05530057	      0.13276378
      3.14500000	      0.18759266	      0.05545529	      0.13305583
      3.15000000	      0.18871142	      0.05562041	      0.13310464
      3.15500000	      0.18882932	      0.05563778	      0.13349356
      3.16000000	      0.18955285	      0.05574427	      0.13321222
      3.16500000	      0.18994256	      0.05580155	      0.13395500
      3.17000000	      0.19132255	      0.05600389	      0.13396102
      3.17500000	      0.19202996	      0.05610733	      0.13430646
      3.18000000	      0.19288214	      0.05623168	      0.13427117
      3.18500000	      0.19347341	      0.05631781	      0.13465404
      3.19000000	      0.19434733	      0.05644486	      0.13482327
      3.19500000	      0.19562144	      0.05662958	      0.13492483
      3.20000000	      0.19614105	      0.05670474	      0.13536026
      3.20500000	      0.19694923	      0.05682144	      0.13522839
      3.21000000	      0.19816538	      0.05699660	      0.13557999
      3.21500000	      0.19879019	      0.05708639	      0.13582765
      3.22000000	      0.19993086	      0.05724993	      0.13592344
      3.22500000	      0.20028471	      0.05730058	      0.13591822
      3.23000000	      0.20139381	      0.05745901	      0.13604411
      3.23500000	      0.20180562	      0.05751773	      0.13652598
      3.24000000	      0.20275645	      0.05765307	      0.13679407
      3.24500000	      0.20344168	      0.05775041	      0.13676145
      3.25000000	      0.20395865	      0.05782374	      0.13678469
      3.25500000	      0.20504644	      0.05797773	      0.13709581
      3.26000000	      0.20608125	      0.05812384	      0.13720847
      3.26500000	      0.20639942	      0.05816870	      0.13747127
      3.27000000	      0.20694857	      0.05824603	      0.13732067
      3.27500000	      0.20811043	      0.05840930	      0.13741586
      3.28000000	      0.20919743	      0.05856164	      0.13798963
      3.28500000	      0.20990881	      0.05866113	      0.13796091
      3.29000000	      0.21060739	      0.05875866	      0.13799422
      3.29500000	      0.21192952	      0.05894281	      0.13826147
      3.30000000	      0.21298708	      0.05908969	      0.13864109
      3.30500000	      0.21334610	      0.05913947	      0.13904994
      3.31000000	      0.21433249	      0.05927603	      0.13910919
      3.31500000	      0.21545281	      0.05943074	      0.13927385
      3.32000000	      0.21641299	      0.05956302	      0.13955163
      3.32500000	      0.21732572	      0.05968850	      0.13966901
      3.33000000	      0.21794752	      0.05977382	      0.13993526
      3.33500000	      0.21797250	      0.05977725	      0.13977165
      3.34000000	      0.21997834	      0.06005166	      0.14028668
      3.34500000	      0.22074546	      0.06015628	      0.14071226
      3.35000000	      0.22162415	      0.06027589	      0.14087733
      3.35500000	      0.22289940	      0.06044906	      0.14127094
      3.36000000	      0.22222907	      0.06035809	      0.14083321
      3.36500000	      0.22298548	      0.06046073	      0.14105130
      3.37000000	      0.22448464	      0.06066363	      0.14142427
      3.37500000	      0.22553122	      0.06080488	      0.14178220
      3.38000000	      0.22667190	      0.06095845	      0.14232127
      3.38500000	      0.22716004	      0.06102405	      0.14253366
      3.39000000	      0.22671987	      0.06096490	      0.14216289
      3.39500000	      0.22877938	      0.06124118	      0.14276750
      3.40000000	      0.22960763	      0.06135193	      0.14299638
      3.40500000	      0.22896722	      0.06126631	      0.14283300
      3.41000000	      0.22916547	      0.06129283	      0.14301256
      3.41500000	      0.22990603	      0.06139179	      0.14303786
      3.42000000	      0.23051050	      0.06147244	      0.14345676
      3.42500000	      0.23087198	      0.06152062	      0.14342862
      3.43000000	      0.23293311	      0.06179462	      0.14376347
      3.43500000	      0.23208030	      0.06168140	      0.14357888
      3.44000000	      0.23248235	      0.06173480	      0.14387007
      3.44500000	      0.23443706	      0.06199379	      0.14422989
      3.45000000	      0.23490770	      0.06205599	      0.14406316
      3.45500000	      0.23499089	      0.06206698	      0.14448087
      3.46000000	      0.23545005	      0.06212759	      0.14448939
      3.46500000	      0.23577955	      0.06217104	      0.14442933
      3.47000000	      0.23615410	      0.06222040	      0.14442195
      3.47500000	      0.23498051	      0.06206561	      0.14418785
      3.48000000	      0.23534377	      0.06211356	      0.14429268
      3.48500000	      0.23558445	      0.06214531	      0.14425906
      3.49000000	      0.23567250	      0.06215693	      0.14448811
      3.49500000	      0.23628418	      0.06223754	      0.14463138
      3.50000000	      0.23687604	      0.06231544	      0.14467579
      3.50500000	      0.23697609	      0.06232860	      0.14465612
      3.51000000	      0.23753154	      0.06240160	      0.14475117
      3.51500000	      0.23823819	      0.06249435	      0.14487550
      3.52000000	      0.23979078	      0.06269766	      0.14560864
      3.52500000	      0.23886835	      0.06257695	      0.14519325
      3.53000000	      0.24085436	      0.06283655	      0.14573998
      3.53500000	      0.24124683	      0.06288773	      0.14567107
      3.54000000	      0.24140550	      0.06290840	      0.14578179
      3.54500000	      0.24163570	      0.06293839	      0.14590164
      3.55000000	      0.24049025	      0.06278904	      0.14529929
      3.55500000	      0.24045090	      0.06278390	      0.14534736
      3.56000000	      0.24054264	      0.06279588	      0.14545953
      3.56500000	      0.24059930	      0.06280327	      0.14555065
      3.57000000	      0.24051796	      0.06279265	      0.14539627
      3.57500000	      0.24011297	      0.06273977	      0.14522876
      3.58000000	      0.23995115	      0.06271862	      0.14518399
      3.58500000	      0.23949336	      0.06265876	      0.14480427
      3.59000000	      0.23898633	      0.06259240	      0.14508773
      3.59500000	      0.23857675	      0.06253874	      0.14484906
      3.60000000	      0.23813662	      0.06248103	      0.14469044
      3.60500000	      0.23786753	      0.06244572	      0.14466834
      3.61000000	      0.23768087	      0.06242121	      0.14443738
      3.61500000	      0.23740887	      0.06238548	      0.14421230
      3.62000000	      0.23734790	      0.06237747	      0.14452983
      3.62500000	      0.23672439	      0.06229549	      0.14464415
      3.63000000	      0.23641032	      0.06225415	      0.14465248
      3.63500000	      0.23632078	      0.06224236	      0.14455153
      3.64000000	      0.23764786	      0.06241688	      0.14476579
      3.64500000	      0.23610811	      0.06221435	      0.14414817
      3.65000000	      0.23583404	      0.06217823	      0.14419473
      3.65500000	      0.23714655	      0.06235101	      0.14459414
      3.66000000	      0.23699248	      0.06233075	      0.14470954
      3.66500000	      0.23565435	      0.06215453	      0.14449114
      3.67000000	      0.23548347	      0.06213199	      0.14450866
      3.67500000	      0.23530150	      0.06210798	      0.14437587
      3.68000000	      0.23531700	      0.06211003	      0.14430985
      3.68500000	      0.23658092	      0.06227661	      0.14476674
      3.69000000	      0.23641937	      0.06225534	      0.14487193
      3.69500000	      0.23488375	      0.06205283	      0.14447239
      3.70000000	      0.23603325	      0.06220448	      0.14502320
      3.70500000	      0.23611652	      0.06221545	      0.14505386
      3.71000000	      0.23450952	      0.06200337	      0.14457995
      3.71500000	      0.23588557	      0.06218502	      0.14508047
      3.72000000	      0.23576484	      0.06216910	      0.14505127
      3.72500000	      0.23562711	      0.06215094	      0.14506796
      3.73000000	      0.23569311	      0.06215964	      0.14502172
      3.73500000	      0.23575865	      0.06216829	      0.14490227
      3.74000000	      0.23587991	      0.06218427	      0.14513629
      3.74500000	      0.23579592	      0.06217320	      0.14513273
      3.75000000	      0.23587741	      0.06218394	      0.14510447
      3.75500000	      0.23601758	      0.06220242	      0.14513568
      3.76000000	      0.23602833	      0.06220383	      0.14521338
      3.76500000	      0.23615100	      0.06222000	      0.14525204
      3.77000000	      0.23642236	      0.06225573	      0.14551419
      3.77500000	      0.23621342	      0.06222822	      0.14577767
      3.78000000	      0.23639975	      0.06225276	      0.14591154
      3.78500000	      0.23626517	      0.06223503	      0.14593494
      3.79000000	      0.23620104	      0.06222659	      0.14603608
      3.79500000	      0.23598638	      0.06219831	      0.14613715
      3.80000000	      0.23598260	      0.06219781	      0.14606547
      3.80500000	      0.23555741	      0.06214175	      0.14607433
      3.81000000	      0.23553701	      0.06213906	      0.14618317
      3.81500000	      0.23569178	      0.06215947	      0.14633912
      3.82000000	      0.23537040	      0.06211708	      0.14642475
      3.82500000	      0.23550264	      0.06213452	      0.14642806
      3.83000000	      0.23549474	      0.06213348	      0.14677141
      3.83500000	      0.23550062	      0.06213426	      0.14695880
      3.84000000	      0.23543665	      0.06212582	      0.14703164
      3.84500000	      0.23544861	      0.06212739	      0.14699124
      3.85000000	      0.23573481	      0.06216514	      0.14700970
      3.85500000	      0.23552715	      0.06213776	      0.14699110
      3.86000000	      0.23537013	      0.06211704	      0.14708399
      3.86500000	      0.23552268	      0.06213717	      0.14708652
      3.87000000	      0.23564212	      0.06215292	      0.14713695
      3.87500000	      0.23546749	      0.06212989	      0.14714668
      3.88000000	      0.23518671	      0.06209283	      0.14712715
      3.88500000	      0.23522808	      0.06209829	      0.14719641
      3.89000000	      0.23520764	      0.06209560	      0.14704811
      3.89500000	      0.23484444	      0.06204763	      0.14687863
      3.90000000	      0.23466445	      0.06202385	      0.14683514
      3.90500000	      0.23423975	      0.06196770	      0.14676133
      3.91000000	      0.23405124	      0.06194276	      0.14675122
      3.91500000	      0.23383509	      0.06191415	      0.14673111
      3.92000000	      0.23317819	      0.06182712	      0.14680902
      3.92500000	      0.23323116	      0.06183415	      0.14687378
      3.93000000	      0.23277368	      0.06177347	      0.14680607
      3.93500000	      0.23248616	      0.06173531	      0.14668381
      3.94000000	      0.23198903	      0.06166927	      0.14667017
      3.94500000	      0.23187848	      0.06165457	      0.14653561
      3.95000000	      0.23191645	      0.06165962	      0.14653579
      3.95500000	      0.23166044	      0.06162558	      0.14660470
      3.96000000	      0.23154370	      0.06161005	      0.14667696
      3.96500000	      0.23120285	      0.06156469	      0.14659103
      3.97000000	      0.23094335	      0.06153013	      0.14639066
      3.97500000	      0.23077316	      0.06150745	      0.14614187
      3.98000000	      0.23060753	      0.06148537	      0.14630757
      3.98500000	      0.23059892	      0.06148423	      0.14634400
      3.99000000	      0.23033912	      0.06144958	      0.14639429
      3.99500000	      0.23023873	      0.06143619	      0.14639157
      4.00000000	      0.23013070	      0.06142178	      0.14623138
      4.00500000	      0.23004819	      0.06141076	      0.14623533
      4.01000000	      0.22985877	      0.06138548	      0.14612431
      4.01500000	      0.22973603	      0.06136908	      0.14614521
      4.02000000	      0.22946877	      0.06133338	      0.14620462
      4.02500000	      0.22920589	      0.06129823	      0.14598319
      4.03000000	      0.22900661	      0.06127158	      0.14586234
      4.03500000	      0.22898154	      0.06126823	      0.14604686
      4.04000000	      0.22839711	      0.06118999	      0.14578675
      4.04500000	      0.22778028	      0.06110731	      0.14565696
      4.05000000	      0.22749497	      0.06106902	      0.14560142
      4.05500000	      0.22704246	      0.06100826	      0.14558524
      4.06000000	      0.22630330	      0.06090887	      0.14502640
      4.06500000	      0.22568508	      0.06082561	      0.14485080
      4.07000000	      0.22534579	      0.06077988	      0.14505312
      4.07500000	      0.22493998	      0.06072512	      0.14486147
      4.08000000	      0.22408727	      0.06060992	      0.14448921
      4.08500000	      0.22369750	      0.06055718	      0.14432399
      4.09000000	      0.22306629	      0.06047168	      0.14426749
      4.09500000	      0.22272964	      0.06042603	      0.14415715
      4.10000000	      0.22213882	      0.06034584	      0.14380796
      4.10500000	      0.22181202	      0.06030143	      0.14375950
      4.11000000	      0.22075055	      0.06015697	      0.14370830
      4.11500000	      0.22032068	      0.06009837	      0.14342255
      4.12000000	      0.22008481	      0.06006619	      0.14331845
      4.12500000	      0.21913523	      0.05993647	      0.14290716
      4.13000000	      0.21849173	      0.05984841	      0.14265593
      4.13500000	      0.21755447	      0.05971990	      0.14237117
      4.14000000	      0.21680549	      0.05961701	      0.14219765
      4.14500000	      0.21597583	      0.05950284	      0.14199998
      4.15000000	      0.21487195	      0.05935058	      0.14164872
      4.15500000	      0.21415373	      0.05925130	      0.14158821
      4.16000000	      0.21281984	      0.05906649	      0.14081769
      4.16500000	      0.21192363	      0.05894199	      0.14088435
      4.17000000	      0.21055493	      0.05875134	      0.14017395
      4.17500000	      0.20945585	      0.05859780	      0.13998466
      4.18000000	      0.20799304	      0.05839283	      0.13916643
      4.18500000	      0.20666373	      0.05820593	      0.13905610
      4.19000000	      0.20549353	      0.05804090	      0.13848642
      4.19500000	      0.20399965	      0.05782955	      0.13812833
      4.20000000	      0.20240889	      0.05760363	      0.13742018
      4.20500000	      0.20102902	      0.05740695	      0.13712631
      4.21000000	      0.19978092	      0.05722846	      0.13679590
      4.21500000	      0.19798624	      0.05697084	      0.13604699
      4.22000000	      0.19638674	      0.05674024	      0.13560529
      4.22500000	      0.19477420	      0.05650681	      0.13515133
      4.23000000	      0.19327513	      0.05628894	      0.13467451
      4.23500000	      0.19187235	      0.05608430	      0.13435904
      4.24000000	      0.19036255	      0.05586320	      0.13380039
      4.24500000	      0.18871115	      0.05562037	      0.13331777
      4.25000000	      0.18725942	      0.05540602	      0.13304403
      4.25500000	      0.18562091	      0.05516308	      0.13246685
      4.26000000	      0.18390823	      0.05490801	      0.13214750
      4.26500000	      0.18227636	      0.05466386	      0.13184931
      4.27000000	      0.18063950	      0.05441786	      0.13140676
      4.27500000	      0.17907703	      0.05418200	      0.13078384
      4.28000000	      0.17684788	      0.05384371	      0.12864071
      4.28500000	      0.17499258	      0.05356053	      0.12832017
      4.29000000	      0.17309829	      0.05326985	      0.12722474
      4.29500000	      0.17097004	      0.05294136	      0.12666445
      4.30000000	      0.16906454	      0.05264551	      0.12630927
      4.30500000	      0.16729077	      0.05236861	      0.12580165
      4.31000000	      0.16521557	      0.05204279	      0.12506971
      4.31500000	      0.16328620	      0.05173802	      0.12455209
      4.32000000	      0.16123425	      0.05141191	      0.12438413
      4.32500000	      0.15915818	      0.05107984	      0.12370352
      4.33000000	      0.15695510	      0.05072509	      0.12299934
      4.33500000	      0.15486076	      0.05038552	      0.12267094
      4.34000000	      0.15288330	      0.05006280	      0.12224482
      4.34500000	      0.15078619	      0.04971825	      0.12150537
      4.35000000	      0.14887248	      0.04940174	      0.12082609
      4.35500000	      0.14705327	      0.04909897	      0.12043978
      4.36000000	      0.14492655	      0.04874264	      0.12016390
      4.36500000	      0.14296421	      0.04841152	      0.11917794
      4.37000000	      0.14115527	      0.04810427	      0.11905406
      4.37500000	      0.13918102	      0.04776668	      0.11825001
      4.38000000	      0.13722834	      0.04743042	      0.11780255
      4.38500000	      0.13546346	      0.04712444	      0.11718474
      4.39000000	      0.13342784	      0.04676903	      0.11669413
      4.39500000	      0.13141159	      0.04641431	      0.11570728
      4.40000000	      0.12943177	      0.04606335	      0.11491939
      4.40500000	      0.12730658	      0.04568362	      0.11463538
      4.41000000	      0.12548677	      0.04535593	      0.11336875
      4.41500000	      0.12273844	      0.04485650	      0.10920552
      4.42000000	      0.12067604	      0.04447804	      0.10822765
      4.42500000	      0.11825402	      0.04402943	      0.10732178
      4.43000000	      0.11603451	      0.04361428	      0.10676129
      4.43500000	      0.11344417	      0.04312471	      0.10555110
      4.44000000	      0.11107575	      0.04267217	      0.10507979
      4.44500000	      0.10844061	      0.04216296	      0.10365147
      4.45000000	      0.10597765	      0.04168139	      0.10307846
      4.45500000	      0.10330769	      0.04115299	      0.10241649
      4.46000000	      0.10058604	      0.04060728	      0.10070928
      4.46500000	      0.09795323	      0.04007232	      0.10024647
      4.47000000	      0.09533548	      0.03953324	      0.09960434
      4.47500000	      0.09249709	      0.03894028	      0.09691961
      4.48000000	      0.08986111	      0.03838141	      0.09588959
      4.48500000	      0.08707384	      0.03778148	      0.09477677
      4.49000000	      0.08438090	      0.03719265	      0.09307741
      4.49500000	      0.08177205	      0.03661319	      0.09224316
      4.50000000	      0.07901470	      0.03599060	      0.09088192
      4.50500000	      0.07659970	      0.03543632	      0.08913827
      4.51000000	      0.07336180	      0.03467928	      0.08732582
      4.51500000	      0.07095855	      0.03410652	      0.08579781
      4.52000000	      0.06824216	      0.03344733	      0.08423595
      4.52500000	      0.06556089	      0.03278367	      0.08263891
      4.53000000	      0.06310954	      0.03216493	      0.08098800
      4.53500000	      0.06057388	      0.03151213	      0.07928215
      4.54000000	      0.05833753	      0.03092496	      0.07758466
      4.54500000	      0.05602626	      0.03030616	      0.07558859
      4.55000000	      0.05387163	      0.02971770	      0.07414562
      4.55500000	      0.05180588	      0.02914235	      0.07224918
      4.56000000	      0.04979004	      0.02856974	      0.07077774
      4.56500000	      0.04788021	      0.02801645	      0.06889061
      4.57000000	      0.04633960	      0.02756203	      0.06735270
      4.57500000	      0.04468148	      0.02706443	      0.06552080
      4.58000000	      0.04315807	      0.02659905	      0.06359617
      4.58500000	      0.04160649	      0.02611654	      0.06210961
      4.59000000	      0.04057294	      0.02579012	      0.06121032
      4.59500000	      0.03941709	      0.02542011	      0.06137848
      4.60000000	      0.03830251	      0.02505813	      0.06128981
      4.60500000	      0.03737346	      0.02475237	      0.06104389
      4.61000000	      0.03673899	      0.02454136	      0.06043985
      4.61500000	      0.03590029	      0.02425963	      0.05993277
      4.62000000	      0.03533006	      0.02406618	      0.05899693
      4.62500000	      0.03477569	      0.02387663	      0.05818081
      4.63000000	      0.03430634	      0.02371495	      0.05734454
      4.63500000	      0.03370582	      0.02350648	      0.05611860
      4.64000000	      0.03331188	      0.02336871	      0.05593354
      4.64500000	      0.03296820	      0.02324785	      0.05545590
      4.65000000	      0.03264760	      0.02313453	      0.05525821
      4.65500000	      0.03244075	      0.02306113	      0.05504368
      4.66000000	      0.03232075	      0.02301844	      0.05526886
      4.66500000	      0.03209688	      0.02293858	      0.05504095
      4.67000000	      0.03212670	      0.02294923	      0.05460449
      4.67500000	      0.03216243	      0.02296199	      0.05459691
      4.68000000	      0.03221340	      0.02298018	      0.05399537
      4.68500000	      0.03229120	      0.02300791	      0.05400448
      4.69000000	      0.03208371	      0.02293387	      0.05391679
      4.69500000	      0.03231625	      0.02301683	      0.05447250
      4.70000000	      0.03237976	      0.02303944	      0.05370704
      4.70500000	      0.03246024	      0.02306805	      0.05443903
      4.71000000	      0.03249910	      0.02308186	      0.05377832
      4.71500000	      0.03269609	      0.02315171	      0.05414047
      4.72000000	      0.03256128	      0.02310393	      0.05298159
      4.72500000	      0.03256246	      0.02310435	      0.05298635
      4.73000000	      0.03263678	      0.02313070	      0.05242868
      4.73500000	      0.03278652	      0.02318370	      0.05287384
      4.74000000	      0.03316616	      0.02331754	      0.05191792
      4.74500000	      0.03397644	      0.02360065	      0.05306297
      4.75000000	      0.03461659	      0.02382195	      0.05225657
      4.75500000	      0.03484781	      0.02390137	      0.05270635
      4.76000000	      0.03466493	      0.02383857	      0.05139573
      4.76500000	      0.03426480	      0.02370059	      0.05167106
      4.77000000	      0.03380433	      0.02354080	      0.05092440
      4.77500000	      0.03321252	      0.02333383	      0.05148152
      4.78000000	      0.03280548	      0.02319040	      0.05119168
      4.78500000	      0.03251323	      0.02308687	      0.05067324
      4.79000000	      0.03221084	      0.02297926	      0.05075560
      4.79500000	      0.03217960	      0.02296812	      0.05077318
      4.80000000	      0.03201478	      0.02290922	      0.05071762
      4.80500000	      0.03189949	      0.02286794	      0.05067545
      4.81000000	      0.03185025	      0.02285028	      0.05065915
      4.81500000	      0.03177728	      0.02282409	      0.05080752
      4.82000000	      0.03160811	      0.02276325	      0.05077517
      4.82500000	      0.03157175	      0.02275016	      0.05066145
      4.83000000	      0.03149766	      0.02272345	      0.05065708
      4.83500000	      0.03139625	      0.02268684	      0.05064541
      4.84000000	      0.03114839	      0.02259711	      0.05118393
      4.84500000	      0.03104289	      0.02255881	      0.05122802
      4.85000000	      0.03092199	      0.02251484	      0.05113157
      4.85500000	      0.03076726	      0.02245843	      0.05114275
      4.86000000	      0.03067633	      0.02242522	      0.05154992
      4.86500000	      0.03053956	      0.02237518	      0.05139948
      4.87000000	      0.03045863	      0.02234551	      0.05141730
      4.87500000	      0.03031140	      0.02229144	      0.05117601
      4.88000000	      0.03016588	      0.02223786	      0.05170301
      4.88500000	      0.02994796	      0.02215740	      0.05179840
      4.89000000	      0.02989684	      0.02213848	      0.05237863
      4.89500000	      0.02974106	      0.02208072	      0.05261025
      4.90000000	      0.02936967	      0.02194243	      0.05233283
