Model Marker Errors from IK
version=1
nRows=701
nColumns=4
inDegrees=no
endheader
time	total_squared_error	marker_error_RMS	marker_error_max
      1.50000000	      0.03472827	      0.02386034	      0.07953619
      1.50500000	      0.03472090	      0.02385781	      0.07962442
      1.51000000	      0.03471787	      0.02385677	      0.07969768
      1.51500000	      0.03471245	      0.02385491	      0.07964297
      1.52000000	      0.03468869	      0.02384674	      0.07976665
      1.52500000	      0.03461181	      0.02382030	      0.07972301
      1.53000000	      0.03463518	      0.02382834	      0.07975559
      1.53500000	      0.03467212	      0.02384105	      0.07983343
      1.54000000	      0.03464433	      0.02383149	      0.07973609
      1.54500000	      0.03465169	      0.02383402	      0.07983333
      1.55000000	      0.03469074	      0.02384745	      0.07981114
      1.55500000	      0.03469925	      0.02385037	      0.07982615
      1.56000000	      0.03466628	      0.02383904	      0.07979504
      1.56500000	      0.03465952	      0.02383671	      0.07974402
      1.57000000	      0.03466866	      0.02383985	      0.07971910
      1.57500000	      0.03468510	      0.02384551	      0.07974327
      1.58000000	      0.03465166	      0.02383401	      0.07965453
      1.58500000	      0.03468359	      0.02384499	      0.07976736
      1.59000000	      0.03462703	      0.02382554	      0.07961183
      1.59500000	      0.03462152	      0.02382364	      0.07966057
      1.60000000	      0.03460894	      0.02381931	      0.07961953
      1.60500000	      0.03461715	      0.02382214	      0.07960522
      1.61000000	      0.03461497	      0.02382139	      0.07953863
      1.61500000	      0.03456670	      0.02380477	      0.07958617
      1.62000000	      0.03458463	      0.02381094	      0.07957009
      1.62500000	      0.03461949	      0.02382294	      0.07950984
      1.63000000	      0.03461958	      0.02382297	      0.07956101
      1.63500000	      0.03459759	      0.02381541	      0.07945867
      1.64000000	      0.03459944	      0.02381604	      0.07940235
      1.64500000	      0.03456205	      0.02380317	      0.07960770
      1.65000000	      0.03452770	      0.02379134	      0.07951002
      1.65500000	      0.03458112	      0.02380974	      0.07951961
      1.66000000	      0.03457518	      0.02380769	      0.07953148
      1.66500000	      0.03448352	      0.02377611	      0.07951039
      1.67000000	      0.03452464	      0.02379029	      0.07946773
      1.67500000	      0.03451195	      0.02378591	      0.07946584
      1.68000000	      0.03446342	      0.02376918	      0.07937285
      1.68500000	      0.03446587	      0.02377003	      0.07930669
      1.69000000	      0.03448686	      0.02377726	      0.07925100
      1.69500000	      0.03440075	      0.02374756	      0.07914111
      1.70000000	      0.03440711	      0.02374976	      0.07908152
      1.70500000	      0.03438288	      0.02374139	      0.07901769
      1.71000000	      0.03434409	      0.02372800	      0.07897089
      1.71500000	      0.03433333	      0.02372428	      0.07888886
      1.72000000	      0.03428586	      0.02370787	      0.07893877
      1.72500000	      0.03424739	      0.02369457	      0.07863868
      1.73000000	      0.03414189	      0.02365804	      0.07856910
      1.73500000	      0.03412501	      0.02365220	      0.07856925
      1.74000000	      0.03406368	      0.02363093	      0.07842133
      1.74500000	      0.03400173	      0.02360943	      0.07823532
      1.75000000	      0.03394645	      0.02359024	      0.07811093
      1.75500000	      0.03393980	      0.02358792	      0.07796045
      1.76000000	      0.03389157	      0.02357116	      0.07796369
      1.76500000	      0.03379539	      0.02353769	      0.07784320
      1.77000000	      0.03370767	      0.02350712	      0.07773598
      1.77500000	      0.03367898	      0.02349712	      0.07766984
      1.78000000	      0.03359071	      0.02346630	      0.07751228
      1.78500000	      0.03348355	      0.02342884	      0.07733483
      1.79000000	      0.03351234	      0.02343891	      0.07727189
      1.79500000	      0.03339690	      0.02339851	      0.07722283
      1.80000000	      0.03333707	      0.02337754	      0.07716260
      1.80500000	      0.03326596	      0.02335259	      0.07692028
      1.81000000	      0.03321278	      0.02333392	      0.07695204
      1.81500000	      0.03320897	      0.02333258	      0.07697422
      1.82000000	      0.03337641	      0.02339133	      0.07695954
      1.82500000	      0.03320629	      0.02333164	      0.07685696
      1.83000000	      0.03335038	      0.02338221	      0.07696227
      1.83500000	      0.03319032	      0.02332603	      0.07619420
      1.84000000	      0.03316498	      0.02331712	      0.07616379
      1.84500000	      0.03311956	      0.02330115	      0.07633120
      1.85000000	      0.03313272	      0.02330578	      0.07620206
      1.85500000	      0.03300540	      0.02326096	      0.07614442
      1.86000000	      0.03294013	      0.02323795	      0.07598826
      1.86500000	      0.03295307	      0.02324251	      0.07602999
      1.87000000	      0.03291794	      0.02323012	      0.07594533
      1.87500000	      0.03282732	      0.02319812	      0.07586835
      1.88000000	      0.03294636	      0.02324014	      0.07608285
      1.88500000	      0.03286815	      0.02321254	      0.07593565
      1.89000000	      0.03281837	      0.02319496	      0.07603211
      1.89500000	      0.03282773	      0.02319826	      0.07593781
      1.90000000	      0.03286084	      0.02320996	      0.07616166
      1.90500000	      0.03282295	      0.02319658	      0.07608698
      1.91000000	      0.03276916	      0.02317756	      0.07609858
      1.91500000	      0.03259476	      0.02311580	      0.07565208
      1.92000000	      0.03268703	      0.02314850	      0.07571535
      1.92500000	      0.03255829	      0.02310287	      0.07532111
      1.93000000	      0.03255745	      0.02310257	      0.07530212
      1.93500000	      0.03261974	      0.02312466	      0.07515116
      1.94000000	      0.03256732	      0.02310607	      0.07550493
      1.94500000	      0.03256706	      0.02310598	      0.07531357
      1.95000000	      0.03246632	      0.02307021	      0.07524479
      1.95500000	      0.03250675	      0.02308457	      0.07533098
      1.96000000	      0.03251483	      0.02308744	      0.07518794
      1.96500000	      0.03244004	      0.02306088	      0.07497856
      1.97000000	      0.03244358	      0.02306213	      0.07493513
      1.97500000	      0.03249765	      0.02308134	      0.07512694
      1.98000000	      0.03253875	      0.02309593	      0.07516546
      1.98500000	      0.03242834	      0.02305672	      0.07494182
      1.99000000	      0.03251773	      0.02308847	      0.07523849
      1.99500000	      0.03244716	      0.02306341	      0.07467274
      2.00000000	      0.03256107	      0.02310385	      0.07502064
      2.00500000	      0.03258792	      0.02311338	      0.07502065
      2.01000000	      0.03254561	      0.02309837	      0.07511204
      2.01500000	      0.03266374	      0.02314025	      0.07504011
      2.02000000	      0.03274787	      0.02317003	      0.07524368
      2.02500000	      0.03276404	      0.02317575	      0.07530869
      2.03000000	      0.03290196	      0.02322448	      0.07550900
      2.03500000	      0.03296130	      0.02324541	      0.07550572
      2.04000000	      0.03303893	      0.02327277	      0.07559556
      2.04500000	      0.03312826	      0.02330421	      0.07568822
      2.05000000	      0.03320451	      0.02333101	      0.07582049
      2.05500000	      0.03331579	      0.02337008	      0.07614432
      2.06000000	      0.03335371	      0.02338337	      0.07599297
      2.06500000	      0.03341221	      0.02340387	      0.07616410
      2.07000000	      0.03344696	      0.02341604	      0.07620975
      2.07500000	      0.03340107	      0.02339997	      0.07585568
      2.08000000	      0.03359691	      0.02346847	      0.07629214
      2.08500000	      0.03371410	      0.02350936	      0.07630199
      2.09000000	      0.03372134	      0.02351189	      0.07592342
      2.09500000	      0.03387582	      0.02356568	      0.07631155
      2.10000000	      0.03428187	      0.02370649	      0.07641128
      2.10500000	      0.03410530	      0.02364536	      0.07626684
      2.11000000	      0.03422913	      0.02368825	      0.07636825
      2.11500000	      0.03437718	      0.02373943	      0.07637124
      2.12000000	      0.03447793	      0.02377419	      0.07671126
      2.12500000	      0.03460950	      0.02381951	      0.07664517
      2.13000000	      0.03473557	      0.02386285	      0.07659364
      2.13500000	      0.03482630	      0.02389399	      0.07670132
      2.14000000	      0.03520277	      0.02402279	      0.07703349
      2.14500000	      0.03525266	      0.02403981	      0.07689313
      2.15000000	      0.03519877	      0.02402143	      0.07700116
      2.15500000	      0.03539948	      0.02408982	      0.07696001
      2.16000000	      0.03556610	      0.02414645	      0.07705950
      2.16500000	      0.03561051	      0.02416152	      0.07673686
      2.17000000	      0.03582618	      0.02423457	      0.07726498
      2.17500000	      0.03590596	      0.02426154	      0.07710504
      2.18000000	      0.03598532	      0.02428834	      0.07682295
      2.18500000	      0.03604840	      0.02430961	      0.07677500
      2.19000000	      0.03619709	      0.02435970	      0.07710346
      2.19500000	      0.03638519	      0.02442291	      0.07705262
      2.20000000	      0.03646994	      0.02445134	      0.07705731
      2.20500000	      0.03659081	      0.02449182	      0.07701599
      2.21000000	      0.03677174	      0.02455230	      0.07708592
      2.21500000	      0.03681922	      0.02456815	      0.07694475
      2.22000000	      0.03689406	      0.02459310	      0.07687456
      2.22500000	      0.03709427	      0.02465974	      0.07700379
      2.23000000	      0.03722038	      0.02470162	      0.07685370
      2.23500000	      0.03744854	      0.02477722	      0.07692305
      2.24000000	      0.03754033	      0.02480756	      0.07699253
      2.24500000	      0.03760331	      0.02482837	      0.07688171
      2.25000000	      0.03782491	      0.02490142	      0.07670131
      2.25500000	      0.03804781	      0.02497468	      0.07696701
      2.26000000	      0.03841478	      0.02509483	      0.07688541
      2.26500000	      0.03841524	      0.02509498	      0.07676445
      2.27000000	      0.03847484	      0.02511444	      0.07668404
      2.27500000	      0.03862100	      0.02516210	      0.07613793
      2.28000000	      0.03885667	      0.02523875	      0.07669027
      2.28500000	      0.03898923	      0.02528177	      0.07648028
      2.29000000	      0.03910431	      0.02531905	      0.07641020
      2.29500000	      0.03928178	      0.02537644	      0.07640397
      2.30000000	      0.03941653	      0.02541993	      0.07648150
      2.30500000	      0.03957517	      0.02547103	      0.07646171
      2.31000000	      0.03964655	      0.02549399	      0.07623293
      2.31500000	      0.03970965	      0.02551427	      0.07627739
      2.32000000	      0.03987118	      0.02556611	      0.07640958
      2.32500000	      0.04003098	      0.02561729	      0.07618167
      2.33000000	      0.04006356	      0.02562771	      0.07638920
      2.33500000	      0.04015118	      0.02565572	      0.07622799
      2.34000000	      0.04019477	      0.02566964	      0.07612116
      2.34500000	      0.04039960	      0.02573497	      0.07626039
      2.35000000	      0.04039475	      0.02573342	      0.07630960
      2.35500000	      0.04049515	      0.02576538	      0.07622144
      2.36000000	      0.04051161	      0.02577062	      0.07615194
      2.36500000	      0.04051247	      0.02577089	      0.07596788
      2.37000000	      0.04065779	      0.02581707	      0.07599361
      2.37500000	      0.04077508	      0.02585428	      0.07599388
      2.38000000	      0.04077402	      0.02585395	      0.07628225
      2.38500000	      0.04082486	      0.02587006	      0.07593793
      2.39000000	      0.04102499	      0.02593339	      0.07595800
      2.39500000	      0.04110388	      0.02595832	      0.07615011
      2.40000000	      0.04137078	      0.02604246	      0.07590869
      2.40500000	      0.04135221	      0.02603661	      0.07555122
      2.41000000	      0.04135850	      0.02603859	      0.07513109
      2.41500000	      0.04140942	      0.02605461	      0.07513675
      2.42000000	      0.04157743	      0.02610742	      0.07524690
      2.42500000	      0.04180262	      0.02617802	      0.07522144
      2.43000000	      0.04190503	      0.02621007	      0.07519144
      2.43500000	      0.04206558	      0.02626023	      0.07490765
      2.44000000	      0.04220024	      0.02630223	      0.07501122
      2.44500000	      0.04230422	      0.02633461	      0.07496234
      2.45000000	      0.04257131	      0.02641761	      0.07495106
      2.45500000	      0.04266478	      0.02644660	      0.07503601
      2.46000000	      0.04283764	      0.02650012	      0.07496934
      2.46500000	      0.04299391	      0.02654841	      0.07498840
      2.47000000	      0.04317813	      0.02660523	      0.07501134
      2.47500000	      0.04324551	      0.02662598	      0.07485223
      2.48000000	      0.04351575	      0.02670904	      0.07455885
      2.48500000	      0.04374142	      0.02677821	      0.07486137
      2.49000000	      0.04387405	      0.02681877	      0.07464191
      2.49500000	      0.04413314	      0.02689785	      0.07473259
      2.50000000	      0.04471689	      0.02707515	      0.07433451
      2.50500000	      0.04451881	      0.02701512	      0.07461445
      2.51000000	      0.04482135	      0.02710675	      0.07460591
      2.51500000	      0.04504299	      0.02717369	      0.07454679
      2.52000000	      0.04546160	      0.02729967	      0.07445062
      2.52500000	      0.04572269	      0.02737795	      0.07444381
      2.53000000	      0.04617786	      0.02751389	      0.07449552
      2.53500000	      0.04667413	      0.02766134	      0.07453851
      2.54000000	      0.04702696	      0.02776569	      0.07455420
      2.54500000	      0.04714165	      0.02779953	      0.07412010
      2.55000000	      0.04742298	      0.02788236	      0.07434559
      2.55500000	      0.04788471	      0.02801777	      0.07418296
      2.56000000	      0.04819640	      0.02810880	      0.07401588
      2.56500000	      0.04840709	      0.02817018	      0.07412474
      2.57000000	      0.04867190	      0.02824712	      0.07397710
      2.57500000	      0.04898522	      0.02833790	      0.07394079
      2.58000000	      0.04930646	      0.02843066	      0.07393889
      2.58500000	      0.04957148	      0.02850697	      0.07393161
      2.59000000	      0.04989514	      0.02859988	      0.07385677
      2.59500000	      0.05003300	      0.02863936	      0.07389460
      2.60000000	      0.05005753	      0.02864638	      0.07372878
      2.60500000	      0.05055533	      0.02878847	      0.07339576
      2.61000000	      0.05101553	      0.02891920	      0.07371971
      2.61500000	      0.05122719	      0.02897913	      0.07353150
      2.62000000	      0.05157027	      0.02907601	      0.07359336
      2.62500000	      0.05190051	      0.02916896	      0.07353058
      2.63000000	      0.05229555	      0.02927976	      0.07357753
      2.63500000	      0.05254748	      0.02935020	      0.07351470
      2.64000000	      0.05289116	      0.02944602	      0.07338588
      2.64500000	      0.05320866	      0.02953427	      0.07358701
      2.65000000	      0.05350760	      0.02961712	      0.07326427
      2.65500000	      0.05379508	      0.02969657	      0.07316941
      2.66000000	      0.05408142	      0.02977551	      0.07342333
      2.66500000	      0.05446634	      0.02988128	      0.07341159
      2.67000000	      0.05495559	      0.03001519	      0.07343408
      2.67500000	      0.05510123	      0.03005493	      0.07338315
      2.68000000	      0.05547107	      0.03015563	      0.07358016
      2.68500000	      0.05584912	      0.03025821	      0.07359399
      2.69000000	      0.05606635	      0.03031700	      0.07332360
      2.69500000	      0.05653368	      0.03044309	      0.07336122
      2.70000000	      0.05686093	      0.03053107	      0.07317669
      2.70500000	      0.05712754	      0.03060256	      0.07308221
      2.71000000	      0.05741091	      0.03067837	      0.07320529
      2.71500000	      0.05780885	      0.03078451	      0.07316011
      2.72000000	      0.05826645	      0.03090611	      0.07320421
      2.72500000	      0.05863452	      0.03100357	      0.07318298
      2.73000000	      0.05899075	      0.03109761	      0.07308407
      2.73500000	      0.05935601	      0.03119374	      0.07299773
      2.74000000	      0.05981601	      0.03131438	      0.07304838
      2.74500000	      0.06009727	      0.03138792	      0.07280582
      2.75000000	      0.06056409	      0.03150959	      0.07280072
      2.75500000	      0.06109151	      0.03164649	      0.07275845
      2.76000000	      0.06133844	      0.03171038	      0.07275539
      2.76500000	      0.06191258	      0.03185844	      0.07276656
      2.77000000	      0.06236732	      0.03197523	      0.07283990
      2.77500000	      0.06261601	      0.03203891	      0.07237493
      2.78000000	      0.06299578	      0.03213593	      0.07236282
      2.78500000	      0.06348498	      0.03226046	      0.07257688
      2.79000000	      0.06370444	      0.03231617	      0.07253216
      2.79500000	      0.06429768	      0.03246629	      0.07263322
      2.80000000	      0.06464097	      0.03255285	      0.07293003
      2.80500000	      0.06473627	      0.03257684	      0.07261646
      2.81000000	      0.06515301	      0.03268153	      0.07325953
      2.81500000	      0.06558380	      0.03278939	      0.07328459
      2.82000000	      0.06584785	      0.03285533	      0.07342406
      2.82500000	      0.06594626	      0.03287988	      0.07334649
      2.83000000	      0.06632690	      0.03297463	      0.07343805
      2.83500000	      0.06666506	      0.03305858	      0.07367858
      2.84000000	      0.06698034	      0.03313666	      0.07427384
      2.84500000	      0.06713843	      0.03317574	      0.07413268
      2.85000000	      0.06736385	      0.03323139	      0.07411785
      2.85500000	      0.06734761	      0.03322739	      0.07441181
      2.86000000	      0.06754817	      0.03327683	      0.07457150
      2.86500000	      0.06776601	      0.03333044	      0.07453514
      2.87000000	      0.06824539	      0.03344812	      0.07560151
      2.87500000	      0.06813471	      0.03342099	      0.07481073
      2.88000000	      0.06845180	      0.03349867	      0.07497032
      2.88500000	      0.06867556	      0.03355337	      0.07564304
      2.89000000	      0.06868417	      0.03355548	      0.07547709
      2.89500000	      0.06900008	      0.03363256	      0.07550112
      2.90000000	      0.06930255	      0.03370619	      0.07656734
      2.90500000	      0.06923553	      0.03368989	      0.07556614
      2.91000000	      0.06956828	      0.03377075	      0.07558886
      2.91500000	      0.06957032	      0.03377125	      0.07609222
      2.92000000	      0.06994246	      0.03386145	      0.07697637
      2.92500000	      0.07013899	      0.03390899	      0.07630282
      2.93000000	      0.07060627	      0.03402176	      0.07719939
      2.93500000	      0.07077261	      0.03406181	      0.07740354
      2.94000000	      0.07079900	      0.03406816	      0.07674548
      2.94500000	      0.07130664	      0.03419008	      0.07753768
      2.95000000	      0.07166700	      0.03427636	      0.07706251
      2.95500000	      0.07195326	      0.03434475	      0.07740622
      2.96000000	      0.07224193	      0.03441357	      0.07745574
      2.96500000	      0.07290482	      0.03457110	      0.07829316
      2.97000000	      0.07330820	      0.03466661	      0.07806484
      2.97500000	      0.07377458	      0.03477671	      0.07828122
      2.98000000	      0.07414604	      0.03486415	      0.07840079
      2.98500000	      0.07454072	      0.03495682	      0.07926488
      2.99000000	      0.07496313	      0.03505572	      0.07915529
      2.99500000	      0.07545657	      0.03517091	      0.07938679
      3.00000000	      0.07609958	      0.03532045	      0.08024963
      3.00500000	      0.07648882	      0.03541066	      0.08001946
      3.01000000	      0.07726116	      0.03558899	      0.08112156
      3.01500000	      0.07757651	      0.03566155	      0.08059619
      3.02000000	      0.07756934	      0.03565990	      0.08089707
      3.02500000	      0.07814936	      0.03579298	      0.08111606
      3.03000000	      0.07894167	      0.03597396	      0.08216885
      3.03500000	      0.07924840	      0.03604378	      0.08156204
      3.04000000	      0.07988594	      0.03618847	      0.08201212
      3.04500000	      0.08077665	      0.03638966	      0.08212963
      3.05000000	      0.08134477	      0.03651740	      0.08251863
      3.05500000	      0.08185057	      0.03663076	      0.08279817
      3.06000000	      0.08213888	      0.03669522	      0.08281766
      3.06500000	      0.08267004	      0.03681367	      0.08311865
      3.07000000	      0.08366047	      0.03703354	      0.08477109
      3.07500000	      0.08370756	      0.03704396	      0.08337691
      3.08000000	      0.08427071	      0.03716836	      0.08347915
      3.08500000	      0.08520114	      0.03737299	      0.08547385
      3.09000000	      0.08358588	      0.03701703	      0.08187125
      3.09500000	      0.08404632	      0.03711884	      0.08225139
      3.10000000	      0.08459564	      0.03723995	      0.08228091
      3.10500000	      0.08484350	      0.03729446	      0.08267776
      3.11000000	      0.08547098	      0.03743212	      0.08286450
      3.11500000	      0.08591442	      0.03752910	      0.08287722
      3.12000000	      0.08643491	      0.03764261	      0.08313232
      3.12500000	      0.08662760	      0.03768454	      0.08351140
      3.13000000	      0.08712899	      0.03779344	      0.08372540
      3.13500000	      0.08737767	      0.03784734	      0.08391970
      3.14000000	      0.08780896	      0.03794063	      0.08408478
      3.14500000	      0.08813152	      0.03801025	      0.08418419
      3.15000000	      0.08848152	      0.03808565	      0.08417272
      3.15500000	      0.08891491	      0.03817881	      0.08432523
      3.16000000	      0.08948778	      0.03830160	      0.08481391
      3.16500000	      0.09025270	      0.03846495	      0.08537859
      3.17000000	      0.09020312	      0.03845439	      0.08507887
      3.17500000	      0.09069101	      0.03855824	      0.08587358
      3.18000000	      0.09113959	      0.03865348	      0.08564451
      3.18500000	      0.09155877	      0.03874227	      0.08569826
      3.19000000	      0.09221817	      0.03888153	      0.08603111
      3.19500000	      0.09255614	      0.03895271	      0.08622082
      3.20000000	      0.09331791	      0.03911268	      0.08678090
      3.20500000	      0.09368814	      0.03919019	      0.08734749
      3.21000000	      0.09379525	      0.03921259	      0.08712121
      3.21500000	      0.09432905	      0.03932401	      0.08755039
      3.22000000	      0.09516356	      0.03949757	      0.08806516
      3.22500000	      0.09554429	      0.03957651	      0.08804901
      3.23000000	      0.09596094	      0.03966270	      0.08866590
      3.23500000	      0.09622661	      0.03971757	      0.08839993
      3.24000000	      0.09651921	      0.03977791	      0.08860060
      3.24500000	      0.09651617	      0.03977728	      0.08872439
      3.25000000	      0.09701089	      0.03987910	      0.08886742
      3.25500000	      0.09723961	      0.03992608	      0.08896963
      3.26000000	      0.09765810	      0.04001190	      0.08925532
      3.26500000	      0.09816538	      0.04011569	      0.08995827
      3.27000000	      0.09832940	      0.04014919	      0.08936249
      3.27500000	      0.09833861	      0.04015107	      0.08959305
      3.28000000	      0.09906261	      0.04029860	      0.09003745
      3.28500000	      0.09907564	      0.04030125	      0.09053557
      3.29000000	      0.09861638	      0.04020773	      0.08949602
      3.29500000	      0.09886819	      0.04025904	      0.08963952
      3.30000000	      0.09907560	      0.04030124	      0.08965992
      3.30500000	      0.09924102	      0.04033487	      0.08974268
      3.31000000	      0.09960899	      0.04040958	      0.09026622
      3.31500000	      0.09936064	      0.04035917	      0.08993278
      3.32000000	      0.09991965	      0.04047255	      0.09036876
      3.32500000	      0.10002487	      0.04049385	      0.09023586
      3.33000000	      0.10009727	      0.04050850	      0.09029201
      3.33500000	      0.10023669	      0.04053670	      0.09006728
      3.34000000	      0.10060793	      0.04061170	      0.09020448
      3.34500000	      0.10080259	      0.04065097	      0.09043846
      3.35000000	      0.10093846	      0.04067836	      0.09069168
      3.35500000	      0.10108066	      0.04070700	      0.09081339
      3.36000000	      0.10110596	      0.04071210	      0.09082125
      3.36500000	      0.10140138	      0.04077153	      0.09055468
      3.37000000	      0.10104872	      0.04070057	      0.09073926
      3.37500000	      0.10138184	      0.04076760	      0.09096018
      3.38000000	      0.10129716	      0.04075057	      0.09058775
      3.38500000	      0.10140145	      0.04077154	      0.09050505
      3.39000000	      0.10155681	      0.04080277	      0.09112454
      3.39500000	      0.10125522	      0.04074214	      0.09064471
      3.40000000	      0.10133027	      0.04075723	      0.09060993
      3.40500000	      0.10148809	      0.04078896	      0.09051179
      3.41000000	      0.10140191	      0.04077164	      0.09058494
      3.41500000	      0.10133431	      0.04075805	      0.09053171
      3.42000000	      0.10137182	      0.04076559	      0.09067938
      3.42500000	      0.10140955	      0.04077317	      0.09078395
      3.43000000	      0.10146587	      0.04078449	      0.09106272
      3.43500000	      0.10148886	      0.04078911	      0.09102120
      3.44000000	      0.10119664	      0.04073035	      0.09067206
      3.44500000	      0.10115725	      0.04072242	      0.09077960
      3.45000000	      0.10105578	      0.04070199	      0.09048081
      3.45500000	      0.10092677	      0.04067600	      0.09050328
      3.46000000	      0.10127416	      0.04074595	      0.09091652
      3.46500000	      0.10136326	      0.04076387	      0.09046780
      3.47000000	      0.10151898	      0.04079517	      0.09071916
      3.47500000	      0.10122746	      0.04073655	      0.09067359
      3.48000000	      0.10122290	      0.04073563	      0.09088689
      3.48500000	      0.10168973	      0.04082946	      0.09174554
      3.49000000	      0.10155531	      0.04080246	      0.09151984
      3.49500000	      0.10174234	      0.04084002	      0.09132826
      3.50000000	      0.10232566	      0.04095693	      0.09198314
      3.50500000	      0.10218714	      0.04092919	      0.09150202
      3.51000000	      0.10240793	      0.04097339	      0.09209937
      3.51500000	      0.10247558	      0.04098692	      0.09214009
      3.52000000	      0.10284264	      0.04106026	      0.09246731
      3.52500000	      0.10337012	      0.04116542	      0.09341155
      3.53000000	      0.10347588	      0.04118648	      0.09232981
      3.53500000	      0.10351924	      0.04119511	      0.09245448
      3.54000000	      0.10392636	      0.04127603	      0.09249319
      3.54500000	      0.10397705	      0.04128610	      0.09291873
      3.55000000	      0.10420023	      0.04133038	      0.09305537
      3.55500000	      0.10431094	      0.04135233	      0.09322486
      3.56000000	      0.10472468	      0.04143426	      0.09324558
      3.56500000	      0.10557063	      0.04160128	      0.09447807
      3.57000000	      0.10536249	      0.04156024	      0.09311729
      3.57500000	      0.10558427	      0.04160396	      0.09341730
      3.58000000	      0.10568420	      0.04162365	      0.09325213
      3.58500000	      0.10598154	      0.04168216	      0.09377502
      3.59000000	      0.10631383	      0.04174745	      0.09348474
      3.59500000	      0.10651750	      0.04178742	      0.09378251
      3.60000000	      0.10649992	      0.04178397	      0.09413355
      3.60500000	      0.10669920	      0.04182305	      0.09436092
      3.61000000	      0.10694240	      0.04187068	      0.09449673
      3.61500000	      0.10724277	      0.04192944	      0.09452360
      3.62000000	      0.10740205	      0.04196057	      0.09423174
      3.62500000	      0.10757123	      0.04199360	      0.09417740
      3.63000000	      0.10784964	      0.04204791	      0.09467870
      3.63500000	      0.10807341	      0.04209151	      0.09443808
      3.64000000	      0.10831723	      0.04213896	      0.09477200
      3.64500000	      0.10836946	      0.04214912	      0.09516836
      3.65000000	      0.10890127	      0.04225242	      0.09504656
      3.65500000	      0.10894542	      0.04226098	      0.09454947
      3.66000000	      0.10922566	      0.04231530	      0.09507881
      3.66500000	      0.10938479	      0.04234611	      0.09461192
      3.67000000	      0.10953147	      0.04237450	      0.09463514
      3.67500000	      0.10960374	      0.04238847	      0.09484280
      3.68000000	      0.10984697	      0.04243548	      0.09488863
      3.68500000	      0.11016804	      0.04249745	      0.09490106
      3.69000000	      0.11019607	      0.04250286	      0.09512321
      3.69500000	      0.11037271	      0.04253691	      0.09516267
      3.70000000	      0.11030478	      0.04252382	      0.09505574
      3.70500000	      0.11028375	      0.04251976	      0.09485809
      3.71000000	      0.11065018	      0.04259034	      0.09516312
      3.71500000	      0.11041163	      0.04254441	      0.09507210
      3.72000000	      0.11107715	      0.04267244	      0.09625375
      3.72500000	      0.11079744	      0.04261868	      0.09492175
      3.73000000	      0.11101007	      0.04265955	      0.09488488
      3.73500000	      0.11104066	      0.04266543	      0.09487675
      3.74000000	      0.11109022	      0.04267495	      0.09484475
      3.74500000	      0.11111539	      0.04267978	      0.09504199
      3.75000000	      0.11168390	      0.04278883	      0.09625559
      3.75500000	      0.11131431	      0.04271797	      0.09487420
      3.76000000	      0.11142673	      0.04273953	      0.09506671
      3.76500000	      0.11125001	      0.04270563	      0.09495421
      3.77000000	      0.11148893	      0.04275146	      0.09519528
      3.77500000	      0.11130211	      0.04271563	      0.09533169
      3.78000000	      0.11144930	      0.04274386	      0.09537244
      3.78500000	      0.11158128	      0.04276916	      0.09499531
      3.79000000	      0.11188417	      0.04282717	      0.09520433
      3.79500000	      0.11187411	      0.04282525	      0.09531885
      3.80000000	      0.11172607	      0.04279690	      0.09512597
      3.80500000	      0.11197953	      0.04284542	      0.09549203
      3.81000000	      0.11249570	      0.04294405	      0.09536688
      3.81500000	      0.11262289	      0.04296832	      0.09573486
      3.82000000	      0.11213292	      0.04287476	      0.09564702
      3.82500000	      0.11231646	      0.04290983	      0.09593838
      3.83000000	      0.11237984	      0.04292194	      0.09546157
      3.83500000	      0.11233140	      0.04291268	      0.09575516
      3.84000000	      0.11205727	      0.04286029	      0.09548723
      3.84500000	      0.11212879	      0.04287397	      0.09575010
      3.85000000	      0.11190421	      0.04283101	      0.09533623
      3.85500000	      0.11187997	      0.04282637	      0.09548590
      3.86000000	      0.11162180	      0.04277693	      0.09520973
      3.86500000	      0.11172807	      0.04279729	      0.09540022
      3.87000000	      0.11141491	      0.04273727	      0.09535706
      3.87500000	      0.11118908	      0.04269393	      0.09505493
      3.88000000	      0.11102392	      0.04266221	      0.09521733
      3.88500000	      0.11070516	      0.04260092	      0.09458230
      3.89000000	      0.11049415	      0.04256030	      0.09456734
      3.89500000	      0.11023243	      0.04250987	      0.09435848
      3.90000000	      0.11013643	      0.04249136	      0.09454489
      3.90500000	      0.10989908	      0.04244554	      0.09441245
      3.91000000	      0.10964884	      0.04239719	      0.09447919
      3.91500000	      0.10956810	      0.04238158	      0.09443199
      3.92000000	      0.10968293	      0.04240378	      0.09542978
      3.92500000	      0.10923545	      0.04231720	      0.09384463
      3.93000000	      0.10930963	      0.04233156	      0.09413590
      3.93500000	      0.10915145	      0.04230092	      0.09392811
      3.94000000	      0.10902154	      0.04227574	      0.09414153
      3.94500000	      0.10890576	      0.04225329	      0.09427885
      3.95000000	      0.10868568	      0.04221057	      0.09412887
      3.95500000	      0.10855030	      0.04218427	      0.09395591
      3.96000000	      0.10833930	      0.04214326	      0.09369510
      3.96500000	      0.10834799	      0.04214495	      0.09396809
      3.97000000	      0.10822382	      0.04212079	      0.09396148
      3.97500000	      0.10789163	      0.04205610	      0.09388564
      3.98000000	      0.10787658	      0.04205316	      0.09402539
      3.98500000	      0.10738393	      0.04195703	      0.09359947
      3.99000000	      0.10709263	      0.04190008	      0.09335679
      3.99500000	      0.10687317	      0.04185713	      0.09314237
      4.00000000	      0.10673721	      0.04183050	      0.09335864
      4.00500000	      0.10672163	      0.04182744	      0.09340866
      4.01000000	      0.10618597	      0.04172234	      0.09301304
      4.01500000	      0.10610957	      0.04170733	      0.09272403
      4.02000000	      0.10575278	      0.04163715	      0.09274341
      4.02500000	      0.10574942	      0.04163649	      0.09263180
      4.03000000	      0.10573212	      0.04163308	      0.09262215
      4.03500000	      0.10572721	      0.04163211	      0.09251283
      4.04000000	      0.10539213	      0.04156609	      0.09243856
      4.04500000	      0.10519988	      0.04152816	      0.09221069
      4.05000000	      0.10499761	      0.04148822	      0.09222291
      4.05500000	      0.10488407	      0.04146578	      0.09214674
      4.06000000	      0.10471397	      0.04143214	      0.09191254
      4.06500000	      0.10459612	      0.04140882	      0.09172258
      4.07000000	      0.10408045	      0.04130662	      0.09147096
      4.07500000	      0.10380151	      0.04125123	      0.09136423
      4.08000000	      0.10345208	      0.04118174	      0.09134895
      4.08500000	      0.10315469	      0.04112251	      0.09120035
      4.09000000	      0.10293379	      0.04107845	      0.09106010
      4.09500000	      0.10255066	      0.04100193	      0.09088922
      4.10000000	      0.10232495	      0.04095678	      0.09077163
      4.10500000	      0.10151720	      0.04079481	      0.09056565
      4.11000000	      0.10123116	      0.04073730	      0.09043233
      4.11500000	      0.10130744	      0.04075264	      0.09021250
      4.12000000	      0.10097711	      0.04068615	      0.09022755
      4.12500000	      0.10092218	      0.04067508	      0.09017760
      4.13000000	      0.10029716	      0.04054893	      0.08977024
      4.13500000	      0.09960815	      0.04040941	      0.08964991
      4.14000000	      0.09923935	      0.04033453	      0.08950326
      4.14500000	      0.09895980	      0.04027768	      0.08939103
      4.15000000	      0.09829650	      0.04014247	      0.08916539
      4.15500000	      0.09768470	      0.04001735	      0.08881585
      4.16000000	      0.09723371	      0.03992487	      0.08860579
      4.16500000	      0.09714457	      0.03990657	      0.08892632
      4.17000000	      0.09611149	      0.03969381	      0.08866389
      4.17500000	      0.09559087	      0.03958615	      0.08837994
      4.18000000	      0.09499125	      0.03946180	      0.08815271
      4.18500000	      0.09461953	      0.03938451	      0.08776858
      4.19000000	      0.09342850	      0.03913585	      0.08725162
      4.19500000	      0.09331414	      0.03911189	      0.08729183
      4.20000000	      0.09220271	      0.03887827	      0.08665146
      4.20500000	      0.09148876	      0.03872746	      0.08668109
      4.21000000	      0.09091822	      0.03860651	      0.08616005
      4.21500000	      0.09034807	      0.03848527	      0.08600578
      4.22000000	      0.08978172	      0.03836445	      0.08556019
      4.22500000	      0.08912760	      0.03822445	      0.08549216
      4.23000000	      0.08800175	      0.03798226	      0.08517307
      4.23500000	      0.08741811	      0.03785609	      0.08471670
      4.24000000	      0.08669788	      0.03769982	      0.08450780
      4.24500000	      0.08610963	      0.03757171	      0.08422376
      4.25000000	      0.08538525	      0.03741334	      0.08371169
      4.25500000	      0.08479627	      0.03728408	      0.08391062
      4.26000000	      0.08368299	      0.03703852	      0.08309763
      4.26500000	      0.08304790	      0.03689771	      0.08281273
      4.27000000	      0.08202106	      0.03666889	      0.08238061
      4.27500000	      0.08169112	      0.03659506	      0.08230433
      4.28000000	      0.08084082	      0.03640411	      0.08174463
      4.28500000	      0.08000759	      0.03621602	      0.08118352
      4.29000000	      0.07938505	      0.03607484	      0.08062772
      4.29500000	      0.07840004	      0.03585034	      0.08013297
      4.30000000	      0.07754001	      0.03565316	      0.07999336
      4.30500000	      0.07614247	      0.03533040	      0.07938679
      4.31000000	      0.07545298	      0.03517007	      0.07868594
      4.31500000	      0.07442780	      0.03493033	      0.07845092
      4.32000000	      0.07372203	      0.03476432	      0.07809286
      4.32500000	      0.07267692	      0.03451702	      0.07735213
      4.33000000	      0.07184218	      0.03431823	      0.07661746
      4.33500000	      0.07102128	      0.03412159	      0.07660443
      4.34000000	      0.06995334	      0.03386408	      0.07584029
      4.34500000	      0.06907516	      0.03365085	      0.07511958
      4.35000000	      0.06815794	      0.03342669	      0.07513872
      4.35500000	      0.06710817	      0.03316827	      0.07439310
      4.36000000	      0.06628765	      0.03296487	      0.07408808
      4.36500000	      0.06538104	      0.03273867	      0.07348346
      4.37000000	      0.06433178	      0.03247490	      0.07336340
      4.37500000	      0.06379752	      0.03233977	      0.07286455
      4.38000000	      0.06462106	      0.03254784	      0.07696206
      4.38500000	      0.06336366	      0.03222962	      0.07494060
      4.39000000	      0.06265254	      0.03204826	      0.07412686
      4.39500000	      0.06163338	      0.03178653	      0.07393090
      4.40000000	      0.06094340	      0.03160810	      0.07322639
      4.40500000	      0.06010190	      0.03138912	      0.07232928
      4.41000000	      0.05931785	      0.03118371	      0.07248488
      4.41500000	      0.05857112	      0.03098681	      0.07143671
      4.42000000	      0.05760168	      0.03072930	      0.07145585
      4.42500000	      0.05661054	      0.03046378	      0.07090371
      4.43000000	      0.05597025	      0.03029101	      0.07053383
      4.43500000	      0.05535469	      0.03012398	      0.07036739
      4.44000000	      0.05461466	      0.02992194	      0.07033429
      4.44500000	      0.05393242	      0.02973446	      0.07031030
      4.45000000	      0.05309056	      0.02950148	      0.07016467
      4.45500000	      0.05251163	      0.02934018	      0.07004591
      4.46000000	      0.05184776	      0.02915413	      0.07014811
      4.46500000	      0.05117034	      0.02896304	      0.07009536
      4.47000000	      0.05065179	      0.02881592	      0.07010825
      4.47500000	      0.04999612	      0.02862881	      0.06982009
      4.48000000	      0.04955140	      0.02850119	      0.06993409
      4.48500000	      0.04881093	      0.02828744	      0.06964098
      4.49000000	      0.04832979	      0.02814768	      0.06983642
      4.49500000	      0.04788877	      0.02801895	      0.06951039
      4.50000000	      0.04740507	      0.02787709	      0.06953745
      4.50500000	      0.04678234	      0.02769339	      0.06947522
      4.51000000	      0.04611382	      0.02749480	      0.06925698
      4.51500000	      0.04576850	      0.02739166	      0.06946974
      4.52000000	      0.04517885	      0.02721465	      0.06912257
      4.52500000	      0.04473867	      0.02708174	      0.06897860
      4.53000000	      0.04424542	      0.02693204	      0.06880926
      4.53500000	      0.04384392	      0.02680957	      0.06899422
      4.54000000	      0.04328260	      0.02663740	      0.06874238
      4.54500000	      0.04287575	      0.02651191	      0.06856255
      4.55000000	      0.04246401	      0.02638430	      0.06870137
      4.55500000	      0.04208719	      0.02626697	      0.06882695
      4.56000000	      0.04160708	      0.02611672	      0.06855362
      4.56500000	      0.04127362	      0.02601186	      0.06851685
      4.57000000	      0.04091610	      0.02589895	      0.06838078
      4.57500000	      0.04045091	      0.02575131	      0.06839703
      4.58000000	      0.04006688	      0.02562878	      0.06851897
      4.58500000	      0.03970605	      0.02551311	      0.06827092
      4.59000000	      0.03956100	      0.02546647	      0.06841690
      4.59500000	      0.03907382	      0.02530918	      0.06810186
      4.60000000	      0.03874265	      0.02520169	      0.06823349
      4.60500000	      0.03832831	      0.02506657	      0.06798064
      4.61000000	      0.03795266	      0.02494343	      0.06761783
      4.61500000	      0.03764409	      0.02484182	      0.06803068
      4.62000000	      0.03728330	      0.02472249	      0.06776829
      4.62500000	      0.03689230	      0.02459252	      0.06763608
      4.63000000	      0.03655461	      0.02447970	      0.06745045
      4.63500000	      0.03622919	      0.02437050	      0.06734930
      4.64000000	      0.03594342	      0.02427419	      0.06702009
      4.64500000	      0.03563658	      0.02417036	      0.06682097
      4.65000000	      0.03529756	      0.02405511	      0.06666703
      4.65500000	      0.03508301	      0.02398189	      0.06663122
      4.66000000	      0.03468160	      0.02384431	      0.06595814
      4.66500000	      0.03444901	      0.02376422	      0.06632838
      4.67000000	      0.03419361	      0.02367596	      0.06597310
      4.67500000	      0.03395709	      0.02359393	      0.06576554
      4.68000000	      0.03357251	      0.02345994	      0.06558057
      4.68500000	      0.03331292	      0.02336907	      0.06551594
      4.69000000	      0.03297334	      0.02324966	      0.06535608
      4.69500000	      0.03267128	      0.02314292	      0.06528299
      4.70000000	      0.03245379	      0.02306576	      0.06516898
      4.70500000	      0.03223168	      0.02298669	      0.06503689
      4.71000000	      0.03199217	      0.02290113	      0.06507568
      4.71500000	      0.03182665	      0.02284181	      0.06487339
      4.72000000	      0.03153779	      0.02273792	      0.06473380
      4.72500000	      0.03126632	      0.02263985	      0.06471052
      4.73000000	      0.03107484	      0.02257041	      0.06447904
      4.73500000	      0.03076990	      0.02245940	      0.06433525
      4.74000000	      0.03054957	      0.02237884	      0.06407279
      4.74500000	      0.03033469	      0.02230000	      0.06404048
      4.75000000	      0.03015446	      0.02223366	      0.06406833
      4.75500000	      0.02996333	      0.02216308	      0.06405085
      4.76000000	      0.02982788	      0.02211293	      0.06401939
      4.76500000	      0.02960299	      0.02202941	      0.06361076
      4.77000000	      0.02937299	      0.02194367	      0.06358165
      4.77500000	      0.02925123	      0.02189814	      0.06386454
      4.78000000	      0.02908298	      0.02183507	      0.06386106
      4.78500000	      0.02890165	      0.02176689	      0.06378419
      4.79000000	      0.02876463	      0.02171523	      0.06381874
      4.79500000	      0.02867445	      0.02168116	      0.06399086
      4.80000000	      0.02847794	      0.02160675	      0.06394698
      4.80500000	      0.02845327	      0.02159739	      0.06401457
      4.81000000	      0.02840484	      0.02157900	      0.06398363
      4.81500000	      0.02829445	      0.02153702	      0.06400779
      4.82000000	      0.02824645	      0.02151875	      0.06403227
      4.82500000	      0.02820419	      0.02150265	      0.06415738
      4.83000000	      0.02809418	      0.02146067	      0.06427273
      4.83500000	      0.02805772	      0.02144674	      0.06383279
      4.84000000	      0.02799244	      0.02142177	      0.06392625
      4.84500000	      0.02808758	      0.02145815	      0.06425473
      4.85000000	      0.02799465	      0.02142262	      0.06434318
      4.85500000	      0.02796705	      0.02141206	      0.06433924
      4.86000000	      0.02785236	      0.02136811	      0.06412339
      4.86500000	      0.02789701	      0.02138523	      0.06437885
      4.87000000	      0.02790262	      0.02138738	      0.06446107
      4.87500000	      0.02780632	      0.02135044	      0.06452024
      4.88000000	      0.02775403	      0.02133036	      0.06449426
      4.88500000	      0.02783562	      0.02136168	      0.06457674
      4.89000000	      0.02778559	      0.02134248	      0.06466918
      4.89500000	      0.02768438	      0.02130357	      0.06464220
      4.90000000	      0.02762536	      0.02128086	      0.06447886
      4.90500000	      0.02761846	      0.02127820	      0.06431837
      4.91000000	      0.02759126	      0.02126771	      0.06466492
      4.91500000	      0.02759768	      0.02127019	      0.06478451
      4.92000000	      0.02756650	      0.02125817	      0.06473570
      4.92500000	      0.02750367	      0.02123393	      0.06495266
      4.93000000	      0.02755420	      0.02125343	      0.06483923
      4.93500000	      0.02746796	      0.02122014	      0.06493181
      4.94000000	      0.02741362	      0.02119914	      0.06486782
      4.94500000	      0.02742214	      0.02120244	      0.06477604
      4.95000000	      0.02742450	      0.02120335	      0.06481059
      4.95500000	      0.02748886	      0.02122821	      0.06489417
      4.96000000	      0.02736073	      0.02117868	      0.06431064
      4.96500000	      0.02747128	      0.02122143	      0.06482758
      4.97000000	      0.02757023	      0.02125961	      0.06463815
      4.97500000	      0.02749160	      0.02122927	      0.06446756
      4.98000000	      0.02749081	      0.02122897	      0.06457965
      4.98500000	      0.02759633	      0.02126967	      0.06449622
      4.99000000	      0.02773511	      0.02132308	      0.06453280
      4.99500000	      0.02768954	      0.02130556	      0.06431103
      5.00000000	      0.02780779	      0.02135100	      0.06450177
