Model Marker Errors from IK
version=1
nRows=751
nColumns=4
inDegrees=no
endheader
time	total_squared_error	marker_error_RMS	marker_error_max
      1.25000000	      0.03726813	      0.02471746	      0.05666031
      1.25500000	      0.03726347	      0.02471592	      0.05663445
      1.26000000	      0.03723205	      0.02470549	      0.05660693
      1.26500000	      0.03715446	      0.02467974	      0.05657917
      1.27000000	      0.03715655	      0.02468043	      0.05695797
      1.27500000	      0.03714881	      0.02467786	      0.05663025
      1.28000000	      0.03725175	      0.02471203	      0.05676419
      1.28500000	      0.03717684	      0.02468717	      0.05662199
      1.29000000	      0.03715815	      0.02468096	      0.05658205
      1.29500000	      0.03732230	      0.02473542	      0.05675762
      1.30000000	      0.03723869	      0.02470770	      0.05662105
      1.30500000	      0.03734763	      0.02474381	      0.05656916
      1.31000000	      0.03734924	      0.02474435	      0.05651095
      1.31500000	      0.03735937	      0.02474770	      0.05666865
      1.32000000	      0.03731940	      0.02473446	      0.05648444
      1.32500000	      0.03739263	      0.02475871	      0.05642878
      1.33000000	      0.03733468	      0.02473952	      0.05645272
      1.33500000	      0.03734185	      0.02474190	      0.05645263
      1.34000000	      0.03736263	      0.02474878	      0.05647420
      1.34500000	      0.03738676	      0.02475677	      0.05635571
      1.35000000	      0.03741738	      0.02476691	      0.05640775
      1.35500000	      0.03742742	      0.02477023	      0.05650054
      1.36000000	      0.03744460	      0.02477591	      0.05643868
      1.36500000	      0.03748351	      0.02478878	      0.05645281
      1.37000000	      0.03749549	      0.02479274	      0.05647685
      1.37500000	      0.03753286	      0.02480510	      0.05628160
      1.38000000	      0.03758547	      0.02482247	      0.05642831
      1.38500000	      0.03754903	      0.02481044	      0.05631467
      1.39000000	      0.03757569	      0.02481925	      0.05656241
      1.39500000	      0.03763416	      0.02483855	      0.05645691
      1.40000000	      0.03761108	      0.02483093	      0.05646469
      1.40500000	      0.03763145	      0.02483765	      0.05645037
      1.41000000	      0.03764334	      0.02484158	      0.05641969
      1.41500000	      0.03767300	      0.02485136	      0.05654680
      1.42000000	      0.03771179	      0.02486415	      0.05686635
      1.42500000	      0.03770684	      0.02486252	      0.05696627
      1.43000000	      0.03777861	      0.02488617	      0.05725135
      1.43500000	      0.03780491	      0.02489483	      0.05756735
      1.44000000	      0.03778253	      0.02488746	      0.05779226
      1.44500000	      0.03782632	      0.02490188	      0.05814013
      1.45000000	      0.03784582	      0.02490830	      0.05846042
      1.45500000	      0.03790159	      0.02492664	      0.05882932
      1.46000000	      0.03792303	      0.02493369	      0.05890314
      1.46500000	      0.03790083	      0.02492639	      0.05927580
      1.47000000	      0.03793630	      0.02493805	      0.05963177
      1.47500000	      0.03797957	      0.02495227	      0.05980396
      1.48000000	      0.03799976	      0.02495890	      0.06010929
      1.48500000	      0.03797820	      0.02495182	      0.06024411
      1.49000000	      0.03798545	      0.02495420	      0.06042673
      1.49500000	      0.03798013	      0.02495246	      0.06053671
      1.50000000	      0.03802955	      0.02496869	      0.06061935
      1.50500000	      0.03806503	      0.02498033	      0.06075872
      1.51000000	      0.03809218	      0.02498924	      0.06085518
      1.51500000	      0.03814305	      0.02500592	      0.06114419
      1.52000000	      0.03817119	      0.02501514	      0.06125871
      1.52500000	      0.03824778	      0.02504022	      0.06157636
      1.53000000	      0.03837723	      0.02508256	      0.06201793
      1.53500000	      0.03843702	      0.02510209	      0.06211838
      1.54000000	      0.03853930	      0.02513547	      0.06240243
      1.54500000	      0.03859780	      0.02515454	      0.06260987
      1.55000000	      0.03862027	      0.02516186	      0.06281524
      1.55500000	      0.03871097	      0.02519139	      0.06295326
      1.56000000	      0.03880715	      0.02522266	      0.06311845
      1.56500000	      0.03890562	      0.02525464	      0.06364899
      1.57000000	      0.03890325	      0.02525387	      0.06409235
      1.57500000	      0.03879926	      0.02522010	      0.06355947
      1.58000000	      0.03898879	      0.02528162	      0.06468146
      1.58500000	      0.03897776	      0.02527805	      0.06459351
      1.59000000	      0.03900817	      0.02528791	      0.06498942
      1.59500000	      0.03906168	      0.02530524	      0.06524113
      1.60000000	      0.03916739	      0.02533946	      0.06545207
      1.60500000	      0.03924569	      0.02536478	      0.06578932
      1.61000000	      0.03928822	      0.02537852	      0.06619014
      1.61500000	      0.03931018	      0.02538561	      0.06656838
      1.62000000	      0.03934132	      0.02539566	      0.06688303
      1.62500000	      0.03942436	      0.02542245	      0.06711408
      1.63000000	      0.03951468	      0.02545155	      0.06751024
      1.63500000	      0.03957476	      0.02547089	      0.06770626
      1.64000000	      0.03959983	      0.02547896	      0.06797930
      1.64500000	      0.03968570	      0.02550657	      0.06842319
      1.65000000	      0.03975683	      0.02552942	      0.06870952
      1.65500000	      0.03963945	      0.02549171	      0.06835113
      1.66000000	      0.03984641	      0.02555817	      0.06951067
      1.66500000	      0.03996477	      0.02559610	      0.06972262
      1.67000000	      0.04001382	      0.02561180	      0.07004566
      1.67500000	      0.04005908	      0.02562628	      0.07041250
      1.68000000	      0.04010467	      0.02564086	      0.07069235
      1.68500000	      0.04018792	      0.02566746	      0.07085172
      1.69000000	      0.04029456	      0.02570149	      0.07134129
      1.69500000	      0.04034605	      0.02571791	      0.07156358
      1.70000000	      0.04024637	      0.02568612	      0.07108580
      1.70500000	      0.04045899	      0.02575388	      0.07226436
      1.71000000	      0.04061754	      0.02580429	      0.07228893
      1.71500000	      0.04058715	      0.02579463	      0.07262869
      1.72000000	      0.04069503	      0.02582889	      0.07283868
      1.72500000	      0.04076102	      0.02584983	      0.07302434
      1.73000000	      0.04086524	      0.02588285	      0.07332707
      1.73500000	      0.04102021	      0.02593188	      0.07368805
      1.74000000	      0.04105030	      0.02594139	      0.07388762
      1.74500000	      0.04121489	      0.02599334	      0.07421031
      1.75000000	      0.04116880	      0.02597881	      0.07377366
      1.75500000	      0.04136662	      0.02604115	      0.07481115
      1.76000000	      0.04140275	      0.02605252	      0.07481127
      1.76500000	      0.04152492	      0.02609092	      0.07519074
      1.77000000	      0.04157991	      0.02610820	      0.07539360
      1.77500000	      0.04167439	      0.02613784	      0.07580661
      1.78000000	      0.04167623	      0.02613842	      0.07586550
      1.78500000	      0.04184041	      0.02618985	      0.07611100
      1.79000000	      0.04194465	      0.02622246	      0.07613015
      1.79500000	      0.04184100	      0.02619004	      0.07591425
      1.80000000	      0.04227988	      0.02632703	      0.07666655
      1.80500000	      0.04211036	      0.02627420	      0.07680697
      1.81000000	      0.04222982	      0.02631145	      0.07689726
      1.81500000	      0.04232375	      0.02634069	      0.07702893
      1.82000000	      0.04246468	      0.02638451	      0.07695298
      1.82500000	      0.04259536	      0.02642507	      0.07724568
      1.83000000	      0.04263928	      0.02643870	      0.07719011
      1.83500000	      0.04282518	      0.02649627	      0.07732030
      1.84000000	      0.04290361	      0.02652052	      0.07746833
      1.84500000	      0.04305154	      0.02656620	      0.07753902
      1.85000000	      0.04316384	      0.02660083	      0.07774233
      1.85500000	      0.04326233	      0.02663116	      0.07778398
      1.86000000	      0.04348530	      0.02669970	      0.07809259
      1.86500000	      0.04355529	      0.02672117	      0.07795049
      1.87000000	      0.04366810	      0.02675576	      0.07787963
      1.87500000	      0.04382759	      0.02680457	      0.07788315
      1.88000000	      0.04395718	      0.02684417	      0.07789801
      1.88500000	      0.04405742	      0.02687476	      0.07779164
      1.89000000	      0.04419780	      0.02691754	      0.07801220
      1.89500000	      0.04424564	      0.02693211	      0.07785206
      1.90000000	      0.04436483	      0.02696836	      0.07808126
      1.90500000	      0.04457591	      0.02703244	      0.07806375
      1.91000000	      0.04459703	      0.02703884	      0.07797046
      1.91500000	      0.04477399	      0.02709243	      0.07805261
      1.92000000	      0.04483798	      0.02711179	      0.07797961
      1.92500000	      0.04489943	      0.02713036	      0.07783105
      1.93000000	      0.04509437	      0.02718919	      0.07799668
      1.93500000	      0.04519176	      0.02721853	      0.07794778
      1.94000000	      0.04533691	      0.02726221	      0.07793312
      1.94500000	      0.04551498	      0.02731569	      0.07806778
      1.95000000	      0.04548873	      0.02730782	      0.07781250
      1.95500000	      0.04571586	      0.02737591	      0.07807381
      1.96000000	      0.04568581	      0.02736691	      0.07732824
      1.96500000	      0.04592494	      0.02743844	      0.07797643
      1.97000000	      0.04604880	      0.02747541	      0.07791968
      1.97500000	      0.04614674	      0.02750462	      0.07802786
      1.98000000	      0.04632800	      0.02755858	      0.07804104
      1.98500000	      0.04645395	      0.02759602	      0.07810461
      1.99000000	      0.04659634	      0.02763828	      0.07794111
      1.99500000	      0.04674611	      0.02768266	      0.07802772
      2.00000000	      0.04693060	      0.02773723	      0.07805267
      2.00500000	      0.04695249	      0.02774370	      0.07840148
      2.01000000	      0.04711226	      0.02779086	      0.07818746
      2.01500000	      0.04753590	      0.02791553	      0.07844405
      2.02000000	      0.04784052	      0.02800483	      0.07840831
      2.02500000	      0.04784195	      0.02800525	      0.07836316
      2.03000000	      0.04776755	      0.02798347	      0.07840740
      2.03500000	      0.04800001	      0.02805148	      0.07841242
      2.04000000	      0.04816814	      0.02810056	      0.07855973
      2.04500000	      0.04828458	      0.02813451	      0.07844534
      2.05000000	      0.04847610	      0.02819025	      0.07868594
      2.05500000	      0.04863732	      0.02823709	      0.07862730
      2.06000000	      0.04906615	      0.02836130	      0.07865510
      2.06500000	      0.04906666	      0.02836144	      0.07888581
      2.07000000	      0.04956988	      0.02850651	      0.07904400
      2.07500000	      0.04940627	      0.02845942	      0.07894290
      2.08000000	      0.04953554	      0.02849663	      0.07892860
      2.08500000	      0.04985101	      0.02858723	      0.07910030
      2.09000000	      0.05027664	      0.02870901	      0.07910184
      2.09500000	      0.05017222	      0.02867918	      0.07914052
      2.10000000	      0.05063062	      0.02880990	      0.07928759
      2.10500000	      0.05057259	      0.02879338	      0.07936393
      2.11000000	      0.05100643	      0.02891662	      0.07940860
      2.11500000	      0.05110482	      0.02894450	      0.07959056
      2.12000000	      0.05144072	      0.02903947	      0.07955564
      2.12500000	      0.05151587	      0.02906067	      0.07957151
      2.13000000	      0.05199462	      0.02919539	      0.07967406
      2.13500000	      0.05222010	      0.02925863	      0.07975461
      2.14000000	      0.05254491	      0.02934948	      0.07981180
      2.14500000	      0.05276218	      0.02941010	      0.07998066
      2.15000000	      0.05308013	      0.02949858	      0.07997897
      2.15500000	      0.05335659	      0.02957530	      0.08012433
      2.16000000	      0.05354930	      0.02962866	      0.08018824
      2.16500000	      0.05379248	      0.02969586	      0.08020922
      2.17000000	      0.05412819	      0.02978838	      0.08027684
      2.17500000	      0.05427282	      0.02982815	      0.08007475
      2.18000000	      0.05463084	      0.02992637	      0.08028130
      2.18500000	      0.05496366	      0.03001739	      0.08019011
      2.19000000	      0.05497875	      0.03002151	      0.08031696
      2.19500000	      0.05553083	      0.03017186	      0.08043606
      2.20000000	      0.05562926	      0.03019859	      0.08053509
      2.20500000	      0.05583374	      0.03025405	      0.08045019
      2.21000000	      0.05617931	      0.03034753	      0.08062570
      2.21500000	      0.05649378	      0.03043234	      0.08072688
      2.22000000	      0.05707925	      0.03058963	      0.08052438
      2.22500000	      0.05705693	      0.03058365	      0.08039063
      2.23000000	      0.05739199	      0.03067331	      0.08046824
      2.23500000	      0.05762405	      0.03073527	      0.08048448
      2.24000000	      0.05790185	      0.03080926	      0.08040356
      2.24500000	      0.05825845	      0.03090399	      0.08055021
      2.25000000	      0.05853347	      0.03097685	      0.08046293
      2.25500000	      0.05886259	      0.03106381	      0.08052675
      2.26000000	      0.05916431	      0.03114333	      0.08055418
      2.26500000	      0.05959220	      0.03125574	      0.08053020
      2.27000000	      0.05986562	      0.03132736	      0.08047795
      2.27500000	      0.06015342	      0.03140257	      0.08040906
      2.28000000	      0.06050565	      0.03149438	      0.08040437
      2.28500000	      0.06080749	      0.03157284	      0.08032772
      2.29000000	      0.06110339	      0.03164956	      0.08038428
      2.29500000	      0.06152963	      0.03175976	      0.08045239
      2.30000000	      0.06183756	      0.03183913	      0.08030890
      2.30500000	      0.06220882	      0.03193457	      0.08044801
      2.31000000	      0.06248275	      0.03200480	      0.08050035
      2.31500000	      0.06281936	      0.03209090	      0.08069509
      2.32000000	      0.06320558	      0.03218939	      0.08109964
      2.32500000	      0.06353430	      0.03227299	      0.08134131
      2.33000000	      0.06389914	      0.03236552	      0.08141357
      2.33500000	      0.06421901	      0.03244643	      0.08175529
      2.34000000	      0.06456031	      0.03253253	      0.08200136
      2.34500000	      0.06492080	      0.03262324	      0.08203317
      2.35000000	      0.06528542	      0.03271472	      0.08256369
      2.35500000	      0.06561028	      0.03279601	      0.08272176
      2.36000000	      0.06602334	      0.03289908	      0.08295589
      2.36500000	      0.06638189	      0.03298830	      0.08318206
      2.37000000	      0.06678140	      0.03308741	      0.08329174
      2.37500000	      0.06712387	      0.03317215	      0.08360549
      2.38000000	      0.06744468	      0.03325132	      0.08382071
      2.38500000	      0.06778807	      0.03333586	      0.08394206
      2.39000000	      0.06815992	      0.03342717	      0.08442022
      2.39500000	      0.06835106	      0.03347401	      0.08440872
      2.40000000	      0.06881471	      0.03358735	      0.08451696
      2.40500000	      0.06909945	      0.03365677	      0.08478533
      2.41000000	      0.06934782	      0.03371720	      0.08484049
      2.41500000	      0.06989608	      0.03385022	      0.08564891
      2.42000000	      0.06993021	      0.03385848	      0.08516746
      2.42500000	      0.07030385	      0.03394882	      0.08535676
      2.43000000	      0.07062894	      0.03402722	      0.08550268
      2.43500000	      0.07096312	      0.03410762	      0.08589954
      2.44000000	      0.07138662	      0.03420925	      0.08600613
      2.44500000	      0.07160621	      0.03426182	      0.08605769
      2.45000000	      0.07198468	      0.03435224	      0.08625584
      2.45500000	      0.07216391	      0.03439498	      0.08651219
      2.46000000	      0.07269041	      0.03452023	      0.08663642
      2.46500000	      0.07305735	      0.03460725	      0.08685552
      2.47000000	      0.07327389	      0.03465850	      0.08700377
      2.47500000	      0.07361727	      0.03473961	      0.08737124
      2.48000000	      0.07392268	      0.03481160	      0.08733893
      2.48500000	      0.07421099	      0.03487941	      0.08757842
      2.49000000	      0.07452665	      0.03495352	      0.08783452
      2.49500000	      0.07483331	      0.03502536	      0.08794202
      2.50000000	      0.07513249	      0.03509530	      0.08802007
      2.50500000	      0.07547424	      0.03517503	      0.08833282
      2.51000000	      0.07573077	      0.03523476	      0.08843725
      2.51500000	      0.07601031	      0.03529973	      0.08875681
      2.52000000	      0.07626350	      0.03535847	      0.08884170
      2.52500000	      0.07649915	      0.03541305	      0.08890409
      2.53000000	      0.07664825	      0.03544755	      0.08892158
      2.53500000	      0.07692799	      0.03551217	      0.08905296
      2.54000000	      0.07714309	      0.03556179	      0.08916111
      2.54500000	      0.07729088	      0.03559584	      0.08928337
      2.55000000	      0.07745600	      0.03563384	      0.08933012
      2.55500000	      0.07770754	      0.03569165	      0.08938357
      2.56000000	      0.07793206	      0.03574318	      0.08956362
      2.56500000	      0.07816770	      0.03579717	      0.08967841
      2.57000000	      0.07838306	      0.03584645	      0.08966406
      2.57500000	      0.07862601	      0.03590196	      0.08985183
      2.58000000	      0.07887953	      0.03595980	      0.09001588
      2.58500000	      0.07914058	      0.03601925	      0.09020948
      2.59000000	      0.07935421	      0.03606783	      0.09026594
      2.59500000	      0.07963186	      0.03613088	      0.09030466
      2.60000000	      0.07991842	      0.03619583	      0.09050292
      2.60500000	      0.08025998	      0.03627309	      0.09074390
      2.61000000	      0.08058562	      0.03634661	      0.09088524
      2.61500000	      0.08079325	      0.03639340	      0.09082534
      2.62000000	      0.08108697	      0.03645949	      0.09117600
      2.62500000	      0.08132942	      0.03651396	      0.09107747
      2.63000000	      0.08171392	      0.03660017	      0.09133819
      2.63500000	      0.08194836	      0.03665264	      0.09149441
      2.64000000	      0.08216854	      0.03670184	      0.09164305
      2.64500000	      0.08247779	      0.03677084	      0.09157188
      2.65000000	      0.08286022	      0.03685599	      0.09184680
      2.65500000	      0.08308049	      0.03690495	      0.09196128
      2.66000000	      0.08328409	      0.03695014	      0.09197573
      2.66500000	      0.08354357	      0.03700766	      0.09202096
      2.67000000	      0.08387513	      0.03708102	      0.09217214
      2.67500000	      0.08400974	      0.03711076	      0.09225172
      2.68000000	      0.08433759	      0.03718311	      0.09246974
      2.68500000	      0.08456314	      0.03723280	      0.09267076
      2.69000000	      0.08485675	      0.03729738	      0.09270201
      2.69500000	      0.08514408	      0.03736047	      0.09277299
      2.70000000	      0.08549531	      0.03743745	      0.09306061
      2.70500000	      0.08573466	      0.03748981	      0.09323980
      2.71000000	      0.08600552	      0.03754899	      0.09321574
      2.71500000	      0.08631324	      0.03761610	      0.09348043
      2.72000000	      0.08660342	      0.03767928	      0.09344288
      2.72500000	      0.08683826	      0.03773033	      0.09347391
      2.73000000	      0.08710870	      0.03778904	      0.09371053
      2.73500000	      0.08738332	      0.03784856	      0.09385433
      2.74000000	      0.08747965	      0.03786941	      0.09399019
      2.74500000	      0.08765763	      0.03790792	      0.09405230
      2.75000000	      0.08786210	      0.03795211	      0.09415288
      2.75500000	      0.08813192	      0.03801034	      0.09427230
      2.76000000	      0.08831790	      0.03805042	      0.09441287
      2.76500000	      0.08830314	      0.03804724	      0.09454608
      2.77000000	      0.08864858	      0.03812159	      0.09457197
      2.77500000	      0.08900479	      0.03819810	      0.09457190
      2.78000000	      0.08930297	      0.03826203	      0.09505020
      2.78500000	      0.08950007	      0.03830423	      0.09507561
      2.79000000	      0.08977631	      0.03836330	      0.09523356
      2.79500000	      0.09008152	      0.03842846	      0.09536112
      2.80000000	      0.09038532	      0.03849320	      0.09542730
      2.80500000	      0.09077295	      0.03857565	      0.09558390
      2.81000000	      0.09106993	      0.03863871	      0.09574798
      2.81500000	      0.09142960	      0.03871493	      0.09605307
      2.82000000	      0.09165615	      0.03876287	      0.09628292
      2.82500000	      0.09196044	      0.03882716	      0.09649496
      2.83000000	      0.09232975	      0.03890504	      0.09654856
      2.83500000	      0.09257826	      0.03895737	      0.09663972
      2.84000000	      0.09282722	      0.03900971	      0.09672211
      2.84500000	      0.09305185	      0.03905688	      0.09678904
      2.85000000	      0.09327276	      0.03910322	      0.09693255
      2.85500000	      0.09354529	      0.03916030	      0.09701477
      2.86000000	      0.09368986	      0.03919055	      0.09708266
      2.86500000	      0.09379067	      0.03921163	      0.09718144
      2.87000000	      0.09397972	      0.03925113	      0.09732455
      2.87500000	      0.09422520	      0.03930236	      0.09740352
      2.88000000	      0.09434544	      0.03932743	      0.09752068
      2.88500000	      0.09452017	      0.03936383	      0.09749408
      2.89000000	      0.09471330	      0.03940402	      0.09752777
      2.89500000	      0.09499833	      0.03946327	      0.09763887
      2.90000000	      0.09528787	      0.03952336	      0.09781119
      2.90500000	      0.09555175	      0.03957805	      0.09789811
      2.91000000	      0.09579817	      0.03962905	      0.09804461
      2.91500000	      0.09599322	      0.03966937	      0.09816617
      2.92000000	      0.09625482	      0.03972339	      0.09836480
      2.92500000	      0.09640232	      0.03975382	      0.09841609
      2.93000000	      0.09667673	      0.03981035	      0.09867156
      2.93500000	      0.09697508	      0.03987174	      0.09865981
      2.94000000	      0.09719360	      0.03991664	      0.09883620
      2.94500000	      0.09749936	      0.03997937	      0.09906185
      2.95000000	      0.09770328	      0.04002116	      0.09920347
      2.95500000	      0.09790487	      0.04006242	      0.09935083
      2.96000000	      0.09798048	      0.04007789	      0.09943659
      2.96500000	      0.09828039	      0.04013918	      0.09961095
      2.97000000	      0.09840291	      0.04016419	      0.09949742
      2.97500000	      0.09859701	      0.04020379	      0.09954658
      2.98000000	      0.09871208	      0.04022724	      0.09960336
      2.98500000	      0.09891195	      0.04026794	      0.09971497
      2.99000000	      0.09903386	      0.04029275	      0.09974886
      2.99500000	      0.09915157	      0.04031669	      0.09981742
      3.00000000	      0.09928933	      0.04034469	      0.09994593
      3.00500000	      0.09951060	      0.04038962	      0.10006675
      3.01000000	      0.09961221	      0.04041023	      0.10005454
      3.01500000	      0.09996848	      0.04048243	      0.10025074
      3.02000000	      0.10013562	      0.04051626	      0.10054717
      3.02500000	      0.10026102	      0.04054162	      0.10047502
      3.03000000	      0.10048965	      0.04058782	      0.10084822
      3.03500000	      0.10070886	      0.04063207	      0.10083232
      3.04000000	      0.10084349	      0.04065922	      0.10071361
      3.04500000	      0.10104034	      0.04069888	      0.10120360
      3.05000000	      0.10114899	      0.04072076	      0.10094675
      3.05500000	      0.10125131	      0.04074135	      0.10110814
      3.06000000	      0.10137480	      0.04076619	      0.10101515
      3.06500000	      0.10152241	      0.04079585	      0.10126133
      3.07000000	      0.10162577	      0.04081662	      0.10121742
      3.07500000	      0.10180895	      0.04085339	      0.10125274
      3.08000000	      0.10187971	      0.04086758	      0.10118531
      3.08500000	      0.10204202	      0.04090012	      0.10126287
      3.09000000	      0.10216753	      0.04092527	      0.10153015
      3.09500000	      0.10233418	      0.04095863	      0.10159064
      3.10000000	      0.10246865	      0.04098553	      0.10164970
      3.10500000	      0.10259047	      0.04100989	      0.10169806
      3.11000000	      0.10280779	      0.04105330	      0.10165400
      3.11500000	      0.10301384	      0.04109442	      0.10174191
      3.12000000	      0.10295531	      0.04108275	      0.10171476
      3.12500000	      0.10309566	      0.04111074	      0.10224575
      3.13000000	      0.10326108	      0.04114371	      0.10182014
      3.13500000	      0.10338231	      0.04116785	      0.10193761
      3.14000000	      0.10338730	      0.04116884	      0.10195860
      3.14500000	      0.10358782	      0.04120875	      0.10207923
      3.15000000	      0.10356506	      0.04120422	      0.10197615
      3.15500000	      0.10356198	      0.04120361	      0.10216138
      3.16000000	      0.10359378	      0.04120993	      0.10241990
      3.16500000	      0.10365515	      0.04122214	      0.10213811
      3.17000000	      0.10388115	      0.04126705	      0.10236465
      3.17500000	      0.10374284	      0.04123957	      0.10205104
      3.18000000	      0.10375170	      0.04124133	      0.10219529
      3.18500000	      0.10368245	      0.04122757	      0.10205024
      3.19000000	      0.10365094	      0.04122130	      0.10222661
      3.19500000	      0.10366679	      0.04122445	      0.10226628
      3.20000000	      0.10357796	      0.04120679	      0.10209152
      3.20500000	      0.10358937	      0.04120906	      0.10230866
      3.21000000	      0.10351326	      0.04119392	      0.10219584
      3.21500000	      0.10348556	      0.04118840	      0.10213887
      3.22000000	      0.10347335	      0.04118597	      0.10229668
      3.22500000	      0.10345075	      0.04118148	      0.10234171
      3.23000000	      0.10351969	      0.04119520	      0.10230337
      3.23500000	      0.10354008	      0.04119925	      0.10236944
      3.24000000	      0.10356173	      0.04120356	      0.10229122
      3.24500000	      0.10355531	      0.04120228	      0.10238263
      3.25000000	      0.10358426	      0.04120804	      0.10227079
      3.25500000	      0.10362520	      0.04121618	      0.10231604
      3.26000000	      0.10364745	      0.04122061	      0.10225607
      3.26500000	      0.10369487	      0.04123004	      0.10226580
      3.27000000	      0.10381774	      0.04125446	      0.10254866
      3.27500000	      0.10374942	      0.04124088	      0.10216334
      3.28000000	      0.10377966	      0.04124689	      0.10229679
      3.28500000	      0.10383912	      0.04125870	      0.10252777
      3.29000000	      0.10384207	      0.04125929	      0.10245526
      3.29500000	      0.10393008	      0.04127677	      0.10238556
      3.30000000	      0.10395042	      0.04128081	      0.10248308
      3.30500000	      0.10403144	      0.04129689	      0.10253163
      3.31000000	      0.10410557	      0.04131161	      0.10261598
      3.31500000	      0.10422749	      0.04133579	      0.10254713
      3.32000000	      0.10430403	      0.04135096	      0.10271786
      3.32500000	      0.10447758	      0.04138535	      0.10289323
      3.33000000	      0.10457936	      0.04140550	      0.10285107
      3.33500000	      0.10469885	      0.04142915	      0.10300500
      3.34000000	      0.10484368	      0.04145780	      0.10312202
      3.34500000	      0.10504911	      0.04149839	      0.10322464
      3.35000000	      0.10515223	      0.04151876	      0.10328622
      3.35500000	      0.10546092	      0.04157965	      0.10329499
      3.36000000	      0.10555042	      0.04159729	      0.10322245
      3.36500000	      0.10574171	      0.04163497	      0.10361105
      3.37000000	      0.10581097	      0.04164860	      0.10346743
      3.37500000	      0.10588515	      0.04166320	      0.10368884
      3.38000000	      0.10597475	      0.04168082	      0.10368485
      3.38500000	      0.10603053	      0.04169179	      0.10363765
      3.39000000	      0.10607074	      0.04169970	      0.10365581
      3.39500000	      0.10621610	      0.04172826	      0.10383541
      3.40000000	      0.10613404	      0.04171214	      0.10374363
      3.40500000	      0.10624871	      0.04173466	      0.10391152
      3.41000000	      0.10632168	      0.04174899	      0.10376764
      3.41500000	      0.10639415	      0.04176322	      0.10388068
      3.42000000	      0.10651122	      0.04178619	      0.10391650
      3.42500000	      0.10652258	      0.04178842	      0.10404877
      3.43000000	      0.10638983	      0.04176237	      0.10396131
      3.43500000	      0.10670078	      0.04182336	      0.10410051
      3.44000000	      0.10676029	      0.04183502	      0.10405654
      3.44500000	      0.10676194	      0.04183534	      0.10432333
      3.45000000	      0.10672409	      0.04182792	      0.10413867
      3.45500000	      0.10671265	      0.04182568	      0.10417286
      3.46000000	      0.10673259	      0.04182959	      0.10399399
      3.46500000	      0.10673997	      0.04183104	      0.10413992
      3.47000000	      0.10676968	      0.04183686	      0.10417034
      3.47500000	      0.10681420	      0.04184558	      0.10411866
      3.48000000	      0.10647472	      0.04177903	      0.10412196
      3.48500000	      0.10674585	      0.04183219	      0.10414628
      3.49000000	      0.10672974	      0.04182903	      0.10413594
      3.49500000	      0.10671575	      0.04182629	      0.10428633
      3.50000000	      0.10670960	      0.04182508	      0.10424055
      3.50500000	      0.10672479	      0.04182806	      0.10447556
      3.51000000	      0.10679691	      0.04184219	      0.10447275
      3.51500000	      0.10673957	      0.04183096	      0.10427144
      3.52000000	      0.10674205	      0.04183144	      0.10445240
      3.52500000	      0.10673290	      0.04182965	      0.10430542
      3.53000000	      0.10670756	      0.04182468	      0.10422689
      3.53500000	      0.10670005	      0.04182321	      0.10423478
      3.54000000	      0.10670609	      0.04182440	      0.10430510
      3.54500000	      0.10669833	      0.04182288	      0.10434393
      3.55000000	      0.10675216	      0.04183342	      0.10452136
      3.55500000	      0.10676904	      0.04183673	      0.10440432
      3.56000000	      0.10677274	      0.04183746	      0.10454684
      3.56500000	      0.10681330	      0.04184540	      0.10455687
      3.57000000	      0.10689174	      0.04186076	      0.10443787
      3.57500000	      0.10689874	      0.04186214	      0.10469231
      3.58000000	      0.10684276	      0.04185117	      0.10451993
      3.58500000	      0.10682271	      0.04184725	      0.10461861
      3.59000000	      0.10686586	      0.04185570	      0.10466415
      3.59500000	      0.10683548	      0.04184975	      0.10452794
      3.60000000	      0.10674745	      0.04183250	      0.10449167
      3.60500000	      0.10678429	      0.04183972	      0.10486415
      3.61000000	      0.10673198	      0.04182947	      0.10450475
      3.61500000	      0.10666785	      0.04181690	      0.10450884
      3.62000000	      0.10662499	      0.04180850	      0.10437479
      3.62500000	      0.10657282	      0.04179827	      0.10448708
      3.63000000	      0.10642764	      0.04176979	      0.10413348
      3.63500000	      0.10616907	      0.04171902	      0.10409277
      3.64000000	      0.10618847	      0.04172283	      0.10412865
      3.64500000	      0.10593702	      0.04167340	      0.10415682
      3.65000000	      0.10599969	      0.04168573	      0.10411755
      3.65500000	      0.10575201	      0.04163700	      0.10401535
      3.66000000	      0.10565539	      0.04161797	      0.10405188
      3.66500000	      0.10556258	      0.04159969	      0.10398539
      3.67000000	      0.10548596	      0.04158459	      0.10407759
      3.67500000	      0.10545423	      0.04157833	      0.10411703
      3.68000000	      0.10536885	      0.04156150	      0.10414081
      3.68500000	      0.10522034	      0.04153220	      0.10411157
      3.69000000	      0.10522517	      0.04153315	      0.10398713
      3.69500000	      0.10511848	      0.04151209	      0.10377172
      3.70000000	      0.10516717	      0.04152170	      0.10373088
      3.70500000	      0.10519582	      0.04152736	      0.10371744
      3.71000000	      0.10514323	      0.04151698	      0.10374730
      3.71500000	      0.10515927	      0.04152014	      0.10377659
      3.72000000	      0.10518254	      0.04152474	      0.10398544
      3.72500000	      0.10492547	      0.04147396	      0.10375618
      3.73000000	      0.10501934	      0.04149251	      0.10380258
      3.73500000	      0.10491134	      0.04147117	      0.10374553
      3.74000000	      0.10483144	      0.04145538	      0.10362527
      3.74500000	      0.10478836	      0.04144686	      0.10359049
      3.75000000	      0.10500359	      0.04148940	      0.10454120
      3.75500000	      0.10452665	      0.04139507	      0.10371665
      3.76000000	      0.10433804	      0.04135770	      0.10337765
      3.76500000	      0.10424334	      0.04133893	      0.10324983
      3.77000000	      0.10402084	      0.04129479	      0.10303671
      3.77500000	      0.10390498	      0.04127179	      0.10300144
      3.78000000	      0.10368018	      0.04122712	      0.10296344
      3.78500000	      0.10350933	      0.04119313	      0.10292904
      3.79000000	      0.10325744	      0.04114298	      0.10290079
      3.79500000	      0.10308989	      0.04110959	      0.10283435
      3.80000000	      0.10296382	      0.04108444	      0.10267638
      3.80500000	      0.10317116	      0.04112579	      0.10351126
      3.81000000	      0.10251936	      0.04099567	      0.10253059
      3.81500000	      0.10230295	      0.04095238	      0.10237072
      3.82000000	      0.10214552	      0.04092086	      0.10223531
      3.82500000	      0.10189774	      0.04087120	      0.10219989
      3.83000000	      0.10171277	      0.04083408	      0.10207755
      3.83500000	      0.10133773	      0.04075873	      0.10205140
      3.84000000	      0.10145518	      0.04078234	      0.10207944
      3.84500000	      0.10119541	      0.04073010	      0.10186148
      3.85000000	      0.10095117	      0.04068092	      0.10176800
      3.85500000	      0.10080182	      0.04065082	      0.10176789
      3.86000000	      0.10062263	      0.04061467	      0.10170699
      3.86500000	      0.10030635	      0.04055079	      0.10162883
      3.87000000	      0.10029872	      0.04054925	      0.10163614
      3.87500000	      0.09970856	      0.04042977	      0.10127043
      3.88000000	      0.09950870	      0.04038923	      0.10119218
      3.88500000	      0.09930582	      0.04034804	      0.10107973
      3.89000000	      0.09902726	      0.04029141	      0.10094315
      3.89500000	      0.09868595	      0.04022192	      0.10083537
      3.90000000	      0.09844818	      0.04017343	      0.10074038
      3.90500000	      0.09823318	      0.04012954	      0.10068793
      3.91000000	      0.09796790	      0.04007532	      0.10043013
      3.91500000	      0.09781016	      0.04004304	      0.10040389
      3.92000000	      0.09763109	      0.04000637	      0.10037013
      3.92500000	      0.09732075	      0.03994274	      0.10027680
      3.93000000	      0.09728308	      0.03993500	      0.10037469
      3.93500000	      0.09707661	      0.03989260	      0.10025231
      3.94000000	      0.09686491	      0.03984908	      0.10012818
      3.94500000	      0.09662374	      0.03979944	      0.10007629
      3.95000000	      0.09648573	      0.03977101	      0.09995260
      3.95500000	      0.09617171	      0.03970624	      0.09984114
      3.96000000	      0.09589114	      0.03964828	      0.09979082
      3.96500000	      0.09563399	      0.03959508	      0.09952940
      3.97000000	      0.09536972	      0.03954033	      0.09932472
      3.97500000	      0.09500956	      0.03946560	      0.09911274
      3.98000000	      0.09473397	      0.03940832	      0.09883559
      3.98500000	      0.09444090	      0.03934732	      0.09881405
      3.99000000	      0.09401198	      0.03925787	      0.09866312
      3.99500000	      0.09368603	      0.03918975	      0.09839880
      4.00000000	      0.09358154	      0.03916789	      0.09815868
      4.00500000	      0.09327205	      0.03910307	      0.09829147
      4.01000000	      0.09294234	      0.03903389	      0.09808175
      4.01500000	      0.09281146	      0.03900640	      0.09793975
      4.02000000	      0.09247231	      0.03893507	      0.09773564
      4.02500000	      0.09224592	      0.03888738	      0.09779520
      4.03000000	      0.09212788	      0.03886249	      0.09766485
      4.03500000	      0.09180823	      0.03879501	      0.09745161
      4.04000000	      0.09155105	      0.03874064	      0.09732968
      4.04500000	      0.09138136	      0.03870472	      0.09719622
      4.05000000	      0.09107415	      0.03863960	      0.09711923
      4.05500000	      0.09070756	      0.03856176	      0.09681628
      4.06000000	      0.09056795	      0.03853207	      0.09685562
      4.06500000	      0.09022887	      0.03845987	      0.09668315
      4.07000000	      0.08990852	      0.03839154	      0.09644573
      4.07500000	      0.08960776	      0.03832727	      0.09618821
      4.08000000	      0.08934141	      0.03827027	      0.09616200
      4.08500000	      0.08896893	      0.03819041	      0.09585236
      4.09000000	      0.08872634	      0.03813830	      0.09560527
      4.09500000	      0.08836048	      0.03805959	      0.09560076
      4.10000000	      0.08805824	      0.03799444	      0.09534009
      4.10500000	      0.08747194	      0.03786775	      0.09516369
      4.11000000	      0.08742364	      0.03785729	      0.09526942
      4.11500000	      0.08677912	      0.03771748	      0.09485172
      4.12000000	      0.08657535	      0.03767317	      0.09470264
      4.12500000	      0.08622677	      0.03759726	      0.09444928
      4.13000000	      0.08596115	      0.03753930	      0.09451383
      4.13500000	      0.08559532	      0.03745934	      0.09415122
      4.14000000	      0.08542238	      0.03742148	      0.09398358
      4.14500000	      0.08502619	      0.03733460	      0.09386407
      4.15000000	      0.08480481	      0.03728596	      0.09363014
      4.15500000	      0.08438614	      0.03719381	      0.09345662
      4.16000000	      0.08412999	      0.03713731	      0.09340060
      4.16500000	      0.08372879	      0.03704866	      0.09328875
      4.17000000	      0.08344419	      0.03698564	      0.09319208
      4.17500000	      0.08309808	      0.03690886	      0.09291389
      4.18000000	      0.08295012	      0.03687598	      0.09294397
      4.18500000	      0.08268826	      0.03681773	      0.09270229
      4.19000000	      0.08235814	      0.03674416	      0.09263451
      4.19500000	      0.08204900	      0.03667513	      0.09233793
      4.20000000	      0.08179875	      0.03661916	      0.09234332
      4.20500000	      0.08137241	      0.03652361	      0.09201921
      4.21000000	      0.08100932	      0.03644203	      0.09186677
      4.21500000	      0.08066036	      0.03636346	      0.09156088
      4.22000000	      0.08024530	      0.03626978	      0.09135653
      4.22500000	      0.07986026	      0.03618266	      0.09111362
      4.23000000	      0.07961461	      0.03612696	      0.09091481
      4.23500000	      0.07923652	      0.03604108	      0.09063038
      4.24000000	      0.07883540	      0.03594974	      0.09036456
      4.24500000	      0.07856684	      0.03588845	      0.09035005
      4.25000000	      0.07814958	      0.03579302	      0.09006840
      4.25500000	      0.07788705	      0.03573286	      0.09004439
      4.26000000	      0.07744442	      0.03563117	      0.08971541
      4.26500000	      0.07722524	      0.03558072	      0.08957342
      4.27000000	      0.07692672	      0.03551188	      0.08959912
      4.27500000	      0.07661380	      0.03543958	      0.08918757
      4.28000000	      0.07642602	      0.03539612	      0.08927895
      4.28500000	      0.07617491	      0.03533793	      0.08907296
      4.29000000	      0.07587447	      0.03526817	      0.08891870
      4.29500000	      0.07566079	      0.03521847	      0.08904212
      4.30000000	      0.07529829	      0.03513400	      0.08847802
      4.30500000	      0.07517899	      0.03510616	      0.08841273
      4.31000000	      0.07479343	      0.03501602	      0.08827996
      4.31500000	      0.07462088	      0.03497561	      0.08796659
      4.32000000	      0.07423329	      0.03488465	      0.08779095
      4.32500000	      0.07388727	      0.03480326	      0.08782160
      4.33000000	      0.07350800	      0.03471382	      0.08743678
      4.33500000	      0.07333067	      0.03467192	      0.08733412
      4.34000000	      0.07291150	      0.03457269	      0.08720241
      4.34500000	      0.07256416	      0.03449024	      0.08691470
      4.35000000	      0.07218744	      0.03440059	      0.08661582
      4.35500000	      0.07178065	      0.03430353	      0.08665057
      4.36000000	      0.07141777	      0.03421671	      0.08674234
      4.36500000	      0.07105077	      0.03412868	      0.08688661
      4.37000000	      0.07074362	      0.03405483	      0.08706980
      4.37500000	      0.07036333	      0.03396318	      0.08693742
      4.38000000	      0.07001888	      0.03387994	      0.08734466
      4.38500000	      0.06967137	      0.03379576	      0.08733269
      4.39000000	      0.06929298	      0.03370387	      0.08764850
      4.39500000	      0.06897327	      0.03362602	      0.08770207
      4.40000000	      0.06861142	      0.03353770	      0.08778394
      4.40500000	      0.06826793	      0.03345365	      0.08806704
      4.41000000	      0.06799238	      0.03338606	      0.08834147
      4.41500000	      0.06758049	      0.03328478	      0.08833476
      4.42000000	      0.06722706	      0.03319764	      0.08851159
      4.42500000	      0.06686892	      0.03310909	      0.08866050
      4.43000000	      0.06653051	      0.03302520	      0.08920708
      4.43500000	      0.06607237	      0.03291130	      0.08902459
      4.44000000	      0.06568933	      0.03281576	      0.08934853
      4.44500000	      0.06533326	      0.03272670	      0.08949567
      4.45000000	      0.06485525	      0.03260676	      0.08931216
      4.45500000	      0.06449011	      0.03251484	      0.08969238
      4.46000000	      0.06393970	      0.03237579	      0.08958934
      4.46500000	      0.06359749	      0.03228904	      0.08975839
      4.47000000	      0.06316114	      0.03217808	      0.08976621
      4.47500000	      0.06279732	      0.03208527	      0.08987081
      4.48000000	      0.06247410	      0.03200259	      0.09000743
      4.48500000	      0.06207505	      0.03190022	      0.09011295
      4.49000000	      0.06170465	      0.03180490	      0.09042254
      4.49500000	      0.06135290	      0.03171412	      0.09025297
      4.50000000	      0.06100870	      0.03162503	      0.09041655
      4.50500000	      0.06057977	      0.03151366	      0.09058574
      4.51000000	      0.06021927	      0.03141976	      0.09057019
      4.51500000	      0.05989291	      0.03133450	      0.09096193
      4.52000000	      0.05946541	      0.03122247	      0.09086147
      4.52500000	      0.05912506	      0.03113299	      0.09141970
      4.53000000	      0.05853723	      0.03097784	      0.09102861
      4.53500000	      0.05821231	      0.03089175	      0.09124675
      4.54000000	      0.05763357	      0.03073781	      0.09061603
      4.54500000	      0.05739726	      0.03067472	      0.09117969
      4.55000000	      0.05685066	      0.03052831	      0.09122168
      4.55500000	      0.05630963	      0.03038270	      0.09034930
      4.56000000	      0.05595153	      0.03028594	      0.09094308
      4.56500000	      0.05562690	      0.03019795	      0.09125673
      4.57000000	      0.05520739	      0.03008387	      0.09098536
      4.57500000	      0.05477418	      0.02996560	      0.09094637
      4.58000000	      0.05441059	      0.02986598	      0.09116661
      4.58500000	      0.05415382	      0.02979543	      0.09156805
      4.59000000	      0.05365441	      0.02965772	      0.09125995
      4.59500000	      0.05334658	      0.02957252	      0.09157929
      4.60000000	      0.05294643	      0.02946140	      0.09162200
      4.60500000	      0.05261668	      0.02936952	      0.09173273
      4.61000000	      0.05228447	      0.02927665	      0.09165351
      4.61500000	      0.05190208	      0.02916940	      0.09183325
      4.62000000	      0.05155031	      0.02907038	      0.09193827
      4.62500000	      0.05121914	      0.02897685	      0.09194470
      4.63000000	      0.05094000	      0.02889779	      0.09223684
      4.63500000	      0.05060629	      0.02880297	      0.09229200
      4.64000000	      0.05031049	      0.02871867	      0.09241739
      4.64500000	      0.04993991	      0.02861271	      0.09228494
      4.65000000	      0.04960120	      0.02851551	      0.09235609
      4.65500000	      0.04923776	      0.02841085	      0.09236213
      4.66000000	      0.04882014	      0.02829011	      0.09232220
      4.66500000	      0.04862994	      0.02823495	      0.09249682
      4.67000000	      0.04827006	      0.02813028	      0.09248452
      4.67500000	      0.04774904	      0.02797805	      0.09158660
      4.68000000	      0.04762237	      0.02794091	      0.09235983
      4.68500000	      0.04731072	      0.02784934	      0.09225683
      4.69000000	      0.04702046	      0.02776377	      0.09221671
      4.69500000	      0.04679462	      0.02769702	      0.09231575
      4.70000000	      0.04645388	      0.02759600	      0.09219014
      4.70500000	      0.04627513	      0.02754285	      0.09238584
      4.71000000	      0.04599935	      0.02746066	      0.09221505
      4.71500000	      0.04554087	      0.02732346	      0.09131630
      4.72000000	      0.04544707	      0.02729531	      0.09204374
      4.72500000	      0.04522870	      0.02722965	      0.09197421
      4.73000000	      0.04506217	      0.02717948	      0.09203355
      4.73500000	      0.04472814	      0.02707856	      0.09114177
      4.74000000	      0.04461727	      0.02704498	      0.09163743
      4.74500000	      0.04439414	      0.02697727	      0.09140484
      4.75000000	      0.04418984	      0.02691512	      0.09115493
      4.75500000	      0.04400750	      0.02685953	      0.09104765
      4.76000000	      0.04378701	      0.02679216	      0.09085845
      4.76500000	      0.04355426	      0.02672086	      0.09060039
      4.77000000	      0.04338285	      0.02666823	      0.09022928
      4.77500000	      0.04323106	      0.02662153	      0.08989992
      4.78000000	      0.04304927	      0.02656550	      0.08967515
      4.78500000	      0.04285869	      0.02650663	      0.08921395
      4.79000000	      0.04264641	      0.02644091	      0.08890845
      4.79500000	      0.04236125	      0.02635236	      0.08843941
      4.80000000	      0.04221376	      0.02630644	      0.08790659
      4.80500000	      0.04211940	      0.02627702	      0.08742280
      4.81000000	      0.04187526	      0.02620076	      0.08683892
      4.81500000	      0.04169112	      0.02614309	      0.08630447
      4.82000000	      0.04152823	      0.02609197	      0.08590664
      4.82500000	      0.04141488	      0.02605633	      0.08535436
      4.83000000	      0.04122357	      0.02599608	      0.08470617
      4.83500000	      0.04109527	      0.02595560	      0.08405042
      4.84000000	      0.04097373	      0.02591719	      0.08338331
      4.84500000	      0.04082642	      0.02587055	      0.08274571
      4.85000000	      0.04070483	      0.02583200	      0.08221925
      4.85500000	      0.04055749	      0.02578521	      0.08158801
      4.86000000	      0.04042130	      0.02574188	      0.08087978
      4.86500000	      0.04029414	      0.02570135	      0.08023927
      4.87000000	      0.04016183	      0.02565912	      0.07951589
      4.87500000	      0.04000331	      0.02560844	      0.07899955
      4.88000000	      0.03983007	      0.02555292	      0.07828774
      4.88500000	      0.03975526	      0.02552892	      0.07769283
      4.89000000	      0.03970028	      0.02551126	      0.07707620
      4.89500000	      0.03956724	      0.02546848	      0.07626656
      4.90000000	      0.03943447	      0.02542571	      0.07538361
      4.90500000	      0.03928969	      0.02537899	      0.07447840
      4.91000000	      0.03918754	      0.02534598	      0.07385298
      4.91500000	      0.03913446	      0.02532881	      0.07315799
      4.92000000	      0.03908331	      0.02531225	      0.07250891
      4.92500000	      0.03908367	      0.02531237	      0.07193147
      4.93000000	      0.03904426	      0.02529960	      0.07127884
      4.93500000	      0.03900524	      0.02528696	      0.07046181
      4.94000000	      0.03893363	      0.02526373	      0.06970837
      4.94500000	      0.03891879	      0.02525892	      0.06884209
      4.95000000	      0.03884436	      0.02523475	      0.06821504
      4.95500000	      0.03886447	      0.02524128	      0.06762798
      4.96000000	      0.03893580	      0.02526444	      0.06728047
      4.96500000	      0.03895629	      0.02527109	      0.06677601
      4.97000000	      0.03875055	      0.02520426	      0.06505568
      4.97500000	      0.03873905	      0.02520053	      0.06457102
      4.98000000	      0.03876453	      0.02520881	      0.06415709
      4.98500000	      0.03885453	      0.02523806	      0.06445548
      4.99000000	      0.03888564	      0.02524816	      0.06422987
      4.99500000	      0.03890448	      0.02525427	      0.06390707
      5.00000000	      0.03892463	      0.02526081	      0.06373860
