Model Marker Errors from IK
version=1
nRows=841
nColumns=4
inDegrees=no
endheader
time	total_squared_error	marker_error_RMS	marker_error_max
      1.60000000	      0.03194923	      0.02288576	      0.07130909
      1.60500000	      0.03202288	      0.02291212	      0.07149081
      1.61000000	      0.03211320	      0.02294441	      0.07170492
      1.61500000	      0.03226943	      0.02300015	      0.07202883
      1.62000000	      0.03224583	      0.02299174	      0.07230653
      1.62500000	      0.03221532	      0.02298086	      0.07207024
      1.63000000	      0.03227686	      0.02300280	      0.07231867
      1.63500000	      0.03246650	      0.02307028	      0.07294100
      1.64000000	      0.03254963	      0.02309979	      0.07304283
      1.64500000	      0.03255607	      0.02310208	      0.07327628
      1.65000000	      0.03270531	      0.02315497	      0.07359172
      1.65500000	      0.03281042	      0.02319215	      0.07400486
      1.66000000	      0.03286718	      0.02321220	      0.07414685
      1.66500000	      0.03296021	      0.02324503	      0.07431431
      1.67000000	      0.03308534	      0.02328911	      0.07462005
      1.67500000	      0.03319450	      0.02332750	      0.07482886
      1.68000000	      0.03333850	      0.02337804	      0.07505021
      1.68500000	      0.03341227	      0.02340389	      0.07510634
      1.69000000	      0.03361729	      0.02347559	      0.07542099
      1.69500000	      0.03370986	      0.02350788	      0.07556620
      1.70000000	      0.03384979	      0.02355663	      0.07573253
      1.70500000	      0.03391407	      0.02357898	      0.07584699
      1.71000000	      0.03400055	      0.02360903	      0.07586770
      1.71500000	      0.03408840	      0.02363950	      0.07600283
      1.72000000	      0.03417909	      0.02367093	      0.07620310
      1.72500000	      0.03420381	      0.02367949	      0.07609878
      1.73000000	      0.03429626	      0.02371147	      0.07634320
      1.73500000	      0.03438560	      0.02374233	      0.07636256
      1.74000000	      0.03445838	      0.02376745	      0.07639982
      1.74500000	      0.03459455	      0.02381436	      0.07650150
      1.75000000	      0.03479084	      0.02388183	      0.07653553
      1.75500000	      0.03487514	      0.02391074	      0.07676486
      1.76000000	      0.03491165	      0.02392325	      0.07658399
      1.76500000	      0.03500551	      0.02395539	      0.07653315
      1.77000000	      0.03515763	      0.02400739	      0.07680500
      1.77500000	      0.03524951	      0.02403874	      0.07659347
      1.78000000	      0.03550399	      0.02412535	      0.07675631
      1.78500000	      0.03564457	      0.02417307	      0.07684672
      1.79000000	      0.03572200	      0.02419931	      0.07674534
      1.79500000	      0.03584916	      0.02424234	      0.07672264
      1.80000000	      0.03598184	      0.02428716	      0.07659893
      1.80500000	      0.03613602	      0.02433914	      0.07651570
      1.81000000	      0.03623885	      0.02437374	      0.07665312
      1.81500000	      0.03628274	      0.02438850	      0.07644548
      1.82000000	      0.03640261	      0.02442875	      0.07622791
      1.82500000	      0.03656783	      0.02448413	      0.07619684
      1.83000000	      0.03662431	      0.02450303	      0.07609723
      1.83500000	      0.03679863	      0.02456127	      0.07593463
      1.84000000	      0.03699402	      0.02462639	      0.07590178
      1.84500000	      0.03713466	      0.02467316	      0.07592445
      1.85000000	      0.03732370	      0.02473588	      0.07561786
      1.85500000	      0.03745347	      0.02477885	      0.07561583
      1.86000000	      0.03765264	      0.02484465	      0.07545430
      1.86500000	      0.03792031	      0.02493280	      0.07547618
      1.87000000	      0.03819695	      0.02502358	      0.07548205
      1.87500000	      0.03827790	      0.02505008	      0.07536848
      1.88000000	      0.03847395	      0.02511415	      0.07533670
      1.88500000	      0.03857620	      0.02514750	      0.07511867
      1.89000000	      0.03884111	      0.02523370	      0.07512643
      1.89500000	      0.03909378	      0.02531564	      0.07517633
      1.90000000	      0.03922805	      0.02535908	      0.07497131
      1.90500000	      0.03953426	      0.02545786	      0.07494566
      1.91000000	      0.03972949	      0.02552064	      0.07473328
      1.91500000	      0.03998430	      0.02560235	      0.07466999
      1.92000000	      0.04017991	      0.02566490	      0.07444331
      1.92500000	      0.04047866	      0.02576013	      0.07451830
      1.93000000	      0.04080360	      0.02586332	      0.07426446
      1.93500000	      0.04099728	      0.02592463	      0.07423598
      1.94000000	      0.04134310	      0.02603374	      0.07428223
      1.94500000	      0.04150718	      0.02608535	      0.07418027
      1.95000000	      0.04168064	      0.02613980	      0.07413659
      1.95500000	      0.04209085	      0.02626812	      0.07407876
      1.96000000	      0.04237759	      0.02635744	      0.07428452
      1.96500000	      0.04329812	      0.02664217	      0.07406215
      1.97000000	      0.04301462	      0.02655481	      0.07430310
      1.97500000	      0.04316693	      0.02660178	      0.07417442
      1.98000000	      0.04325762	      0.02662971	      0.07418930
      1.98500000	      0.04374113	      0.02677812	      0.07420705
      1.99000000	      0.04376579	      0.02678567	      0.07422142
      1.99500000	      0.04404042	      0.02686958	      0.07410359
      2.00000000	      0.04430451	      0.02695002	      0.07415619
      2.00500000	      0.04472741	      0.02707833	      0.07420995
      2.01000000	      0.04505582	      0.02717756	      0.07412771
      2.01500000	      0.04515060	      0.02720613	      0.07400445
      2.02000000	      0.04541011	      0.02728421	      0.07373379
      2.02500000	      0.04585158	      0.02741651	      0.07383359
      2.03000000	      0.04609437	      0.02748901	      0.07354124
      2.03500000	      0.04632122	      0.02755656	      0.07358361
      2.04000000	      0.04656737	      0.02762969	      0.07345897
      2.04500000	      0.04682472	      0.02770593	      0.07340696
      2.05000000	      0.04779398	      0.02799121	      0.07491438
      2.05500000	      0.04743989	      0.02788733	      0.07336022
      2.06000000	      0.04812512	      0.02808801	      0.07498679
      2.06500000	      0.04803772	      0.02806249	      0.07341417
      2.07000000	      0.04851950	      0.02820287	      0.07353848
      2.07500000	      0.04857505	      0.02821901	      0.07364088
      2.08000000	      0.04902102	      0.02834825	      0.07369264
      2.08500000	      0.04936169	      0.02844658	      0.07366012
      2.09000000	      0.04951628	      0.02849109	      0.07374978
      2.09500000	      0.05011936	      0.02866407	      0.07407587
      2.10000000	      0.05052700	      0.02878040	      0.07413083
      2.10500000	      0.05091829	      0.02889163	      0.07435940
      2.11000000	      0.05119839	      0.02897098	      0.07470171
      2.11500000	      0.05179976	      0.02914063	      0.07501923
      2.12000000	      0.05222570	      0.02926019	      0.07572975
      2.12500000	      0.05239023	      0.02930625	      0.07534018
      2.13000000	      0.05289539	      0.02944720	      0.07529504
      2.13500000	      0.05327115	      0.02955161	      0.07609146
      2.14000000	      0.05354629	      0.02962782	      0.07604313
      2.14500000	      0.05406382	      0.02977066	      0.07650542
      2.15000000	      0.05433413	      0.02984499	      0.07660103
      2.15500000	      0.05481723	      0.02997738	      0.07694759
      2.16000000	      0.05524665	      0.03009456	      0.07711123
      2.16500000	      0.05581981	      0.03025027	      0.07764087
      2.17000000	      0.05619875	      0.03035278	      0.07761766
      2.17500000	      0.05643848	      0.03041744	      0.07791564
      2.18000000	      0.05703625	      0.03057810	      0.07804346
      2.18500000	      0.05743450	      0.03068467	      0.07828131
      2.19000000	      0.05803855	      0.03084561	      0.07859004
      2.19500000	      0.05879854	      0.03104691	      0.07935367
      2.20000000	      0.05977117	      0.03130264	      0.08147805
      2.20500000	      0.05977267	      0.03130303	      0.07950593
      2.21000000	      0.06031067	      0.03144359	      0.07980412
      2.21500000	      0.06161251	      0.03178114	      0.08285589
      2.22000000	      0.06138963	      0.03172361	      0.08006544
      2.22500000	      0.06207891	      0.03190121	      0.08111016
      2.23000000	      0.06270904	      0.03206271	      0.08189841
      2.23500000	      0.06278639	      0.03208247	      0.08088602
      2.24000000	      0.06324841	      0.03220030	      0.08127307
      2.24500000	      0.06362078	      0.03229495	      0.08123689
      2.25000000	      0.06435243	      0.03248012	      0.08227186
      2.25500000	      0.06474637	      0.03257938	      0.08304364
      2.26000000	      0.06490037	      0.03261810	      0.08181975
      2.26500000	      0.06549317	      0.03276673	      0.08295667
      2.27000000	      0.06590145	      0.03286870	      0.08230723
      2.27500000	      0.06652392	      0.03302357	      0.08348895
      2.28000000	      0.06688133	      0.03311216	      0.08279382
      2.28500000	      0.06761951	      0.03329439	      0.08397544
      2.29000000	      0.06835758	      0.03347560	      0.08510041
      2.29500000	      0.06861186	      0.03353781	      0.08358728
      2.30000000	      0.06946594	      0.03374590	      0.08492189
      2.30500000	      0.06986567	      0.03384285	      0.08431301
      2.31000000	      0.07074336	      0.03405477	      0.08481610
      2.31500000	      0.07128396	      0.03418464	      0.08510770
      2.32000000	      0.07199385	      0.03435443	      0.08538006
      2.32500000	      0.07297887	      0.03458865	      0.08723832
      2.33000000	      0.07321035	      0.03464346	      0.08596288
      2.33500000	      0.07378709	      0.03477966	      0.08615798
      2.34000000	      0.07437604	      0.03491818	      0.08656915
      2.34500000	      0.07511492	      0.03509120	      0.08711725
      2.35000000	      0.07611916	      0.03532499	      0.09017586
      2.35500000	      0.07683443	      0.03549057	      0.09062697
      2.36000000	      0.07651467	      0.03541665	      0.08715498
      2.36500000	      0.07719763	      0.03557436	      0.08772806
      2.37000000	      0.07785332	      0.03572512	      0.08796040
      2.37500000	      0.07884663	      0.03595230	      0.08916307
      2.38000000	      0.07935425	      0.03606784	      0.08864233
      2.38500000	      0.08009240	      0.03623521	      0.08927586
      2.39000000	      0.08094742	      0.03642811	      0.09011571
      2.39500000	      0.08242844	      0.03675984	      0.09327443
      2.40000000	      0.08246040	      0.03676697	      0.09024753
      2.40500000	      0.08325347	      0.03694335	      0.09037724
      2.41000000	      0.08429342	      0.03717337	      0.09105913
      2.41500000	      0.08508356	      0.03734719	      0.09126019
      2.42000000	      0.08568318	      0.03747856	      0.09146580
      2.42500000	      0.08651215	      0.03765942	      0.09207301
      2.43000000	      0.08732108	      0.03783508	      0.09219221
      2.43500000	      0.08861878	      0.03811518	      0.09572414
      2.44000000	      0.08872527	      0.03813807	      0.09295133
      2.44500000	      0.08939581	      0.03828192	      0.09328592
      2.45000000	      0.09012193	      0.03843707	      0.09342585
      2.45500000	      0.09069500	      0.03855909	      0.09364802
      2.46000000	      0.09150161	      0.03873017	      0.09382532
      2.46500000	      0.09212032	      0.03886090	      0.09422404
      2.47000000	      0.09287317	      0.03901937	      0.09451843
      2.47500000	      0.09373301	      0.03919957	      0.09496790
      2.48000000	      0.09456479	      0.03937312	      0.09518973
      2.48500000	      0.09554832	      0.03957734	      0.09563233
      2.49000000	      0.09647790	      0.03976940	      0.09607460
      2.49500000	      0.09756768	      0.03999338	      0.09639268
      2.50000000	      0.09883355	      0.04025198	      0.09885846
      2.50500000	      0.09930618	      0.04034811	      0.09733582
      2.51000000	      0.10039817	      0.04056934	      0.09766407
      2.51500000	      0.10225346	      0.04094248	      0.10110465
      2.52000000	      0.10238933	      0.04096967	      0.09852085
      2.52500000	      0.10394765	      0.04128026	      0.10153518
      2.53000000	      0.10442694	      0.04137532	      0.09919200
      2.53500000	      0.10519034	      0.04152628	      0.09951731
      2.54000000	      0.10678400	      0.04183966	      0.10293269
      2.54500000	      0.10661502	      0.04180654	      0.09999246
      2.55000000	      0.10830451	      0.04213649	      0.10346250
      2.55500000	      0.10936720	      0.04234271	      0.10507210
      2.56000000	      0.11051373	      0.04256408	      0.10577553
      2.56500000	      0.10994912	      0.04245521	      0.10146174
      2.57000000	      0.11153638	      0.04276056	      0.10452922
      2.57500000	      0.11184219	      0.04281914	      0.10216312
      2.58000000	      0.11275067	      0.04299269	      0.10240191
      2.58500000	      0.11383003	      0.04319799	      0.10301470
      2.59000000	      0.11502324	      0.04342380	      0.10368375
      2.59500000	      0.11622646	      0.04365033	      0.10569615
      2.60000000	      0.11653596	      0.04370841	      0.10400581
      2.60500000	      0.11753487	      0.04389534	      0.10419606
      2.61000000	      0.11837152	      0.04405130	      0.10479957
      2.61500000	      0.11994180	      0.04434252	      0.10650930
      2.62000000	      0.12097375	      0.04453287	      0.10792375
      2.62500000	      0.12155366	      0.04463948	      0.10595158
      2.63000000	      0.12278283	      0.04486461	      0.10768077
      2.63500000	      0.12349829	      0.04499513	      0.10701501
      2.64000000	      0.12415131	      0.04511394	      0.10810488
      2.64500000	      0.12517115	      0.04529885	      0.10768257
      2.65000000	      0.12584383	      0.04542041	      0.10873585
      2.65500000	      0.12681304	      0.04559498	      0.10804434
      2.66000000	      0.12781666	      0.04577505	      0.10857923
      2.66500000	      0.12892767	      0.04597356	      0.10983528
      2.67000000	      0.13056073	      0.04626381	      0.11228757
      2.67500000	      0.13075830	      0.04629880	      0.10945609
      2.68000000	      0.13217640	      0.04654918	      0.11110010
      2.68500000	      0.13291071	      0.04667830	      0.10983967
      2.69000000	      0.13417923	      0.04690053	      0.11181728
      2.69500000	      0.13530707	      0.04709723	      0.11305043
      2.70000000	      0.13610012	      0.04723505	      0.11121603
      2.70500000	      0.13745171	      0.04746901	      0.11273577
      2.71000000	      0.13840967	      0.04763414	      0.11377612
      2.71500000	      0.13960835	      0.04783996	      0.11465119
      2.72000000	      0.13983260	      0.04787836	      0.11239921
      2.72500000	      0.14095585	      0.04807028	      0.11373937
      2.73000000	      0.14159774	      0.04817961	      0.11332678
      2.73500000	      0.14268894	      0.04836489	      0.11498718
      2.74000000	      0.14353696	      0.04850840	      0.11581622
      2.74500000	      0.14158487	      0.04817742	      0.11243360
      2.75000000	      0.14212632	      0.04826945	      0.11259479
      2.75500000	      0.14291171	      0.04840263	      0.11285690
      2.76000000	      0.14389104	      0.04856820	      0.11330282
      2.76500000	      0.14465908	      0.04869764	      0.11332673
      2.77000000	      0.14567544	      0.04886841	      0.11495120
      2.77500000	      0.14624709	      0.04896420	      0.11376901
      2.78000000	      0.14711900	      0.04910995	      0.11414710
      2.78500000	      0.14785074	      0.04923193	      0.11422297
      2.79000000	      0.14883050	      0.04939478	      0.11549702
      2.79500000	      0.14923314	      0.04946155	      0.11475505
      2.80000000	      0.15032585	      0.04964230	      0.11647098
      2.80500000	      0.15126235	      0.04979669	      0.11748359
      2.81000000	      0.15166306	      0.04986261	      0.11862815
      2.81500000	      0.15248990	      0.04999834	      0.11920773
      2.82000000	      0.15270821	      0.05003412	      0.11592254
      2.82500000	      0.15357035	      0.05017516	      0.11761922
      2.83000000	      0.15436244	      0.05030439	      0.11862638
      2.83500000	      0.15488733	      0.05038985	      0.11925752
      2.84000000	      0.15500696	      0.05040930	      0.11678224
      2.84500000	      0.15553886	      0.05049572	      0.11781488
      2.85000000	      0.15578874	      0.05053626	      0.11708856
      2.85500000	      0.15646863	      0.05064642	      0.11823198
      2.86000000	      0.15688148	      0.05071319	      0.11714194
      2.86500000	      0.15738515	      0.05079453	      0.11866264
      2.87000000	      0.15830615	      0.05094294	      0.11977991
      2.87500000	      0.15855375	      0.05098276	      0.11758123
      2.88000000	      0.15930856	      0.05110397	      0.11914724
      2.88500000	      0.15998536	      0.05121241	      0.12013745
      2.89000000	      0.16104267	      0.05138136	      0.12113614
      2.89500000	      0.16114962	      0.05139841	      0.11855199
      2.90000000	      0.16175892	      0.05149549	      0.11856003
      2.90500000	      0.16260871	      0.05163058	      0.11905032
      2.91000000	      0.16338200	      0.05175320	      0.11914268
      2.91500000	      0.16381909	      0.05182238	      0.11954487
      2.92000000	      0.16459035	      0.05194422	      0.12082548
      2.92500000	      0.16511360	      0.05202673	      0.12218626
      2.93000000	      0.16542088	      0.05207512	      0.12354056
      2.93500000	      0.16622224	      0.05220110	      0.12374632
      2.94000000	      0.16656855	      0.05225545	      0.12031398
      2.94500000	      0.16678512	      0.05228941	      0.12025282
      2.95000000	      0.16705257	      0.05233132	      0.12056832
      2.95500000	      0.16767956	      0.05242943	      0.12137327
      2.96000000	      0.16829623	      0.05252575	      0.12283053
      2.96500000	      0.16864552	      0.05258023	      0.12071623
      2.97000000	      0.16924686	      0.05267389	      0.12106640
      2.97500000	      0.16918742	      0.05266464	      0.12093538
      2.98000000	      0.17015057	      0.05281433	      0.12240491
      2.98500000	      0.17114287	      0.05296811	      0.12390469
      2.99000000	      0.17092702	      0.05293470	      0.12143145
      2.99500000	      0.17186072	      0.05307908	      0.12187917
      3.00000000	      0.17239532	      0.05316157	      0.12193158
      3.00500000	      0.17333331	      0.05330600	      0.12424845
      3.01000000	      0.17417357	      0.05343505	      0.12530825
      3.01500000	      0.17484799	      0.05353840	      0.12606013
      3.02000000	      0.17532898	      0.05361199	      0.12270646
      3.02500000	      0.17598824	      0.05371269	      0.12424308
      3.03000000	      0.17708927	      0.05388045	      0.12565320
      3.03500000	      0.17721325	      0.05389931	      0.12349231
      3.04000000	      0.17789298	      0.05400258	      0.12532357
      3.04500000	      0.17765012	      0.05396570	      0.12337258
      3.05000000	      0.17793345	      0.05400872	      0.12502406
      3.05500000	      0.17819353	      0.05404818	      0.12549127
      3.06000000	      0.17836516	      0.05407420	      0.12633636
      3.06500000	      0.17857059	      0.05410533	      0.12658910
      3.07000000	      0.17841545	      0.05408182	      0.12704024
      3.07500000	      0.17861359	      0.05411184	      0.12730012
      3.08000000	      0.17789494	      0.05400287	      0.12362028
      3.08500000	      0.17776447	      0.05398307	      0.12516179
      3.09000000	      0.17798726	      0.05401688	      0.12629014
      3.09500000	      0.17786408	      0.05399819	      0.12375663
      3.10000000	      0.17753671	      0.05394847	      0.12390665
      3.10500000	      0.17770253	      0.05397366	      0.12530544
      3.11000000	      0.17736981	      0.05392311	      0.12371030
      3.11500000	      0.17769740	      0.05397288	      0.12533105
      3.12000000	      0.17794291	      0.05401016	      0.12578672
      3.12500000	      0.17792754	      0.05400782	      0.12687517
      3.13000000	      0.17774073	      0.05397946	      0.12403822
      3.13500000	      0.17804837	      0.05402616	      0.12585918
      3.14000000	      0.17778347	      0.05398595	      0.12419893
      3.14500000	      0.17806797	      0.05402913	      0.12573787
      3.15000000	      0.17817368	      0.05404517	      0.12693338
      3.15500000	      0.17795177	      0.05401150	      0.12438842
      3.16000000	      0.17818284	      0.05404656	      0.12566680
      3.16500000	      0.17825393	      0.05405734	      0.12671561
      3.17000000	      0.17851191	      0.05409644	      0.12738558
      3.17500000	      0.17842529	      0.05408331	      0.12750210
      3.18000000	      0.17816173	      0.05404335	      0.12440233
      3.18500000	      0.17847290	      0.05409053	      0.12602656
      3.19000000	      0.17827501	      0.05406053	      0.12669861
      3.19500000	      0.17865925	      0.05411876	      0.12742499
      3.20000000	      0.17881893	      0.05414294	      0.12772894
      3.20500000	      0.17865904	      0.05411873	      0.12452673
      3.21000000	      0.17901590	      0.05417275	      0.12658843
      3.21500000	      0.17909353	      0.05418449	      0.12737411
      3.22000000	      0.17957599	      0.05425743	      0.12808450
      3.22500000	      0.17928283	      0.05421312	      0.12465621
      3.23000000	      0.17944810	      0.05423811	      0.12603869
      3.23500000	      0.17980318	      0.05429174	      0.12737807
      3.24000000	      0.18017804	      0.05434831	      0.12798729
      3.24500000	      0.17907842	      0.05418221	      0.12459424
      3.25000000	      0.17909509	      0.05418473	      0.12445073
      3.25500000	      0.17867985	      0.05412188	      0.12453237
      3.26000000	      0.17843036	      0.05408408	      0.12464274
      3.26500000	      0.17805753	      0.05402755	      0.12581322
      3.27000000	      0.17830331	      0.05406482	      0.12681834
      3.27500000	      0.17737573	      0.05392401	      0.12409633
      3.28000000	      0.17732208	      0.05391585	      0.12418645
      3.28500000	      0.17724554	      0.05390422	      0.12510809
      3.29000000	      0.17742188	      0.05393103	      0.12651576
      3.29500000	      0.17725371	      0.05390546	      0.12684534
      3.30000000	      0.17721760	      0.05389997	      0.12724384
      3.30500000	      0.17656715	      0.05380096	      0.12382679
      3.31000000	      0.17681206	      0.05383826	      0.12385460
      3.31500000	      0.17650522	      0.05379153	      0.12530167
      3.32000000	      0.17694888	      0.05385909	      0.12400062
      3.32500000	      0.17695024	      0.05385929	      0.12645060
      3.33000000	      0.17652988	      0.05379528	      0.12389457
      3.33500000	      0.17669077	      0.05381979	      0.12571062
      3.34000000	      0.17677241	      0.05383222	      0.12628656
      3.34500000	      0.17636683	      0.05377043	      0.12369421
      3.35000000	      0.17619902	      0.05374485	      0.12359377
      3.35500000	      0.17634686	      0.05376739	      0.12350971
      3.36000000	      0.17664268	      0.05381247	      0.12508260
      3.36500000	      0.17685849	      0.05384533	      0.12639419
      3.37000000	      0.17604120	      0.05372077	      0.12348481
      3.37500000	      0.17629961	      0.05376019	      0.12443440
      3.38000000	      0.17614016	      0.05373587	      0.12362610
      3.38500000	      0.17658777	      0.05380410	      0.12496379
      3.39000000	      0.17672387	      0.05382483	      0.12594815
      3.39500000	      0.17692277	      0.05385511	      0.12654814
      3.40000000	      0.17669528	      0.05382048	      0.12347304
      3.40500000	      0.17703634	      0.05387240	      0.12368796
      3.41000000	      0.17707059	      0.05387761	      0.12368903
      3.41500000	      0.17764676	      0.05396519	      0.12640469
      3.42000000	      0.17748565	      0.05394072	      0.12639517
      3.42500000	      0.17826099	      0.05405841	      0.12723968
      3.43000000	      0.17740151	      0.05392793	      0.12362593
      3.43500000	      0.17802960	      0.05402331	      0.12533300
      3.44000000	      0.17849192	      0.05409341	      0.12614950
      3.44500000	      0.17854535	      0.05410151	      0.12639457
      3.45000000	      0.17908902	      0.05418381	      0.12706521
      3.45500000	      0.17896103	      0.05416445	      0.12428319
      3.46000000	      0.17944700	      0.05423794	      0.12521658
      3.46500000	      0.17958463	      0.05425873	      0.12615475
      3.47000000	      0.18027533	      0.05436298	      0.12743167
      3.47500000	      0.18041482	      0.05438401	      0.12785222
      3.48000000	      0.18002992	      0.05432596	      0.12458653
      3.48500000	      0.18026718	      0.05436175	      0.12596957
      3.49000000	      0.18024545	      0.05435847	      0.12472834
      3.49500000	      0.18026472	      0.05436138	      0.12564876
      3.50000000	      0.18033200	      0.05437152	      0.12485882
      3.50500000	      0.18052777	      0.05440103	      0.12645138
      3.51000000	      0.18031668	      0.05436921	      0.12522139
      3.51500000	      0.18068046	      0.05442403	      0.12655595
      3.52000000	      0.18067990	      0.05442394	      0.12703367
      3.52500000	      0.18035116	      0.05437441	      0.12514335
      3.53000000	      0.18033880	      0.05437255	      0.12536002
      3.53500000	      0.18062096	      0.05441507	      0.12643541
      3.54000000	      0.18108964	      0.05448562	      0.12834880
      3.54500000	      0.18102507	      0.05447590	      0.12873904
      3.55000000	      0.18069223	      0.05442580	      0.12579050
      3.55500000	      0.18057512	      0.05440816	      0.12669637
      3.56000000	      0.18130042	      0.05451732	      0.12867700
      3.56500000	      0.18092135	      0.05446030	      0.12902591
      3.57000000	      0.18098938	      0.05447053	      0.12920260
      3.57500000	      0.18040718	      0.05438285	      0.12598358
      3.58000000	      0.17988423	      0.05430398	      0.12694625
      3.58500000	      0.18001847	      0.05432424	      0.12774075
      3.59000000	      0.18000543	      0.05432227	      0.12871147
      3.59500000	      0.18015486	      0.05434481	      0.12917651
      3.60000000	      0.17929160	      0.05421445	      0.12579469
      3.60500000	      0.17949717	      0.05424552	      0.12717761
      3.61000000	      0.17949351	      0.05424497	      0.12775690
      3.61500000	      0.17918920	      0.05419897	      0.12809425
      3.62000000	      0.17937165	      0.05422655	      0.12875530
      3.62500000	      0.17883686	      0.05414565	      0.12561393
      3.63000000	      0.17873568	      0.05413033	      0.12697266
      3.63500000	      0.17846526	      0.05408937	      0.12750367
      3.64000000	      0.17855466	      0.05410292	      0.12796921
      3.64500000	      0.17881271	      0.05414200	      0.12863708
      3.65000000	      0.17764341	      0.05396468	      0.12538924
      3.65500000	      0.17815438	      0.05404224	      0.12800140
      3.66000000	      0.17812087	      0.05403716	      0.12789338
      3.66500000	      0.17804395	      0.05402549	      0.12811743
      3.67000000	      0.17809817	      0.05403371	      0.12880787
      3.67500000	      0.17783438	      0.05399368	      0.12899394
      3.68000000	      0.17768897	      0.05397160	      0.12903211
      3.68500000	      0.17680621	      0.05383737	      0.12501789
      3.69000000	      0.17676248	      0.05383071	      0.12695243
      3.69500000	      0.17692168	      0.05385495	      0.12755302
      3.70000000	      0.17606117	      0.05372382	      0.12429762
      3.70500000	      0.17627700	      0.05375674	      0.12609552
      3.71000000	      0.17623381	      0.05375015	      0.12675368
      3.71500000	      0.17600409	      0.05371511	      0.12758219
      3.72000000	      0.17597028	      0.05370995	      0.12803764
      3.72500000	      0.17597138	      0.05371012	      0.12800770
      3.73000000	      0.17507126	      0.05357257	      0.12404298
      3.73500000	      0.17550951	      0.05363958	      0.12686218
      3.74000000	      0.17500660	      0.05356268	      0.12370059
      3.74500000	      0.17465931	      0.05350951	      0.12361433
      3.75000000	      0.17538712	      0.05362088	      0.12621291
      3.75500000	      0.17541409	      0.05362500	      0.12715245
      3.76000000	      0.17571757	      0.05367137	      0.12781526
      3.76500000	      0.17552842	      0.05364247	      0.12803443
      3.77000000	      0.17488052	      0.05354338	      0.12401320
      3.77500000	      0.17544173	      0.05362923	      0.12634519
      3.78000000	      0.17571038	      0.05367027	      0.12721920
      3.78500000	      0.17511909	      0.05357989	      0.12357084
      3.79000000	      0.17499683	      0.05356118	      0.12345762
      3.79500000	      0.17561023	      0.05365497	      0.12557748
      3.80000000	      0.17516417	      0.05358679	      0.12410125
      3.80500000	      0.17510232	      0.05357733	      0.12335059
      3.81000000	      0.17551734	      0.05364078	      0.12553196
      3.81500000	      0.17605727	      0.05372322	      0.12671851
      3.82000000	      0.17554227	      0.05364459	      0.12363163
      3.82500000	      0.17558143	      0.05365057	      0.12346238
      3.83000000	      0.17600999	      0.05371601	      0.12598838
      3.83500000	      0.17585263	      0.05369199	      0.12364374
      3.84000000	      0.17624945	      0.05375254	      0.12577884
      3.84500000	      0.17643464	      0.05378077	      0.12681491
      3.85000000	      0.17659978	      0.05380593	      0.12734139
      3.85500000	      0.17682471	      0.05384019	      0.12749439
      3.86000000	      0.17711511	      0.05388438	      0.12791897
      3.86500000	      0.17726342	      0.05390694	      0.12800104
      3.87000000	      0.17758119	      0.05395523	      0.12821170
      3.87500000	      0.17745994	      0.05393681	      0.12815737
      3.88000000	      0.17739669	      0.05392720	      0.12823202
      3.88500000	      0.17750078	      0.05394301	      0.12846317
      3.89000000	      0.17669024	      0.05381971	      0.12422487
      3.89500000	      0.17731922	      0.05391542	      0.12640442
      3.90000000	      0.17698770	      0.05386500	      0.12393949
      3.90500000	      0.17752594	      0.05394684	      0.12557081
      3.91000000	      0.17762646	      0.05396211	      0.12397075
      3.91500000	      0.17862958	      0.05411427	      0.12662219
      3.92000000	      0.17852839	      0.05409894	      0.12450014
      3.92500000	      0.17925607	      0.05420908	      0.12473019
      3.93000000	      0.17998014	      0.05431845	      0.12619397
      3.93500000	      0.18061194	      0.05441371	      0.12706416
      3.94000000	      0.18118435	      0.05449986	      0.12772060
      3.94500000	      0.18146640	      0.05454227	      0.12586043
      3.95000000	      0.18261435	      0.05471451	      0.12834451
      3.95500000	      0.18340127	      0.05483227	      0.12861617
      3.96000000	      0.18427431	      0.05496263	      0.12889243
      3.96500000	      0.18477980	      0.05503796	      0.12907256
      3.97000000	      0.18568063	      0.05517196	      0.12929929
      3.97500000	      0.18631055	      0.05526546	      0.12961511
      3.98000000	      0.18765593	      0.05546464	      0.12996524
      3.98500000	      0.18841348	      0.05557648	      0.13018766
      3.99000000	      0.18882942	      0.05563780	      0.12986366
      3.99500000	      0.18997901	      0.05580690	      0.13011779
      4.00000000	      0.19068129	      0.05590995	      0.13047857
      4.00500000	      0.19204849	      0.05611003	      0.13051195
      4.01000000	      0.19263587	      0.05619577	      0.13085830
      4.01500000	      0.19403605	      0.05639964	      0.13113778
      4.02000000	      0.19509210	      0.05655291	      0.13170795
      4.02500000	      0.19636566	      0.05673719	      0.13211091
      4.03000000	      0.19784471	      0.05695047	      0.13210016
      4.03500000	      0.19910354	      0.05713136	      0.13232990
      4.04000000	      0.20035650	      0.05731084	      0.13285994
      4.04500000	      0.20153702	      0.05747944	      0.13368929
      4.05000000	      0.20289215	      0.05767236	      0.13357481
      4.05500000	      0.20342891	      0.05774859	      0.13382642
      4.06000000	      0.20486814	      0.05795252	      0.13426476
      4.06500000	      0.20650845	      0.05818406	      0.13453034
      4.07000000	      0.20788906	      0.05837823	      0.13501496
      4.07500000	      0.20956479	      0.05861304	      0.13562457
      4.08000000	      0.21155392	      0.05889055	      0.13572315
      4.08500000	      0.21340746	      0.05914797	      0.13647567
      4.09000000	      0.21373783	      0.05919374	      0.13664118
      4.09500000	      0.21548020	      0.05943452	      0.13708540
      4.10000000	      0.21750586	      0.05971323	      0.13750231
      4.10500000	      0.21942309	      0.05997583	      0.13815610
      4.11000000	      0.22075984	      0.06015824	      0.13858075
      4.11500000	      0.22234835	      0.06037429	      0.13906953
      4.12000000	      0.22453836	      0.06067089	      0.13978450
      4.12500000	      0.22544019	      0.06079260	      0.14015359
      4.13000000	      0.22698712	      0.06100082	      0.14019522
      4.13500000	      0.22839915	      0.06119026	      0.14065385
      4.14000000	      0.22981278	      0.06137933	      0.14133370
      4.14500000	      0.23120141	      0.06156450	      0.14147563
      4.15000000	      0.23315529	      0.06182409	      0.14206081
      4.15500000	      0.23443019	      0.06199289	      0.14210655
      4.16000000	      0.23610651	      0.06221414	      0.14302058
      4.16500000	      0.23754639	      0.06240355	      0.14337524
      4.17000000	      0.23938772	      0.06264494	      0.14373810
      4.17500000	      0.24047592	      0.06278717	      0.14409065
      4.18000000	      0.24213737	      0.06300369	      0.14484285
      4.18500000	      0.24376102	      0.06321457	      0.14482549
      4.19000000	      0.24495916	      0.06336974	      0.14490102
      4.19500000	      0.24680340	      0.06360784	      0.14547660
      4.20000000	      0.24787182	      0.06374537	      0.14560523
      4.20500000	      0.24949944	      0.06395432	      0.14635523
      4.21000000	      0.25096488	      0.06414186	      0.14646316
      4.21500000	      0.25222649	      0.06430288	      0.14619099
      4.22000000	      0.25403749	      0.06453332	      0.14711322
      4.22500000	      0.25508905	      0.06466674	      0.14726522
      4.23000000	      0.25608467	      0.06479282	      0.14754334
      4.23500000	      0.25757756	      0.06498141	      0.14742337
      4.24000000	      0.25842093	      0.06508770	      0.14775488
      4.24500000	      0.25962446	      0.06523909	      0.14826511
      4.25000000	      0.26061284	      0.06536315	      0.14840708
      4.25500000	      0.26156738	      0.06548275	      0.14867302
      4.26000000	      0.26273276	      0.06562846	      0.14879918
      4.26500000	      0.26321096	      0.06568816	      0.14897542
      4.27000000	      0.26409463	      0.06579833	      0.14915496
      4.27500000	      0.26491103	      0.06589995	      0.14940676
      4.28000000	      0.26572642	      0.06600129	      0.14961564
      4.28500000	      0.26667640	      0.06611917	      0.15023283
      4.29000000	      0.26751534	      0.06622309	      0.15049175
      4.29500000	      0.26799416	      0.06628233	      0.15051933
      4.30000000	      0.26830764	      0.06632108	      0.15064772
      4.30500000	      0.26918816	      0.06642982	      0.15059907
      4.31000000	      0.26979648	      0.06650484	      0.15098552
      4.31500000	      0.27045788	      0.06658630	      0.15106922
      4.32000000	      0.27109627	      0.06666484	      0.15142024
      4.32500000	      0.27115908	      0.06667256	      0.15148160
      4.33000000	      0.27187976	      0.06676111	      0.15147752
      4.33500000	      0.27242222	      0.06682767	      0.15167818
      4.34000000	      0.27318707	      0.06692142	      0.15184820
      4.34500000	      0.27377257	      0.06699310	      0.15200228
      4.35000000	      0.27428976	      0.06705635	      0.15246812
      4.35500000	      0.27450554	      0.06708272	      0.15226969
      4.36000000	      0.27502716	      0.06714642	      0.15219503
      4.36500000	      0.27575505	      0.06723522	      0.15243029
      4.37000000	      0.27599949	      0.06726501	      0.15255159
      4.37500000	      0.27640634	      0.06731457	      0.15276744
      4.38000000	      0.27631785	      0.06730379	      0.15249000
      4.38500000	      0.27666057	      0.06734552	      0.15308068
      4.39000000	      0.27654122	      0.06733099	      0.15286921
      4.39500000	      0.27711905	      0.06740130	      0.15303625
      4.40000000	      0.27717898	      0.06740859	      0.15322102
      4.40500000	      0.27699657	      0.06738640	      0.15282330
      4.41000000	      0.27704854	      0.06739272	      0.15315380
      4.41500000	      0.27649911	      0.06732587	      0.15282602
      4.42000000	      0.27687961	      0.06737217	      0.15300070
      4.42500000	      0.27656706	      0.06733414	      0.15320336
      4.43000000	      0.27662246	      0.06734088	      0.15287140
      4.43500000	      0.27656275	      0.06733361	      0.15293846
      4.44000000	      0.27663069	      0.06734188	      0.15316201
      4.44500000	      0.27674349	      0.06735561	      0.15307886
      4.45000000	      0.27668318	      0.06734827	      0.15314110
      4.45500000	      0.27667784	      0.06734762	      0.15336195
      4.46000000	      0.27667123	      0.06734682	      0.15342348
      4.46500000	      0.27649138	      0.06732493	      0.15364707
      4.47000000	      0.27668382	      0.06734835	      0.15365091
      4.47500000	      0.27625713	      0.06729640	      0.15357786
      4.48000000	      0.27685662	      0.06736938	      0.15429536
      4.48500000	      0.27669101	      0.06734923	      0.15415059
      4.49000000	      0.27673267	      0.06735430	      0.15450590
      4.49500000	      0.27749671	      0.06744721	      0.15483323
      4.50000000	      0.27784788	      0.06748987	      0.15500799
      4.50500000	      0.27789056	      0.06749506	      0.15522174
      4.51000000	      0.27853889	      0.06757375	      0.15567826
      4.51500000	      0.27884829	      0.06761127	      0.15591080
      4.52000000	      0.27920935	      0.06765502	      0.15633657
      4.52500000	      0.27948169	      0.06768801	      0.15661398
      4.53000000	      0.27931427	      0.06766774	      0.15705215
      4.53500000	      0.27891070	      0.06761883	      0.15707400
      4.54000000	      0.27936232	      0.06767356	      0.15784242
      4.54500000	      0.27959785	      0.06770208	      0.15834308
      4.55000000	      0.27977902	      0.06772401	      0.15885036
      4.55500000	      0.27959800	      0.06770210	      0.15938295
      4.56000000	      0.27969941	      0.06771437	      0.15998308
      4.56500000	      0.27941643	      0.06768011	      0.16002980
      4.57000000	      0.27874421	      0.06759865	      0.16064673
      4.57500000	      0.27857248	      0.06757782	      0.16071283
      4.58000000	      0.27783864	      0.06748875	      0.16151848
      4.58500000	      0.27640253	      0.06731411	      0.16144589
      4.59000000	      0.27617458	      0.06728634	      0.16152416
      4.59500000	      0.27502654	      0.06714635	      0.16156809
      4.60000000	      0.27386737	      0.06700469	      0.16178541
      4.60500000	      0.27277016	      0.06687034	      0.16205725
      4.61000000	      0.27188484	      0.06676173	      0.16234694
      4.61500000	      0.27023291	      0.06655860	      0.16173565
      4.62000000	      0.26860902	      0.06635832	      0.16173157
      4.62500000	      0.26674741	      0.06612797	      0.16148430
      4.63000000	      0.26515177	      0.06592989	      0.16133530
      4.63500000	      0.26353750	      0.06572889	      0.16049990
      4.64000000	      0.26086750	      0.06539508	      0.15993332
      4.64500000	      0.25773936	      0.06500181	      0.15856884
      4.65000000	      0.25502469	      0.06465858	      0.15791175
      4.65500000	      0.25253583	      0.06434230	      0.15763079
      4.66000000	      0.24950826	      0.06395545	      0.15677674
      4.66500000	      0.24693895	      0.06362531	      0.15582158
      4.67000000	      0.24361047	      0.06319505	      0.15506203
      4.67500000	      0.24081339	      0.06283121	      0.15436404
      4.68000000	      0.23784868	      0.06244324	      0.15361346
      4.68500000	      0.23472577	      0.06203195	      0.15261716
      4.69000000	      0.23241006	      0.06172521	      0.15218938
      4.69500000	      0.23003922	      0.06140957	      0.15155588
      4.70000000	      0.22712367	      0.06101917	      0.15075604
      4.70500000	      0.22483993	      0.06071162	      0.15004572
      4.71000000	      0.22183202	      0.06030415	      0.14858206
      4.71500000	      0.21949559	      0.05998573	      0.14795352
      4.72000000	      0.21716224	      0.05966604	      0.14736001
      4.72500000	      0.21468598	      0.05932489	      0.14686352
      4.73000000	      0.21234610	      0.05900071	      0.14647631
      4.73500000	      0.21022220	      0.05870490	      0.14556996
      4.74000000	      0.20853128	      0.05846833	      0.14531386
      4.74500000	      0.20609122	      0.05812525	      0.14448882
      4.75000000	      0.20440506	      0.05788698	      0.14398521
      4.75500000	      0.20214124	      0.05756554	      0.14320960
      4.76000000	      0.20076304	      0.05736896	      0.14302641
      4.76500000	      0.19896929	      0.05711210	      0.14277102
      4.77000000	      0.19765837	      0.05692364	      0.14217611
      4.77500000	      0.19642156	      0.05674527	      0.14190551
      4.78000000	      0.19520057	      0.05656862	      0.14112629
      4.78500000	      0.19408957	      0.05640741	      0.14091778
      4.79000000	      0.19325555	      0.05628609	      0.14032068
      4.79500000	      0.19259931	      0.05619044	      0.13953526
      4.80000000	      0.19175210	      0.05606672	      0.13884642
      4.80500000	      0.19117377	      0.05598211	      0.13813220
      4.81000000	      0.19044705	      0.05587560	      0.13750808
      4.81500000	      0.18975900	      0.05577458	      0.13685745
      4.82000000	      0.18916726	      0.05568754	      0.13651548
      4.82500000	      0.18820116	      0.05554516	      0.13606480
      4.83000000	      0.18741616	      0.05542920	      0.13583402
      4.83500000	      0.18633739	      0.05526944	      0.13551973
      4.84000000	      0.18569682	      0.05517436	      0.13528916
      4.84500000	      0.18531588	      0.05511774	      0.13549931
      4.85000000	      0.18417389	      0.05494765	      0.13475130
      4.85500000	      0.18328668	      0.05481514	      0.13450829
      4.86000000	      0.18239914	      0.05468226	      0.13429436
      4.86500000	      0.18142030	      0.05453534	      0.13392134
      4.87000000	      0.18070189	      0.05442725	      0.13401062
      4.87500000	      0.17958646	      0.05425901	      0.13339626
      4.88000000	      0.17862575	      0.05411369	      0.13290129
      4.88500000	      0.17790649	      0.05400463	      0.13277887
      4.89000000	      0.17749307	      0.05394184	      0.13313913
      4.89500000	      0.17640076	      0.05377560	      0.13271646
      4.90000000	      0.17578020	      0.05368093	      0.13238972
      4.90500000	      0.17512552	      0.05358087	      0.13255142
      4.91000000	      0.17419487	      0.05343832	      0.13163336
      4.91500000	      0.17345608	      0.05332487	      0.13135235
      4.92000000	      0.17260611	      0.05319406	      0.13110129
      4.92500000	      0.17179538	      0.05306899	      0.13105101
      4.93000000	      0.17116449	      0.05297146	      0.13049649
      4.93500000	      0.17030210	      0.05283784	      0.12995667
      4.94000000	      0.16939561	      0.05269703	      0.12953306
      4.94500000	      0.16856687	      0.05256797	      0.12923755
      4.95000000	      0.16760305	      0.05241747	      0.12876843
      4.95500000	      0.16675879	      0.05228528	      0.12817913
      4.96000000	      0.16568328	      0.05211640	      0.12801557
      4.96500000	      0.16488987	      0.05199147	      0.12732826
      4.97000000	      0.16405780	      0.05186012	      0.12693234
      4.97500000	      0.16314831	      0.05171617	      0.12609047
      4.98000000	      0.16246955	      0.05160848	      0.12597098
      4.98500000	      0.16216174	      0.05155957	      0.12551392
      4.99000000	      0.16119927	      0.05140633	      0.12471417
      4.99500000	      0.16071512	      0.05132908	      0.12432257
      5.00000000	      0.16026329	      0.05125687	      0.12433710
      5.00500000	      0.15975293	      0.05117519	      0.12345607
      5.01000000	      0.15906208	      0.05106442	      0.12341124
      5.01500000	      0.15841891	      0.05096108	      0.12301165
      5.02000000	      0.15790378	      0.05087815	      0.12228629
      5.02500000	      0.15721809	      0.05076757	      0.12198553
      5.03000000	      0.15676760	      0.05069478	      0.12206041
      5.03500000	      0.15617317	      0.05059858	      0.12217040
      5.04000000	      0.15543050	      0.05047812	      0.12186473
      5.04500000	      0.15478330	      0.05037292	      0.12173715
      5.05000000	      0.15424075	      0.05028456	      0.12166354
      5.05500000	      0.15353959	      0.05017014	      0.12084979
      5.06000000	      0.15281497	      0.05005161	      0.12119061
      5.06500000	      0.15197105	      0.04991321	      0.12095579
      5.07000000	      0.15137305	      0.04981491	      0.12028034
      5.07500000	      0.15076147	      0.04971418	      0.12033073
      5.08000000	      0.14985238	      0.04956406	      0.11987561
      5.08500000	      0.14931244	      0.04947469	      0.11928383
      5.09000000	      0.14878620	      0.04938743	      0.11932353
      5.09500000	      0.14813103	      0.04927857	      0.11859759
      5.10000000	      0.14778968	      0.04922176	      0.11897565
      5.10500000	      0.14706929	      0.04910165	      0.11836525
      5.11000000	      0.14638039	      0.04898651	      0.11764663
      5.11500000	      0.14582393	      0.04889332	      0.11749068
      5.12000000	      0.14527474	      0.04880116	      0.11772794
      5.12500000	      0.14478827	      0.04871938	      0.11753784
      5.13000000	      0.14417342	      0.04861583	      0.11662230
      5.13500000	      0.14330718	      0.04846956	      0.11645213
      5.14000000	      0.14260225	      0.04835020	      0.11611883
      5.14500000	      0.14174196	      0.04820413	      0.11587794
      5.15000000	      0.14105918	      0.04808789	      0.11571085
      5.15500000	      0.14032607	      0.04796277	      0.11533448
      5.16000000	      0.13929811	      0.04778677	      0.11500450
      5.16500000	      0.13876807	      0.04769577	      0.11490325
      5.17000000	      0.13757141	      0.04748967	      0.11433177
      5.17500000	      0.13661009	      0.04732346	      0.11413161
      5.18000000	      0.13598916	      0.04721579	      0.11369055
      5.18500000	      0.13521252	      0.04708077	      0.11353534
      5.19000000	      0.13429588	      0.04692091	      0.11299757
      5.19500000	      0.13343487	      0.04677026	      0.11303193
      5.20000000	      0.13259159	      0.04662223	      0.11218246
      5.20500000	      0.13162661	      0.04645227	      0.11172934
      5.21000000	      0.13077281	      0.04630137	      0.11101736
      5.21500000	      0.12970515	      0.04611197	      0.11054802
      5.22000000	      0.12846053	      0.04589020	      0.10978845
      5.22500000	      0.12756650	      0.04573023	      0.10931313
      5.23000000	      0.12665796	      0.04556709	      0.10861848
      5.23500000	      0.12563649	      0.04538298	      0.10810150
      5.24000000	      0.12433518	      0.04514733	      0.10734419
      5.24500000	      0.12335016	      0.04496814	      0.10673064
      5.25000000	      0.12203332	      0.04472747	      0.10600221
      5.25500000	      0.12092093	      0.04452314	      0.10542552
      5.26000000	      0.12012924	      0.04437715	      0.10531810
      5.26500000	      0.11907134	      0.04418132	      0.10488882
      5.27000000	      0.11806052	      0.04399339	      0.10431631
      5.27500000	      0.11679899	      0.04375771	      0.10349934
      5.28000000	      0.11573604	      0.04355815	      0.10296154
      5.28500000	      0.11484273	      0.04338972	      0.10240192
      5.29000000	      0.11376191	      0.04318506	      0.10193937
      5.29500000	      0.11280469	      0.04300299	      0.10138893
      5.30000000	      0.11168221	      0.04278850	      0.10086913
      5.30500000	      0.11065768	      0.04259179	      0.10053209
      5.31000000	      0.10974194	      0.04241519	      0.09987180
      5.31500000	      0.10885582	      0.04224360	      0.09921129
      5.32000000	      0.10799705	      0.04207664	      0.09901653
      5.32500000	      0.10703058	      0.04188794	      0.09845095
      5.33000000	      0.10608659	      0.04170281	      0.09805557
      5.33500000	      0.10511789	      0.04151198	      0.09701643
      5.34000000	      0.10433040	      0.04135619	      0.09684651
      5.34500000	      0.10337539	      0.04116647	      0.09617983
      5.35000000	      0.10238963	      0.04096973	      0.09572001
      5.35500000	      0.10159524	      0.04081049	      0.09518884
      5.36000000	      0.10081742	      0.04065396	      0.09451601
      5.36500000	      0.09996343	      0.04048141	      0.09377434
      5.37000000	      0.09930771	      0.04034842	      0.09341620
      5.37500000	      0.09862855	      0.04021022	      0.09274606
      5.38000000	      0.09786539	      0.04005435	      0.09211111
      5.38500000	      0.09713436	      0.03990447	      0.09188226
      5.39000000	      0.09658809	      0.03979210	      0.09129938
      5.39500000	      0.09586369	      0.03964260	      0.09084177
      5.40000000	      0.09520590	      0.03950636	      0.08998798
      5.40500000	      0.09449224	      0.03935801	      0.09006499
      5.41000000	      0.09384231	      0.03922242	      0.08944795
      5.41500000	      0.09301879	      0.03904995	      0.08899399
      5.42000000	      0.09274502	      0.03899244	      0.08854996
      5.42500000	      0.09204964	      0.03884598	      0.08797015
      5.43000000	      0.09157817	      0.03874637	      0.08767838
      5.43500000	      0.09098345	      0.03862036	      0.08738842
      5.44000000	      0.09049893	      0.03851739	      0.08708337
      5.44500000	      0.08981538	      0.03837165	      0.08628105
      5.45000000	      0.08927806	      0.03825670	      0.08571106
      5.45500000	      0.08871944	      0.03813682	      0.08527115
      5.46000000	      0.08834820	      0.03805695	      0.08528312
      5.46500000	      0.08764383	      0.03790493	      0.08490090
      5.47000000	      0.08697468	      0.03775996	      0.08401547
      5.47500000	      0.08648064	      0.03765256	      0.08398389
      5.48000000	      0.08598415	      0.03754432	      0.08338625
      5.48500000	      0.08564653	      0.03747054	      0.08328726
      5.49000000	      0.08495602	      0.03731919	      0.08276935
      5.49500000	      0.08462856	      0.03724719	      0.08271829
      5.50000000	      0.08402974	      0.03711518	      0.08196780
      5.50500000	      0.08357054	      0.03701363	      0.08193917
      5.51000000	      0.08303084	      0.03689392	      0.08150269
      5.51500000	      0.08159932	      0.03657450	      0.08059220
      5.52000000	      0.08083735	      0.03640333	      0.08041675
      5.52500000	      0.08042628	      0.03631065	      0.08011505
      5.53000000	      0.07984133	      0.03617837	      0.08011084
      5.53500000	      0.07913197	      0.03601729	      0.07940523
      5.54000000	      0.07875538	      0.03593149	      0.07904505
      5.54500000	      0.07820807	      0.03580642	      0.07900917
      5.55000000	      0.07779174	      0.03571099	      0.07865138
      5.55500000	      0.07705300	      0.03554102	      0.07870404
      5.56000000	      0.07660738	      0.03543810	      0.07836746
      5.56500000	      0.07601811	      0.03530154	      0.07799910
      5.57000000	      0.07542392	      0.03516330	      0.07815490
      5.57500000	      0.07499770	      0.03506381	      0.07776248
      5.58000000	      0.07438395	      0.03492004	      0.07794699
      5.58500000	      0.07365863	      0.03474937	      0.07742477
      5.59000000	      0.07317536	      0.03463519	      0.07727817
      5.59500000	      0.07331021	      0.03466708	      0.07728537
      5.60000000	      0.07208174	      0.03437540	      0.07752312
      5.60500000	      0.07209259	      0.03437798	      0.07702090
      5.61000000	      0.07168362	      0.03428033	      0.07709765
      5.61500000	      0.07083233	      0.03407618	      0.07664437
      5.62000000	      0.06981740	      0.03383116	      0.07599250
      5.62500000	      0.06924388	      0.03369192	      0.07577861
      5.63000000	      0.06866099	      0.03354981	      0.07547855
      5.63500000	      0.06814430	      0.03342334	      0.07524170
      5.64000000	      0.06747168	      0.03325798	      0.07491818
      5.64500000	      0.06692721	      0.03312352	      0.07473400
      5.65000000	      0.06638645	      0.03298943	      0.07458083
      5.65500000	      0.06588216	      0.03286389	      0.07425020
      5.66000000	      0.06526476	      0.03270954	      0.07396451
      5.66500000	      0.06498122	      0.03263841	      0.07391150
      5.67000000	      0.06439819	      0.03249166	      0.07365094
      5.67500000	      0.06389615	      0.03236476	      0.07335614
      5.68000000	      0.06343847	      0.03224864	      0.07310718
      5.68500000	      0.06307937	      0.03215724	      0.07309752
      5.69000000	      0.06253738	      0.03201879	      0.07274575
      5.69500000	      0.06205601	      0.03189532	      0.07242114
      5.70000000	      0.06169084	      0.03180134	      0.07189445
      5.70500000	      0.06115900	      0.03166396	      0.07180224
      5.71000000	      0.06082648	      0.03157777	      0.07151278
      5.71500000	      0.06044999	      0.03147989	      0.07110878
      5.72000000	      0.06007128	      0.03138113	      0.07066119
      5.72500000	      0.05976101	      0.03129998	      0.07039919
      5.73000000	      0.05952237	      0.03123742	      0.07020265
      5.73500000	      0.05918556	      0.03114892	      0.06992217
      5.74000000	      0.05898899	      0.03109715	      0.06964878
      5.74500000	      0.05880774	      0.03104934	      0.06932386
      5.75000000	      0.05849794	      0.03096744	      0.06904605
      5.75500000	      0.05841011	      0.03094419	      0.06862425
      5.76000000	      0.05836504	      0.03093225	      0.06840336
      5.76500000	      0.05805079	      0.03084886	      0.06834912
      5.77000000	      0.05787608	      0.03080241	      0.06806127
      5.77500000	      0.05777511	      0.03077553	      0.06791861
      5.78000000	      0.05769245	      0.03075350	      0.06818879
      5.78500000	      0.05768334	      0.03075107	      0.06859383
      5.79000000	      0.05743436	      0.03068464	      0.06835579
      5.79500000	      0.05728921	      0.03064584	      0.06824832
      5.80000000	      0.05724767	      0.03063472	      0.06840677
