Model Marker Errors from IK
version=1
nRows=399
nColumns=4
inDegrees=no
endheader
time	total_squared_error	marker_error_RMS	marker_error_max
      3.40500000	      3.11250257	      0.22588633	      1.67459803
      3.41000000	      3.11219339	      0.22587511	      1.67449208
      3.41500000	      3.11120220	      0.22583913	      1.67413802
      3.42000000	      3.11041981	      0.22581074	      1.67387000
      3.42500000	      3.11015859	      0.22580125	      1.67358892
      3.43000000	      3.10963694	      0.22578232	      1.67337983
      3.43500000	      3.10925596	      0.22576849	      1.67354553
      3.44000000	      3.10761637	      0.22570895	      1.67302779
      3.44500000	      3.10723015	      0.22569493	      1.67286017
      3.45000000	      3.10711612	      0.22569078	      1.67283889
      3.45500000	      3.10642115	      0.22566554	      1.67264246
      3.46000000	      3.10581489	      0.22564352	      1.67245462
      3.46500000	      3.10613515	      0.22565515	      1.67259573
      3.47000000	      3.10528286	      0.22562419	      1.67235101
      3.47500000	      3.10417851	      0.22558407	      1.67196374
      3.48000000	      3.10335443	      0.22555412	      1.67175048
      3.48500000	      3.10183943	      0.22549906	      1.67134641
      3.49000000	      3.10111243	      0.22547263	      1.67114515
      3.49500000	      3.10256952	      0.22552560	      1.67149817
      3.50000000	      3.10070470	      0.22545781	      1.67093523
      3.50500000	      3.10038276	      0.22544611	      1.67092558
      3.51000000	      3.09904428	      0.22539744	      1.67062001
      3.51500000	      3.09817832	      0.22536594	      1.67060536
      3.52000000	      3.09951383	      0.22541451	      1.67069343
      3.52500000	      3.09860019	      0.22538129	      1.67043425
      3.53000000	      3.09782774	      0.22535319	      1.67019141
      3.53500000	      3.09715135	      0.22532859	      1.67007534
      3.54000000	      3.09636888	      0.22530012	      1.66979176
      3.54500000	      3.09617897	      0.22529321	      1.66982414
      3.55000000	      3.09607049	      0.22528927	      1.66975688
      3.55500000	      3.09648183	      0.22530423	      1.66992504
      3.56000000	      3.09551843	      0.22526918	      1.66961046
      3.56500000	      3.09366740	      0.22520182	      1.66904969
      3.57000000	      3.09361939	      0.22520007	      1.66941894
      3.57500000	      3.09470977	      0.22523975	      1.66939853
      3.58000000	      3.09370685	      0.22520325	      1.66917432
      3.58500000	      3.09377701	      0.22520581	      1.66915582
      3.59000000	      3.09194415	      0.22513909	      1.66863824
      3.59500000	      3.09136801	      0.22511811	      1.66860556
      3.60000000	      3.09209115	      0.22514444	      1.66872375
      3.60500000	      3.09266052	      0.22516517	      1.66881284
      3.61000000	      3.09063913	      0.22509157	      1.66862448
      3.61500000	      3.09039011	      0.22508250	      1.66828021
      3.62000000	      3.09103372	      0.22510594	      1.66852522
      3.62500000	      3.09032908	      0.22508028	      1.66829192
      3.63000000	      3.09049029	      0.22508615	      1.66837531
      3.63500000	      3.09044894	      0.22508464	      1.66838391
      3.64000000	      3.09009683	      0.22507182	      1.66819110
      3.64500000	      3.09061722	      0.22509077	      1.66891549
      3.65000000	      3.09038446	      0.22508230	      1.66831554
      3.65500000	      3.08960790	      0.22505402	      1.66809229
      3.66000000	      3.08651747	      0.22494143	      1.66718993
      3.66500000	      3.08950423	      0.22505024	      1.66806997
      3.67000000	      3.08803437	      0.22499670	      1.66761751
      3.67500000	      3.08851457	      0.22501419	      1.66776793
      3.68000000	      3.08875238	      0.22502285	      1.66782304
      3.68500000	      3.08903059	      0.22503299	      1.66787409
      3.69000000	      3.08894339	      0.22502981	      1.66831810
      3.69500000	      3.08913451	      0.22503677	      1.66788418
      3.70000000	      3.08922540	      0.22504008	      1.66796787
      3.70500000	      3.08952317	      0.22505093	      1.66804250
      3.71000000	      3.09017907	      0.22507482	      1.66817512
      3.71500000	      3.08648102	      0.22494010	      1.66739408
      3.72000000	      3.09032132	      0.22508000	      1.66806157
      3.72500000	      3.08986082	      0.22506323	      1.66807292
      3.73000000	      3.08979471	      0.22506082	      1.66838552
      3.73500000	      3.08988810	      0.22506422	      1.66813795
      3.74000000	      3.08997219	      0.22506728	      1.66826245
      3.74500000	      3.08983334	      0.22506223	      1.66825260
      3.75000000	      3.09032619	      0.22508017	      1.66967999
      3.75500000	      3.09015682	      0.22507401	      1.66993483
      3.76000000	      3.09111945	      0.22510906	      1.66900009
      3.76500000	      3.09046037	      0.22508506	      1.66963521
      3.77000000	      3.08733187	      0.22497110	      1.66801995
      3.77500000	      3.08724028	      0.22496777	      1.66932078
      3.78000000	      3.08917326	      0.22503818	      1.67058246
      3.78500000	      3.08886972	      0.22502713	      1.67068233
      3.79000000	      3.08898633	      0.22503138	      1.67103142
      3.79500000	      3.08842547	      0.22501095	      1.67120668
      3.80000000	      3.08841013	      0.22501039	      1.67142600
      3.80500000	      3.08843579	      0.22501132	      1.67150579
      3.81000000	      3.07762281	      0.22461708	      1.63849217
      3.81500000	      3.07750545	      0.22461280	      1.63842525
      3.82000000	      3.07713596	      0.22459931	      1.63820577
      3.82500000	      3.07649255	      0.22457583	      1.63800087
      3.83000000	      3.07691157	      0.22459112	      1.63756360
      3.83500000	      3.07678351	      0.22458645	      1.63758719
      3.84000000	      3.07659547	      0.22457959	      1.63767019
      3.84500000	      3.07681891	      0.22458774	      1.63731077
      3.85000000	      3.07612133	      0.22456228	      1.63727480
      3.85500000	      3.07614048	      0.22456298	      1.63788862
      3.86000000	      3.07318761	      0.22445517	      1.63687244
      3.86500000	      3.07295429	      0.22444665	      1.63651605
      3.87000000	      3.07302588	      0.22444927	      1.63642716
      3.87500000	      3.07161799	      0.22439785	      1.63568214
      3.88000000	      3.07311285	      0.22445244	      1.63640650
      3.88500000	      3.07185657	      0.22440656	      1.63556328
      3.89000000	      3.07122200	      0.22438338	      1.63541870
      3.89500000	      3.07280325	      0.22444114	      1.63595421
      3.90000000	      3.07101600	      0.22437586	      1.63524396
      3.90500000	      3.07091452	      0.22437215	      1.63490543
      3.91000000	      3.07251015	      0.22443043	      1.63537274
      3.91500000	      3.07203634	      0.22441313	      1.63496312
      3.92000000	      3.07187764	      0.22440733	      1.63527306
      3.92500000	      3.07177609	      0.22440362	      1.63472950
      3.93000000	      3.07197536	      0.22441090	      1.63484735
      3.93500000	      3.07224637	      0.22442080	      1.63487011
      3.94000000	      3.07203808	      0.22441319	      1.63470588
      3.94500000	      3.07196664	      0.22441058	      1.63451070
      3.95000000	      3.07035119	      0.22435157	      1.63417686
      3.95500000	      3.07033076	      0.22435082	      1.63411828
      3.96000000	      3.07184186	      0.22440602	      1.63443072
      3.96500000	      3.06998954	      0.22433835	      1.63398819
      3.97000000	      3.07016240	      0.22434467	      1.63406033
      3.97500000	      3.07149965	      0.22439352	      1.63379502
      3.98000000	      3.06988176	      0.22433442	      1.63408374
      3.98500000	      3.07158285	      0.22439656	      1.63398879
      3.99000000	      3.07207470	      0.22441453	      1.63372040
      3.99500000	      3.07231326	      0.22442324	      1.63395104
      4.00000000	      3.07440844	      0.22449975	      1.63472477
      4.00500000	      3.07354728	      0.22446831	      1.63442527
      4.01000000	      3.07415180	      0.22449038	      1.63479243
      4.01500000	      3.07568751	      0.22454645	      1.63545075
      4.02000000	      3.07475629	      0.22451245	      1.63523365
      4.02500000	      3.07538007	      0.22453522	      1.63538114
      4.03000000	      3.07411168	      0.22448892	      1.63546682
      4.03500000	      3.07817708	      0.22463731	      1.63587312
      4.04000000	      3.07492624	      0.22451866	      1.63579772
      4.04500000	      3.07518993	      0.22452828	      1.63609412
      4.05000000	      3.07531409	      0.22453282	      1.63620033
      4.05500000	      3.07539707	      0.22453584	      1.63620003
      4.06000000	      3.07557748	      0.22454243	      1.63624179
      4.06500000	      3.07600146	      0.22455791	      1.63625664
      4.07000000	      3.07578057	      0.22454984	      1.63645279
      4.07500000	      3.07571422	      0.22454742	      1.63628697
      4.08000000	      3.07564834	      0.22454502	      1.63610423
      4.08500000	      3.07685064	      0.22458890	      1.63650610
      4.09000000	      3.07552876	      0.22454065	      1.63571182
      4.09500000	      3.07688128	      0.22459002	      1.63597653
      4.10000000	      3.07682552	      0.22458798	      1.63632417
      4.10500000	      3.07576869	      0.22454941	      1.63539989
      4.11000000	      3.07550270	      0.22453970	      1.63533878
      4.11500000	      3.07685457	      0.22458904	      1.63577588
      4.12000000	      3.07524600	      0.22453033	      1.63574947
      4.12500000	      3.07533732	      0.22453366	      1.63575162
      4.13000000	      3.07502185	      0.22452215	      1.63552431
      4.13500000	      3.07487141	      0.22451665	      1.63529343
      4.14000000	      3.07492517	      0.22451862	      1.63545531
      4.14500000	      3.07476087	      0.22451262	      1.63529652
      4.15000000	      3.07463803	      0.22450813	      1.63521544
      4.15500000	      3.07475102	      0.22451226	      1.63547758
      4.16000000	      3.07422891	      0.22449320	      1.63502713
      4.16500000	      3.07372274	      0.22447471	      1.63494694
      4.17000000	      3.07381199	      0.22447797	      1.63508316
      4.17500000	      3.07418161	      0.22449147	      1.63466033
      4.18000000	      3.07418107	      0.22449145	      1.63455452
      4.18500000	      3.07340237	      0.22446302	      1.63552791
      4.19000000	      3.07305495	      0.22445033	      1.63469377
      4.19500000	      3.07232403	      0.22442363	      1.63445691
      4.20000000	      3.07414392	      0.22449009	      1.63434053
      4.20500000	      3.07373194	      0.22447505	      1.63409332
      4.21000000	      3.07366217	      0.22447250	      1.63427981
      4.21500000	      3.07354458	      0.22446821	      1.63419565
      4.22000000	      3.07379303	      0.22447728	      1.63418605
      4.22500000	      3.07401952	      0.22448555	      1.63410391
      4.23000000	      3.07191288	      0.22440862	      1.63417920
      4.23500000	      3.07199745	      0.22441171	      1.63408122
      4.24000000	      3.07166682	      0.22439963	      1.63411300
      4.24500000	      3.07155161	      0.22439542	      1.63398454
      4.25000000	      3.07155136	      0.22439541	      1.63405153
      4.25500000	      3.07120456	      0.22438274	      1.63388360
      4.26000000	      3.07126660	      0.22438501	      1.63398484
      4.26500000	      3.07158881	      0.22439678	      1.63391883
      4.27000000	      3.07157405	      0.22439624	      1.63398663
      4.27500000	      3.07189774	      0.22440806	      1.63413607
      4.28000000	      3.07202551	      0.22441273	      1.63401296
      4.28500000	      3.07189659	      0.22440802	      1.63394055
      4.29000000	      3.07200459	      0.22441197	      1.63392091
      4.29500000	      3.07149639	      0.22439340	      1.63426495
      4.30000000	      3.07206251	      0.22441408	      1.63404734
      4.30500000	      3.07176532	      0.22440323	      1.63358193
      4.31000000	      3.07216679	      0.22441789	      1.63354346
      4.31500000	      3.07234910	      0.22442455	      1.63360562
      4.32000000	      3.07258522	      0.22443317	      1.63363070
      4.32500000	      3.07426162	      0.22449439	      1.63394321
      4.33000000	      3.07446475	      0.22450181	      1.63402770
      4.33500000	      3.07486240	      0.22451633	      1.63406245
      4.34000000	      3.07336134	      0.22446152	      1.63348572
      4.34500000	      3.07498193	      0.22452069	      1.63392936
      4.35000000	      3.07378908	      0.22447714	      1.63310950
      4.35500000	      3.07387680	      0.22448034	      1.63344923
      4.36000000	      3.07348556	      0.22446605	      1.63357560
      4.36500000	      3.07362481	      0.22447114	      1.63398794
      4.37000000	      3.07357264	      0.22446923	      1.63296194
      4.37500000	      3.07387250	      0.22448018	      1.63324737
      4.38000000	      3.07364838	      0.22447200	      1.63297648
      4.38500000	      3.07330941	      0.22445962	      1.63367018
      4.39000000	      3.07319249	      0.22445535	      1.63330706
      4.39500000	      3.07312599	      0.22445292	      1.63367291
      4.40000000	      3.07316138	      0.22445422	      1.63375017
      4.40500000	      3.07328202	      0.22445862	      1.63340921
      4.41000000	      3.07354244	      0.22446813	      1.63342674
      4.41500000	      3.07329349	      0.22445904	      1.63320829
      4.42000000	      3.07492448	      0.22451859	      1.63368572
      4.42500000	      3.07344360	      0.22446452	      1.63317489
      4.43000000	      3.07336830	      0.22446177	      1.63318603
      4.43500000	      3.07505087	      0.22452321	      1.63351346
      4.44000000	      3.07369741	      0.22447379	      1.63317957
      4.44500000	      3.07360572	      0.22447044	      1.63322110
      4.45000000	      3.07368599	      0.22447337	      1.63318632
      4.45500000	      3.07368090	      0.22447319	      1.63315206
      4.46000000	      3.07328015	      0.22445855	      1.63325452
      4.46500000	      3.07574232	      0.22454845	      1.63349613
      4.47000000	      3.07547542	      0.22453870	      1.63338033
      4.47500000	      3.07587960	      0.22455346	      1.63313837
      4.48000000	      3.07596142	      0.22455645	      1.63350359
      4.48500000	      3.07447147	      0.22450205	      1.63296162
      4.49000000	      3.07480436	      0.22451421	      1.63303633
      4.49500000	      3.07492611	      0.22451865	      1.63277416
      4.50000000	      3.07464031	      0.22450822	      1.63288338
      4.50500000	      3.07466846	      0.22450924	      1.63274036
      4.51000000	      3.07615282	      0.22456343	      1.63357835
      4.51500000	      3.07649366	      0.22457587	      1.63356425
      4.52000000	      3.07536898	      0.22453482	      1.63332246
      4.52500000	      3.07525059	      0.22453050	      1.63337862
      4.53000000	      3.07548400	      0.22453902	      1.63319958
      4.53500000	      3.07577761	      0.22454974	      1.63337905
      4.54000000	      3.07759727	      0.22461615	      1.63363404
      4.54500000	      3.07760771	      0.22461653	      1.63375848
      4.55000000	      3.07772412	      0.22462078	      1.63381337
      4.55500000	      3.07789078	      0.22462686	      1.63382104
      4.56000000	      3.07598576	      0.22455733	      1.63303695
      4.56500000	      3.07624787	      0.22456690	      1.63335985
      4.57000000	      3.07605978	      0.22456004	      1.63321311
      4.57500000	      3.07660592	      0.22457997	      1.63296604
      4.58000000	      3.07652346	      0.22457696	      1.63315175
      4.58500000	      3.07639258	      0.22457218	      1.63304797
      4.59000000	      3.07835451	      0.22464378	      1.63362813
      4.59500000	      3.07836130	      0.22464403	      1.63367052
      4.60000000	      3.07715896	      0.22460015	      1.63306313
      4.60500000	      3.07710089	      0.22459803	      1.63311406
      4.61000000	      3.07721748	      0.22460229	      1.63307567
      4.61500000	      3.07743663	      0.22461029	      1.63321936
      4.62000000	      3.07747524	      0.22461170	      1.63301352
      4.62500000	      3.07756960	      0.22461514	      1.63305093
      4.63000000	      3.07758624	      0.22461575	      1.63298132
      4.63500000	      3.07788890	      0.22462679	      1.63304995
      4.64000000	      3.07814035	      0.22463597	      1.63310612
      4.64500000	      3.07991672	      0.22470077	      1.63344953
      4.65000000	      3.07826969	      0.22464069	      1.63294386
      4.65500000	      3.07988301	      0.22469954	      1.63338836
      4.66000000	      3.07871339	      0.22465687	      1.63291418
      4.66500000	      3.07900308	      0.22466744	      1.63282310
      4.67000000	      3.07921912	      0.22467533	      1.63302454
      4.67500000	      3.07921192	      0.22467506	      1.63262829
      4.68000000	      3.07924096	      0.22467612	      1.63263904
      4.68500000	      3.07891333	      0.22466417	      1.63268628
      4.69000000	      3.07921234	      0.22467508	      1.63259395
      4.69500000	      3.07933276	      0.22467947	      1.63234610
      4.70000000	      3.07900923	      0.22466767	      1.63209034
      4.70500000	      3.07913086	      0.22467211	      1.63200396
      4.71000000	      3.07884720	      0.22466176	      1.63213204
      4.71500000	      3.07849836	      0.22464903	      1.63189458
      4.72000000	      3.07875144	      0.22465826	      1.63164400
      4.72500000	      3.08052718	      0.22472304	      1.63196448
      4.73000000	      3.07866424	      0.22465508	      1.63159783
      4.73500000	      3.07864849	      0.22465451	      1.63180141
      4.74000000	      3.07906393	      0.22466966	      1.63171039
      4.74500000	      3.07955039	      0.22468741	      1.63139113
      4.75000000	      3.08106526	      0.22474267	      1.63203072
      4.75500000	      3.07955248	      0.22468749	      1.63159182
      4.76000000	      3.08151314	      0.22475900	      1.63195369
      4.76500000	      3.07973662	      0.22469420	      1.63150526
      4.77000000	      3.07994215	      0.22470170	      1.63146698
      4.77500000	      3.08197868	      0.22477598	      1.63183868
      4.78000000	      3.08039006	      0.22471804	      1.63117883
      4.78500000	      3.08039357	      0.22471817	      1.63150004
      4.79000000	      3.08048643	      0.22472156	      1.63131046
      4.79500000	      3.08098673	      0.22473980	      1.63115041
      4.80000000	      3.08100103	      0.22474032	      1.63106842
      4.80500000	      3.08021425	      0.22471163	      1.63083553
      4.81000000	      3.07986644	      0.22469894	      1.63045410
      4.81500000	      3.07968973	      0.22469249	      1.63040651
      4.82000000	      3.07888387	      0.22466309	      1.62990832
      4.82500000	      3.07855034	      0.22465093	      1.62988065
      4.83000000	      3.07962953	      0.22469030	      1.62997599
      4.83500000	      3.07931533	      0.22467884	      1.63054025
      4.84000000	      3.07698755	      0.22459390	      1.62966785
      4.84500000	      3.07639783	      0.22457237	      1.62944458
      4.85000000	      3.07661554	      0.22458032	      1.62880859
      4.85500000	      3.07625891	      0.22456730	      1.62870868
      4.86000000	      3.07546367	      0.22453828	      1.62870681
      4.86500000	      3.07573701	      0.22454825	      1.62821202
      4.87000000	      3.07635436	      0.22457079	      1.62892896
      4.87500000	      3.07568957	      0.22454652	      1.62830851
      4.88000000	      3.07601901	      0.22455855	      1.62835846
      4.88500000	      3.07619187	      0.22456486	      1.62784648
      4.89000000	      3.07633995	      0.22457026	      1.62822239
      4.89500000	      3.07687639	      0.22458984	      1.62829928
      4.90000000	      3.07772575	      0.22462084	      1.62843006
      4.90500000	      3.07869675	      0.22465627	      1.62858518
      4.91000000	      3.07995148	      0.22470204	      1.62886961
      4.91500000	      3.07988399	      0.22469958	      1.62893041
      4.92000000	      3.08161134	      0.22476258	      1.62946046
      4.92500000	      3.08207609	      0.22477953	      1.62940064
      4.93000000	      3.08238198	      0.22479069	      1.63001296
      4.93500000	      3.08254817	      0.22479674	      1.62994943
      4.94000000	      3.08177535	      0.22476856	      1.62999309
      4.94500000	      3.08174138	      0.22476733	      1.62987768
      4.95000000	      3.08119774	      0.22474750	      1.63013011
      4.95500000	      3.08199525	      0.22477658	      1.63064125
      4.96000000	      3.08230237	      0.22478778	      1.63044043
      4.96500000	      3.07661041	      0.22458013	      1.62904887
      4.97000000	      3.08269593	      0.22480213	      1.63083549
      4.97500000	      3.08214598	      0.22478208	      1.63052848
      4.98000000	      3.07869147	      0.22465607	      1.62910939
      4.98500000	      3.07628340	      0.22456820	      1.62874415
      4.99000000	      3.07880382	      0.22466017	      1.62947573
      4.99500000	      3.07742028	      0.22460969	      1.62925840
      5.00000000	      3.07852359	      0.22464995	      1.62887817
      5.00500000	      3.07906046	      0.22466954	      1.62848834
      5.01000000	      3.08017808	      0.22471031	      1.62857222
      5.01500000	      3.07941002	      0.22468229	      1.62745267
      5.02000000	      3.07655262	      0.22457802	      1.62681177
      5.02500000	      3.07881918	      0.22466073	      1.62644369
      5.03000000	      3.07554730	      0.22454133	      1.62570469
      5.03500000	      3.07992374	      0.22470103	      1.62689344
      5.04000000	      3.08291752	      0.22481021	      1.62758687
      5.04500000	      3.08660133	      0.22494449	      1.62867660
      5.05000000	      3.09165436	      0.22512854	      1.63024033
      5.05500000	      3.09385179	      0.22520853	      1.63075326
      5.06000000	      3.09673593	      0.22531348	      1.63151535
      5.06500000	      3.09849482	      0.22537745	      1.63160523
      5.07000000	      3.10538450	      0.22562789	      1.63371964
      5.07500000	      3.10886506	      0.22575429	      1.63443580
      5.08000000	      3.11427671	      0.22595069	      1.63565934
      5.08500000	      3.11858511	      0.22610694	      1.63668016
      5.09000000	      3.12437021	      0.22631656	      1.63789427
      5.09500000	      3.12967255	      0.22650852	      1.63899904
      5.10000000	      3.13427704	      0.22667508	      1.63988868
      5.10500000	      3.14035443	      0.22689473	      1.64149908
      5.11000000	      3.14404345	      0.22702796	      1.64226754
      5.11500000	      3.14762875	      0.22715737	      1.64307291
      5.12000000	      3.14966707	      0.22723091	      1.64348978
      5.12500000	      3.15247503	      0.22733218	      1.64467237
      5.13000000	      3.15276822	      0.22734275	      1.64489651
      5.13500000	      3.15220672	      0.22732250	      1.64501850
      5.14000000	      3.15051561	      0.22726152	      1.64484164
      5.14500000	      3.14919168	      0.22721376	      1.64495546
      5.15000000	      3.14579317	      0.22709113	      1.64439468
      5.15500000	      3.14315851	      0.22699601	      1.64386115
      5.16000000	      3.14204244	      0.22695571	      1.64360085
      5.16500000	      3.14228230	      0.22696437	      1.64365034
      5.17000000	      3.14244574	      0.22697027	      1.64351879
      5.17500000	      3.14326581	      0.22699988	      1.64353191
      5.18000000	      3.14449973	      0.22704444	      1.64364778
      5.18500000	      3.14696756	      0.22713351	      1.64398891
      5.19000000	      3.14989935	      0.22723929	      1.64455060
      5.19500000	      3.15334986	      0.22736372	      1.64518393
      5.20000000	      3.15601466	      0.22745977	      1.64513108
      5.20500000	      3.15849520	      0.22754914	      1.64554204
      5.21000000	      3.15899028	      0.22756697	      1.64536650
      5.21500000	      3.15982097	      0.22759689	      1.64546681
      5.22000000	      3.15979443	      0.22759593	      1.64546014
      5.22500000	      3.15971942	      0.22759323	      1.64525750
      5.23000000	      3.15925621	      0.22757655	      1.64526833
      5.23500000	      3.15936599	      0.22758050	      1.64565558
      5.24000000	      3.15946231	      0.22758397	      1.64594230
      5.24500000	      3.16048064	      0.22762064	      1.64642580
      5.25000000	      3.16127435	      0.22764923	      1.64677569
      5.25500000	      3.16134583	      0.22765180	      1.64701596
      5.26000000	      3.16070830	      0.22762884	      1.64702104
      5.26500000	      3.16091971	      0.22763646	      1.64723908
      5.27000000	      3.16182523	      0.22766906	      1.64771662
      5.27500000	      3.16317407	      0.22771762	      1.64842341
      5.28000000	      3.16293147	      0.22770888	      1.64833642
      5.28500000	      3.16487413	      0.22777880	      1.64912634
      5.29000000	      3.16427057	      0.22775708	      1.64900767
      5.29500000	      3.16379986	      0.22774014	      1.64904591
      5.30000000	      3.16374852	      0.22773829	      1.64918450
      5.30500000	      3.16399365	      0.22774711	      1.64940667
      5.31000000	      3.16262434	      0.22769783	      1.64881735
      5.31500000	      3.16209220	      0.22767867	      1.64910419
      5.32000000	      3.16393005	      0.22774483	      1.64960454
      5.32500000	      3.16244129	      0.22769124	      1.64932258
      5.33000000	      3.16200028	      0.22767536	      1.64907133
      5.33500000	      3.16187927	      0.22767100	      1.64921439
      5.34000000	      3.16155746	      0.22765942	      1.64918141
      5.34500000	      3.16165157	      0.22766281	      1.64928961
      5.35000000	      3.16098078	      0.22763865	      1.64891143
      5.35500000	      3.16150713	      0.22765761	      1.64938306
      5.36000000	      3.16146683	      0.22765616	      1.64908628
      5.36500000	      3.16269950	      0.22770053	      1.64969575
      5.37000000	      3.16119094	      0.22764622	      1.64923232
      5.37500000	      3.16225298	      0.22768446	      1.64961912
      5.38000000	      3.16106841	      0.22764181	      1.64933254
      5.38500000	      3.16032401	      0.22761500	      1.64908935
      5.39000000	      3.15978440	      0.22759557	      1.64891404
      5.39500000	      3.15957879	      0.22758817	      1.64882537
