_ik_marker_errors_all.sto
version=1
nRows=120
nColumns=61
in_degrees=yes
endheader
time	FHD	LBHD	RBHD	C7	T10	CLAV	LSHO	LUUPA	LMUPA	LDUPA	LLEP	LMEP	LRAD	LUL	LRFIN	RSHO	RUPA1	RMUPA	RDUPA	RLEP	RMEP	RRAD	RUL	RUFIN	LASI	RASI	USACR	LSACR	RSACR	LTHI1	LTHI2	LTHI3	LTHI4	LLFC	LMFC	LTIB1	LTIB2	LTIB3	LTIB4	LLMAL	LMMAL	LMT1	LMT2	LMT5	RTHI	RTHI2	RTHI3	RTHI4	RLFC	RMFC	RTIB1	RTIB2	RTIB3	RTIB4	RLMAL	RMMAL	RHEE	RMT1	RMT2	RMT5
4.680000	0.102123	0.035255	0.029115	0.023499	0.028530	0.075338	0.022273	0.059417	0.045569	0.040003	0.026000	0.033665	0.051705	0.060283	0.061167	0.039080	0.057668	0.044870	0.042766	0.025448	0.027416	0.036398	0.054688	0.043758	0.019400	0.022418	0.009060	0.014502	0.016985	0.027481	0.024365	0.026765	0.024074	0.046288	0.007480	0.009770	0.015687	0.010193	0.004360	0.011758	0.015400	0.016709	0.011329	0.018728	0.027384	0.026135	0.029338	0.026922	0.032625	0.011184	0.027853	0.023101	0.018701	0.010435	0.007511	0.015278	0.009716	0.019661	0.013602	0.024223
4.685000	0.102956	0.036223	0.030305	0.023639	0.028513	0.075611	0.022927	0.059437	0.045637	0.040248	0.026193	0.033798	0.051688	0.060180	0.061067	0.039262	0.057472	0.044735	0.042663	0.025675	0.027637	0.036249	0.054820	0.043286	0.018819	0.022112	0.009083	0.014466	0.016635	0.027974	0.024675	0.027167	0.024250	0.046170	0.007881	0.010026	0.015882	0.010322	0.004520	0.011704	0.015479	0.016880	0.011691	0.018822	0.027552	0.026428	0.029550	0.027221	0.032689	0.010916	0.027959	0.023257	0.018985	0.010724	0.007478	0.015200	0.009779	0.019104	0.013734	0.024316
4.690000	0.103434	0.037191	0.031317	0.023746	0.028516	0.075538	0.022893	0.059607	0.045780	0.040603	0.025852	0.033855	0.051434	0.059978	0.061066	0.039863	0.057363	0.044700	0.042751	0.025339	0.027533	0.035797	0.054506	0.043401	0.018105	0.022586	0.009106	0.014425	0.016392	0.028052	0.024713	0.027224	0.024290	0.046229	0.008007	0.009865	0.015862	0.010148	0.004263	0.011799	0.015712	0.017175	0.011816	0.018729	0.027449	0.026193	0.029380	0.027163	0.032630	0.010836	0.028096	0.023075	0.018803	0.010507	0.007746	0.015099	0.009887	0.019334	0.013622	0.024244
4.695000	0.103934	0.038244	0.032094	0.023940	0.028391	0.075531	0.023014	0.059692	0.045828	0.040699	0.025692	0.033617	0.051355	0.059953	0.060981	0.040344	0.057396	0.044603	0.042865	0.024937	0.027389	0.035442	0.054461	0.043026	0.018159	0.021614	0.009215	0.014328	0.016320	0.028174	0.024869	0.027441	0.024393	0.046843	0.007834	0.009960	0.016191	0.010415	0.004290	0.011774	0.015808	0.017188	0.011900	0.018850	0.027481	0.026139	0.029184	0.026776	0.032597	0.010871	0.027971	0.022938	0.018655	0.010481	0.007790	0.015037	0.009624	0.019281	0.013551	0.024388
4.700000	0.104714	0.039604	0.033512	0.024094	0.028326	0.075390	0.023130	0.059660	0.045667	0.040684	0.025550	0.033399	0.051351	0.059850	0.061135	0.040850	0.057423	0.044613	0.042816	0.024752	0.027184	0.035048	0.054295	0.042924	0.019478	0.019311	0.009360	0.014154	0.016548	0.027643	0.024839	0.027395	0.024169	0.046907	0.007836	0.009508	0.016112	0.010142	0.004280	0.011998	0.015949	0.017504	0.012137	0.018737	0.027197	0.025566	0.028720	0.026311	0.032340	0.011085	0.027627	0.022658	0.018536	0.010506	0.007732	0.015019	0.009581	0.019238	0.013508	0.024382
4.705000	0.105205	0.041142	0.035019	0.024339	0.028491	0.075277	0.023755	0.059507	0.045508	0.040749	0.025641	0.033589	0.051201	0.059701	0.061348	0.041192	0.057063	0.044016	0.042587	0.024728	0.026876	0.034734	0.054499	0.043362	0.019188	0.019724	0.009205	0.013954	0.016285	0.027566	0.024667	0.026766	0.024132	0.046860	0.007747	0.008982	0.016157	0.010001	0.004288	0.011999	0.016222	0.017825	0.012471	0.018813	0.026307	0.024659	0.027886	0.025633	0.032474	0.011258	0.027258	0.022247	0.018207	0.010342	0.007841	0.014881	0.009712	0.019205	0.014559	0.024180
4.710000	0.105974	0.042599	0.036489	0.024539	0.028470	0.075330	0.024379	0.059788	0.045235	0.040858	0.025093	0.033370	0.051041	0.059566	0.061553	0.041691	0.057050	0.043758	0.042679	0.024260	0.026585	0.034297	0.054291	0.043216	0.019968	0.020318	0.008945	0.013898	0.016608	0.028284	0.024588	0.026439	0.024218	0.046740	0.008057	0.008463	0.016132	0.010032	0.004430	0.012136	0.016488	0.018080	0.012644	0.018947	0.025958	0.024231	0.027369	0.024944	0.032202	0.011738	0.027008	0.021954	0.018153	0.010271	0.007888	0.014910	0.009713	0.019106	0.014370	0.024372
4.715000	0.106969	0.043491	0.037408	0.024640	0.028465	0.075457	0.025074	0.059693	0.045823	0.041095	0.024894	0.033393	0.050926	0.059547	0.061675	0.041956	0.056973	0.043346	0.042682	0.023891	0.026460	0.034121	0.054088	0.043141	0.018254	0.021173	0.009223	0.013968	0.016526	0.028396	0.025170	0.026932	0.024718	0.046649	0.008157	0.008565	0.016556	0.010211	0.004322	0.012118	0.016620	0.018164	0.012765	0.018926	0.026312	0.024922	0.028054	0.025278	0.032180	0.011266	0.027332	0.022148	0.018579	0.010447	0.007933	0.014785	0.009971	0.018822	0.014235	0.024494
4.720000	0.107682	0.044288	0.038525	0.024989	0.028397	0.075536	0.026357	0.060292	0.045566	0.041631	0.023686	0.033332	0.050341	0.059378	0.061475	0.042462	0.057394	0.043273	0.042968	0.023203	0.026407	0.033112	0.054643	0.042865	0.016425	0.020774	0.009376	0.013832	0.015614	0.028536	0.025347	0.027158	0.024458	0.046370	0.007953	0.008602	0.016820	0.010397	0.004124	0.012308	0.016616	0.018462	0.012990	0.018554	0.027140	0.025368	0.028597	0.025689	0.032748	0.011022	0.027650	0.022263	0.019051	0.010778	0.007913	0.014718	0.010081	0.018721	0.014208	0.024451
4.725000	0.108055	0.046442	0.040517	0.024797	0.027957	0.075211	0.026266	0.059769	0.045432	0.041220	0.024320	0.032931	0.050498	0.059229	0.061502	0.042777	0.056237	0.042422	0.042227	0.023134	0.025766	0.033163	0.053943	0.044375	0.019918	0.019091	0.009093	0.013545	0.016177	0.027908	0.024758	0.026592	0.024146	0.046523	0.008290	0.007999	0.016651	0.009875	0.004378	0.012335	0.016784	0.018543	0.013018	0.018733	0.025938	0.024090	0.027026	0.024671	0.032320	0.011955	0.026419	0.021614	0.018507	0.010450	0.007878	0.014723	0.009684	0.018959	0.014299	0.024522
4.730000	0.109271	0.047555	0.041221	0.025248	0.027951	0.075527	0.026262	0.059402	0.045240	0.041017	0.024043	0.032656	0.050750	0.058844	0.062023	0.043926	0.056294	0.042242	0.042601	0.022572	0.025825	0.032633	0.053817	0.044168	0.018331	0.018282	0.009914	0.013605	0.016263	0.028814	0.025313	0.026992	0.024963	0.046415	0.008274	0.008024	0.016881	0.010300	0.004221	0.012281	0.016781	0.018380	0.012870	0.019075	0.026256	0.024439	0.027265	0.024838	0.031948	0.011543	0.026888	0.021731	0.018573	0.010576	0.007946	0.014729	0.009920	0.018625	0.014087	0.024509
4.735000	0.109437	0.049465	0.043058	0.025526	0.028145	0.075577	0.028676	0.059561	0.044859	0.041107	0.023913	0.032581	0.050553	0.058934	0.062343	0.044544	0.055988	0.041468	0.042194	0.022266	0.025314	0.031973	0.053901	0.044088	0.023075	0.014051	0.008646	0.012536	0.015586	0.027923	0.024574	0.025628	0.024281	0.046283	0.008746	0.007030	0.016522	0.009994	0.004320	0.012574	0.017103	0.018568	0.013134	0.019115	0.025558	0.023628	0.026358	0.023486	0.031601	0.012098	0.026167	0.021622	0.018272	0.010644	0.007826	0.014724	0.009645	0.018639	0.014394	0.024531
4.740000	0.109859	0.051102	0.044765	0.025519	0.028012	0.075460	0.029049	0.059334	0.044206	0.040729	0.023486	0.032350	0.050414	0.058867	0.062540	0.045024	0.055873	0.040627	0.041936	0.021535	0.024898	0.031596	0.053949	0.044880	0.014883	0.026134	0.009507	0.014179	0.016029	0.028612	0.024749	0.025689	0.024934	0.045888	0.009719	0.005788	0.016523	0.009601	0.004706	0.013016	0.017850	0.019099	0.013557	0.019560	0.023865	0.021603	0.024424	0.022263	0.031892	0.012459	0.025854	0.020928	0.018157	0.010582	0.007970	0.014496	0.009953	0.018127	0.014216	0.024737
4.745000	0.112205	0.051671	0.045043	0.026005	0.027992	0.076160	0.029195	0.059714	0.044570	0.041579	0.023587	0.032579	0.050744	0.058773	0.062414	0.045723	0.055722	0.040854	0.042209	0.021834	0.025521	0.031320	0.053558	0.044667	0.020596	0.016154	0.009781	0.013250	0.016260	0.028665	0.025579	0.027906	0.025012	0.046048	0.008211	0.007971	0.016689	0.010339	0.003994	0.012337	0.016713	0.018332	0.012882	0.018894	0.026666	0.024593	0.027346	0.024650	0.032022	0.011588	0.027119	0.022096	0.019329	0.011169	0.007912	0.014946	0.009872	0.018524	0.014111	0.024780
4.750000	0.113124	0.053596	0.046679	0.025912	0.027885	0.075942	0.029385	0.059278	0.044163	0.041349	0.023914	0.032642	0.050621	0.058365	0.062971	0.046117	0.055555	0.040461	0.042012	0.021491	0.025662	0.031101	0.053698	0.045102	0.017345	0.019537	0.009626	0.013404	0.015723	0.029067	0.025938	0.027237	0.025538	0.046179	0.008712	0.007409	0.017286	0.009950	0.004344	0.012507	0.017360	0.018911	0.013190	0.018564	0.025592	0.023672	0.026173	0.023594	0.031833	0.011343	0.026898	0.022012	0.019077	0.011022	0.008152	0.014827	0.010224	0.018495	0.014326	0.024716
4.755000	0.113425	0.054662	0.047452	0.026198	0.028219	0.076090	0.030240	0.059678	0.043938	0.041691	0.022674	0.031999	0.050319	0.058637	0.062911	0.046934	0.055595	0.040243	0.042300	0.020917	0.025241	0.029970	0.053555	0.045440	0.019160	0.017540	0.009886	0.013236	0.016152	0.028685	0.025694	0.027099	0.025075	0.045748	0.008678	0.007022	0.017503	0.010536	0.004122	0.012426	0.017001	0.018530	0.012963	0.018968	0.025673	0.023682	0.026099	0.023853	0.031404	0.011727	0.026692	0.021970	0.019241	0.011354	0.008071	0.014827	0.010006	0.018518	0.014148	0.025148
4.760000	0.114185	0.055766	0.048441	0.026504	0.028769	0.076534	0.030597	0.059854	0.044059	0.041999	0.022257	0.031632	0.050063	0.058335	0.063139	0.047833	0.055842	0.039967	0.042427	0.020228	0.025606	0.028971	0.053765	0.045385	0.017519	0.019230	0.009899	0.013378	0.015956	0.028678	0.025644	0.026934	0.025024	0.045654	0.008489	0.006794	0.017722	0.010438	0.004134	0.012555	0.017019	0.018419	0.012910	0.019287	0.025388	0.023302	0.026012	0.023206	0.031105	0.012445	0.026940	0.021796	0.019215	0.011830	0.008167	0.014868	0.010142	0.018344	0.014087	0.025140
4.765000	0.115008	0.057120	0.049328	0.026724	0.028239	0.077047	0.030600	0.060075	0.044187	0.042081	0.021706	0.031576	0.050222	0.058133	0.063064	0.048557	0.055911	0.039735	0.042665	0.020036	0.025408	0.028878	0.053535	0.045583	0.018953	0.017638	0.010046	0.013254	0.016081	0.028485	0.025520	0.026882	0.024805	0.045718	0.008211	0.007275	0.017701	0.010371	0.004123	0.012607	0.017019	0.018253	0.012656	0.019278	0.025410	0.023385	0.025933	0.023229	0.031307	0.012372	0.026814	0.021736	0.019363	0.011942	0.008284	0.014901	0.010277	0.018263	0.014167	0.025260
4.770000	0.116126	0.058513	0.050316	0.026749	0.028510	0.077352	0.031318	0.060105	0.044322	0.042245	0.021811	0.031173	0.049210	0.057965	0.063037	0.049038	0.056085	0.039667	0.042894	0.019838	0.025427	0.028296	0.053581	0.045842	0.016680	0.019609	0.010207	0.013290	0.015743	0.028777	0.026076	0.027163	0.025538	0.045473	0.008342	0.007305	0.017877	0.010327	0.003977	0.012710	0.017090	0.018323	0.012442	0.019304	0.025154	0.023255	0.025685	0.022951	0.031207	0.011957	0.026954	0.021967	0.019467	0.012308	0.008306	0.014696	0.010447	0.018034	0.013333	0.025315
4.775000	0.116793	0.059678	0.051236	0.027677	0.028738	0.077593	0.031615	0.060230	0.044519	0.042626	0.021020	0.031044	0.049023	0.057733	0.062984	0.049280	0.056046	0.039603	0.043167	0.019577	0.025436	0.027496	0.053865	0.046102	0.020402	0.015849	0.010153	0.013000	0.016044	0.027663	0.025325	0.026807	0.024986	0.045584	0.008666	0.007117	0.017843	0.010292	0.003543	0.012673	0.016627	0.018033	0.012490	0.019335	0.025185	0.023165	0.025568	0.023384	0.031064	0.012115	0.026553	0.021687	0.019326	0.012587	0.008271	0.014633	0.010138	0.018046	0.013563	0.025318
4.780000	0.117534	0.061086	0.052236	0.027742	0.029282	0.077763	0.032247	0.060247	0.043278	0.042694	0.020940	0.030712	0.048749	0.057225	0.063024	0.049903	0.056221	0.039809	0.043318	0.019452	0.025393	0.027025	0.053836	0.046168	0.024859	0.011066	0.010634	0.012448	0.016289	0.027866	0.025572	0.026344	0.025296	0.045435	0.008723	0.006742	0.017917	0.010510	0.003622	0.012810	0.016863	0.018241	0.012437	0.019511	0.024736	0.023014	0.025404	0.022663	0.030680	0.012502	0.026847	0.021613	0.019697	0.012793	0.008332	0.014398	0.010335	0.017835	0.013613	0.025421
4.785000	0.117467	0.062972	0.054094	0.027839	0.029771	0.078105	0.032498	0.059694	0.042667	0.042235	0.020100	0.029901	0.048219	0.057337	0.063011	0.050023	0.056409	0.039442	0.043524	0.018671	0.025254	0.026748	0.054229	0.046543	0.013557	0.024845	0.010674	0.014077	0.016033	0.027881	0.024513	0.023786	0.025371	0.045090	0.011214	0.004876	0.017819	0.010105	0.004113	0.013415	0.017634	0.018790	0.012856	0.020045	0.021844	0.020309	0.022870	0.020553	0.030367	0.012837	0.025987	0.020951	0.019033	0.012775	0.008637	0.013982	0.010535	0.017271	0.013480	0.025772
4.790000	0.119059	0.063498	0.054494	0.028739	0.029953	0.078779	0.032729	0.060447	0.043292	0.043143	0.019983	0.029943	0.048407	0.056521	0.063393	0.050376	0.056912	0.040224	0.044207	0.019453	0.026224	0.026044	0.054274	0.046094	0.021867	0.015486	0.010762	0.012506	0.015031	0.027455	0.025515	0.026928	0.025315	0.045116	0.008497	0.007220	0.018039	0.010632	0.003834	0.012953	0.016728	0.018281	0.011802	0.019146	0.024479	0.023226	0.025422	0.022743	0.030463	0.012486	0.026704	0.021752	0.019749	0.012877	0.008321	0.014251	0.010502	0.017560	0.013303	0.025806
4.795000	0.118385	0.065313	0.056838	0.029274	0.030731	0.078419	0.033428	0.060252	0.042795	0.042850	0.019128	0.029324	0.047835	0.056451	0.063919	0.050808	0.056838	0.039339	0.043826	0.018240	0.025509	0.025396	0.054306	0.046409	0.022447	0.013259	0.010874	0.012898	0.016666	0.025380	0.023076	0.023131	0.023937	0.045546	0.011792	0.004700	0.017262	0.009157	0.004371	0.013199	0.017157	0.018440	0.012271	0.019831	0.021439	0.020023	0.022108	0.020189	0.030167	0.014758	0.024995	0.020529	0.018606	0.012605	0.008250	0.014146	0.009838	0.017815	0.013603	0.025725
4.800000	0.119362	0.066128	0.057280	0.029409	0.030842	0.079150	0.034296	0.060450	0.043427	0.043342	0.018857	0.029392	0.048413	0.055606	0.063941	0.051257	0.057281	0.040412	0.044450	0.019100	0.025718	0.025106	0.054263	0.046768	0.015436	0.023581	0.010725	0.013963	0.016366	0.026764	0.024314	0.023513	0.025241	0.045103	0.011485	0.005263	0.017699	0.009399	0.004078	0.013425	0.017505	0.018757	0.012393	0.020073	0.021290	0.020284	0.022609	0.019977	0.029627	0.013663	0.025795	0.020874	0.019164	0.012940	0.008563	0.013997	0.010468	0.017219	0.013484	0.025995
4.805000	0.121090	0.066067	0.057138	0.029687	0.031494	0.080301	0.034358	0.061312	0.044786	0.044841	0.019139	0.030295	0.047765	0.055144	0.063968	0.051899	0.058131	0.041627	0.045800	0.019380	0.026685	0.024147	0.054442	0.046219	0.024039	0.013297	0.011669	0.012727	0.015896	0.027804	0.026222	0.027062	0.025944	0.045004	0.009036	0.007527	0.017658	0.011452	0.003465	0.012827	0.016666	0.017910	0.011644	0.019491	0.024506	0.023718	0.026110	0.023013	0.029850	0.012599	0.027075	0.022057	0.020052	0.013873	0.008502	0.014208	0.010939	0.017282	0.013208	0.026232
4.810000	0.120191	0.067865	0.059348	0.030282	0.031888	0.080464	0.035491	0.060961	0.043784	0.044458	0.017809	0.029576	0.048065	0.055254	0.064920	0.052134	0.058337	0.040567	0.045829	0.018531	0.026499	0.023095	0.054468	0.046424	0.016254	0.021559	0.011198	0.013904	0.016671	0.026732	0.024154	0.023876	0.025330	0.045235	0.011880	0.005160	0.016881	0.010235	0.003878	0.013456	0.017628	0.018624	0.012422	0.020226	0.020871	0.020209	0.022335	0.019993	0.029410	0.013937	0.025272	0.020643	0.018995	0.013076	0.008510	0.014057	0.010490	0.017038	0.013327	0.026274
4.815000	0.121832	0.067806	0.058952	0.030190	0.031776	0.081858	0.035811	0.061990	0.044992	0.045932	0.017881	0.030616	0.048166	0.054921	0.065131	0.052934	0.059040	0.041960	0.047099	0.019456	0.027720	0.022509	0.053890	0.046710	0.018914	0.016522	0.012141	0.013857	0.017119	0.027981	0.026065	0.026660	0.026427	0.045196	0.009676	0.007494	0.017401	0.010946	0.003419	0.012784	0.016566	0.018045	0.011672	0.019920	0.023854	0.023127	0.025514	0.022165	0.029529	0.012964	0.026729	0.021471	0.019751	0.014244	0.008663	0.014091	0.011121	0.016961	0.013197	0.026392
4.820000	0.122531	0.068546	0.059381	0.030412	0.032551	0.082869	0.036583	0.062599	0.045884	0.046608	0.017606	0.031018	0.048158	0.054033	0.065547	0.053709	0.059875	0.042730	0.047954	0.020098	0.028578	0.021861	0.053403	0.046629	0.018693	0.016755	0.012053	0.013641	0.016816	0.028259	0.026211	0.026511	0.026787	0.045284	0.009779	0.007470	0.017531	0.010796	0.003214	0.012840	0.016519	0.017996	0.011504	0.020223	0.023733	0.023295	0.025617	0.022140	0.029098	0.013086	0.026539	0.021454	0.019962	0.015577	0.008684	0.014010	0.011422	0.016980	0.013402	0.026355
4.825000	0.123215	0.069567	0.060246	0.030229	0.032608	0.083510	0.036837	0.062772	0.046208	0.047085	0.017692	0.031135	0.048236	0.053737	0.065946	0.053934	0.060075	0.043278	0.048640	0.020230	0.028963	0.021034	0.053276	0.047037	0.018124	0.017620	0.012241	0.014040	0.017143	0.028214	0.026245	0.026455	0.026854	0.045378	0.010021	0.007644	0.017575	0.010770	0.003170	0.012812	0.016641	0.018333	0.011736	0.019886	0.023364	0.023013	0.025500	0.022320	0.029149	0.012883	0.026462	0.021412	0.019997	0.015609	0.008884	0.014105	0.011775	0.016839	0.013451	0.026463
4.830000	0.123671	0.069992	0.059947	0.030613	0.033156	0.084619	0.037373	0.063880	0.047224	0.048234	0.017562	0.031756	0.047804	0.053605	0.066181	0.054920	0.061052	0.044158	0.049412	0.020809	0.029850	0.021169	0.052635	0.047301	0.020051	0.016367	0.012982	0.013876	0.016854	0.028412	0.026660	0.026544	0.027020	0.045470	0.010069	0.008097	0.017598	0.010795	0.003357	0.012632	0.016423	0.018220	0.011595	0.020090	0.024113	0.023914	0.026320	0.022639	0.028626	0.012510	0.026806	0.021746	0.020005	0.016129	0.009108	0.014270	0.012187	0.016779	0.013413	0.026618
4.835000	0.123254	0.071356	0.061282	0.030940	0.033859	0.085150	0.037317	0.063787	0.047584	0.048509	0.017444	0.031333	0.048555	0.053324	0.067021	0.055246	0.061281	0.044732	0.050182	0.020481	0.029815	0.020507	0.052674	0.047652	0.019016	0.016406	0.012706	0.014068	0.017508	0.027165	0.025293	0.024907	0.026623	0.045213	0.010493	0.007386	0.017233	0.010252	0.003436	0.012885	0.016876	0.018615	0.012021	0.020251	0.021542	0.021279	0.023585	0.020370	0.027942	0.013541	0.025406	0.020646	0.019206	0.015813	0.008847	0.013957	0.011766	0.016724	0.013789	0.026676
4.840000	0.124253	0.071808	0.061157	0.030779	0.033983	0.086299	0.037267	0.064954	0.048289	0.049659	0.018077	0.032086	0.047974	0.053109	0.067502	0.055745	0.061897	0.045761	0.051075	0.021014	0.030489	0.020195	0.052456	0.048092	0.017526	0.018177	0.012700	0.014249	0.017290	0.027012	0.025668	0.024699	0.026869	0.045157	0.010356	0.007989	0.017310	0.010777	0.003140	0.012969	0.016330	0.018675	0.012154	0.020339	0.022164	0.021922	0.024316	0.020844	0.027971	0.014347	0.025708	0.021107	0.019621	0.016459	0.009118	0.013811	0.012254	0.016330	0.013838	0.026707
4.845000	0.124751	0.071668	0.060493	0.030643	0.033764	0.087034	0.037649	0.065778	0.050363	0.050886	0.019059	0.033037	0.047638	0.053489	0.067436	0.055861	0.062917	0.046759	0.052141	0.021685	0.031348	0.020374	0.052427	0.048072	0.019757	0.016081	0.012861	0.014311	0.018011	0.027701	0.026229	0.026227	0.027239	0.044867	0.009909	0.008891	0.017793	0.011566	0.002653	0.012762	0.015874	0.018351	0.012166	0.019951	0.023240	0.022880	0.025265	0.022152	0.027995	0.013715	0.025949	0.021210	0.019822	0.016490	0.009195	0.013956	0.012569	0.016304	0.013526	0.026937
4.850000	0.125274	0.071291	0.059685	0.030338	0.033159	0.088252	0.038070	0.067215	0.052109	0.052268	0.019989	0.034421	0.046605	0.053184	0.067358	0.056427	0.064179	0.048873	0.053708	0.023018	0.032643	0.020508	0.052561	0.048045	0.018416	0.017982	0.013980	0.014554	0.017633	0.028658	0.027177	0.026212	0.028172	0.045335	0.010079	0.009904	0.017750	0.012164	0.002712	0.012647	0.015727	0.018483	0.012058	0.019937	0.023953	0.023666	0.026460	0.022429	0.028191	0.013604	0.026620	0.021593	0.020269	0.016921	0.009276	0.013729	0.013160	0.016098	0.012957	0.027360
4.855000	0.124590	0.073935	0.057366	0.033265	0.034632	0.088865	0.033175	0.066322	0.052217	0.050180	0.019733	0.031019	0.047915	0.053627	0.068586	0.063205	0.064103	0.048681	0.054859	0.022956	0.034996	0.019727	0.052460	0.048139	0.021735	0.013968	0.013871	0.014330	0.018228	0.026945	0.025833	0.025255	0.027285	0.044619	0.009945	0.008883	0.017265	0.011049	0.003359	0.012634	0.016450	0.018666	0.012058	0.020029	0.022170	0.022071	0.024583	0.020946	0.027381	0.014296	0.025419	0.021173	0.019947	0.016800	0.009028	0.013350	0.012654	0.016278	0.013467	0.027005
4.860000	0.124357	0.074060	0.057071	0.032719	0.034649	0.089743	0.033997	0.067262	0.053841	0.051208	0.020148	0.031715	0.047468	0.053591	0.068553	0.063463	0.064930	0.049796	0.055419	0.023628	0.035287	0.020380	0.053013	0.048342	0.019426	0.016143	0.013027	0.014342	0.017953	0.026789	0.024870	0.024290	0.027465	0.044457	0.010037	0.008857	0.017478	0.010722	0.003684	0.012959	0.016335	0.018895	0.012442	0.020215	0.021102	0.021130	0.023659	0.020029	0.026971	0.014358	0.025282	0.020815	0.019661	0.015439	0.009263	0.013455	0.012718	0.016250	0.013641	0.027258
4.865000	0.124103	0.072395	0.054974	0.032501	0.034478	0.090833	0.035579	0.068982	0.055177	0.052921	0.021187	0.033097	0.045923	0.054266	0.068128	0.063995	0.066427	0.051964	0.056959	0.025148	0.036818	0.020121	0.053459	0.048011	0.019726	0.016040	0.014044	0.014737	0.018257	0.027629	0.025804	0.025340	0.028222	0.044556	0.010155	0.009695	0.017583	0.011366	0.003461	0.012848	0.015623	0.018573	0.012153	0.020670	0.021954	0.021814	0.024661	0.020731	0.026460	0.014839	0.025916	0.021420	0.020127	0.016938	0.009479	0.013530	0.013024	0.016162	0.013216	0.027516
4.870000	0.124540	0.072761	0.054381	0.031776	0.033467	0.091166	0.036271	0.069616	0.056813	0.053605	0.022414	0.032868	0.046679	0.054116	0.068204	0.063856	0.066800	0.053156	0.057723	0.026022	0.037489	0.020454	0.053391	0.047957	0.018211	0.017391	0.013896	0.014827	0.018196	0.027081	0.025323	0.024941	0.028020	0.044226	0.009908	0.009567	0.017358	0.011016	0.003522	0.013206	0.015841	0.018928	0.012523	0.020471	0.020704	0.020536	0.023744	0.019648	0.026437	0.014487	0.025652	0.020901	0.019876	0.015626	0.009295	0.012775	0.012879	0.016059	0.013547	0.027657
4.875000	0.124866	0.072333	0.052943	0.031499	0.033284	0.091168	0.037584	0.071058	0.058781	0.054635	0.023622	0.033628	0.046544	0.054083	0.067338	0.064570	0.067538	0.054721	0.058505	0.026910	0.038601	0.020513	0.053890	0.047904	0.020188	0.015580	0.014347	0.014884	0.018674	0.026651	0.025494	0.024746	0.027876	0.043846	0.009866	0.010360	0.017238	0.011342	0.003751	0.013053	0.015773	0.018702	0.012346	0.020488	0.021248	0.021359	0.024166	0.020106	0.026034	0.015029	0.025650	0.021054	0.020012	0.015279	0.009228	0.013148	0.012637	0.016487	0.013421	0.027660
4.880000	0.124261	0.071548	0.051795	0.031141	0.033560	0.091935	0.039588	0.072432	0.060852	0.055699	0.024715	0.034128	0.045896	0.054184	0.068217	0.065205	0.068232	0.055780	0.059367	0.027733	0.040107	0.020242	0.054353	0.047530	0.018841	0.016882	0.014271	0.014906	0.017787	0.026509	0.025427	0.024356	0.027657	0.043698	0.009827	0.010440	0.016845	0.011326	0.003735	0.013212	0.016159	0.019164	0.012261	0.020666	0.020289	0.020567	0.023420	0.019630	0.025806	0.015212	0.025326	0.021019	0.019945	0.015590	0.009324	0.012810	0.012631	0.016453	0.013635	0.027886
4.885000	0.122758	0.071992	0.047975	0.034570	0.034688	0.092911	0.040428	0.071168	0.060901	0.052881	0.024002	0.031296	0.046655	0.055141	0.068991	0.072109	0.067789	0.055284	0.060356	0.028688	0.044063	0.019509	0.054072	0.046905	0.019932	0.016453	0.014508	0.014516	0.017641	0.026007	0.025154	0.023784	0.027616	0.043240	0.009844	0.010387	0.016762	0.011700	0.003958	0.013729	0.015456	0.018883	0.012407	0.020981	0.020353	0.020896	0.023476	0.019616	0.025743	0.015073	0.025482	0.021196	0.020055	0.015302	0.009230	0.012778	0.012556	0.017029	0.012847	0.028183
4.890000	0.121968	0.070971	0.046065	0.034053	0.033807	0.092595	0.042972	0.072429	0.062574	0.053579	0.024866	0.031457	0.046501	0.055312	0.069293	0.072371	0.068322	0.056472	0.061318	0.029552	0.045437	0.019029	0.054478	0.046477	0.017690	0.020076	0.014612	0.015292	0.018656	0.025174	0.024617	0.022789	0.026911	0.042830	0.009293	0.010124	0.016666	0.011877	0.003994	0.013337	0.015628	0.019117	0.011459	0.021335	0.019903	0.020035	0.022556	0.018960	0.025390	0.015347	0.025192	0.021332	0.020018	0.015354	0.008965	0.012662	0.012239	0.016890	0.012796	0.028344
4.895000	0.120971	0.070152	0.044643	0.033817	0.033498	0.092757	0.045305	0.073238	0.064050	0.054121	0.026004	0.031765	0.046284	0.055817	0.069326	0.072564	0.068823	0.057692	0.062330	0.030443	0.046861	0.019258	0.054429	0.046593	0.020732	0.018061	0.014632	0.014685	0.018833	0.022520	0.022836	0.021762	0.025187	0.042411	0.008826	0.010681	0.016290	0.011921	0.004140	0.013738	0.015355	0.018838	0.011589	0.021231	0.020639	0.020806	0.023289	0.019690	0.025369	0.015498	0.025330	0.021490	0.020165	0.015273	0.008878	0.012739	0.012186	0.017329	0.012520	0.028431
4.900000	0.120629	0.068483	0.041641	0.033693	0.033153	0.093039	0.048792	0.074492	0.065936	0.054860	0.027678	0.032576	0.046013	0.056106	0.069681	0.073365	0.069957	0.059841	0.063718	0.032111	0.048987	0.019053	0.054472	0.046320	0.018336	0.016336	0.014729	0.014305	0.017258	0.024235	0.024532	0.023173	0.026579	0.042415	0.009900	0.011379	0.016467	0.012634	0.003977	0.013526	0.014867	0.018848	0.012323	0.021565	0.019948	0.020483	0.022981	0.019412	0.025001	0.015791	0.025803	0.021621	0.020132	0.015400	0.009043	0.012622	0.012779	0.016960	0.012392	0.028673
4.905000	0.119065	0.067248	0.039628	0.033986	0.032631	0.093133	0.052126	0.075193	0.067340	0.054871	0.027636	0.032581	0.046179	0.056482	0.069961	0.074289	0.070419	0.060791	0.064573	0.033069	0.050278	0.018962	0.054479	0.045851	0.018018	0.017060	0.015260	0.015015	0.018662	0.022703	0.022991	0.022048	0.025257	0.041841	0.009550	0.011099	0.016076	0.011653	0.003658	0.014042	0.014556	0.018893	0.012153	0.021891	0.019959	0.020897	0.022823	0.019206	0.024789	0.015291	0.025618	0.021654	0.020189	0.015270	0.009252	0.012579	0.012616	0.017265	0.012225	0.029049
4.910000	0.117764	0.066197	0.037531	0.034329	0.032679	0.093281	0.056111	0.076073	0.069139	0.055159	0.029617	0.032775	0.045993	0.056948	0.070598	0.075029	0.071728	0.062522	0.065671	0.034317	0.051814	0.019077	0.054414	0.045469	0.017606	0.017580	0.014982	0.014633	0.018505	0.022597	0.023014	0.022250	0.024991	0.041703	0.010087	0.011447	0.016005	0.011388	0.003510	0.014321	0.014628	0.019064	0.011930	0.022370	0.020042	0.020640	0.022920	0.019680	0.024414	0.016060	0.025830	0.021887	0.020506	0.015486	0.009334	0.012152	0.013090	0.017457	0.012224	0.029186
4.915000	0.116255	0.064887	0.035196	0.034866	0.031998	0.092726	0.059555	0.077196	0.070424	0.054999	0.030011	0.032761	0.045750	0.057682	0.071065	0.075648	0.072583	0.063740	0.066669	0.035501	0.053105	0.019022	0.054163	0.045376	0.017959	0.017828	0.015111	0.014614	0.018416	0.021728	0.022078	0.021259	0.024260	0.041327	0.010114	0.012003	0.015944	0.011261	0.003385	0.014567	0.014363	0.018980	0.012119	0.022428	0.019707	0.020476	0.022490	0.019257	0.024277	0.016232	0.025550	0.021585	0.020216	0.015125	0.009291	0.012003	0.013118	0.017689	0.012158	0.029423
4.920000	0.114628	0.063447	0.032664	0.035431	0.031246	0.092735	0.063671	0.077970	0.071742	0.054990	0.031049	0.032838	0.045830	0.058197	0.071191	0.076442	0.073752	0.065255	0.068132	0.036864	0.054465	0.019543	0.053858	0.044650	0.018291	0.019227	0.015079	0.014408	0.018192	0.021789	0.022320	0.021217	0.024714	0.041128	0.011119	0.012194	0.015423	0.012377	0.003626	0.014606	0.013888	0.019086	0.011755	0.022599	0.019349	0.020230	0.022023	0.018801	0.024244	0.015227	0.025548	0.021529	0.020203	0.014986	0.009828	0.012428	0.013555	0.018144	0.013279	0.029736
4.925000	0.112565	0.062006	0.030694	0.036225	0.030612	0.092571	0.067526	0.078554	0.072885	0.054539	0.031702	0.032754	0.045506	0.058677	0.071709	0.077133	0.074520	0.066742	0.068995	0.037929	0.055469	0.020155	0.053916	0.044659	0.018940	0.018675	0.015106	0.013690	0.018344	0.021233	0.021485	0.021230	0.023619	0.040723	0.010875	0.012332	0.015353	0.011783	0.003628	0.014929	0.013697	0.019019	0.011651	0.023402	0.018856	0.019511	0.021486	0.018527	0.024388	0.016494	0.025303	0.021488	0.020060	0.014928	0.009743	0.012410	0.013819	0.018143	0.013232	0.030043
4.930000	0.110076	0.060233	0.028573	0.037506	0.030392	0.092070	0.071745	0.079315	0.073954	0.054403	0.031479	0.032691	0.046074	0.059127	0.071664	0.077692	0.075462	0.068310	0.069792	0.038939	0.056301	0.020201	0.053820	0.043510	0.019072	0.018511	0.015494	0.013526	0.018105	0.020340	0.021084	0.020547	0.023194	0.040888	0.011972	0.012370	0.015444	0.011626	0.003472	0.015395	0.013284	0.018888	0.012859	0.023740	0.018422	0.019195	0.020860	0.017913	0.023998	0.016082	0.024916	0.021343	0.019921	0.014883	0.009735	0.011505	0.014357	0.018155	0.013039	0.030335
4.935000	0.107799	0.059073	0.027097	0.038734	0.029818	0.091832	0.076463	0.079632	0.074902	0.053814	0.032073	0.032350	0.045795	0.060137	0.072066	0.078268	0.076214	0.069400	0.070468	0.039639	0.057044	0.021074	0.052919	0.044012	0.018575	0.018629	0.015691	0.013193	0.017666	0.019479	0.019968	0.019696	0.022346	0.040405	0.012227	0.011905	0.014756	0.011144	0.003752	0.015464	0.013278	0.018981	0.012811	0.024218	0.017760	0.018462	0.020181	0.017597	0.024072	0.015898	0.024497	0.021151	0.019823	0.014624	0.010321	0.011711	0.014734	0.018127	0.011693	0.030580
4.940000	0.105614	0.057117	0.025628	0.040007	0.031756	0.091460	0.080798	0.079881	0.075823	0.053109	0.033091	0.032663	0.045957	0.060167	0.072281	0.078701	0.076931	0.070649	0.070944	0.040227	0.057972	0.021086	0.052892	0.043232	0.018841	0.019057	0.015618	0.013600	0.018270	0.019269	0.019313	0.018969	0.021953	0.040405	0.013530	0.011970	0.014481	0.011197	0.003498	0.016080	0.012957	0.018901	0.012763	0.024523	0.016988	0.018219	0.019445	0.016653	0.024214	0.015938	0.024167	0.020873	0.019473	0.014280	0.010716	0.011975	0.015197	0.018068	0.011591	0.031140
4.945000	0.102779	0.055696	0.025092	0.041599	0.030969	0.091522	0.085543	0.080717	0.076931	0.052630	0.033877	0.032925	0.045966	0.060753	0.072187	0.079127	0.077445	0.072217	0.071385	0.040897	0.058609	0.022010	0.052390	0.043069	0.019170	0.018806	0.015671	0.014410	0.018895	0.018764	0.018757	0.018453	0.020966	0.040151	0.013690	0.011643	0.013829	0.010672	0.003115	0.016681	0.012857	0.018933	0.010466	0.025199	0.016312	0.017785	0.018308	0.016588	0.024181	0.016193	0.023811	0.020809	0.019353	0.014104	0.010894	0.011053	0.015962	0.017957	0.011827	0.031560
4.950000	0.101290	0.053908	0.024232	0.042845	0.028342	0.091590	0.090255	0.081129	0.078695	0.051983	0.034397	0.033686	0.045979	0.060905	0.071877	0.079871	0.078344	0.073192	0.071665	0.041689	0.059307	0.022596	0.052019	0.042596	0.019203	0.019047	0.015976	0.014556	0.018485	0.018403	0.018063	0.017541	0.020225	0.040005	0.014656	0.012181	0.013616	0.010258	0.003571	0.017344	0.012149	0.018747	0.012548	0.025426	0.015889	0.017215	0.017945	0.016408	0.024569	0.016109	0.022971	0.020263	0.019051	0.013802	0.011456	0.011106	0.017085	0.017854	0.011898	0.032173
4.955000	0.098534	0.051546	0.023436	0.044220	0.027466	0.091730	0.094621	0.081926	0.080098	0.051849	0.035203	0.034587	0.045594	0.061223	0.071412	0.080043	0.078975	0.074618	0.072023	0.042399	0.059519	0.023571	0.051741	0.042756	0.019177	0.018749	0.015671	0.013939	0.018230	0.017255	0.017245	0.016303	0.019338	0.039446	0.015545	0.011776	0.012811	0.010144	0.003570	0.018073	0.011998	0.018375	0.013476	0.026189	0.015330	0.016841	0.017219	0.016127	0.024501	0.016078	0.022888	0.020140	0.018824	0.013532	0.012028	0.011228	0.017938	0.017878	0.011463	0.032794
4.960000	0.098542	0.047504	0.023893	0.039272	0.022405	0.091241	0.094420	0.084554	0.083657	0.057200	0.039213	0.039037	0.044820	0.061554	0.068810	0.077301	0.079950	0.077878	0.070351	0.042619	0.054008	0.026911	0.053190	0.045165	0.019735	0.019004	0.016192	0.013542	0.017756	0.016235	0.016149	0.015433	0.017846	0.039480	0.014761	0.010334	0.011327	0.009353	0.003314	0.019565	0.011996	0.018030	0.011014	0.027437	0.014339	0.016145	0.016142	0.015374	0.025164	0.016096	0.021697	0.019134	0.018153	0.012678	0.012778	0.011718	0.019077	0.017558	0.011794	0.033850
4.965000	0.095882	0.045719	0.023531	0.042200	0.023482	0.091720	0.099049	0.083968	0.084015	0.055631	0.039891	0.039446	0.045522	0.061553	0.068856	0.078657	0.080130	0.078824	0.070057	0.043034	0.053877	0.027991	0.052581	0.045181	0.020225	0.019213	0.015921	0.013926	0.018463	0.014973	0.014973	0.013844	0.016313	0.039623	0.014804	0.008987	0.010004	0.008758	0.003525	0.020221	0.011232	0.017666	0.013579	0.027649	0.013210	0.015201	0.015301	0.014780	0.026047	0.016748	0.020568	0.018535	0.017357	0.012181	0.013558	0.010885	0.020170	0.016267	0.012889	0.035286
4.970000	0.094258	0.042988	0.024751	0.042641	0.019746	0.092364	0.101182	0.085395	0.085880	0.057225	0.041185	0.041339	0.044919	0.061398	0.067392	0.079989	0.080777	0.080119	0.069067	0.043453	0.052098	0.029457	0.053154	0.046186	0.020181	0.019370	0.015741	0.013757	0.018015	0.013738	0.013564	0.012375	0.014659	0.039212	0.014018	0.007766	0.008334	0.006946	0.003527	0.020927	0.010528	0.018313	0.013829	0.028538	0.012468	0.014439	0.014268	0.014171	0.025962	0.015760	0.018885	0.017783	0.016583	0.011271	0.014400	0.011487	0.021362	0.015597	0.013039	0.036450
4.975000	0.091687	0.041734	0.025016	0.045867	0.019580	0.092951	0.105224	0.084806	0.086094	0.055442	0.042169	0.041667	0.046418	0.060987	0.067968	0.081373	0.080544	0.080603	0.068425	0.043902	0.051695	0.030228	0.052637	0.047030	0.020737	0.019513	0.015619	0.013388	0.017266	0.013136	0.012626	0.011472	0.012963	0.039050	0.012297	0.006222	0.006570	0.005002	0.003343	0.021388	0.009039	0.016322	0.014214	0.030309	0.010927	0.013364	0.012906	0.012900	0.026285	0.015570	0.016565	0.016353	0.015238	0.010391	0.015286	0.012655	0.022351	0.015016	0.014728	0.037378
4.980000	0.088880	0.039971	0.025174	0.048554	0.019187	0.093441	0.108221	0.084935	0.086841	0.054915	0.042614	0.042647	0.045945	0.061570	0.067764	0.082328	0.081291	0.081618	0.068308	0.044025	0.051300	0.030098	0.054264	0.045754	0.021162	0.019716	0.015499	0.013169	0.016664	0.011746	0.011162	0.010091	0.010964	0.039347	0.010948	0.004310	0.004590	0.004030	0.003786	0.020733	0.008420	0.017538	0.016390	0.029326	0.009733	0.012220	0.011460	0.011262	0.026487	0.014700	0.013679	0.014399	0.013555	0.009498	0.015434	0.010824	0.022752	0.013962	0.017125	0.038408
4.985000	0.085636	0.037197	0.026331	0.049610	0.018253	0.094052	0.108921	0.085479	0.087863	0.056052	0.043842	0.044631	0.046070	0.061290	0.066839	0.083905	0.081662	0.082359	0.067037	0.044145	0.048899	0.031346	0.054222	0.047112	0.021603	0.020635	0.015179	0.012882	0.016231	0.010878	0.009855	0.009607	0.008739	0.040234	0.007745	0.003146	0.004232	0.004006	0.005015	0.018986	0.008050	0.018390	0.016477	0.028199	0.008354	0.011277	0.009906	0.009810	0.028152	0.012903	0.009936	0.012728	0.011429	0.008417	0.015344	0.010348	0.021712	0.012552	0.020322	0.038037
4.990000	0.082257	0.035498	0.026348	0.052066	0.018772	0.093970	0.110676	0.085074	0.088021	0.055100	0.044048	0.045111	0.046469	0.061705	0.066485	0.084271	0.081682	0.082644	0.066276	0.044264	0.047876	0.031681	0.054210	0.047513	0.022185	0.021266	0.014772	0.011527	0.012854	0.009957	0.008712	0.008514	0.007048	0.042229	0.005236	0.003460	0.005387	0.005807	0.007090	0.015293	0.008619	0.020362	0.020150	0.026447	0.007574	0.009978	0.008540	0.007923	0.030582	0.011174	0.006031	0.010433	0.009166	0.007419	0.013637	0.009784	0.020615	0.014697	0.022270	0.036522
4.995000	0.077569	0.032996	0.025177	0.054094	0.019318	0.092788	0.111703	0.084240	0.087688	0.054395	0.044086	0.045128	0.046595	0.061775	0.066833	0.084112	0.081533	0.082624	0.065572	0.043099	0.046655	0.031863	0.054472	0.047430	0.023538	0.021521	0.015034	0.011261	0.013148	0.009110	0.007862	0.009469	0.006321	0.047048	0.011440	0.005612	0.008768	0.009050	0.010950	0.009669	0.011298	0.020217	0.019453	0.025507	0.007429	0.009328	0.007562	0.007957	0.034684	0.011309	0.003594	0.008416	0.007770	0.006807	0.011496	0.009236	0.018686	0.015917	0.023566	0.034066
5.000000	0.073322	0.031131	0.023521	0.055313	0.020208	0.091340	0.111929	0.083403	0.087155	0.053073	0.044368	0.045699	0.046961	0.062608	0.065887	0.082820	0.081477	0.082473	0.065166	0.043186	0.044900	0.032016	0.054696	0.047497	0.023801	0.022023	0.014467	0.010794	0.012684	0.008631	0.007567	0.010667	0.006818	0.054283	0.021062	0.008401	0.012490	0.012164	0.015446	0.005946	0.015181	0.019935	0.019453	0.024512	0.006856	0.008429	0.007039	0.009122	0.039791	0.015690	0.005408	0.007249	0.007595	0.006855	0.010383	0.008689	0.018556	0.018820	0.024590	0.032274
5.005000	0.068718	0.029175	0.021132	0.055198	0.021979	0.089121	0.110846	0.082269	0.086257	0.052044	0.043998	0.045790	0.047081	0.062857	0.065729	0.080484	0.080918	0.081428	0.064129	0.042069	0.042789	0.031680	0.055277	0.047005	0.023971	0.022623	0.013914	0.011014	0.011930	0.008846	0.008890	0.014842	0.009616	0.064257	0.031150	0.012622	0.016818	0.015728	0.017969	0.005227	0.015565	0.022647	0.017800	0.022541	0.006643	0.007871	0.007473	0.011938	0.044174	0.022753	0.007997	0.007660	0.008949	0.007957	0.011231	0.008486	0.019938	0.019941	0.024659	0.031960
5.010000	0.064752	0.027301	0.018314	0.053877	0.020596	0.086340	0.108650	0.081320	0.085109	0.051201	0.042854	0.045571	0.046820	0.063635	0.064737	0.078167	0.080428	0.080285	0.063189	0.040694	0.040484	0.031317	0.055908	0.046758	0.023773	0.022286	0.013304	0.010390	0.011186	0.009608	0.011256	0.019354	0.011832	0.068962	0.034037	0.015511	0.019475	0.018121	0.018523	0.007060	0.012771	0.022900	0.018015	0.022524	0.006799	0.006897	0.008219	0.013848	0.046905	0.029277	0.010580	0.008314	0.010152	0.009530	0.013121	0.008518	0.022010	0.019666	0.023206	0.033631
5.015000	0.061345	0.025546	0.015858	0.052162	0.020671	0.083182	0.105755	0.079986	0.083619	0.050254	0.041844	0.044902	0.046589	0.064175	0.063913	0.074463	0.079215	0.078376	0.061874	0.039389	0.038065	0.031015	0.056267	0.046505	0.022939	0.021836	0.014150	0.011214	0.011855	0.009078	0.012246	0.021662	0.011517	0.066309	0.033750	0.015744	0.018858	0.017363	0.016587	0.009139	0.009757	0.019128	0.016591	0.025828	0.009011	0.003857	0.007585	0.013007	0.046764	0.032369	0.012462	0.008982	0.011495	0.010951	0.014280	0.007884	0.023384	0.019407	0.019125	0.036731
5.020000	0.059295	0.023685	0.014299	0.049136	0.019669	0.081116	0.101768	0.078272	0.082110	0.049955	0.040970	0.044529	0.046846	0.063945	0.063243	0.072060	0.077398	0.076012	0.059285	0.037857	0.035476	0.031134	0.056509	0.047603	0.022039	0.021288	0.015298	0.012028	0.012715	0.009036	0.011816	0.021025	0.009060	0.060672	0.030714	0.013536	0.017398	0.014653	0.013925	0.013616	0.007443	0.015879	0.012842	0.030587	0.012627	0.002845	0.007457	0.009037	0.045071	0.031947	0.012576	0.008992	0.011653	0.011096	0.015522	0.006454	0.024836	0.017227	0.018558	0.039640
5.025000	0.057445	0.022301	0.011762	0.046621	0.018665	0.079640	0.098783	0.076536	0.080103	0.048765	0.039911	0.043967	0.046939	0.064447	0.062987	0.069296	0.075390	0.073478	0.057284	0.036038	0.033961	0.030655	0.057065	0.047897	0.021920	0.020488	0.017582	0.013070	0.014037	0.009743	0.012124	0.018713	0.007613	0.053441	0.024896	0.010671	0.014663	0.011228	0.010459	0.015673	0.006850	0.011485	0.010923	0.034764	0.017011	0.007542	0.009864	0.005864	0.042405	0.029783	0.011844	0.008254	0.011111	0.010744	0.017169	0.006260	0.024847	0.014850	0.015281	0.042592
5.030000	0.056548	0.021295	0.009551	0.044230	0.017157	0.078775	0.095904	0.074781	0.078036	0.047423	0.039050	0.043547	0.047303	0.064194	0.063221	0.066883	0.073954	0.071424	0.055398	0.034440	0.032929	0.030540	0.056737	0.048634	0.021418	0.020354	0.019635	0.014179	0.015585	0.010638	0.011755	0.016411	0.007480	0.047030	0.018210	0.007247	0.011138	0.008509	0.008437	0.015326	0.006620	0.009085	0.009700	0.038816	0.019864	0.012787	0.013089	0.006721	0.038803	0.026353	0.010502	0.007076	0.010036	0.010003	0.017480	0.007040	0.025856	0.014644	0.013416	0.043133
5.035000	0.055998	0.019944	0.007810	0.041948	0.015902	0.077750	0.092724	0.073488	0.075992	0.046316	0.038591	0.043488	0.047627	0.064389	0.062208	0.065306	0.072022	0.068997	0.053321	0.033620	0.032863	0.030907	0.056716	0.049436	0.021419	0.021330	0.020670	0.013911	0.016156	0.009628	0.010288	0.012796	0.006601	0.043517	0.012398	0.004751	0.007897	0.009700	0.008825	0.014517	0.007408	0.011644	0.012700	0.041982	0.021062	0.015047	0.014806	0.009260	0.035450	0.022403	0.008905	0.006049	0.008603	0.008623	0.018164	0.009457	0.027457	0.016592	0.011363	0.042128
5.040000	0.055580	0.018698	0.006977	0.040397	0.014411	0.077146	0.090679	0.072313	0.074500	0.045394	0.038654	0.043442	0.047960	0.064183	0.062219	0.063966	0.070470	0.067152	0.051083	0.032757	0.032720	0.031133	0.056796	0.050305	0.021019	0.021732	0.020974	0.013528	0.016567	0.007615	0.007820	0.010115	0.005441	0.043288	0.009599	0.004687	0.006079	0.008708	0.010550	0.011473	0.008144	0.015824	0.017859	0.042445	0.019609	0.014410	0.013917	0.010437	0.033080	0.018801	0.007872	0.004581	0.007113	0.007413	0.018471	0.010965	0.027464	0.018054	0.011652	0.041294
5.045000	0.055028	0.018110	0.007107	0.039398	0.012936	0.076097	0.088561	0.071131	0.072907	0.044383	0.039424	0.043698	0.048255	0.063705	0.061594	0.063101	0.068858	0.065403	0.049234	0.032390	0.032784	0.031647	0.056461	0.051324	0.020871	0.021543	0.020262	0.012519	0.016200	0.005924	0.006379	0.007988	0.004801	0.043674	0.008836	0.005046	0.006134	0.010065	0.011473	0.009656	0.008000	0.020531	0.022734	0.041999	0.016603	0.012189	0.011421	0.009642	0.031976	0.017166	0.007309	0.004185	0.006416	0.007032	0.017919	0.011379	0.026419	0.020153	0.013835	0.041002
5.050000	0.054750	0.017624	0.007515	0.039170	0.011957	0.075275	0.087347	0.070286	0.072176	0.044049	0.040552	0.043973	0.048148	0.063756	0.061466	0.062084	0.067683	0.064106	0.047575	0.032495	0.033169	0.031891	0.056572	0.052369	0.020248	0.021862	0.019100	0.009941	0.015038	0.005096	0.005237	0.006777	0.005262	0.045380	0.009705	0.005210	0.007784	0.010966	0.012087	0.010147	0.009476	0.023527	0.023398	0.040666	0.013219	0.009575	0.008463	0.008381	0.031632	0.016915	0.007425	0.005070	0.006926	0.006629	0.016249	0.011769	0.024048	0.022342	0.015970	0.040891
5.055000	0.054066	0.017535	0.008227	0.039707	0.011229	0.073675	0.086657	0.070324	0.071793	0.043978	0.042063	0.044821	0.048342	0.063443	0.061874	0.061370	0.066910	0.063385	0.046613	0.032532	0.033665	0.031989	0.056576	0.052426	0.019794	0.021737	0.017585	0.009965	0.014223	0.005672	0.005300	0.006873	0.006568	0.046261	0.010242	0.004702	0.009822	0.011239	0.013866	0.012165	0.011174	0.024976	0.024621	0.039752	0.010472	0.007087	0.006103	0.007304	0.032259	0.017210	0.007629	0.007221	0.008033	0.006886	0.014806	0.011404	0.021369	0.024161	0.017904	0.040666
5.060000	0.053676	0.017556	0.009336	0.040833	0.010630	0.072821	0.086437	0.070764	0.072233	0.044842	0.043685	0.045632	0.047252	0.063215	0.062348	0.061496	0.066738	0.063444	0.046892	0.032796	0.033991	0.031889	0.056802	0.052548	0.018968	0.021266	0.014910	0.008399	0.012262	0.007144	0.005863	0.006844	0.007985	0.046900	0.009593	0.004531	0.012089	0.011751	0.015113	0.013638	0.013069	0.024530	0.024406	0.038897	0.008845	0.006016	0.004200	0.007853	0.033014	0.015431	0.007149	0.009052	0.008678	0.006870	0.014302	0.011458	0.020201	0.024827	0.019667	0.039808
5.065000	0.053306	0.017614	0.010061	0.042109	0.010768	0.072166	0.086308	0.071611	0.072860	0.045941	0.044653	0.045786	0.047479	0.063263	0.062599	0.061339	0.066733	0.063822	0.047336	0.032647	0.033744	0.031474	0.057329	0.051753	0.018521	0.020720	0.012706	0.007703	0.011185	0.008380	0.006415	0.006977	0.008875	0.048141	0.009874	0.005101	0.012964	0.011203	0.015394	0.013614	0.014169	0.022961	0.023152	0.037987	0.008492	0.006809	0.004742	0.009615	0.034080	0.013950	0.006813	0.011282	0.009645	0.006967	0.014067	0.011525	0.019678	0.024980	0.020260	0.038913
5.070000	0.052663	0.017747	0.011181	0.043262	0.011284	0.072018	0.086507	0.072405	0.073439	0.047227	0.045049	0.045648	0.047378	0.062960	0.062802	0.061469	0.067182	0.064489	0.048374	0.032782	0.033236	0.031039	0.057469	0.050560	0.017827	0.019865	0.010572	0.007954	0.010270	0.009281	0.006405	0.006733	0.009029	0.049664	0.011696	0.005302	0.013602	0.010148	0.014488	0.012811	0.014145	0.020971	0.020469	0.036498	0.008706	0.007650	0.004741	0.010823	0.035348	0.012928	0.007508	0.012572	0.010813	0.006632	0.014262	0.011447	0.019656	0.023583	0.020761	0.037892
5.075000	0.052559	0.018272	0.011686	0.044128	0.012231	0.072904	0.086859	0.072772	0.074013	0.048219	0.045442	0.045633	0.047319	0.063296	0.062548	0.061872	0.067437	0.064599	0.049035	0.033173	0.032700	0.030075	0.058213	0.049027	0.016320	0.018452	0.009343	0.008212	0.010063	0.009109	0.006231	0.006520	0.008826	0.049955	0.012245	0.005671	0.014381	0.010829	0.014395	0.011463	0.014558	0.018883	0.018061	0.035469	0.008766	0.007722	0.005549	0.010977	0.036119	0.013201	0.008839	0.013328	0.011794	0.006822	0.014376	0.010581	0.019572	0.021606	0.019750	0.037081
5.080000	0.052602	0.018411	0.012160	0.044417	0.012815	0.073788	0.086984	0.073259	0.074675	0.049118	0.045549	0.045363	0.047196	0.063156	0.062358	0.062010	0.067748	0.065244	0.050168	0.033631	0.031886	0.029737	0.058289	0.047906	0.015575	0.017081	0.008657	0.008231	0.009683	0.008614	0.005787	0.006739	0.008425	0.050296	0.013591	0.006756	0.013984	0.011434	0.014792	0.009930	0.014691	0.017290	0.016072	0.035199	0.007740	0.006919	0.004880	0.011226	0.036611	0.014841	0.010003	0.012860	0.011845	0.006908	0.014419	0.010134	0.019625	0.018965	0.019264	0.036571
5.085000	0.054676	0.019168	0.012960	0.044234	0.014231	0.075483	0.086442	0.073528	0.074653	0.050124	0.045361	0.044860	0.047004	0.063353	0.061701	0.062387	0.068137	0.065582	0.051136	0.033902	0.031658	0.029346	0.058283	0.046691	0.014870	0.015763	0.007932	0.008755	0.008988	0.008459	0.006105	0.006310	0.008152	0.050514	0.014295	0.007449	0.013252	0.012795	0.015400	0.009209	0.014549	0.015608	0.014044	0.035724	0.007316	0.005328	0.003175	0.009761	0.036537	0.017433	0.009718	0.011269	0.011144	0.007711	0.014427	0.009263	0.019508	0.018225	0.019369	0.036380
5.090000	0.055682	0.019546	0.012939	0.043767	0.014628	0.076508	0.085940	0.072598	0.074113	0.050649	0.045301	0.044071	0.046972	0.063490	0.061479	0.062153	0.067758	0.065079	0.051163	0.033288	0.031286	0.029101	0.057880	0.045765	0.014416	0.015997	0.007913	0.009187	0.008557	0.008277	0.006547	0.007343	0.008790	0.052264	0.015609	0.008486	0.012222	0.013709	0.016414	0.009048	0.014262	0.015588	0.013454	0.036409	0.008709	0.004110	0.002443	0.008713	0.036520	0.020387	0.009582	0.009554	0.010875	0.008330	0.014380	0.008192	0.020201	0.018398	0.019823	0.035786
5.095000	0.057050	0.020054	0.013022	0.042908	0.015308	0.077926	0.084460	0.072819	0.074081	0.051036	0.043949	0.042876	0.046331	0.063441	0.060832	0.061806	0.068025	0.065485	0.051798	0.032408	0.030662	0.028224	0.057883	0.044673	0.014671	0.015454	0.008428	0.010082	0.007824	0.008522	0.007244	0.007657	0.008916	0.052165	0.015756	0.009828	0.013054	0.014658	0.017757	0.009059	0.013726	0.015677	0.013514	0.037317	0.010570	0.005384	0.003877	0.008437	0.037279	0.022912	0.009769	0.008546	0.010780	0.009711	0.013864	0.007728	0.020563	0.018153	0.019742	0.036127
5.100000	0.058482	0.020595	0.012442	0.041997	0.015533	0.078865	0.082932	0.072671	0.073414	0.051019	0.042850	0.041597	0.046189	0.063634	0.060965	0.061050	0.067912	0.064785	0.051535	0.032075	0.030696	0.028017	0.056908	0.043886	0.015656	0.014489	0.009090	0.010674	0.007433	0.008473	0.007585	0.008095	0.009424	0.052282	0.015485	0.011531	0.013213	0.015614	0.018439	0.009275	0.013435	0.016403	0.013977	0.038183	0.012490	0.006989	0.005585	0.008972	0.038292	0.024593	0.011143	0.008305	0.011773	0.011204	0.013432	0.007110	0.020457	0.017859	0.019491	0.036531
5.105000	0.059368	0.020891	0.012199	0.040616	0.015114	0.078989	0.080239	0.072091	0.072368	0.050778	0.041331	0.040997	0.046088	0.063767	0.060507	0.060132	0.067208	0.063963	0.050826	0.031139	0.030208	0.027915	0.056228	0.043708	0.015764	0.015555	0.009637	0.010990	0.007439	0.008761	0.007931	0.008184	0.009773	0.052697	0.015139	0.011691	0.013461	0.015764	0.018670	0.009442	0.013424	0.017731	0.014983	0.038596	0.013742	0.008027	0.006510	0.009421	0.038775	0.024141	0.012578	0.008480	0.012757	0.013092	0.013220	0.006491	0.020222	0.017586	0.019192	0.037248
5.110000	0.059815	0.021057	0.011624	0.039332	0.014477	0.079144	0.077363	0.071053	0.071222	0.049976	0.040214	0.040239	0.045512	0.064075	0.060981	0.058600	0.066284	0.063070	0.049873	0.030271	0.029688	0.027708	0.055343	0.042802	0.016879	0.015322	0.010404	0.010769	0.007711	0.009392	0.008357	0.008479	0.010386	0.052654	0.014322	0.011628	0.013643	0.018644	0.019002	0.010180	0.013967	0.018788	0.015736	0.039431	0.014427	0.008761	0.007287	0.009505	0.038794	0.023046	0.013767	0.008648	0.013384	0.014320	0.012921	0.006643	0.019114	0.016612	0.018659	0.037773
5.115000	0.059674	0.021058	0.011048	0.037876	0.013186	0.078619	0.073802	0.069900	0.069785	0.049036	0.038526	0.039597	0.046143	0.064326	0.061251	0.057159	0.065419	0.061766	0.048689	0.029872	0.029607	0.027863	0.054169	0.043163	0.017868	0.015169	0.011067	0.010315	0.008284	0.010006	0.008804	0.008736	0.010875	0.053099	0.013702	0.010957	0.014133	0.016561	0.018730	0.011535	0.014765	0.019550	0.015971	0.039026	0.014341	0.008698	0.007184	0.009733	0.038895	0.021057	0.013707	0.008771	0.013580	0.015186	0.012387	0.006666	0.018041	0.016631	0.018592	0.038006
5.120000	0.059432	0.021220	0.010828	0.036867	0.012106	0.078378	0.071821	0.069031	0.068225	0.048002	0.037390	0.039119	0.046435	0.064686	0.061488	0.055609	0.064395	0.060801	0.047386	0.028827	0.029309	0.028408	0.053190	0.044019	0.017252	0.015640	0.011633	0.009857	0.008825	0.010136	0.008918	0.008017	0.011110	0.052624	0.012904	0.010584	0.014967	0.016552	0.019240	0.013129	0.016337	0.019366	0.016245	0.039210	0.013891	0.008838	0.007112	0.009927	0.038652	0.019602	0.013033	0.009249	0.013372	0.015055	0.012969	0.007869	0.016756	0.016645	0.018469	0.038119
5.125000	0.058440	0.021255	0.010276	0.035779	0.010982	0.077851	0.069003	0.068071	0.066992	0.047037	0.036405	0.038945	0.046126	0.064441	0.062012	0.054280	0.063673	0.059964	0.046107	0.028829	0.029106	0.028355	0.052665	0.044576	0.016551	0.016453	0.012050	0.009384	0.009196	0.010286	0.008709	0.007799	0.010839	0.052583	0.012166	0.009879	0.015062	0.015798	0.019677	0.014861	0.017176	0.018446	0.015995	0.038886	0.013221	0.008549	0.006485	0.010479	0.038138	0.017749	0.012006	0.009407	0.012804	0.014166	0.013066	0.008655	0.016405	0.016670	0.018837	0.038034
5.130000	0.056806	0.021081	0.010117	0.034709	0.010107	0.076401	0.066629	0.067551	0.066337	0.046260	0.035851	0.038789	0.046794	0.064160	0.061975	0.053095	0.063141	0.059117	0.045050	0.028018	0.029152	0.028863	0.052366	0.045226	0.016855	0.016095	0.012163	0.008912	0.009344	0.010273	0.008127	0.006520	0.010076	0.051980	0.011657	0.009906	0.015340	0.016090	0.019639	0.015825	0.018883	0.016956	0.015418	0.038674	0.012645	0.008006	0.005866	0.010351	0.037641	0.016736	0.010907	0.009907	0.012475	0.012307	0.013963	0.010301	0.016245	0.016117	0.019489	0.038262
5.135000	0.055110	0.021136	0.010034	0.033811	0.009444	0.075147	0.064858	0.066915	0.065511	0.045424	0.035485	0.038727	0.046984	0.063929	0.062260	0.051944	0.062915	0.058715	0.044123	0.028016	0.029122	0.028989	0.052347	0.045806	0.016488	0.016206	0.012363	0.008395	0.009812	0.009585	0.007881	0.005832	0.008848	0.050965	0.011193	0.009856	0.015438	0.015871	0.020119	0.017358	0.020243	0.015528	0.015398	0.038990	0.011857	0.007299	0.005035	0.009745	0.036940	0.015451	0.009752	0.010268	0.012030	0.010947	0.014826	0.011210	0.016919	0.015711	0.019857	0.038493
5.140000	0.053839	0.021477	0.010307	0.033223	0.008684	0.074147	0.063729	0.066770	0.064979	0.044871	0.035357	0.038882	0.047286	0.064221	0.062090	0.050909	0.062580	0.058391	0.043598	0.028017	0.028939	0.029276	0.052511	0.045919	0.017497	0.016063	0.012140	0.008043	0.010151	0.008931	0.007050	0.005644	0.007829	0.050529	0.010834	0.009737	0.016049	0.015730	0.021159	0.018394	0.020897	0.013597	0.014930	0.039480	0.010851	0.006458	0.004235	0.008696	0.035906	0.014661	0.008645	0.010539	0.011928	0.009865	0.015566	0.011614	0.017351	0.015034	0.020309	0.038829
5.145000	0.051186	0.021151	0.010694	0.032787	0.008053	0.072618	0.062781	0.066683	0.064462	0.044256	0.035693	0.038957	0.047427	0.064233	0.062002	0.049897	0.062259	0.058022	0.042762	0.027909	0.028549	0.029346	0.052661	0.046252	0.017598	0.015963	0.012029	0.008090	0.009804	0.008315	0.006127	0.004291	0.007220	0.050239	0.010853	0.010070	0.016284	0.015583	0.021401	0.018415	0.021543	0.011928	0.014609	0.039602	0.009953	0.005662	0.004072	0.007141	0.035082	0.013559	0.006963	0.010522	0.011467	0.008573	0.015773	0.012064	0.017807	0.014187	0.021324	0.039338
5.150000	0.049939	0.021572	0.011296	0.032327	0.008104	0.071610	0.061881	0.066678	0.064525	0.043820	0.036151	0.039024	0.047641	0.064073	0.061789	0.049067	0.062266	0.057984	0.042641	0.027954	0.028453	0.029351	0.053014	0.045840	0.016554	0.015411	0.011518	0.008120	0.010000	0.006406	0.005196	0.004661	0.006337	0.049516	0.009913	0.009827	0.014428	0.015813	0.021684	0.019027	0.022352	0.009591	0.015015	0.039615	0.009860	0.005025	0.004156	0.006575	0.034917	0.013114	0.006403	0.010482	0.010676	0.007924	0.016273	0.012311	0.017803	0.014104	0.021881	0.039588
5.155000	0.048789	0.021410	0.011616	0.031802	0.008153	0.070704	0.060776	0.066926	0.064577	0.043550	0.036321	0.038786	0.048373	0.063627	0.061739	0.048785	0.061863	0.057619	0.042025	0.027688	0.027795	0.030230	0.052611	0.046187	0.016796	0.015274	0.011447	0.008277	0.009680	0.005478	0.004871	0.005142	0.006497	0.049636	0.009568	0.009489	0.015331	0.015383	0.022401	0.019328	0.023047	0.008074	0.015102	0.039280	0.010249	0.005363	0.004960	0.005860	0.034968	0.013726	0.005986	0.009781	0.010347	0.007613	0.016319	0.012346	0.018177	0.014020	0.022420	0.039395
5.160000	0.049043	0.021513	0.011620	0.031045	0.008761	0.070853	0.060747	0.066826	0.064387	0.043077	0.036874	0.039429	0.048408	0.063724	0.061722	0.047993	0.061650	0.057142	0.041756	0.027324	0.027330	0.029379	0.053440	0.045168	0.017151	0.014965	0.010463	0.008574	0.008711	0.005063	0.004549	0.005246	0.006614	0.049315	0.008331	0.009778	0.014416	0.016013	0.022720	0.018985	0.023892	0.007771	0.014992	0.039297	0.010257	0.004952	0.005856	0.004794	0.034620	0.013953	0.005902	0.009291	0.010087	0.007870	0.016194	0.012559	0.017900	0.013785	0.022720	0.040096
5.165000	0.048759	0.021498	0.011679	0.030466	0.010626	0.070202	0.060311	0.066538	0.064368	0.042828	0.037322	0.039422	0.049040	0.063781	0.061400	0.047440	0.060874	0.056177	0.041283	0.027324	0.027019	0.029710	0.053505	0.044884	0.017616	0.015029	0.009817	0.009538	0.007881	0.005029	0.005089	0.006787	0.007585	0.049643	0.007850	0.009583	0.013861	0.015722	0.022305	0.018547	0.023747	0.006498	0.015091	0.039136	0.010648	0.005635	0.006024	0.004705	0.035454	0.015215	0.005861	0.008108	0.009954	0.008327	0.016195	0.012128	0.018455	0.014380	0.023142	0.040026
5.170000	0.048893	0.021610	0.011735	0.029888	0.011206	0.070420	0.059718	0.066405	0.063949	0.042466	0.037270	0.039834	0.048827	0.064181	0.060945	0.046958	0.060412	0.055423	0.041009	0.027089	0.026579	0.028947	0.054078	0.044066	0.017388	0.014708	0.009547	0.009989	0.007538	0.005125	0.005230	0.007455	0.007842	0.049359	0.007794	0.010068	0.014418	0.016762	0.023363	0.018542	0.024021	0.006203	0.015001	0.038601	0.010543	0.005410	0.006354	0.004384	0.035264	0.015618	0.006547	0.008071	0.010482	0.009160	0.016424	0.012976	0.017662	0.013924	0.022832	0.040932
5.175000	0.049278	0.021765	0.011397	0.029111	0.011790	0.070775	0.059218	0.066106	0.063647	0.042227	0.037344	0.039763	0.049374	0.064178	0.060488	0.046747	0.059853	0.054736	0.040650	0.026237	0.026661	0.028946	0.054283	0.043310	0.016797	0.015324	0.009138	0.010162	0.007335	0.005064	0.005560	0.007370	0.007600	0.049623	0.007906	0.009870	0.014486	0.016333	0.023258	0.018753	0.023709	0.006309	0.015047	0.038117	0.009987	0.004677	0.005689	0.004594	0.035999	0.016018	0.007150	0.007509	0.010385	0.009795	0.016127	0.013025	0.017204	0.012539	0.022305	0.041742
5.180000	0.049690	0.022016	0.012071	0.028629	0.012523	0.070988	0.057990	0.064734	0.063260	0.042041	0.037317	0.039968	0.048842	0.064278	0.059574	0.046295	0.059528	0.053886	0.040165	0.026005	0.026283	0.029022	0.054072	0.043270	0.016881	0.014510	0.008750	0.010461	0.007311	0.005172	0.005849	0.008043	0.007880	0.049783	0.007982	0.009854	0.014922	0.016363	0.023296	0.018784	0.023593	0.006741	0.015045	0.037583	0.009927	0.004579	0.005517	0.004767	0.036051	0.016171	0.007481	0.007422	0.010604	0.010967	0.015837	0.012108	0.017488	0.012749	0.022463	0.041420
5.185000	0.049665	0.022100	0.011554	0.028357	0.012870	0.070683	0.058046	0.064553	0.062311	0.041365	0.036964	0.039848	0.049294	0.064193	0.059183	0.045825	0.058896	0.053018	0.039671	0.025615	0.026209	0.029220	0.053903	0.043234	0.016747	0.014921	0.008608	0.010638	0.007380	0.005625	0.006496	0.008225	0.008449	0.049872	0.007820	0.009524	0.014541	0.016641	0.022900	0.017721	0.023409	0.006727	0.015427	0.037317	0.009967	0.004626	0.005245	0.004396	0.035975	0.015656	0.007679	0.007111	0.010486	0.011341	0.015796	0.012177	0.017415	0.012011	0.022032	0.041579
5.190000	0.049997	0.022313	0.011976	0.027787	0.013327	0.071082	0.057034	0.063356	0.061699	0.041277	0.036917	0.039691	0.049273	0.064020	0.058427	0.045408	0.058638	0.052397	0.039352	0.025494	0.026846	0.029105	0.054229	0.042949	0.016410	0.014767	0.008467	0.009944	0.007732	0.005564	0.006477	0.008691	0.008210	0.050007	0.007960	0.008953	0.014614	0.016071	0.022664	0.017715	0.022963	0.007004	0.014955	0.036798	0.010045	0.004527	0.005157	0.004557	0.035876	0.014205	0.007665	0.006909	0.010307	0.011127	0.015762	0.012017	0.017596	0.012377	0.021969	0.041476
5.195000	0.050574	0.022551	0.011338	0.027663	0.013060	0.070992	0.056187	0.063016	0.060865	0.040640	0.036428	0.039688	0.049595	0.063971	0.057951	0.044520	0.058056	0.051819	0.038895	0.025215	0.026886	0.029140	0.054345	0.042885	0.016112	0.014886	0.008397	0.009769	0.008176	0.005814	0.006479	0.009028	0.008090	0.049725	0.007684	0.008993	0.014364	0.016044	0.022469	0.017251	0.022784	0.006812	0.015301	0.036695	0.009648	0.004253	0.005104	0.004350	0.035407	0.012844	0.007242	0.006592	0.009942	0.010914	0.015517	0.011927	0.017431	0.011627	0.021900	0.041962
5.200000	0.049812	0.022725	0.011633	0.027127	0.013937	0.070598	0.054699	0.062413	0.059948	0.040608	0.036009	0.039662	0.049527	0.064350	0.057149	0.043765	0.058262	0.051470	0.038766	0.025169	0.027163	0.029339	0.054675	0.043441	0.016185	0.014521	0.008478	0.009252	0.008682	0.005800	0.006397	0.008728	0.007639	0.048868	0.007635	0.008433	0.014390	0.015825	0.022043	0.017212	0.022263	0.007097	0.015901	0.036593	0.009938	0.004849	0.005655	0.003918	0.034854	0.012423	0.006584	0.006496	0.009454	0.010344	0.015902	0.011919	0.017700	0.011118	0.022012	0.041947
5.205000	0.050064	0.022953	0.011546	0.026977	0.010822	0.070347	0.054162	0.061276	0.058828	0.040204	0.035441	0.039260	0.049492	0.064151	0.057045	0.043012	0.058330	0.051462	0.038794	0.025495	0.027455	0.029782	0.054850	0.043818	0.015271	0.014704	0.009231	0.009039	0.009586	0.005304	0.006347	0.009382	0.007448	0.049066	0.007446	0.008354	0.014075	0.015832	0.021592	0.017022	0.022053	0.007059	0.016139	0.036537	0.009493	0.004759	0.005715	0.003884	0.034578	0.011685	0.006285	0.006667	0.009269	0.009850	0.015778	0.011563	0.017803	0.010653	0.021459	0.041795
5.210000	0.049632	0.023097	0.011713	0.026551	0.010780	0.069817	0.053363	0.060995	0.058328	0.040319	0.035436	0.039559	0.049575	0.064113	0.056644	0.042179	0.058637	0.051310	0.038725	0.025638	0.027936	0.029917	0.054942	0.044210	0.015104	0.014923	0.008853	0.008773	0.009528	0.005089	0.006175	0.008788	0.006758	0.047967	0.007239	0.007460	0.013841	0.014939	0.021330	0.016936	0.021522	0.007292	0.016622	0.037058	0.009775	0.005123	0.006285	0.003109	0.033909	0.010953	0.005606	0.006311	0.008771	0.008599	0.015530	0.011675	0.018158	0.010497	0.021838	0.041571
5.215000	0.048833	0.023223	0.012109	0.026318	0.011181	0.069496	0.052107	0.060250	0.057410	0.039922	0.035222	0.039471	0.049544	0.064347	0.056048	0.041488	0.058641	0.051411	0.038776	0.026206	0.028179	0.030519	0.055452	0.044088	0.015247	0.014578	0.008636	0.008528	0.009629	0.004897	0.006032	0.008719	0.006355	0.047335	0.006749	0.007374	0.013654	0.014505	0.021069	0.017441	0.021815	0.007735	0.016602	0.037107	0.009348	0.005163	0.006634	0.002543	0.033387	0.010508	0.005109	0.006155	0.008234	0.008712	0.015501	0.011622	0.018765	0.010258	0.022457	0.041639
5.220000	0.047969	0.023731	0.013918	0.025728	0.010356	0.068919	0.050380	0.060392	0.056594	0.040747	0.034378	0.039500	0.049391	0.063892	0.055656	0.041168	0.058486	0.051078	0.037914	0.026555	0.028357	0.031356	0.055540	0.045065	0.015143	0.014895	0.008629	0.008803	0.009500	0.004621	0.006030	0.007750	0.006376	0.046844	0.006279	0.007207	0.013152	0.014715	0.020852	0.017050	0.021505	0.007682	0.017509	0.037558	0.009775	0.005833	0.007670	0.001948	0.033046	0.010471	0.004563	0.006095	0.007896	0.007829	0.015442	0.011072	0.019291	0.010200	0.021993	0.041726
5.225000	0.047127	0.023722	0.013868	0.025519	0.010493	0.068163	0.049826	0.059547	0.055818	0.040340	0.034411	0.039219	0.049829	0.063942	0.055135	0.040577	0.058151	0.050807	0.037655	0.026906	0.028671	0.031800	0.055724	0.044924	0.015594	0.014037	0.008784	0.008936	0.009440	0.004515	0.005535	0.008687	0.005846	0.046522	0.005787	0.007042	0.013298	0.014455	0.020273	0.017247	0.021283	0.008189	0.017430	0.037711	0.009700	0.006073	0.007727	0.001681	0.032906	0.010234	0.004203	0.005909	0.007575	0.007122	0.015376	0.011023	0.019641	0.009636	0.022457	0.041821
5.230000	0.045478	0.023341	0.013907	0.025172	0.011125	0.067679	0.049366	0.059313	0.055257	0.040235	0.033986	0.038811	0.049423	0.064290	0.055165	0.039669	0.057990	0.050680	0.037491	0.026870	0.028851	0.032046	0.055806	0.044809	0.015151	0.014493	0.008766	0.009230	0.009250	0.003936	0.005306	0.008852	0.005882	0.046635	0.005452	0.006765	0.012764	0.014344	0.020663	0.017415	0.021483	0.008494	0.018506	0.038122	0.009955	0.006322	0.008280	0.001678	0.032531	0.010759	0.003895	0.005727	0.007129	0.006953	0.015311	0.010827	0.019914	0.009984	0.022378	0.041864
5.235000	0.045525	0.023836	0.014570	0.024791	0.011590	0.066041	0.048292	0.059265	0.054623	0.039899	0.033752	0.038587	0.049516	0.063611	0.055587	0.038846	0.057532	0.050290	0.037365	0.026771	0.028720	0.032181	0.055733	0.044952	0.015365	0.013895	0.008701	0.009623	0.008731	0.003938	0.005387	0.008671	0.005828	0.046746	0.005243	0.006688	0.012829	0.015224	0.020503	0.017135	0.021097	0.008499	0.018433	0.038214	0.010004	0.006229	0.008489	0.001539	0.032485	0.010915	0.003588	0.005205	0.006865	0.005712	0.015347	0.011144	0.020217	0.009289	0.022732	0.042172
5.240000	0.044183	0.023642	0.014229	0.024506	0.012031	0.066144	0.047545	0.058886	0.054095	0.039497	0.034199	0.038300	0.050606	0.063624	0.055498	0.038427	0.056575	0.049505	0.036292	0.027310	0.028691	0.032661	0.055673	0.044902	0.015353	0.014478	0.008831	0.009955	0.008508	0.003731	0.005253	0.008747	0.006025	0.046677	0.005361	0.006346	0.012486	0.014368	0.020115	0.017082	0.021042	0.008485	0.018149	0.038166	0.010140	0.006836	0.008718	0.001722	0.032571	0.011018	0.003207	0.004824	0.006560	0.005551	0.015437	0.010890	0.020609	0.009972	0.022794	0.042069
5.245000	0.044033	0.024260	0.014585	0.023768	0.012419	0.065491	0.046683	0.058767	0.053757	0.039243	0.033583	0.037975	0.049864	0.063722	0.056057	0.037557	0.056071	0.048953	0.036261	0.027096	0.028366	0.032557	0.055931	0.044302	0.015526	0.013914	0.008746	0.010534	0.008281	0.003686	0.005459	0.008973	0.005971	0.046535	0.005090	0.006067	0.012305	0.013930	0.019373	0.017000	0.021114	0.008766	0.019307	0.038350	0.009619	0.006461	0.008439	0.001802	0.032812	0.010712	0.003125	0.004489	0.006158	0.005691	0.015809	0.010523	0.020760	0.009644	0.022861	0.042627
5.250000	0.043006	0.023633	0.015000	0.023059	0.012409	0.065232	0.045624	0.059278	0.053057	0.039220	0.033607	0.037975	0.049535	0.063883	0.055792	0.037299	0.055358	0.048212	0.035185	0.026768	0.028456	0.032559	0.056043	0.043928	0.015422	0.013971	0.008610	0.010574	0.008245	0.003562	0.005322	0.009321	0.006130	0.045486	0.004908	0.005692	0.012288	0.013879	0.019763	0.016859	0.020968	0.008740	0.019226	0.038585	0.009414	0.005675	0.008265	0.002142	0.033043	0.010637	0.002791	0.003767	0.006037	0.005174	0.015739	0.010332	0.021317	0.009108	0.023132	0.042859
5.255000	0.042510	0.024598	0.015151	0.022675	0.012670	0.064785	0.044598	0.059452	0.052826	0.038961	0.033127	0.037057	0.050259	0.063341	0.056242	0.036893	0.054752	0.047472	0.034554	0.026455	0.027957	0.032435	0.056011	0.043963	0.015334	0.014377	0.008530	0.010778	0.008242	0.003634	0.005632	0.009581	0.006261	0.045860	0.004836	0.005640	0.011649	0.013143	0.019602	0.016792	0.020647	0.009565	0.019520	0.038627	0.009425	0.006190	0.008279	0.002025	0.033138	0.010106	0.002560	0.003613	0.005913	0.005681	0.016033	0.010651	0.021518	0.009875	0.022900	0.042831
5.260000	0.042751	0.024761	0.015713	0.021967	0.012942	0.064471	0.043398	0.059225	0.052707	0.038308	0.033158	0.037407	0.049995	0.063385	0.056422	0.036191	0.053934	0.046681	0.033866	0.026657	0.028110	0.032724	0.055897	0.043471	0.015559	0.014358	0.008605	0.010867	0.008195	0.003621	0.005598	0.010272	0.006289	0.045712	0.004707	0.005786	0.011824	0.011265	0.019693	0.016592	0.020942	0.008893	0.019727	0.038428	0.009218	0.005755	0.007950	0.002178	0.033209	0.009748	0.002582	0.003466	0.005543	0.004806	0.015984	0.010665	0.021916	0.009890	0.023161	0.043034
5.265000	0.041698	0.024853	0.015442	0.021570	0.013342	0.064199	0.042279	0.059259	0.052085	0.038336	0.033086	0.037451	0.051966	0.063166	0.057933	0.035464	0.053069	0.045702	0.033108	0.026202	0.027581	0.032649	0.055729	0.043390	0.015674	0.014385	0.008591	0.010996	0.008213	0.003537	0.005719	0.010071	0.005955	0.045336	0.004698	0.005712	0.011836	0.012575	0.019243	0.016729	0.020877	0.009252	0.019708	0.038597	0.008849	0.005687	0.008061	0.002248	0.033477	0.009517	0.002231	0.003276	0.005495	0.004859	0.016024	0.010363	0.021854	0.009647	0.023363	0.043600
5.270000	0.041115	0.025306	0.015679	0.021203	0.013654	0.063845	0.041324	0.059392	0.051898	0.037851	0.032698	0.037536	0.051231	0.064053	0.057149	0.035004	0.052553	0.045171	0.032709	0.025991	0.027298	0.032522	0.055804	0.043203	0.015786	0.014412	0.008567	0.010901	0.008352	0.003482	0.006004	0.009928	0.005830	0.045216	0.004604	0.005325	0.011553	0.012255	0.018887	0.016744	0.020538	0.009352	0.020088	0.038813	0.008895	0.005862	0.008104	0.002452	0.033385	0.009596	0.001961	0.003346	0.005307	0.004723	0.016235	0.010547	0.022280	0.009657	0.023251	0.043742
5.275000	0.041325	0.025409	0.015549	0.020873	0.013752	0.063559	0.040552	0.059324	0.051722	0.037346	0.032573	0.037462	0.051148	0.063508	0.057485	0.034511	0.052370	0.044460	0.032218	0.026142	0.027383	0.032595	0.055547	0.042764	0.015681	0.014629	0.008561	0.010954	0.008521	0.003412	0.006007	0.010585	0.005837	0.045151	0.004405	0.005250	0.011149	0.011921	0.018631	0.016564	0.020484	0.010410	0.020479	0.039245	0.008882	0.005947	0.008006	0.002501	0.033310	0.009078	0.001807	0.003239	0.005275	0.004658	0.016342	0.010405	0.022418	0.009648	0.023492	0.044222
