Model Marker Errors from IK
version=1
nRows=120
nColumns=4
inDegrees=no
endheader
time	total_squared_error	marker_error_RMS	marker_error_max
      4.68000000	      0.07036461	      0.03424534	      0.10175749
      4.68500000	      0.07090287	      0.03437607	      0.10238248
      4.69000000	      0.07106097	      0.03441438	      0.10267170
      4.69500000	      0.07117029	      0.03444084	      0.10299510
      4.70000000	      0.07115542	      0.03443724	      0.10325395
      4.70500000	      0.07098052	      0.03439489	      0.10364969
      4.71000000	      0.07110462	      0.03442495	      0.10378023
      4.71500000	      0.07181133	      0.03459560	      0.10456934
      4.72000000	      0.07221198	      0.03469197	      0.10476275
      4.72500000	      0.07170445	      0.03456984	      0.10532067
      4.73000000	      0.07215295	      0.03467779	      0.10535485
      4.73500000	      0.07197325	      0.03463458	      0.10582984
      4.74000000	      0.07154434	      0.03453123	      0.10483443
      4.74500000	      0.07347228	      0.03499340	      0.10672486
      4.75000000	      0.07353149	      0.03500750	      0.10755478
      4.75500000	      0.07371378	      0.03505086	      0.10710171
      4.76000000	      0.07391184	      0.03509792	      0.10712180
      4.76500000	      0.07436090	      0.03520438	      0.10760673
      4.77000000	      0.07475118	      0.03529664	      0.10779376
      4.77500000	      0.07491954	      0.03533637	      0.10802765
      4.78000000	      0.07514078	      0.03538851	      0.10819168
      4.78500000	      0.07451467	      0.03524076	      0.10744281
      4.79000000	      0.07593256	      0.03557447	      0.10852650
      4.79500000	      0.07480967	      0.03531045	      0.10690354
      4.80000000	      0.07574095	      0.03552955	      0.10771720
      4.80500000	      0.07768712	      0.03598313	      0.10902816
      4.81000000	      0.07656966	      0.03572340	      0.10735883
      4.81500000	      0.07860645	      0.03619541	      0.10867451
      4.82000000	      0.07943612	      0.03638592	      0.10892107
      4.82500000	      0.08001422	      0.03651808	      0.10914402
      4.83000000	      0.08114222	      0.03677459	      0.10943642
      4.83500000	      0.08075866	      0.03668757	      0.10879453
      4.84000000	      0.08196515	      0.03696060	      0.10914277
      4.84500000	      0.08310791	      0.03721736	      0.10981230
      4.85000000	      0.08446253	      0.03751945	      0.11020121
      4.85500000	      0.08403527	      0.03742443	      0.10912229
      4.86000000	      0.08465135	      0.03756136	      0.10912909
      4.86500000	      0.08574069	      0.03780227	      0.10877522
      4.87000000	      0.08579133	      0.03781343	      0.10902053
      4.87500000	      0.08637487	      0.03794181	      0.10931924
      4.88000000	      0.08679868	      0.03803478	      0.10903456
      4.88500000	      0.08727473	      0.03813894	      0.10764608
      4.89000000	      0.08709093	      0.03809876	      0.10654497
      4.89500000	      0.08710150	      0.03810107	      0.10583085
      4.90000000	      0.08828915	      0.03835995	      0.10528276
      4.90500000	      0.08789855	      0.03827500	      0.10394725
      4.91000000	      0.08873073	      0.03845576	      0.10288820
      4.91500000	      0.08908022	      0.03853142	      0.10100490
      4.92000000	      0.08949903	      0.03862189	      0.09956875
      4.92500000	      0.08978988	      0.03868460	      0.09759905
      4.93000000	      0.09018339	      0.03876927	      0.09516423
      4.93500000	      0.09013930	      0.03875979	      0.09275318
      4.94000000	      0.09063068	      0.03886530	      0.09035172
      4.94500000	      0.09136546	      0.03902253	      0.08852794
      4.95000000	      0.09215178	      0.03919009	      0.08555004
      4.95500000	      0.09286522	      0.03934150	      0.08396256
      4.96000000	      0.09289811	      0.03934847	      0.08373815
      4.96500000	      0.09353754	      0.03948365	      0.08117892
      4.97000000	      0.09442716	      0.03967097	      0.08255472
      4.97500000	      0.09507599	      0.03980703	      0.08704702
      4.98000000	      0.09559608	      0.03991576	      0.09058934
      4.98500000	      0.09562965	      0.03992277	      0.09189210
      4.99000000	      0.09522569	      0.03983836	      0.09464024
      4.99500000	      0.09364306	      0.03950592	      0.09623978
      5.00000000	      0.09262083	      0.03928970	      0.09758232
      5.00500000	      0.09259255	      0.03928370	      0.09765709
      5.01000000	      0.09320600	      0.03941362	      0.09660810
      5.01500000	      0.09250289	      0.03926468	      0.09483406
      5.02000000	      0.08920387	      0.03855815	      0.09113927
      5.02500000	      0.08529410	      0.03770369	      0.08870028
      5.03000000	      0.08140518	      0.03683413	      0.08590687
      5.03500000	      0.07831558	      0.03612838	      0.08309243
      5.04000000	      0.07588718	      0.03556383	      0.08025722
      5.04500000	      0.07444222	      0.03522362	      0.07857733
      5.05000000	      0.07322521	      0.03493451	      0.07711937
      5.05500000	      0.07258461	      0.03478137	      0.07630508
      5.06000000	      0.07270130	      0.03480931	      0.07618202
      5.06500000	      0.07279339	      0.03483135	      0.07629050
      5.07000000	      0.07300563	      0.03488209	      0.07651588
      5.07500000	      0.07290428	      0.03485787	      0.07729500
      5.08000000	      0.07286267	      0.03484792	      0.07780886
      5.08500000	      0.07296010	      0.03487122	      0.07838556
      5.09000000	      0.07282748	      0.03483951	      0.07803005
      5.09500000	      0.07251772	      0.03476534	      0.07726074
      5.10000000	      0.07233018	      0.03472035	      0.07575578
      5.10500000	      0.07192994	      0.03462416	      0.07369775
      5.11000000	      0.07101992	      0.03440444	      0.07123373
      5.11500000	      0.06979766	      0.03410710	      0.07099029
      5.12000000	      0.06832298	      0.03374487	      0.07066741
      5.12500000	      0.06731246	      0.03349439	      0.07073754
      5.13000000	      0.06594356	      0.03315206	      0.07037754
      5.13500000	      0.06488074	      0.03288382	      0.06917539
      5.14000000	      0.06416813	      0.03270274	      0.06835686
      5.14500000	      0.06367919	      0.03257791	      0.06757698
      5.15000000	      0.06321889	      0.03245995	      0.06667103
      5.15500000	      0.06282413	      0.03235844	      0.06588985
      5.16000000	      0.06266665	      0.03231786	      0.06563803
      5.16500000	      0.06242440	      0.03225534	      0.06583652
      5.17000000	      0.06230317	      0.03222400	      0.06570517
      5.17500000	      0.06207103	      0.03216391	      0.06619628
      5.18000000	      0.06178816	      0.03209054	      0.06668230
      5.18500000	      0.06112038	      0.03191666	      0.06700800
      5.19000000	      0.06075448	      0.03182098	      0.06706228
      5.19500000	      0.06000786	      0.03162485	      0.06733797
      5.20000000	      0.05955026	      0.03150404	      0.06737764
      5.20500000	      0.05904950	      0.03137130	      0.06712235
      5.21000000	      0.05875292	      0.03129242	      0.06729367
      5.21500000	      0.05853818	      0.03123518	      0.06689557
      5.22000000	      0.05822668	      0.03115196	      0.06675548
      5.22500000	      0.05802571	      0.03109815	      0.06644280
      5.23000000	      0.05768928	      0.03100787	      0.06594133
      5.23500000	      0.05745066	      0.03094367	      0.06573902
      5.24000000	      0.05708295	      0.03084449	      0.06431614
      5.24500000	      0.05668648	      0.03073719	      0.06456683
      5.25000000	      0.05642502	      0.03066622	      0.06428709
      5.25500000	      0.05586942	      0.03051487	      0.06416629
      5.26000000	      0.05563152	      0.03044983	      0.06401015
      5.26500000	      0.05516740	      0.03032255	      0.06387305
      5.27000000	      0.05505828	      0.03029254	      0.06418176
      5.27500000	      0.05470032	      0.03019391	      0.06401610
