Inverse Dynamics Generalized Forces
version=1
nRows=120
nColumns=40
inDegrees=no
endheader
time	pelvis_tilt_moment	pelvis_list_moment	pelvis_rotation_moment	pelvis_tx_force	pelvis_ty_force	pelvis_tz_force	hip_flexion_r_moment	hip_adduction_r_moment	hip_rotation_r_moment	hip_flexion_l_moment	hip_adduction_l_moment	hip_rotation_l_moment	lumbar_extension_moment	lumbar_bending_moment	lumbar_rotation_moment	knee_angle_r_moment	knee_angle_r_beta_force	knee_angle_l_moment	knee_angle_l_beta_force	arm_flex_r_moment	arm_add_r_moment	arm_rot_r_moment	arm_flex_l_moment	arm_add_l_moment	arm_rot_l_moment	ankle_angle_r_moment	ankle_angle_l_moment	elbow_flex_r_moment	elbow_flex_l_moment	subtalar_angle_r_moment	subtalar_angle_l_moment	pro_sup_r_moment	pro_sup_l_moment	mtp_angle_r_moment	mtp_angle_l_moment	wrist_flex_r_moment	wrist_dev_r_moment	wrist_flex_l_moment	wrist_dev_l_moment
      4.68000000	 -39331.41200934	-764338.74113555	-382767.87938660	    -36.77141838	    828.47924428	    921.73409076	 -61419.48726905	-104771.50500973	 813959.37091440	     29.90659585	     -4.62732270	      1.43039847	     90.16107269	      0.83679055	      0.48785602	-279012.37523433	     -0.02421336	      5.31842723	     -0.02521422	     -6.65004126	     -0.27624584	      1.07032486	     -7.31483208	      1.37233492	      1.44463729	 223623.96293255	      1.07864909	      1.21001524	      0.76245762	-509247.18013778	     -0.26736980	      0.01060656	      0.02654140	     -0.04157355	     -0.04069592	      0.18358067	     -0.09434993	      0.20682010	     -0.04061457
      4.68500000	 -46930.34015604	-786854.09127145	-390526.69694155	    -32.10779712	    896.65972360	    950.28221948	 -68141.32903023	-108372.50721773	 838650.08216190	     30.22354680	     -3.29028653	      1.25045509	    109.74328030	      1.11385767	      0.75693511	-280539.43611488	     -0.02430545	      5.20819610	     -0.02497424	     -7.03243328	     -0.04918585	      1.16370886	     -7.56694801	      1.49346539	      1.51778279	 223817.28659430	      1.06819832	      1.34505984	      0.87288873	-523270.24849490	     -0.25495616	      0.01129381	      0.03125903	     -0.04127983	     -0.04070930	      0.19492325	     -0.11476747	      0.22446578	     -0.06007435
      4.69000000	 -54789.21177744	-812589.12075760	-399893.28089568	    -27.50156050	    964.74105592	    982.35663015	 -75113.62019157	-112734.21102859	 866771.84211756	     30.57382724	     -2.01337140	      1.09853088	    129.13906061	      1.42072030	      1.04518236	-283133.21660248	     -0.02438909	      5.09347013	     -0.02477368	     -7.41500500	      0.16518837	      1.25493837	     -7.83328255	      1.60807048	      1.58796108	 224905.91403062	      1.05903861	      1.48605842	      0.98455220	-539588.50398493	     -0.24441961	      0.01184565	      0.03580403	     -0.04095879	     -0.04070886	      0.20624534	     -0.13563379	      0.24146802	     -0.07937013
      4.69500000	 -61836.52249230	-841801.69935261	-410267.74921191	    -22.62575350	   1031.55404946	   1018.43550631	 -81212.45336526	-117344.84925786	 897977.92206295	     30.94938643	     -0.83500964	      0.97807505	    148.14055385	      1.74907491	      1.34628161	-287757.20409200	     -0.02447052	      4.98041375	     -0.02461669	     -7.80063932	      0.36396470	      1.34441492	     -8.11939010	      1.71506965	      1.65525053	 227715.72342612	      1.05149802	      1.63091212	      1.09632867	-557609.51182539	     -0.23600450	      0.01227484	      0.04010133	     -0.04062102	     -0.04070634	      0.21754133	     -0.15651654	      0.25763897	     -0.09820359
      4.70000000	 -69257.20565047	-875269.75923447	-421704.84316556	    -19.69980710	   1095.77339945	   1058.95412315	 -87596.78758527	-122165.34346174	 933381.49268922	     31.34165974	      0.20897053	      0.89138907	    166.54658668	      2.08830188	      1.65116553	-293570.32690613	     -0.02455604	      4.87580612	     -0.02450607	     -8.19114861	      0.54433506	      1.43250660	     -8.42966710	      1.81228668	      1.71925837	 231333.11207620	      1.04587048	      1.77784759	      1.20743953	-577711.38903774	     -0.22989254	      0.01258975	      0.04406812	     -0.04027992	     -0.04071308	      0.22882460	     -0.17704312	      0.27276231	     -0.11632848
      4.70500000	 -78618.57724459	-913564.63268321	-434358.50063477	    -21.07305410	   1156.46893348	   1104.12998149	 -95806.33826758	-127342.04378270	 974073.96876363	     31.74204058	      1.08678236	      0.83935171	    184.16744852	      2.42688982	      1.94844474	-299323.44540388	     -0.02465191	      4.78678142	     -0.02444329	     -8.58718382	      0.70352470	      1.51946427	     -8.76727261	      1.89662758	      1.77917710	 234495.35407470	      1.04239639	      1.92544967	      1.31748760	-600376.97494476	     -0.22619028	      0.01279479	      0.04761508	     -0.03995166	     -0.04073857	      0.24012079	     -0.19691353	      0.28660387	     -0.13356414
      4.71000000	 -90773.97185593	-955840.96799383	-448260.49076286	    -27.18018408	   1214.33202108	   1153.27372775	-106657.96757821	-133365.97535142	1019592.97575606	     32.14215054	      1.77183059	      0.82134445	    200.82852838	      2.75361789	      2.22483308	-303933.40631279	     -0.02476437	      4.72057943	     -0.02442861	     -8.98817210	      0.83871533	      1.60533099	     -9.13407960	      1.96437170	      1.83391599	 236300.12640365	      1.04125261	      2.07267872	      1.42645290	-625642.50520708	     -0.22492040	      0.01289134	      0.05064893	     -0.03965564	     -0.04079014	      0.25145980	     -0.21591191	      0.29893000	     -0.14980250
      4.71500000	-105628.08429685	-1000629.70415603	-463230.81390469	    -37.31400504	   1270.09381739	   1205.01790982	-120019.55209259	-140711.31951906	1068515.75072177	     32.53400663	      2.24346883	      0.83535659	    216.37276294	      3.05800847	      2.46512777	-306949.21452465	     -0.02489969	      4.68429242	     -0.02446141	     -9.39231927	      0.94700317	      1.68985989	     -9.53065957	      2.01156838	      1.88228722	 236522.56402228	      1.04254707	      2.21887674	      1.53465111	-653119.17270303	     -0.22601574	      0.01287794	      0.05307589	     -0.03941330	     -0.04087341	      0.26286688	     -0.23391565	      0.30952957	     -0.16500858
      4.72000000	-119929.14918001	-1045509.08645921	-477944.21112410	    -48.16817767	   1322.88544509	   1256.10734537	-132578.93556161	-149018.44785210	1117137.28680521	     32.91015301	      2.48754943	      0.87812224	    230.66183779	      3.32979953	      2.65169444	-310347.92317390	     -0.02506421	      4.68456696	     -0.02454027	     -9.79671337	      1.02541181	      1.77243254	     -9.95632131	      2.03456075	      1.92320950	 237261.33524331	      1.04631763	      2.36377122	      1.64266083	-680806.71745983	     -0.22931885	      0.01274935	      0.05480403	     -0.03924437	     -0.04099284	      0.27434895	     -0.25090166	      0.31823087	     -0.17921537
      4.72500000	-130663.47628804	-1088655.35268988	-491269.02573448	    -56.94727152	   1371.55946186	   1303.90385922	-141289.92059094	-157878.22791521	1162445.47472902	     33.26372639	      2.49712079	      0.94517387	    243.57649937	      3.55789835	      2.76367881	-316127.34970664	     -0.02526424	      4.72725723	     -0.02466296	    -10.19747027	      1.07091820	      1.85196465	    -10.40917715	      2.03061902	      1.95591777	 240570.11236302	      1.05254371	      2.50749584	      1.75124924	-707023.04166210	     -0.23459030	      0.01249663	      0.05574317	     -0.03916372	     -0.04115313	      0.28587644	     -0.26695322	      0.32491473	     -0.19251725
      4.73000000	-139039.40758398	-1131630.64986537	-504264.52410221	    -65.63839967	   1415.30586243	   1350.08770903	-147396.67062355	-167969.57890925	1206549.87866438	     33.58859744	      2.27319858	      1.03088516	    255.01694155	      3.72999618	      2.77695121	-323843.11235985	     -0.02550591	      4.81707375	     -0.02482643	    -10.58985589	      1.08042360	      1.92683932	    -10.88619048	      1.99854331	      1.98019872	 245985.91799648	      1.06116110	      2.65061295	      1.86132937	-733276.88358677	     -0.24152238	      0.01210813	      0.05580713	     -0.03918113	     -0.04136037	      0.29737147	     -0.28226481	      0.32953787	     -0.20506613
      4.73500000	-147094.16250468	-1175761.33237913	-517906.46840038	    -76.80549427	   1453.86671822	   1396.34363448	-152961.03964984	-180003.60047960	1251584.18636718	     33.87976172	      1.82502245	      1.12870471	    264.90375299	      3.83349524	      2.66604274	-332184.25054421	     -0.02579484	      4.95724790	     -0.02502743	    -10.96838637	      1.05067659	      1.99491001	    -11.38323110	      1.93908563	      1.99664564	 252217.88431431	      1.07206002	      2.79410708	      1.97394234	-761033.27582363	     -0.24975274	      0.01156765	      0.05492310	     -0.03930197	     -0.04162087	      0.30870781	     -0.29713836	      0.33217346	     -0.21706878
      4.74000000	-155854.77266724	-1217844.32601760	-530418.29030775	    -90.67549435	   1488.71040315	   1439.95417963	-158991.02913599	-193272.07578158	1294488.90573939	     34.13357491	      1.16954751	      1.23163914	    273.17875151	      3.85685118	      2.40749539	-338857.67996865	     -0.02613606	      5.14926946	     -0.02526311	    -11.32693130	      0.97824134	      2.05354374	    -11.89519117	      1.85519433	      2.00685006	 257155.47891187	      1.08506969	      2.93936708	      2.09023607	-788035.80226392	     -0.25887256	      0.01084906	      0.05304349	     -0.03952698	     -0.04193934	      0.31971446	     -0.31197520	      0.33304811	     -0.22878296
      4.74500000	-165330.18487491	-1254564.00584667	-540023.44396302	   -106.38460559	   1521.13897272	   1478.02863617	-165511.42088692	-206948.95425161	1331775.23115604	     34.34734367	      0.33060741	      1.33268484	    279.80559766	      3.79011248	      1.98258715	-342495.37440099	     -0.02653396	      5.39280073	     -0.02553119	    -11.65886984	      0.85955922	      2.09967895	    -12.41616131	      1.75216180	      2.01345822	 259591.01107823	      1.09993870	      3.08817578	      2.21142945	-811851.56931204	     -0.26842324	      0.00991204	      0.05015283	     -0.03985108	     -0.04231820	      0.33017839	     -0.32726863	      0.33255442	     -0.24051152
      4.75000000	-172584.75023599	-1287071.81953498	-547794.59992855	   -121.03316438	   1549.95226799	   1511.36340860	-169651.64355397	-221729.43013557	1363747.15534341	     34.51881755	     -0.66187129	      1.42484074	    284.77118002	      3.62477255	      1.37855009	-346376.91666663	     -0.02699229	      5.68573117	     -0.02582951	    -11.95734946	      0.69103452	      2.12992792	    -12.93964137	      1.63769049	      2.02012132	 262781.83268922	      1.11631422	      3.24266514	      2.33878029	-833506.57899447	     -0.27788860	      0.00870211	      0.04627031	     -0.04026206	     -0.04275652	      0.33985153	     -0.34358738	      0.33124379	     -0.25259289
      4.75500000	-174722.14382352	-1317148.80129161	-555132.52297141	   -131.82493770	   1573.88945280	   1541.31239572	-168570.21051260	-238517.93678362	1391358.77717938	     34.64641475	     -1.77272170	      1.50086248	    288.08738487	      3.35378079	      0.58892095	-354003.13817610	     -0.02751382	      6.02420125	     -0.02615566	    -12.21561679	      0.46905510	      2.14072317	    -13.45878920	      1.52179313	      2.03136357	 270186.37816868	      1.13373359	      3.40521775	      2.47358639	-854527.91250276	     -0.28670114	      0.00715328	      0.04145023	     -0.04074022	     -0.04324780	      0.34846338	     -0.36154516	      0.32980841	     -0.26538986
      4.76000000	-171862.96501004	-1344383.75636053	-561839.96922355	   -138.50181991	   1593.80455218	   1567.74364390	-162426.00219354	-257197.15069610	1414188.37147416	     34.72986326	     -2.96258007	      1.55326611	    289.79106694	      2.97195325	     -0.38625878	-365121.78736969	     -0.02809962	      6.40248807	     -0.02650694	    -12.42737405	      0.18998656	      2.12845811	    -13.96675748	      1.41639759	      2.05230125	 281567.83947931	      1.15162959	      3.57836897	      2.61720832	-874657.82395145	     -0.29426380	      0.00518966	      0.03577826	     -0.04125857	     -0.04377766	      0.35573124	     -0.38176946	      0.32904311	     -0.27927976
      4.76500000	-165315.00445019	-1368012.19755411	-567346.88916675	   -141.99381300	   1610.75517132	   1590.31471502	-152568.70915587	-277303.52782026	1431809.67871671	     34.77052760	     -4.18899734	      1.57470408	    289.94141246	      2.47670161	     -1.54014210	-378218.42400537	     -0.02874835	      6.81277976	     -0.02688046	    -12.58719806	     -0.14975071	      2.08961637	    -14.45713420	      1.33461735	      2.08818013	 295410.91415330	      1.16932874	      3.76471617	      2.77105392	-893262.07242765	     -0.29997469	      0.00272479	      0.02936303	     -0.04178225	     -0.04432216	      0.36136335	     -0.40487397	      0.32977863	     -0.29464194
      4.77000000	-158153.92085802	-1388103.79315538	-571184.72071686	   -145.61631100	   1624.36730934	   1609.28270569	-142108.69084103	-298232.65521097	1445186.56508779	     34.77154897	     -5.40766904	      1.55848787	    288.61637168	      1.86914799	     -2.85869161	-390436.83200054	     -0.02945568	      7.24494891	     -0.02727310	    -12.69106495	     -0.55352764	      2.02095026	    -14.92439190	      1.28976596	      2.14381765	 308768.35406122	      1.18604309	      3.96675773	      2.93647925	-910106.55458690	     -0.30325386	     -0.00033747	      0.02232620	     -0.04226752	     -0.04484588	      0.36506301	     -0.43141991	      0.33279872	     -0.31183431
      4.77500000	-152803.02057407	-1405109.44864488	-573218.29080811	   -151.90891780	   1634.09653207	   1625.19001880	-133502.69289173	-319616.33794918	1455491.32697021	     34.73831547	     -6.57401225	      1.49918823	    285.90958405	      1.15527938	     -4.32038027	-399701.63291064	     -0.03021368	      7.68638906	     -0.02768168	    -12.73693184	     -1.02435696	      1.91974175	    -15.36425934	      1.29417671	      2.22305114	 319473.34383724	      1.20088171	      4.18664366	      3.11459688	-925307.68840926	     -0.30358390	     -0.00409754	      0.01479502	     -0.04266200	     -0.04530077	      0.36654383	     -0.46186061	      0.33875827	     -0.33115568
      4.78000000	-147281.63871684	-1420146.22859486	-574580.67664732	   -158.09705801	   1640.04490040	   1639.08531355	-124810.55335622	-342255.58715450	1463273.92713387	     34.67938804	     -7.64522857	      1.39347043	    281.92752324	      0.34622063	     -5.89619458	-408415.43471746	     -0.03101019	      8.12187426	     -0.02810353	    -12.72528964	     -1.56475361	      1.78410829	    -15.77402042	      1.35785559	      2.32822758	 329946.06394981	      1.21289759	      4.42590031	      3.30599359	-940065.71654473	     -0.30057052	     -0.00865154	      0.00689743	     -0.04290663	     -0.04562701	      0.36555401	     -0.49648141	      0.34810832	     -0.35279555
      4.78500000	-139002.09339161	-1434056.11310217	-576209.65460502	   -160.65608602	   1642.50851212	   1651.86163652	-113474.60356745	-366866.33359284	1468558.87867487	     34.60734874	     -8.58301118	      1.24126487	    276.78646471	     -0.54287476	     -7.54994171	-419425.18709397	     -0.03182816	      8.53351536	     -0.02853756	    -12.65966191	     -2.17655853	      1.61331117	    -16.15276907	      1.48705049	      2.45974660	 343055.14138283	      1.22115676	      4.68514316	      3.51037822	-955310.65953604	     -0.29400971	     -0.01408091	     -0.00124128	     -0.04293820	     -0.04575587	      0.36190152	     -0.53534104	      0.36102780	     -0.37677823
      4.79000000	-127363.29087482	-1445803.25633643	-576989.32497942	   -158.52084440	   1641.80285193	   1663.29516037	 -98920.59713976	-392407.08868215	1469961.06207595	     34.53846245	     -9.35666166	      1.04693720	    270.60967858	     -1.49447833	     -9.23870925	-432858.96396369	     -0.03264555	      8.90111345	     -0.02898487	    -12.54706497	     -2.86068893	      1.40806799	    -16.50165023	      1.68290212	      2.61570147	 358824.45091076	      1.22479270	      4.96373823	      3.72621869	-969639.67008270	     -0.28393313	     -0.02043994	     -0.00950102	     -0.04269095	     -0.04561382	      0.35547756	     -0.57821056	      0.37736799	     -0.40291112
      4.79500000	-112724.33005794	-1454316.04675810	-575702.07575772	   -151.69114770	   1638.45766366	   1673.00228915	 -81535.75207088	-417645.08014789	1466427.93762753	     34.49076663	     -9.94575398	      0.81996634	    263.52491086	     -2.48978678	    -10.91351903	-447937.82933646	     -0.03343617	      9.20301930	     -0.02944846	    -12.39837608	     -3.61677514	      1.17088719	    -16.82407930	      1.94042733	      2.79169186	 376351.14231182	      1.22302871	      5.25944384	      3.95044133	-981581.38530041	     -0.27062596	     -0.02774217	     -0.01776822	     -0.04209801	     -0.04512629	      0.34628163	     -0.62451499	      0.39661949	     -0.43074546
      4.80000000	 -97237.44314393	-1460486.38390504	-572833.81886050	   -141.88335184	   1633.77998481	   1681.27742936	 -63473.30118162	-442772.26648464	1459569.32677497	     34.48141634	    -10.34195356	      0.57515793	    255.66158937	     -3.50914411	    -12.52019013	-463059.03668164	     -0.03417119	      9.41719166	     -0.02993257	    -12.22846338	     -4.44264252	      0.90642436	    -17.12584955	      2.24809454	      2.98086229	 394003.05493326	      1.21518728	      5.56816186	      4.17824329	-991969.25414466	     -0.25463364	     -0.03594806	     -0.02593561	     -0.04109402	     -0.04422084	      0.33445507	     -0.67329774	      0.41790910	     -0.45955621
      4.80500000	 -83081.20078516	-1465652.81942975	-569123.25775736	   -131.00204436	   1629.01321997	   1688.68086885	 -46887.46314147	-468273.04752419	1451411.49254626	     34.52376911	    -10.55018340	      0.33242266	    247.14819279	     -4.53133183	    -14.00017636	-476760.13837678	     -0.03482068	      9.52229197	     -0.03044179	    -12.05592605	     -5.33362524	      0.62182632	    -17.41503658	      2.58814915	      3.17418124	 410294.93045107	      1.20068330	      5.88390478	      4.40307265	-1002041.62724848	     -0.23674662	     -0.04495533	     -0.03390097	     -0.03961805	     -0.04282984	      0.32032542	     -0.72322401	      0.44003025	     -0.48834719
      4.81000000	 -70849.57633338	-1470819.46201496	-564628.80229577	   -119.63336548	   1624.40541767	   1696.35302317	 -32329.17247607	-494087.49296590	1443065.83210849	     34.62430240	    -10.58894536	      0.11582443	    238.11044395	     -5.53129315	    -15.29133708	-488865.62609374	     -0.03535538	      9.49898795	     -0.03097930	    -11.90230955	     -6.28172688	      0.32697837	    -17.70161422	      2.93772857	      3.36093301	 424932.37913569	      1.17898730	      6.19900419	      4.61685804	-1012225.23326005	     -0.21794913	     -0.05459456	     -0.04156577	     -0.03761510	     -0.04089153	      0.30445087	     -0.77262702	      0.46150765	     -0.51589077
      4.81500000	 -60428.69168148	-1476801.67909438	-559332.28019998	   -107.78769906	   1619.93944961	   1705.26223356	 -19634.50038212	-520175.91705256	1435233.27587400	     34.77979018	    -10.48957509	     -0.04795631	    228.66941355	     -6.47781678	    -16.32881164	-499786.58541110	     -0.03574866	      9.33151210	     -0.03154518	    -11.79069837	     -7.27463997	      0.03455783	    -17.99669997	      3.27073244	      3.52936780	 438217.03695076	      1.14958373	      6.50456742	      4.81052937	-1022812.60611015	     -0.19935103	     -0.06463215	     -0.04883553	     -0.03503702	     -0.03835036	      0.28765157	     -0.81959950	      0.48069227	     -0.54081047
      4.82000000	 -50432.26727391	-1484074.36304266	-553664.56045669	    -94.18678506	   1615.61232570	   1715.26782474	  -7378.79032224	-547028.90790473	1427891.59608553	     34.97513192	    -10.29456117	     -0.13142426	    218.93887603	     -7.33284949	    -17.04606464	-511046.41740009	     -0.03598065	      9.00929804	     -0.03213511	    -11.74371718	     -8.29466470	     -0.24015467	    -18.31145338	      3.56034742	      3.66749108	 451685.71291437	      1.11194688	      6.79118271	      4.97477693	-1034358.25784701	     -0.18211696	     -0.07478082	     -0.05562112	     -0.03184520	     -0.03515712	      0.27102409	     -0.86213058	      0.49588434	     -0.56170041
      4.82500000	 -39732.29707468	-1492670.56178153	-547868.06176399	    -77.96770763	   1611.41811334	   1725.72394265	   5598.28078587	-574990.03651940	1420646.09608698	     35.18250266	    -10.05516529	     -0.10824134	    209.02243355	     -8.05258286	    -17.37631937	-523746.78768849	     -0.03603360	      8.52844763	     -0.03274013	    -11.78104772	     -9.31771474	     -0.47977308	    -18.65568409	      3.78198460	      3.76398208	 466477.45908228	      1.06554946	      7.04982105	      5.10095545	-1047120.49034459	     -0.16740015	     -0.08471677	     -0.06183893	     -0.02801432	     -0.03126959	      0.25593240	     -0.89827851	      0.50548187	     -0.57726308
      4.83000000	 -29475.46556773	-1501110.37906770	-541006.35020361	    -60.99501260	   1607.45619612	   1735.10656069	  18149.54288135	-603173.85793958	1412404.81566615	     35.36298100	     -9.82745848	      0.04397467	    199.01049958	     -8.58997751	    -17.25467369	-536236.28824399	     -0.03589549	      7.89282417	     -0.03335087	    -11.91662884	    -10.31274606	     -0.66573497	    -19.03621501	      3.91625310	      3.80916984	 480927.98117577	      1.00992409	      7.27281714	      5.18204900	-1059859.48832170	     -0.15623548	     -0.09410311	     -0.06741017	     -0.02353749	     -0.02665613	      0.24395800	     -0.92636340	      0.50814326	     -0.58645245
      4.83500000	 -20900.94695267	-1508110.73936669	-532204.35503474	    -45.12287499	   1603.94689458	   1742.18847407	  29034.81060963	-630642.53710404	1402367.34408509	     35.46750314	     -9.67128375	      0.34360531	    188.97688688	     -8.89837885	    -16.62086891	-546847.75629270	     -0.03556677	      7.11497636	     -0.03394757	    -12.15589203	    -11.24194037	     -0.77972045	    -19.45519371	      3.95158263	      3.79598508	 493327.38748161	      0.94481935	      7.45476510	      5.21359775	-1071419.50248757	     -0.14960334	     -0.10261838	     -0.07226042	     -0.01843264	     -0.02130112	      0.23679538	     -0.94515814	      0.50294728	     -0.58861111
      4.84000000	 -13340.81445977	-1514815.19694839	-521872.47052967	    -29.39522341	   1601.65367217	   1747.74139424	  38987.75446933	-657839.09245984	1391403.17003173	     35.43905619	     -9.64705275	      0.80387392	    178.97564789	     -8.93591315	    -15.42275943	-556639.21345586	     -0.03505985	      6.21676616	     -0.03451075	    -12.49354031	    -12.06189909	     -0.80547756	    -19.90868388	      3.88611169	      3.72083800	 504656.13830035	      0.87036941	      7.59312972	      5.19443446	-1082605.13110137	     -0.14840147	     -0.10998647	     -0.07631940	     -0.01274692	     -0.01521396	      0.23609244	     -0.95404395	      0.48953507	     -0.58357866
      4.84500000	  -5825.30082430	-1522648.88351658	-510588.73492449	    -12.62615194	   1601.02051210	   1752.80986524	  49055.10465152	-685516.19001397	1380489.52082876	     35.21603862	     -9.81005989	      1.43027737	    169.03981019	     -8.67038094	    -13.62139045	-567059.77930211	     -0.03440163	      5.22962399	     -0.03502812	    -12.91237702	    -12.72603423	     -0.73084997	    -20.38582555	      3.72846797	      3.58433923	 516296.73468944	      0.78724426	      7.68837229	      5.12705689	-1094520.35845984	     -0.15331388	     -0.11600131	     -0.07952068	     -0.00656057	     -0.00843998	      0.24324942	     -0.95308900	      0.46821383	     -0.57174150
      4.85000000	   1890.26718064	-1531673.26845299	-498464.96935701	      4.59953346	   1600.90149241	   1757.39124300	  59511.25685477	-713916.35636529	1369539.52692300	     34.73536316	    -10.20659964	      2.21951099	    159.18259150	     -8.08413599	    -11.19800688	-578367.79607607	     -0.03363542	      4.19442735	     -0.03549416	    -13.38353635	    -13.18823734	     -0.54974832	    -20.86874810	      3.49717083	      3.39170484	 528500.83101730	      0.69681242	      7.74347258	      5.01750561	-1107383.59667747	     -0.16478970	     -0.12054185	     -0.08180290	      0.00001056	     -0.00106932	      0.25919696	     -0.94301778	      0.43999323	     -0.55400241
      4.85500000	   9819.41983774	-1541419.22513404	-485415.93698198	     21.35615598	   1600.03215102	   1761.10189036	  70374.52890768	-743007.78870514	1358054.05537770	     33.93834691	    -10.86970466	      3.15787324	    149.39952249	     -7.17692949	     -8.15817667	-590400.64684468	     -0.03282209	      3.16067978	     -0.03591404	    -13.86823903	    -13.40764813	     -0.26377094	    -21.33334277	      3.21853959	      3.15270083	 541107.88916823	      0.60130540	      7.76288549	      4.87467660	-1121018.23248151	     -0.18300390	     -0.12358030	     -0.08310890	      0.00681286	      0.00675498	      0.28417769	     -0.92506650	      0.40654015	     -0.53166591
      4.86000000	  17795.60147307	-1550656.11035638	-471002.44758663	     37.03159078	   1598.32800352	   1762.86604091	  81444.86917421	-772212.31934442	1344960.54887103	     32.77805335	    -11.81657547	      4.22066280	    139.67034654	     -5.96400518	     -4.52624754	-602526.60709431	     -0.03204061	      2.18496237	     -0.03630941	    -14.32093687	    -13.35374872	      0.11692686	    -21.75076281	      2.92338370	      2.88114064	 553478.37887378	      0.50399384	      7.75117117	      4.70913267	-1134565.19075143	     -0.20786339	     -0.12518896	     -0.08337440	      0.01365071	      0.01483021	      0.31757763	     -0.90075897	      0.37007292	     -0.50626095
      4.86500000	  25679.60200490	-1558392.62637400	-454908.65957007	     51.29557699	   1596.38206038	   1762.06796737	  92543.93850531	-800993.23118731	1329447.74504000	     31.22587808	    -13.04753356	      5.37266678	    129.96156887	     -4.47152128	     -0.33497375	-614226.86514779	     -0.03138839	      1.32865273	     -0.03672492	    -14.69342179	    -13.01064688	      0.57388015	    -22.08922623	      2.64329707	      2.59405190	 565070.08454737	      0.40932160	      7.71166207	      4.53169856	-1147312.53924623	     -0.23903561	     -0.12553868	     -0.08251313	      0.02028102	      0.02288875	      0.35786969	     -0.87165972	      0.33321597	     -0.47934584
      4.87000000	  33614.29683253	-1565452.74243184	-437467.55647920	     64.45182842	   1596.21659943	   1760.36536837	 103840.65980826	-829793.80567878	1312187.12972864	     29.27630202	    -14.54524094	      6.56892088	    120.23088698	     -2.73522510	      4.37546310	-625938.35218262	     -0.03098115	      0.65498821	     -0.03723330	    -14.93942371	    -12.38005253	      1.08169908	    -22.31591557	      2.40724217	      2.31051513	 576251.31266440	      0.32292662	      7.64541052	      4.35213254	-1159930.71253766	     -0.27595577	     -0.12487531	     -0.08041775	      0.02641142	      0.03059595	      0.40269755	     -0.83913837	      0.29880136	     -0.45232551
      4.87500000	  41781.44892474	-1572601.81115685	-419012.08583056	     76.87043195	   1599.64212247	   1759.35878090	 115539.01128900	-859119.36850234	1293731.27375071	     26.94996305	    -16.27368115	      7.75546671	    110.43428596	     -0.80342800	      9.54495226	-638115.47644522	     -0.03086298	      0.22571062	     -0.03793798	    -15.01938809	    -11.48318107	      1.61031555	    -22.39920904	      2.23845546	      2.05010555	 587422.86842718	      0.25152801	      7.55045765	      4.17793366	-1173097.81745279	     -0.31781563	     -0.12347231	     -0.07697920	      0.03169720	      0.03755276	      0.44907657	     -0.80414873	      0.26960735	     -0.42627722
      4.88000000	  50216.61166764	-1578479.67834627	-399412.71730238	     88.39648189	   1606.00963467	   1758.18735972	 127592.42365308	-888423.87531600	1272858.66728751	     24.30635275	    -18.14945447	      8.85292987	    100.53562043	      1.26014262	     15.07654949	-650251.47572839	     -0.03108898	      0.09690006	     -0.03871476	    -14.90511116	    -10.36151663	      2.12777979	    -22.31134562	      2.15164979	      1.83098538	 598141.37708711	      0.20240884	      7.42149014	      4.01331158	-1186002.23981455	     -0.36232746	     -0.12157476	     -0.07211080	      0.03575332	      0.04329022	      0.49366952	     -0.76704105	      0.24806081	     -0.40178979
      4.88500000	  58862.00747787	-1582078.88730447	-378654.15677997	     98.69896985	   1614.19267974	   1756.14657936	 139863.56515130	-917210.06693184	1248737.95854152	     21.41719569	    -20.10824852	      9.80186961	     90.51624517	      3.37781044	     20.82676064	-661901.84633944	     -0.03183768	      0.31649955	     -0.03976820	    -14.58369857	     -9.07567054	      2.60330271	    -22.03115139	      2.15089090	      1.66782276	 607991.19017473	      0.18375628	      7.25010134	      3.85853440	-1198016.72890280	     -0.40871456	     -0.11935763	     -0.06576814	      0.03816787	      0.04731699	      0.53309380	     -0.72746181	      0.23594575	     -0.37886264
      4.89000000	  67439.33791345	-1585976.26377115	-357279.39583881	    107.30926890	   1623.22195723	   1755.94201536	 152173.80129841	-946745.03457848	1223595.67580209	     18.38373138	    -22.05567667	     10.53271311	     80.38180650	      5.46514838	     26.61073361	-673788.24050445	     -0.03323760	      0.91830526	     -0.04124528	    -14.06001089	     -7.70147141	      3.01016829	    -21.54611050	      2.22877058	      1.56994020	 617543.23506907	      0.20365240	      7.02585820	      3.70991294	-1210974.38277254	     -0.45546537	     -0.11691548	     -0.05795994	      0.03850860	      0.04911473	      0.56422060	     -0.68440071	      0.23418210	     -0.35691658
      4.89500000	  75651.98638193	-1592623.04400398	-335717.55250822	    113.87029955	   1632.56732272	   1760.11855069	 164336.54966699	-978437.86474893	1199413.18944488	     15.32525983	    -23.88470280	     10.97986879	     70.16598830	      7.44019448	     32.21835780	-686599.09276308	     -0.03541321	      1.91781917	     -0.04330001	    -13.35674150	     -6.32329658	      3.32804656	    -20.85310869	      2.36741895	      1.54027430	 627343.41944463	      0.26963905	      6.73810327	      3.56051422	-1226715.67419391	     -0.50105317	     -0.11427763	     -0.04874848	      0.03635050	      0.04817208	      0.58443721	     -0.63639991	      0.24274453	     -0.33492413
      4.90000000	  83371.18151335	-1600337.75577712	-313941.53055048	    118.55001232	   1643.21701366	   1767.29780180	 176113.67120627	-1011682.28534406	1174649.25102554	     12.37014771	    -25.48203272	     11.08881506	     59.93265615	      9.22825286	     37.42824154	-699623.03777530	     -0.03847819	      3.30789500	     -0.04609385	    -12.51204213	     -5.02587285	      3.54431604	    -19.95784389	      2.54120477	      1.57538890	 636781.81875172	      0.38807160	      6.37805900	      3.40144164	-1244290.14399028	     -0.54413970	     -0.11142694	     -0.03824753	      0.03130509	      0.04401820	      0.59185048	     -0.58186733	      0.26072501	     -0.31161473
      4.90500000	  90621.35220392	-1607062.39808725	-291934.46915428	    121.82548386	   1656.03928956	   1775.66834760	 187383.32812389	-1045435.66444309	1147521.70787194	      9.69177507	    -26.66702603	     10.78351505	     49.77640477	     10.76125753	     42.01498217	-712110.25258022	     -0.04306351	      5.05246108	     -0.05032621	    -11.57541798	     -3.88604629	      3.65429650	    -18.87350332	      2.72021711	      1.66628452	 645271.83262041	      0.56294334	      5.94068639	      3.22333903	-1262330.35524682	     -0.58082624	     -0.10831038	     -0.02662271	      0.02301206	      0.03622221	      0.58541005	     -0.51940371	      0.28648415	     -0.28569450
      4.91000000	  97874.56578138	-1613354.69202540	-269655.49058541	    124.23634580	   1670.24984573	   1785.74814075	 198610.43664059	-1079688.46763056	1118394.39796255	      7.41267236	    -27.32672153	     10.05089849	     39.82014249	     11.97623305	     45.75611977	-724677.91813333	     -0.04928343	      7.09015239	     -0.05635281	    -10.60260604	     -2.96542977	      3.66055608	    -17.61920670	      2.87366108	      1.79967191	 653457.83546152	      0.79604084	      5.42595061	      3.01779423	-1280977.80711020	     -0.61025873	     -0.10484538	     -0.01408964	      0.01126618	      0.02450599	      0.56494449	     -0.44808417	      0.31784825	     -0.25603997
      4.91500000	 105690.48877536	-1620179.28071918	-247072.95823016	    126.40045852	   1684.75071082	   1798.34510698	 210373.24323419	-1114711.91771600	1087915.89867122	      5.62132609	    -27.38974240	      8.91985238	     30.20935455	     12.81594606	     48.44324734	-738252.13679324	     -0.05717157	      9.33141754	     -0.06420974	     -9.64992434	     -2.30442691	      3.57159862	    -16.21841132	      2.97275595	      1.95949606	 662248.15433647	      1.08598099	      4.83939866	      2.77844161	-1300690.81776876	     -0.63304099	     -0.10092474	     -0.00090586	     -0.00399701	      0.00876695	      0.53112829	     -0.36767409	      0.35232865	     -0.22184597
      4.92000000	 114509.84161308	-1627551.11688675	-224462.60045384	    129.12222394	   1699.52474113	   1813.51340308	 223079.76688651	-1150562.52560299	1055837.07844714	      4.39500126	    -26.78877138	      7.43647213	     21.10392806	     13.23157371	     49.89615517	-753305.16249145	     -0.06681552	     11.66057300	     -0.07404716	     -8.76860352	     -1.91805986	      3.40029650	    -14.69736154	      2.99300085	      2.12852184	 672255.49698095	      1.42728274	      4.19209253	      2.50166607	-1321530.20016356	     -0.64914943	     -0.09641960	      0.01264177	     -0.02267390	     -0.01090909	      0.48541040	     -0.27877323	      0.38733797	     -0.18271751
      4.92500000	 124497.33189532	-1634935.19345029	-202112.11531885	    133.16009141	   1713.97037965	   1830.75164537	 236827.19679779	-1186912.07197385	1021593.78904568	      3.86341439	    -25.29226963	      5.58695921	     12.66823233	     13.18674230	     49.97764397	-769794.31208253	     -0.07708038	     13.95024965	     -0.08425551	     -7.99958946	     -1.79398302	      3.16239298	    -13.08362721	      2.91576729	      2.28980815	 683695.77804749	      1.80847651	      3.49999167	      2.18688318	-1343119.03967351	     -0.65090756	     -0.09118150	      0.02625147	     -0.04454788	     -0.03431156	      0.42992610	     -0.18288528	      0.42038013	     -0.13870321
      4.93000000	 134847.17652948	-1640479.42610995	-180034.38899835	    137.40118818	   1725.99546059	   1847.82807814	 250644.84266836	-1222265.54286673	 984256.88502810	      3.97443467	    -23.01615723	      3.53492387	      5.05985553	     12.66307935	     48.60727792	-786166.91871258	     -0.08671166	     16.05978700	     -0.09365844	     -7.36920439	     -1.89300130	      2.87529306	    -11.40480189	      2.72920744	      2.42794563	 695425.86932824	      2.21618633	      2.78288633	      1.83643220	-1363836.15721795	     -0.64279135	     -0.08504648	      0.03962138	     -0.06906833	     -0.06081637	      0.36740007	     -0.08241025	      0.44920252	     -0.09027532
      4.93500000	 144781.58003681	-1642284.36347569	-158256.78325858	    140.81620547	   1732.95767258	   1862.36993517	 263571.08280108	-1254859.34134265	 943116.27501724	      4.66984715	    -20.05777733	      1.42353289	     -1.58216674	     11.66729097	     45.77268564	-800948.83680380	     -0.09525521	     17.85391774	     -0.10169086	     -6.88603862	     -2.15234649	      2.55725136	     -9.68748404	      2.42851711	      2.52999317	 706320.32407768	      2.63219018	      2.06297496	      1.45517418	-1381836.53209748	     -0.62629150	     -0.07784398	      0.05246444	     -0.09545679	     -0.08957719	      0.30103903	      0.01944717	      0.47190879	     -0.03826857
      4.94000000	 154605.90115296	-1639595.29902594	-136795.24099082	    144.07942761	   1732.78456859	   1872.98356463	 275791.79322494	-1283483.58080409	 898165.32089846	      5.96317277	    -16.30583245	     -0.69815721	     -7.14810879	     10.23868785	     41.53701851	-814078.57520848	     -0.10303701	     19.20593766	     -0.10964477	     -6.53946212	     -2.49180246	      2.22693501	     -7.95660208	      2.01567344	      2.58611142	 716631.55900660	      3.03300622	      1.36320417	      1.04993504	-1395966.27539566	     -0.59271550	     -0.06941269	      0.06452249	     -0.12281444	     -0.11962324	      0.23440392	      0.11886011	      0.48703919	      0.01620283
      4.94500000	 164691.88640485	-1631828.39314816	-115711.72647508	    147.68846948	   1723.24849765	   1878.01860059	 287568.72504303	-1307032.68361197	 849628.99425241	      7.68367517	    -12.00481256	     -2.65327416	    -11.56587412	      8.45527667	     36.04152050	-825465.65727495	     -0.11228295	     20.04991100	     -0.11940283	     -6.30009045	     -2.82244675	      1.90318076	     -6.23503187	      1.49882806	      2.58993288	 726721.14479923	      3.39453165	      0.70552385	      0.62892913	-1405183.74684662	     -0.54474087	     -0.05962523	      0.07557863	     -0.15004461	     -0.14963745	      0.17124261	      0.21165171	      0.49362679	      0.07183003
      4.95000000	 174578.61695226	-1617958.62181370	 -95317.97112748	    150.51916614	   1701.06434935	   1876.29858505	 298309.63862685	-1324245.93587017	 797685.90932453	      9.62363812	     -7.44943722	     -4.28955138	    -14.80696370	      6.43665962	     29.50331284	-834183.02548882	     -0.12263481	     20.36691577	     -0.13041363	     -6.12247209	     -3.05737383	      1.60464778	     -4.54345269	      0.89153767	      2.53870714	 736014.10386301	      3.69212046	      0.10917870	      0.20123172	-1408227.24613254	     -0.48548474	     -0.04842183	      0.08546730	     -0.17581787	     -0.17814901	      0.11525873	      0.29365459	      0.49123202	      0.12718655
      4.95500000	 183570.40591060	-1596590.03830021	 -76002.80676439	    151.50798487	   1662.81375142	   1866.12426686	 307167.34525904	-1333566.87009276	 742476.32887130	     11.74596850	     -2.49531097	     -5.62703185	    -16.89107811	      4.34149400	     22.20792999	-838934.32661986	     -0.13127345	     20.20623071	     -0.13646198	     -5.95014150	     -3.12339634	      1.34903266	     -2.90042062	      0.21195759	      2.43324407	 743500.75847058	      3.90039834	     -0.41086397	     -0.22366345	-1403520.95843569	     -0.40151011	     -0.03584722	      0.09408019	     -0.19897414	     -0.20391107	      0.06980529	      0.36114631	      0.47995199	      0.18079461
      4.96000000	 190895.24117616	-1565195.66365517	 -58168.10832211	    149.21879955	   1606.51295413	   1842.51701821	 313141.06654040	-1332438.41862130	 683754.91347137	     13.75507868	      2.45700294	     -6.54407042	    -17.88761955	      2.35477063	     14.49084351	-837723.63299382	     -0.13375471	     19.64117034	     -0.13659528	     -5.72267307	     -2.97210595	      1.15165915	     -1.32264980	     -0.51794053	      2.27764645	 747552.61778337	      3.99994693	     -0.84515903	     -0.63614025	-1388475.13097501	     -0.30022359	     -0.02207212	      0.10136208	     -0.21833872	     -0.22534446	      0.03753988	      0.41130980	      0.46039093	      0.23118348
      4.96500000	 195802.15739068	-1521124.71548087	 -42145.56445120	    142.43036624	   1531.34502837	   1801.45329150	 315248.79660974	-1318032.11165115	 621566.20471073	     15.44639475	      7.19412549	     -7.02202508	    -17.91013613	      0.66203827	      6.70243545	-828638.00457323	     -0.13192485	     18.79873134	     -0.13201653	     -5.38354972	     -2.58753593	      1.02374246	      0.17447886	     -1.27322636	      2.07877230	 746287.10671802	      3.97688541	     -1.19037090	     -1.02658663	-1360314.05112489	     -0.18414706	     -0.00737826	      0.10729070	     -0.23267942	     -0.24114722	      0.02014618	      0.44260690	      0.43357265	      0.27694793
      4.97000000	 197683.06817017	-1462609.33194613	 -27891.92792372	    131.41930445	   1438.09283811	   1743.14193248	 312720.22810417	-1288042.02778837	 556898.76442509	     16.86514305	     11.95635956	     -7.16904268	    -17.10491008	     -0.58199443	     -0.83375315	-810227.47023605	     -0.12832505	     17.83176615	     -0.12819834	     -4.88741648	     -1.98773289	      0.97099062	      1.57624173	     -2.02718652	      1.84543294	 737973.33326930	      3.82303730	     -1.44892673	     -1.38544536	-1316925.67589398	     -0.04160927	      0.00788666	      0.11184846	     -0.24124744	     -0.25052383	      0.01821067	      0.45494728	      0.40080626	      0.31680683
      4.97500000	 195392.25929563	-1388245.01256129	 -15468.78621845	    115.23181152	   1328.54904897	   1665.86215616	 304311.49812350	-1240669.51154376	 491060.51145520	     17.73607515	     16.42383331	     -6.96924174	    -15.64034969	     -1.27756491	     -7.84989852	-780592.93753781	     -0.12528566	     16.91920992	     -0.12341472	     -4.20585478	     -1.22009499	      0.99287436	      2.86795860	     -2.75286124	      1.58751779	 720306.33158651	      3.54361114	     -1.62780126	     -1.70333928	-1256801.62544507	      0.11442019	      0.02335158	      0.11500284	     -0.24354215	     -0.25280742	      0.03123629	      0.44961873	      0.36355448	      0.34965253
      4.98000000	 185389.94288470	-1295407.62451492	  -5609.98086351	     89.03802655	   1204.02764982	   1558.92817267	 286370.30902202	-1173565.85499340	 424892.90750789	     18.01799032	     20.61658836	     -6.49754784	    -13.70007746	     -1.39088881	    -14.14248573	-735296.13987334	     -0.12125532	     16.20443514	     -0.11721633	     -3.33124108	     -0.35269787	      1.08243328	      4.03469795	     -3.42469212	      1.31526594	 688209.33426437	      3.15191515	     -1.73681356	     -1.97135407	-1178061.78162188	      0.28100919	      0.03864227	      0.11670423	     -0.23938060	     -0.24796369	      0.05771980	      0.42903062	      0.32334166	      0.37458810
      4.98500000	 164226.67404520	-1175564.45564955	   1145.23318978	     49.82498869	   1066.95977337	   1412.67985319	 254920.46107026	-1078798.88302807	 357328.75820579	     17.86290927	     24.86103308	     -5.86201565	    -11.47646889	     -0.95518661	    -19.56883528	-667356.14893171	     -0.11502421	     15.79429756	     -0.10682760	     -2.27836485	      0.53591426	      1.22648232	      5.06140894	     -4.01999064	      1.03873026	 634054.69874808	      2.66821374	     -1.78688657	     -2.18145056	-1073551.85810545	      0.46482347	      0.05338467	      0.11689529	     -0.22915602	     -0.23663265	      0.09525370	      0.39634977	      0.28169355	      0.39095528
      4.99000000	 133076.34828592	-1009311.77684700	   5011.42040984	      2.98413198	    923.25261948	   1229.81073228	 209812.91875033	-937369.00432648	 284098.88670788	     17.19311726	     28.84585393	     -5.07245444	     -9.16080155	     -0.06683858	    -24.04252601	-568929.02443774	     -0.10553521	     15.70438366	     -0.09491056	     -1.08369294	      1.36673842	      1.40631816	      5.93340066	     -4.52001208	      0.76736396	 549227.45701019	      2.12406961	     -1.78864858	     -2.32693108	-925279.78927925	      0.64878913	      0.06720712	      0.11552147	     -0.21365240	     -0.21962923	      0.14066376	      0.35510808	      0.24008049	      0.39835601
      4.99500000	  96151.50167618	-800351.23449162	   6089.65983786	    -46.96873245	    778.56972150	   1011.69348248	 155849.58334270	-751535.67634742	 208396.14485729	     16.10520620	     32.49097421	     -4.17901651	     -6.92931537	      1.12301150	    -27.53069942	-445132.65645755	     -0.09517557	     15.89555477	     -0.08260082	      0.19767596	      2.06916100	      1.59914151	      6.63704856	     -4.91057364	      0.50970275	 436981.98790951	      1.55383651	     -1.75159653	     -2.40292218	-736468.82165150	      0.82512547	      0.07975015	      0.11254057	     -0.19387781	     -0.19835007	      0.19021099	      0.30884634	      0.19985732	      0.39667010
      5.00000000	  52323.25331941	-588598.11980127	   4269.38561272	   -108.00285056	    632.95651306	    737.74762573	  95260.75909562	-559232.07149383	 142746.03983847	     14.73861407	     35.69180674	     -3.22791581	     -4.92764698	      2.42518981	    -30.04875765	-312546.82488317	     -0.08437687	     16.27007556	     -0.07036130	      1.49708630	      2.58791621	      1.78016663	      7.16067341	     -5.18233104	      0.27315787	 312552.17757835	      0.99290027	     -1.68385467	     -2.40684058	-545629.82161626	      0.98690949	      0.09067913	      0.10793700	     -0.17131189	     -0.17450334	      0.23985177	      0.26083620	      0.16221798	      0.38606446
      5.00500000	  -7731.99309898	-344860.46139237	    315.34904272	   -181.08203618	    486.81669693	    409.08956666	  16870.29055807	-333389.41095184	  81769.37178132	     13.22063441	     38.23863686	     -2.25866225	     -3.25681149	      3.63744366	    -31.65034535	-149152.32207374	     -0.07351891	     16.68649241	     -0.05865547	      2.73879385	      2.88738534	      1.92504961	      7.49550375	     -5.33080648	      0.06389304	 153992.91808240	      0.47483710	     -1.59243602	     -2.33874906	-327626.95943493	      1.12542100	      0.09969499	      0.10174040	     -0.14762929	     -0.14987336	      0.28551813	      0.21390363	      0.12817042	      0.36698420
      5.01000000	 -43510.41458103	 -93364.71673534	  -2346.73184897	   -226.12328501	    347.66412384	    135.13590848	 -36906.29317311	 -94090.62014315	  26006.83603294	     11.67322557	     39.89542969	     -1.31270291	     -1.96302184	      4.57216242	    -32.41540006	  -2685.14789155	     -0.06279828	     16.98811607	     -0.04749992	      3.84710076	      2.95294338	      2.01223351	      7.63655682	     -5.35613953	     -0.11327608	   7078.46126805	      0.02781714	     -1.48381164	     -2.20151273	 -97616.20440720	      1.23277743	      0.10654545	      0.09404073	     -0.12453987	     -0.12613744	      0.32339228	      0.17035177	      0.09851567	      0.34012421
      5.01500000	 -14743.34248216	  -3536.76412878	   -916.70448919	   -210.64276312	    223.25676243	     13.16427007	 -14451.28751340	  -4535.62413861	   2588.72072050	     10.15684792	     40.35033828	     -0.43108570	     -1.03316020	      5.08125533	    -32.43866662	  11913.06756059	     -0.05239155	     17.02686458	     -0.03723964	      4.75347866	      2.78974959	      2.02494501	      7.58331604	     -5.26255835	     -0.25500780	 -10896.54269701	     -0.32710783	     -1.36451497	     -2.00073017	  -6641.19888893	      1.29939738	      0.11103800	      0.08499334	     -0.10358982	     -0.10463977	      0.35016452	      0.13195538	      0.07381691	      0.30638632
      5.02000000	      5.95585129	    -23.23402065	    -35.28540566	   -172.63685402	    116.92950645	    -16.17134276	     -2.41128446	     25.40225895	      2.39898150	      8.67851828	     39.30425795	      0.34484871	     -0.39713166	      5.07400224	    -31.82026517	     19.07515406	     -0.04264980	     16.68990211	     -0.02814949	      5.40299294	      2.41971585	      1.95268645	      7.34018012	     -5.05769822	     -0.35958559	     -0.56519134	     -0.57778826	     -1.24151632	     -1.74444143	      1.12136882	      1.31642929	      0.11305349	      0.07481205	     -0.08596913	     -0.08628231	      0.36326783	      0.09998961	      0.05436069	      0.26682771
      5.02500000	   -622.81238442	    104.16012562	    -65.50247780	   -154.85411250	     29.91419494	    -34.04084231	   -643.12628031	    104.78818603	     58.18980055	      7.19710509	     36.52609794	      0.97909931	      0.06250841	      4.52501812	    -30.65992911	    662.99660738	     -0.03387300	     15.91610570	     -0.02039209	      5.75939490	      1.87743810	      1.79213063	      6.91669619	     -4.75194110	     -0.42702991	   -608.24218442	     -0.72148603	     -1.12216424	     -1.44263338	    -39.95090932	      1.27711434	      0.11255858	      0.06375246	     -0.07239778	     -0.07147104	      0.36108091	      0.07525691	      0.04012788	      0.22260787
      5.03000000	     22.41361545	    -13.04203343	    -31.25386744	   -147.49832287	    -38.13608056	    -52.08801220	      3.65782754	     27.55624629	      3.19774734	      5.64028118	     31.89784653	      1.44754278	      0.49373219	      3.47230957	    -29.05398405	     15.45155326	     -0.02626961	     14.70207522	     -0.01401150	      5.80831945	      1.20582810	      1.54734430	      6.32758718	     -4.35790316	     -0.45910141	     -0.77279629	     -0.76434864	     -1.01360117	     -1.10661753	      1.22788344	      1.17805849	      0.10961164	      0.05209113	     -0.06307882	     -0.06013919	      0.34307561	      0.05808743	      0.03079281	      0.17494231
      5.03500000	    -20.23750870	     -0.12881874	    -33.09291338	   -132.86691268	    -88.45642014	    -65.79532280	    -41.65541079	     30.74457590	      5.14747094	      3.92756153	     25.43944077	      1.74256293	      1.05205301	      2.00739620	    -27.09251343	     60.06747100	     -0.01994419	     13.09795019	     -0.00895421	      5.55812680	      0.45204454	      1.22930919	      5.59258499	     -3.89013092	     -0.45919663	    -44.41278233	     -0.71991494	     -0.92177091	     -0.74840350	     -2.56685117	      1.02004383	      0.10435720	      0.04010721	     -0.05773059	     -0.05183760	      0.30987544	      0.04831824	      0.02575304	      0.12506942
      5.04000000	     32.35174845	     -7.60687193	    -26.32805892	   -113.60467942	   -122.32030798	    -75.12404837	     10.08519350	     18.51359366	      3.24366770	      1.99325796	     17.30964144	      1.87399547	      1.87454766	      0.25872465	    -24.85673327	      9.18692017	     -0.01490673	     11.19509445	     -0.00510274	      5.03828455	     -0.33591539	      0.85480809	      4.73608220	     -3.36497396	     -0.43218245	     -0.48802208	     -0.60689030	     -0.85031691	     -0.38016901	      0.96289468	      0.80816715	      0.09701096	      0.02806810	     -0.05568549	     -0.04586693	      0.26320801	      0.04527774	      0.02417758	      0.07423307
      5.04500000	     32.26711514	     -6.16450770	    -23.35156978	    -95.95839092	   -141.37951339	    -81.06683142	     10.16161857	     10.59782890	      3.44461404	     -0.19614362	      7.78535644	      1.86630095	      3.05590988	     -1.63031534	    -22.41858014	      8.39702833	     -0.01109374	      9.10887980	     -0.00230831	      4.29563886	     -1.11189196	      0.44482766	      3.78661579	     -2.80051423	     -0.38417258	     -3.21241362	     -0.44654623	     -0.79969154	     -0.01383997	      0.43948634	      0.55129405	      0.08784237	      0.01621901	     -0.05602765	     -0.04142174	      0.20575905	      0.04779900	      0.02506702	      0.02367507
      5.05000000	     36.39648273	     -6.50386176	    -20.69413563	    -80.49992216	   -147.76188941	    -83.72799362	     15.54616494	      0.10106354	      2.46501638	     -2.63387781	     -2.77374948	      1.75327201	      4.63130157	     -3.52512923	    -19.84305725	      1.20154647	     -0.00839234	      6.96031035	     -0.00041515	      3.38915747	     -1.83365214	      0.02266339	      2.77617641	     -2.21638971	     -0.32219234	      0.12224079	     -0.26012422	     -0.76672951	      0.33926235	      0.39937739	      0.26098011	      0.07715988	      0.00477761	     -0.05773817	     -0.03772275	      0.14094580	      0.05427875	      0.02733135	     -0.02537423
      5.05500000	     36.29042216	     -6.82349368	    -17.75969490	    -66.49573723	   -143.73780870	    -83.21872948	     17.35235460	    -11.13916139	      1.78183525	     -5.27416357	    -13.96680955	      1.57203372	      6.56883842	     -5.32051442	    -17.19210255	     -2.68284766	     -0.00666170	      4.85976131	      0.00072568	      2.38386132	     -2.46458761	     -0.38808615	      1.73928271	     -1.63334919	     -0.25369411	      0.22720866	     -0.06658742	     -0.74483697	      0.66872662	      0.03144191	     -0.04989291	      0.06530001	     -0.00606520	     -0.05982605	     -0.03412185	      0.07262963	      0.06279167	      0.02988695	     -0.07171233
      5.06000000	     36.07560977	     -7.56095049	    -14.45690158	    -54.34810030	   -131.50101793	    -80.11332465	     19.54314552	    -23.00187757	      1.19373996	     -8.03975141	    -25.39156706	      1.35777176	      8.77247251	     -6.95420542	    -14.52830865	     -7.07079182	     -0.00574952	      2.89496818	      0.00125053	      1.34476663	     -2.97514241	     -0.76545602	      0.71173343	     -1.07244368	     -0.18594728	      0.83028298	      0.11901102	     -0.72480088	      0.96529840	     -0.30192211	     -0.36849378	      0.05261843	     -0.01613917	     -0.06143359	     -0.03017016	      0.00479208	      0.07125501	      0.03176194	     -0.11418602
      5.06500000	     34.72909959	     -8.19546144	    -11.20007588	    -44.43658305	   -113.12697442	    -75.13071193	     20.98120737	    -34.67077256	      0.54362064	    -10.83211371	    -36.67667181	      1.14001405	     11.09438513	     -8.41120165	    -11.91711120	    -10.86230910	     -0.00550295	      1.12427688	      0.00128249	      0.33158875	     -3.34398409	     -1.09080292	     -0.27098673	     -0.55388260	     -0.12538047	      1.14783713	      0.28638575	     -0.69609053	      1.22106367	     -0.65076996	     -0.68319883	      0.03948126	     -0.02528607	     -0.06190999	     -0.02564453	     -0.05879379	      0.07762626	      0.03219331	     -0.15171564
      5.07000000	     32.65504906	     -8.62646551	     -8.04274184	    -36.51355245	    -90.56239290	    -68.92527530	     21.97029287	    -45.65988073	     -0.11377113	    -13.54178897	    -47.50350853	      0.94068823	     13.35472419	     -9.71859239	     -9.42663359	    -14.21813817	     -0.00577520	     -0.42483086	      0.00093291	     -0.60526490	     -3.55882412	     -1.35008645	     -1.17554668	     -0.09568751	     -0.07699178	      1.43634464	      0.43009159	     -0.64843151	      1.42958162	     -0.97238735	     -0.98438029	      0.02625552	     -0.03335212	     -0.06084925	     -0.02053502	     -0.11486150	      0.08010949	      0.03069731	     -0.18332331
      5.07500000	     29.96907292	     -8.80400403	     -5.00914244	    -30.09107436	    -65.61387365	    -62.08982884	     22.54315724	    -55.57850693	     -0.67342294	    -16.05738760	    -57.61709057	      0.77371838	     15.36552036	    -10.93248965	     -7.12502943	    -17.03438684	     -0.00642898	     -1.75284899	      0.00030334	     -1.42712983	     -3.61673156	     -1.53464461	     -1.97263453	      0.28764306	     -0.04394399	      1.65754304	      0.54894773	     -0.57336768	      1.58598677	     -1.25756997	     -1.26476803	      0.01329814	     -0.04018465	     -0.05809333	     -0.01500322	     -0.16088828	      0.07733785	      0.02709910	     -0.20816816
      5.08000000	     26.73299181	     -8.73080228	     -2.21070472	    -24.69864367	    -39.94923341	    -55.14606605	     22.69148370	    -64.15786798	     -1.11696050	    -18.27231237	    -66.82728749	      0.64563746	     16.95484755	    -12.12015054	     -5.07584986	    -19.26338495	     -0.00733802	     -2.88245877	     -0.00051382	     -2.10790094	     -3.52383037	     -1.64142907	     -2.63858713	      0.58621142	     -0.02741274	      1.82421804	      0.64504382	     -0.46551192	      1.68707332	     -1.49751456	     -1.51941386	      0.00094318	     -0.04563474	     -0.05370701	     -0.00932478	     -0.19524679	      0.06849949	      0.02151898	     -0.22558753
      5.08500000	     22.98736022	     -8.44436579	      0.23371380	    -19.87916961	    -15.09487421	    -48.50378875	     22.37027338	    -71.24011815	     -1.45193099	    -20.08924049	    -75.00251372	      0.55663191	     17.98722156	    -13.34128318	     -3.33252673	    -20.86076801	     -0.00838742	     -3.85124080	     -0.00143618	     -2.63343354	     -3.29437098	     -1.67272227	     -3.15658402	      0.79535499	     -0.02668954	      1.92631427	      0.72257296	     -0.32326670	      1.73136444	     -1.68949586	     -1.74535960	     -0.01051190	     -0.04956593	     -0.04793450	     -0.00382898	     -0.21725738	      0.05338763	      0.01432171	     -0.23513847
      5.09000000	     18.85904634	     -8.00630434	      2.24852412	    -15.20528255	      7.59049006	    -42.45083476	     21.59083153	    -76.76881146	     -1.67796663	    -21.42366236	    -82.05807351	      0.50165680	     18.37742328	    -14.63242644	     -1.93319245	    -21.83808941	     -0.00947380	     -4.70391539	     -0.00239318	     -2.99991437	     -2.94922339	     -1.63540786	     -3.51728269	      0.91574964	     -0.03948937	      1.96957801	      0.78669651	     -0.14893591	      1.71915943	     -1.83338785	     -1.94113841	     -0.02081923	     -0.05186760	     -0.04114725	      0.00115432	     -0.22714239	      0.03237378	      0.00604229	     -0.23663224
      5.09500000	     14.53055821	     -7.46483018	      3.78789883	    -10.34396457	     26.96442374	    -37.17179047	     20.39353450	    -80.75238557	     -1.79984673	    -22.20772907	    -87.94171674	      0.47159588	     18.09664728	    -15.99700270	     -0.89672532	    -22.23628935	     -0.01050579	     -5.48496018	     -0.00332773	     -3.21166325	     -2.51390695	     -1.53992337	     -3.71883501	      0.95298898	     -0.06239275	      1.96248267	      0.84257864	      0.05171248	      1.65253814	     -1.93142312	     -2.10622650	     -0.02979157	     -0.05246967	     -0.03378905	      0.00533453	     -0.22590164	      0.00631777	     -0.00269687	     -0.23015633
      5.10000000	     10.21387264	     -6.83438865	      4.82847444	     -5.09734228	     42.15714874	    -32.76835438	     18.83472047	    -83.23408563	     -1.83362803	    -22.39441654	    -92.61973215	      0.45462954	     17.17095391	    -17.40263877	     -0.22053641	    -22.11224916	     -0.01140503	     -6.23239285	     -0.00419743	     -3.27884351	     -2.01640295	     -1.39907078	     -3.76633503	      0.91676526	     -0.09136036	      1.91356312	      0.89465340	      0.27026753	      1.53530382	     -1.98707881	     -2.24053832	     -0.03731039	     -0.05135621	     -0.02632079	      0.00848601	     -0.21513997	     -0.02356069	     -0.01126819	     -0.21608242
      5.10500000	      6.13271406	     -6.09610015	      5.37498459	      0.58586321	     52.61837762	    -29.27415702	     16.98726369	    -84.27392009	     -1.79956084	    -21.96131486	    -96.06660430	      0.43789498	     15.67293394	    -18.78656799	      0.11937853	    -21.53368773	     -0.01210736	     -6.97325984	     -0.00497505	     -3.21544366	     -1.48504971	     -1.22683183	     -3.67081763	      0.81982813	     -0.12225943	      1.83124697	      0.94613389	      0.49667909	      1.37285489	     -2.00429436	     -2.34403816	     -0.04332891	     -0.04857640	     -0.01916728	      0.01046182	     -0.19687369	     -0.05582088	     -0.01911418	     -0.19506045
      5.11000000	      2.49756941	     -5.20999598	      5.46088822	      6.61301777	     58.13969033	    -26.66709080	     14.93612711	    -83.93913520	     -1.71709374	    -20.91332244	    -98.25961406	      0.40929835	     13.70859583	    -20.06767289	      0.16571914	    -20.57428345	     -0.01256367	     -7.72107660	     -0.00564785	     -3.03769082	     -0.94674780	     -1.03725981	     -3.44791667	      0.67683787	     -0.15132968	      1.72398928	      0.99875544	      0.72028100	      1.17198572	     -1.98694092	     -2.41651196	     -0.04786776	     -0.04425080	     -0.01267305	      0.01119770	     -0.17332967	     -0.08893035	     -0.02580547	     -0.16799820
      5.11500000	     -0.52267016	     -4.13230457	      5.14277895	     12.76768859	     58.84460089	    -24.87854854	     12.76784007	    -82.30098064	     -1.60383622	    -19.28327478	    -99.17806094	      0.35919851	     11.40193931	    -21.16143729	     -0.02490525	    -19.30716616	     -0.01274060	     -8.47529823	     -0.00621572	     -2.76295400	     -0.42559666	     -0.84348418	     -3.11634151	      0.50321353	     -0.17552162	      1.59916299	      1.05273737	      0.93071661	      0.94062528	     -1.93855756	     -2.45750282	     -0.05100314	     -0.03857046	     -0.00707421	      0.01070837	     -0.14674774	     -0.12137341	     -0.03107155	     -0.13602601
      5.12000000	     -2.81925775	     -2.83372284	      4.49461371	     18.75032920	     55.14804072	    -23.79971452	     10.56273886	    -79.43667639	     -1.47456500	    -17.12975629	    -98.80589359	      0.28170095	      8.87978157	    -21.99398006	     -0.38730207	    -17.80068299	     -0.01262072	     -9.22267628	     -0.00668830	     -2.40912044	      0.05801719	     -0.65686596	     -2.69641035	      0.31411203	     -0.19267132	      1.46249335	      1.10692968	      1.11869403	      0.68751665	     -1.86228414	     -2.46637880	     -0.05284999	     -0.03178806	     -0.00248984	      0.00907787	     -0.11920002	     -0.15173357	     -0.03480268	     -0.10044689
      5.12500000	     -4.34914844	     -1.31383623	      3.60290234	     24.23070566	     47.69424224	    -23.28906387	      8.39162247	    -75.43382930	     -1.33995723	    -14.53237085	    -97.13634936	      0.17540335	      6.25924433	    -22.51231219	     -0.85245563	    -16.11675399	     -0.01220236	     -9.94001776	     -0.00708141	     -1.99430187	      0.48789035	     -0.48636302	     -2.20883729	      0.12364006	     -0.20151736	      1.31818132	      1.15908796	      1.27653762	      0.42184596	     -1.76093370	     -2.44248496	     -0.05354304	     -0.02420264	      0.00106859	      0.00644633	     -0.09244227	     -0.17875164	     -0.03702956	     -0.06267369
      5.13000000	     -5.13058447	      0.39210460	      2.56144089	     28.90073415	     37.28293302	    -23.18207019	      6.31494472	    -70.39442851	     -1.20620037	    -11.58539368	    -94.17720094	      0.04352841	      3.63907852	    -22.68908165	     -1.35163962	    -14.31056525	     -0.01149892	    -10.59769605	     -0.00741288	     -1.53666306	      0.85203584	     -0.33818301	     -1.67386815	     -0.05567360	     -0.20159172	      1.16921221	      1.20621560	      1.39851327	      0.15286105	     -1.63713456	     -2.38533467	     -0.05321879	     -0.01614056	      0.00367488	      0.00299540	     -0.06781328	     -0.20136326	     -0.03788875	     -0.02415870
      5.13500000	     -5.23222882	      2.21424180	      1.46531406	     32.51910501	     24.79033191	    -23.29938708	      4.38335627	    -64.43689537	     -1.07549915	     -8.39085675	    -89.95540750	     -0.10652968	      1.09476197	    -22.52207661	     -1.82018591	    -12.43096927	     -0.01053720	    -11.16333792	     -0.00769829	     -1.05419917	      1.14236509	     -0.21575804	     -1.11077596	     -0.21316322	     -0.19302803	      1.01767297	      1.24492682	      1.48093490	     -0.11047752	     -1.49347988	     -2.29480953	     -0.05200126	     -0.00793596	      0.00545911	     -0.00106623	     -0.04619172	     -0.21872053	     -0.03758155	      0.01367671
      5.14000000	     -4.75857016	      4.05489302	      0.40501482	     34.93983280	     11.09073419	    -23.45274122	      2.63892687	    -57.69570300	     -0.94698866	     -5.05219749	    -84.52062463	     -0.26413477	     -1.32273048	    -22.03037719	     -2.20083923	    -10.52131362	     -0.00935470	    -11.60519416	     -0.00794668	     -0.56437680	      1.35416335	     -0.12000177	     -0.53763175	     -0.34012541	     -0.17634262	      0.86510718	      1.27178998	      1.52210936	     -0.35979653	     -1.33264192	     -2.17134787	     -0.04999301	      0.00008708	      0.00657752	     -0.00551602	     -0.02800639	     -0.23020496	     -0.03633420	      0.04950553
      5.14500000	     -3.83354514	      5.79935951	     -0.53863799	     36.12186615	     -3.01214637	    -23.45364365	      1.11649273	    -50.31863472	     -0.81782808	     -1.66907258	    -77.94762826	     -0.41670807	     -3.58462440	    -21.24890828	     -2.44638652	     -8.62036147	     -0.00799631	    -11.89486456	     -0.00815740	     -0.08364394	      1.48547258	     -0.04977662	      0.02878917	     -0.42981478	     -0.15223660	      0.71286164	      1.28362100	      1.52218300	     -0.58756305	     -1.15743795	     -2.01610486	     -0.04727199	      0.00763006	      0.00718542	     -0.01012831	     -0.01328904	     -0.23543685	     -0.03436451	      0.08214708
      5.15000000	     -2.58437942	      7.32910656	     -1.29887255	     36.12301602	    -16.83433158	    -23.12979186	     -0.15541364	    -42.46234449	     -0.68436511	      1.66696487	    -70.33785506	     -0.55129597	     -5.67953316	    -20.22271093	     -2.52156922	     -6.76301685	     -0.00651096	    -12.00943643	     -0.00831919	      0.37313381	      1.53649550	     -0.00248270	      0.57305158	     -0.47740862	     -0.12143640	      0.56235160	      1.27773290	      1.48292585	     -0.78729600	     -0.97085660	     -1.83107272	     -0.04389340	      0.01443262	      0.00741611	     -0.01468347	     -0.00175664	     -0.23428092	     -0.03185586	      0.11060763
      5.15500000	     -1.12863961	      8.53470697	     -1.82660493	     35.08010969	    -29.83610246	    -22.34682776	     -1.15481487	    -34.28732606	     -0.54317703	      4.87619010	    -61.82016553	     -0.65617714	     -7.60777018	    -19.00215114	     -2.40427979	     -4.98063313	     -0.00494868	    -11.93333566	     -0.00841169	      0.79320688	      1.50914073	      0.02534821	      1.08103962	     -0.47998055	     -0.08456858	      0.41521699	      1.25216709	      1.40746899	     -0.95373920	     -0.77605397	     -1.61915857	     -0.03989497	      0.02028257	      0.00736729	     -0.01897720	      0.00709296	     -0.22684315	     -0.02893695	      0.13411153
      5.16000000	      0.43331319	      9.32688698	     -2.09286534	     33.17872559	    -41.62161795	    -21.02888308	     -1.86794392	    -25.95318602	     -0.39184638	      7.89345965	    -52.55081042	     -0.72221167	     -9.37593745	    -17.63943219	     -2.08578116	     -3.30081618	     -0.00335822	    -11.65997233	     -0.00840886	      1.16634141	      1.40675592	      0.03754614	      1.53986534	     -0.43648243	     -0.04206861	      0.27336915	      1.20591234	      1.30001756	     -1.08299017	     -0.57632583	     -1.38421948	     -0.03530404	      0.02502308	      0.00709540	     -0.02283068	      0.01388702	     -0.21345585	     -0.02566733	      0.15212246
      5.16500000	      2.02113916	      9.64590951	     -2.09010873	     30.62465664	    -51.91700996	    -19.17459503	     -2.29143542	    -17.61448013	     -0.22948642	     10.66975248	    -42.71241200	     -0.74381379	    -10.99216845	    -16.18588717	     -1.57014811	     -1.74683885	     -0.00178547	    -11.19296556	     -0.00828410	      1.48507263	      1.23399900	      0.03788044	      1.93785295	     -0.34771633	      0.00586019	      0.13893197	      1.13909033	      1.16560015	     -1.17256283	     -0.37506583	     -1.13104992	     -0.03014739	      0.02855621	      0.00661846	     -0.02610107	      0.01928999	     -0.19466023	     -0.02203133	      0.16435127
      5.17000000	      3.57391102	      9.46910780	     -1.83284301	     27.62660158	    -60.53315680	    -16.86671019	     -2.43414059	     -9.41717166	     -0.05704783	     13.17262000	    -32.51159994	     -0.71954567	    -12.46243368	    -14.68974378	     -0.87351342	     -0.33686603	     -0.00027266	    -10.54671272	     -0.00801664	      1.74482673	      0.99676965	      0.02968177	      2.26477718	     -0.21629350	      0.05921578	      0.01409256	      1.05307628	      1.00990097	     -1.22135393	     -0.17571591	     -0.86531170	     -0.02446443	      0.03084194	      0.00592661	     -0.02869056	      0.02392067	     -0.17119596	     -0.01794307	      0.17074469
      5.17500000	      5.04551245	      8.81501390	     -1.35721321	     24.38538731	    -67.31962202	    -14.27093696	     -2.31824732	     -1.49613015	      0.12263818	     15.38515260	    -22.17499884	     -0.65216457	    -13.78862672	    -13.19451686	     -0.02320060	      0.91677052	      0.00114165	     -9.74608556	     -0.00759775	      1.94382960	      0.70217480	      0.01553965	      2.51233304	     -0.04657754	      0.11808748	     -0.09910702	      0.95051582	      0.83914346	     -1.22951114	      0.01829315	     -0.59339003	     -0.01832163	      0.03189220	      0.00499829	     -0.03055241	      0.02827992	     -0.14399030	     -0.01326366	      0.17145496
      5.18000000	      6.39573106	      7.74243613	     -0.71871299	     21.08239495	    -72.11631568	    -11.61950860	     -1.97934045	      6.02584834	      0.30509003	     17.30278552	    -11.94322906	     -0.54795825	    -14.96866090	    -11.73803565	      0.94357813	      2.00789805	      0.00242193	     -8.82500137	     -0.00703525	      2.08271394	      0.35854262	     -0.00284837	      2.67464079	      0.15538569	      0.18248671	     -0.19897639	      0.83520425	      0.65996522	     -1.19824733	      0.20360827	     -0.32216487	     -0.01182436	      0.03176196	      0.00381761	     -0.03169222	      0.03270021	     -0.11413373	     -0.00782849	      0.16679929
      5.18500000	      7.57978365	      6.34395343	      0.01249527	     17.86913272	    -74.71011231	     -9.17864325	     -1.46495578	     13.03765886	      0.48461572	     18.92845054	     -2.06246863	     -0.41562219	    -15.99780674	    -10.35175417	      1.98171316	      2.93614247	      0.00353451	     -7.82386938	     -0.00635545	      2.16386613	     -0.02454317	     -0.02463558	      2.74861407	      0.38195505	      0.25216270	     -0.28429648	      0.71183274	      0.47925862	     -1.12965274	      0.37701677	     -0.05871144	     -0.00512296	      0.03053966	      0.00238578	     -0.03216427	      0.03732643	     -0.08283724	     -0.00147853	      0.15722005
      5.19000000	      8.54025756	      4.73509800	      0.75861548	     14.86289029	    -74.80167746	     -7.20569409	     -0.83163070	     19.43886367	      0.65489942	     20.26754080	      7.22616710	     -0.26513899	    -16.87005765	     -9.06002238	      3.04102110	      3.70590280	      0.00444613	     -6.78625640	     -0.00560268	      2.19067649	     -0.43627459	     -0.04963264	      2.73414224	      0.62406101	      0.32645184	     -0.35431331	      0.58564396	      0.30398972	     -1.02651842	      0.53549988	      0.19003545	      0.00158790	      0.02833853	      0.00072281	     -0.03206359	      0.04212788	     -0.05137774	      0.00591119	      0.14324859
      5.19500000	      9.20321424	      3.04156692	      1.44275180	     12.14881751	    -71.98568100	     -5.90628907	     -0.14077771	     25.13861902	      0.80964778	     21.32350398	     15.69805814	     -0.10681360	    -17.57891516	     -7.87934659	      4.06974339	      4.32488741	      0.00512256	     -5.75516269	     -0.00483722	      2.16688851	     -0.86478294	     -0.07806391	      2.63410790	      0.87149242	      0.40417455	     -0.40864813	      0.46203646	      0.14102617	     -0.89217190	      0.67628127	      0.41761886	      0.00807462	      0.02528860	     -0.00113715	     -0.03151471	      0.04692911	     -0.02104282	      0.01440671	      0.12547236
      5.20000000	      9.47844037	      1.38662882	      1.99742239	      9.78567301	    -65.74792014	     -5.40071306	      0.54613922	     30.05486149	      0.94317426	     22.09440535	     23.15564789	      0.04959139	    -18.11771625	     -6.81785394	      5.01823172	      4.80246964	      0.00552748	     -4.76935202	     -0.00413157	      2.09615025	     -1.29745010	     -0.11035195	      2.45426304	      1.11322910	      0.48355121	     -0.44718603	      0.34615805	     -0.00300234	     -0.73032617	      0.79687379	      0.61836731	      0.01407298	      0.02152862	     -0.00315157	     -0.03065817	      0.05144820	      0.00691592	      0.02399163	      0.10450519
      5.20500000	      9.26366749	     -0.11960023	      2.37173650	      7.81029015	    -55.48051414	     -5.70541615	      1.17231023	     34.11404816	      1.05085482	     22.57098410	     29.43685186	      0.19556961	    -18.47955960	     -5.87516629	      5.84243029	      5.14815605	      0.00562224	     -3.86030039	     -0.00356590	      1.98173868	     -1.72135291	     -0.14694152	      2.20298386	      1.33774435	      0.56211992	     -0.46997497	      0.24254322	     -0.12180371	     -0.54491724	      0.89512514	      0.78764033	      0.01929907	      0.01719784	     -0.00527454	     -0.02963673	      0.05534030	      0.03131808	      0.03454625	      0.08095575
      5.21000000	      8.45156299	     -1.38769948	      2.53667843	      6.23696438	    -40.51130018	     -6.73149444	      1.68935107	     37.25170731	      1.12943825	     22.73626506	     34.42054203	      0.32436234	    -18.65685584	     -5.04265562	      6.50711067	      5.37042231	      0.00536632	     -3.05013529	     -0.00322264	      1.82641228	     -2.12380546	     -0.18815322	      1.89091396	      1.53329702	      0.63668634	     -0.47713707	      0.15483725	     -0.20949917	     -0.33991258	      0.96926041	      0.92198865	      0.02346279	      0.01242779	     -0.00746197	     -0.02858325	      0.05824561	      0.05108083	      0.04583492	      0.05539232
      5.21500000	      6.93757964	     -2.35237477	      2.48786434	      5.05737119	    -20.14297272	     -8.29846316	      2.05981319	     39.41391945	      1.17716856	     22.56655147	     38.02882157	      0.43122816	    -18.64103330	     -4.30384911	      6.98857128	      5.47606340	      0.00471867	     -2.35069541	     -0.00318119	      1.63239810	     -2.49294832	     -0.23407042	      1.53049391	      1.68825738	      0.70334515	     -0.46879337	      0.08562543	     -0.26071554	     -0.11912632	      1.01791800	      1.01921997	      0.02628316	      0.00733511	     -0.00967745	     -0.02761105	      0.05983613	      0.06524267	      0.05750457	      0.02831213
      5.22000000	      4.62774800	     -2.97222021	      2.24382364	      4.24849001	      6.30082649	    -10.16187566	      2.25823808	     40.55973800	      1.19370670	     22.03404415	     40.22614023	      0.51346783	    -18.42270365	     -3.63562758	      7.27527978	      5.47018603	      0.00363985	     -1.76383572	     -0.00351313	      1.40151599	     -2.81833016	     -0.28446366	      1.13537187	      1.79148723	      0.75758124	     -0.44502683	      0.03638380	     -0.27072994	      0.11391361	      1.04017951	      1.07836971	      0.02750582	      0.00201474	     -0.01189717	     -0.02680783	      0.05985725	      0.07298871	      0.06909063	      0.00012553
      5.22500000	      1.44604101	     -3.22756299	      1.83846993	      3.78287169	     39.42701062	    -12.05253013	      2.27044337	     40.66432221	      1.17992678	     21.11090984	     41.01575491	      0.57018654	    -17.99176469	     -3.01130484	      7.36501407	      5.35689864	      0.00209501	     -1.28292676	     -0.00427882	      1.13541753	     -3.09143726	     -0.33875221	      0.71969438	      1.83279595	      0.79445545	     -0.40590894	      0.00755238	     -0.23566755	      0.35604215	      1.03559960	      1.09959135	      0.02692313	     -0.00346712	     -0.01411149	     -0.02623377	      0.05816305	      0.07367612	      0.08002915	     -0.02884439
      5.23000000	     -2.66003376	     -3.11674678	      1.31091200	      3.63084059	     79.72760621	    -13.71781165	      2.09122033	     39.72224638	      1.13766880	     19.77359131	     40.43457572	      0.60189988	    -17.33741324	     -2.40445242	      7.26032131	      5.14051229	      0.00005727	     -0.89509425	     -0.00552481	      0.83588412	     -3.30613252	     -0.39601290	      0.29733084	      1.80346078	      0.80889547	     -0.35158261	     -0.00130695	     -0.15271482	      0.60450416	      1.00423871	      1.08399826	      0.02439302	     -0.00907785	     -0.01632340	     -0.02592305	      0.05474043	      0.06685591	      0.08968340	     -0.05835367
      5.23500000	     -7.71701218	     -2.64978790	      0.69812245	      3.75553073	    127.54046581	    -14.95304130	      1.72136703	     37.75043275	      1.06947980	     18.00622077	     38.54755007	      0.61012969	    -16.44904370	     -1.79084881	      6.96606823	      4.82688276	     -0.00248912	     -0.58364169	     -0.00728181	      0.50508248	     -3.45894867	     -0.45504608	     -0.11887483	      1.69674155	      0.79608736	     -0.28237065	      0.00868316	     -0.02029783	      0.85700273	      0.94669458	      1.03349027	      0.01985024	     -0.01481717	     -0.01854490	     -0.02588760	      0.04971296	      0.05228917	      0.09739268	     -0.08822977
      5.24000000	    -13.72553773	     -1.84032476	      0.03215523	      4.10861023	    183.01758471	    -15.61874780	      1.16505819	     34.79029044	      0.97836324	     15.80301782	     35.44250955	      0.59702707	    -15.31825382	     -1.14804284	      6.48996721	      4.42453513	     -0.00554617	     -0.33030794	     -0.00956319	      0.14570846	     -3.54919558	     -0.51447895	     -0.51778539	      1.50833690	      0.75193364	     -0.19887978	      0.03591398	      0.16179284	      1.11173585	      0.86412495	      0.95058966	      0.01330838	     -0.02070941	     -0.02079275	     -0.02612221	      0.04332516	      0.02995794	      0.10253922	     -0.11836317
      5.24500000	    -20.66109532	     -0.69882413	     -0.66006982	      4.62947084	    246.10161516	    -15.64548636	      0.42805089	     30.90857990	      0.86755798	     13.16997711	     31.22613386	      0.56502283	    -13.94107120	     -0.45397960	      5.84410906	      3.94531222	     -0.00910052	     -0.11714137	     -0.01236438	     -0.23895308	     -3.57890142	     -0.57288031	     -0.89056278	      1.23675966	      0.67352336	     -0.10207961	      0.07846981	      0.39231018	      1.36737724	      0.75825258	      0.83830582	      0.00485644	     -0.02679135	     -0.02308393	     -0.02661003	      0.03591478	      0.00007307	      0.10461964	     -0.14869095
      5.25000000	    -28.47482704	      0.77069706	     -1.35611960	      5.24612527	    316.51015852	    -15.02752154	     -0.48311850	     26.19662746	      0.74034624	     10.12585924	     26.02130019	      0.51655333	    -12.31994728	      0.31413440	      5.04589614	      3.40440878	     -0.01312278	      0.07218513	     -0.01566311	     -0.64499787	     -3.55262538	     -0.62889421	     -1.23110231	      0.88360334	      0.55951616	      0.00665333	      0.13426161	      0.66849318	      1.62302723	      0.63134802	      0.70004068	     -0.00534828	     -0.03310047	     -0.02543114	     -0.02732716	      0.02787607	     -0.03692340	      0.10330356	     -0.17917863
      5.25500000	    -37.09450718	      2.56993561	     -2.03731497	      5.87764056	    393.72847833	    -13.80834937	     -1.56083709	     20.76806339	      0.59989246	      6.70238741	     19.96566320	      0.45388583	    -10.46544805	      1.18013280	      4.11776053	      2.81979169	     -0.01756794	      0.25167639	     -0.01942005	     -1.06790077	     -3.47714838	     -0.68140120	     -1.53628134	      0.45369386	      0.41037589	      0.12553509	      0.20110564	      0.98607543	      1.87818814	      0.48619359	      0.53953311	     -0.01709046	     -0.03966750	     -0.02783916	     -0.02824565	      0.01961454	     -0.08036714	      0.09846890	     -0.20981068
      5.26000000	    -46.42539607	      4.70252185	     -2.68816397	      6.43890260	    477.01345126	    -12.06296724	     -2.79512991	     14.75556249	      0.44915262	      2.94368216	     13.21097277	      0.37902822	     -8.39720135	      2.16821945	      3.08578721	      2.21111932	     -0.02237697	      0.43282244	     -0.02358014	     -1.50258011	     -3.36105604	     -0.72966856	     -1.80605783	     -0.04487928	      0.22849077	      0.25242828	      0.27676549	      1.33936216	      2.13273360	      0.32603226	      0.36082780	     -0.03010840	     -0.04651131	     -0.03030386	     -0.02933570	      0.01150151	     -0.12938987	      0.09022008	     -0.24058292
      5.26500000	    -56.35139599	      7.16885175	     -3.29579869	      6.84755604	    565.41173796	     -9.88069935	     -4.17188060	      8.30679208	      0.29087146	     -1.09497678	      5.92237862	      0.29372902	     -6.14400631	      3.30169357	      1.97799403	      1.59832457	     -0.02747941	      0.62472100	     -0.02807472	     -1.94353075	     -3.21426373	     -0.77344166	     -2.04337775	     -0.60090360	      0.01821641	      0.38494509	      0.35898259	      1.72137396	      2.38684086	      0.15449813	      0.16824941	     -0.04410582	     -0.05363334	     -0.03281375	     -0.03056787	      0.00383854	     -0.18294387	      0.07889794	     -0.27149063
      5.27000000	    -66.73765199	      9.96076442	     -3.84938528	      7.03231413	    657.79428880	     -7.35117544	     -5.67118384	      1.57963868	      0.12762526	     -5.34905367	     -1.72292229	      0.19958504	     -3.74339229	      4.60140662	      0.82291229	      1.00007628	     -0.03279681	      0.83443922	     -0.03282460	     -2.38499375	     -3.04755917	     -0.81297277	     -2.25378047	     -1.20041105	     -0.21422031	      0.52057784	      0.44549848	      2.12408854	      2.64092764	     -0.02447663	     -0.03362997	     -0.05876509	     -0.06101402	     -0.03535247	     -0.03191494	     -0.00316313	     -0.23983656	      0.06507548	     -0.30252189
      5.27500000	    -77.43525952	     13.05653526	     -4.33953558	      6.94057330	    752.90954655	     -4.55581362	     -7.26634380	     -5.26293879	     -0.03812267	     -9.74742141	     -9.53791549	      0.09822716	     -1.24044965	      6.08389749	     -0.35125193	      0.43238752	     -0.03824699	      1.06763179	     -0.03774393	     -2.82115863	     -2.87225539	     -0.84901343	     -2.44468032	     -1.82729754	     -0.46105466	      0.65684813	      0.53406282	      2.53878278	      2.89562577	     -0.20677710	     -0.24003558	     -0.07376088	     -0.06861468	     -0.03790249	     -0.03335284	     -0.00938909	     -0.29877532	      0.04952363	     -0.33366473
