Model Marker Errors from IK
version=1
nRows=701
nColumns=4
inDegrees=no
endheader
time	total_squared_error	marker_error_RMS	marker_error_max
      1.40000000	      0.06791388	      0.03336678	      0.08251356
      1.40500000	      0.06803983	      0.03339771	      0.08261364
      1.41000000	      0.06836966	      0.03347856	      0.08258343
      1.41500000	      0.06859912	      0.03353469	      0.08255010
      1.42000000	      0.06865847	      0.03354920	      0.08272000
      1.42500000	      0.06881636	      0.03358775	      0.08272067
      1.43000000	      0.06919938	      0.03368109	      0.08298298
      1.43500000	      0.06919916	      0.03368104	      0.08289666
      1.44000000	      0.06937053	      0.03372272	      0.08306862
      1.44500000	      0.06953198	      0.03376194	      0.08304395
      1.45000000	      0.06957871	      0.03377328	      0.08315281
      1.45500000	      0.07059630	      0.03401935	      0.08733482
      1.46000000	      0.06988959	      0.03384865	      0.08326973
      1.46500000	      0.07015795	      0.03391357	      0.08326611
      1.47000000	      0.07025485	      0.03393698	      0.08331403
      1.47500000	      0.07056496	      0.03401180	      0.08332012
      1.48000000	      0.07071856	      0.03404880	      0.08343046
      1.48500000	      0.07084253	      0.03407863	      0.08356148
      1.49000000	      0.07116485	      0.03415607	      0.08350870
      1.49500000	      0.07121973	      0.03416924	      0.08341329
      1.50000000	      0.07147903	      0.03423138	      0.08344834
      1.50500000	      0.07149901	      0.03423616	      0.08348029
      1.51000000	      0.07148669	      0.03423321	      0.08350602
      1.51500000	      0.07181863	      0.03431260	      0.08337293
      1.52000000	      0.07191339	      0.03433523	      0.08379902
      1.52500000	      0.07182852	      0.03431496	      0.08368739
      1.53000000	      0.07198228	      0.03435167	      0.08357425
      1.53500000	      0.07209635	      0.03437888	      0.08352423
      1.54000000	      0.07215301	      0.03439239	      0.08382283
      1.54500000	      0.07237430	      0.03444509	      0.08376054
      1.55000000	      0.07237978	      0.03444639	      0.08374204
      1.55500000	      0.07283908	      0.03455551	      0.08422834
      1.56000000	      0.07277212	      0.03453962	      0.08439226
      1.56500000	      0.07293280	      0.03457773	      0.08405082
      1.57000000	      0.07328570	      0.03466129	      0.08453373
      1.57500000	      0.07344279	      0.03469842	      0.08455248
      1.58000000	      0.07359391	      0.03473410	      0.08427930
      1.58500000	      0.07376028	      0.03477334	      0.08448869
      1.59000000	      0.07397358	      0.03482358	      0.08471868
      1.59500000	      0.07404583	      0.03484058	      0.08459798
      1.60000000	      0.07428129	      0.03489593	      0.08477710
      1.60500000	      0.07479923	      0.03501738	      0.08694771
      1.61000000	      0.07456414	      0.03496231	      0.08482291
      1.61500000	      0.07495171	      0.03505305	      0.08722894
      1.62000000	      0.07458811	      0.03496793	      0.08511295
      1.62500000	      0.07504926	      0.03507586	      0.08539628
      1.63000000	      0.07509761	      0.03508715	      0.08515579
      1.63500000	      0.07507807	      0.03508259	      0.08537747
      1.64000000	      0.07541364	      0.03516090	      0.08551512
      1.64500000	      0.07568495	      0.03522410	      0.08526368
      1.65000000	      0.07621609	      0.03534748	      0.08813562
      1.65500000	      0.07595104	      0.03528596	      0.08569948
      1.66000000	      0.07630904	      0.03536902	      0.08687520
      1.66500000	      0.07610930	      0.03532271	      0.08581415
      1.67000000	      0.07635859	      0.03538050	      0.08589655
      1.67500000	      0.07653404	      0.03542113	      0.08597651
      1.68000000	      0.07647015	      0.03540634	      0.08567068
      1.68500000	      0.07659456	      0.03543513	      0.08597827
      1.69000000	      0.07682770	      0.03548902	      0.08626348
      1.69500000	      0.07685528	      0.03549539	      0.08616728
      1.70000000	      0.07702753	      0.03553514	      0.08616188
      1.70500000	      0.07690405	      0.03550665	      0.08617200
      1.71000000	      0.07712305	      0.03555717	      0.08633910
      1.71500000	      0.07710954	      0.03555405	      0.08619712
      1.72000000	      0.07713449	      0.03555981	      0.08616398
      1.72500000	      0.07732237	      0.03560309	      0.08633273
      1.73000000	      0.07713180	      0.03555919	      0.08612608
      1.73500000	      0.07703314	      0.03553644	      0.08619183
      1.74000000	      0.07725998	      0.03558872	      0.08622119
      1.74500000	      0.07712779	      0.03555826	      0.08625183
      1.75000000	      0.07755613	      0.03565686	      0.08634064
      1.75500000	      0.07737218	      0.03561455	      0.08635173
      1.76000000	      0.07732007	      0.03560256	      0.08634430
      1.76500000	      0.07721480	      0.03557831	      0.08582017
      1.77000000	      0.07736985	      0.03561402	      0.08592013
      1.77500000	      0.07729253	      0.03559622	      0.08617021
      1.78000000	      0.07721184	      0.03557763	      0.08580575
      1.78500000	      0.07741392	      0.03562416	      0.08611136
      1.79000000	      0.07721626	      0.03557865	      0.08626259
      1.79500000	      0.07708761	      0.03554900	      0.08604010
      1.80000000	      0.07726095	      0.03558894	      0.08608662
      1.80500000	      0.07731336	      0.03560101	      0.08630652
      1.81000000	      0.07721642	      0.03557869	      0.08615117
      1.81500000	      0.07727870	      0.03559303	      0.08614608
      1.82000000	      0.07717829	      0.03556990	      0.08645445
      1.82500000	      0.07731934	      0.03560239	      0.08634001
      1.83000000	      0.07728262	      0.03559394	      0.08614741
      1.83500000	      0.07734823	      0.03560904	      0.08647798
      1.84000000	      0.07716937	      0.03556785	      0.08625270
      1.84500000	      0.07745899	      0.03563453	      0.08655426
      1.85000000	      0.07737085	      0.03561425	      0.08648993
      1.85500000	      0.07724730	      0.03558580	      0.08633969
      1.86000000	      0.07722376	      0.03558038	      0.08638750
      1.86500000	      0.07734013	      0.03560718	      0.08666747
      1.87000000	      0.07748419	      0.03564032	      0.08676588
      1.87500000	      0.07747404	      0.03563799	      0.08679646
      1.88000000	      0.07760556	      0.03566822	      0.08683963
      1.88500000	      0.07783514	      0.03572095	      0.08694300
      1.89000000	      0.07782638	      0.03571894	      0.08679385
      1.89500000	      0.07798487	      0.03575529	      0.08724204
      1.90000000	      0.07804682	      0.03576948	      0.08711611
      1.90500000	      0.07827059	      0.03582073	      0.08698065
      1.91000000	      0.07853712	      0.03588166	      0.08746800
      1.91500000	      0.07871135	      0.03592144	      0.08757625
      1.92000000	      0.07915941	      0.03602354	      0.08762173
      1.92500000	      0.07941419	      0.03608146	      0.08746587
      1.93000000	      0.07933188	      0.03606276	      0.08753180
      1.93500000	      0.07950702	      0.03610255	      0.08788495
      1.94000000	      0.07981571	      0.03617256	      0.08806693
      1.94500000	      0.08004262	      0.03622394	      0.08789525
      1.95000000	      0.08020237	      0.03626007	      0.08797124
      1.95500000	      0.08050935	      0.03632940	      0.08842203
      1.96000000	      0.08070206	      0.03637285	      0.08840206
      1.96500000	      0.08077958	      0.03639032	      0.08825288
      1.97000000	      0.08120440	      0.03648588	      0.08866696
      1.97500000	      0.08137090	      0.03652327	      0.08871525
      1.98000000	      0.08160780	      0.03657640	      0.08883097
      1.98500000	      0.08194200	      0.03665121	      0.08894240
      1.99000000	      0.08219621	      0.03670802	      0.08908678
      1.99500000	      0.08239827	      0.03675311	      0.08921216
      2.00000000	      0.08267219	      0.03681415	      0.08932180
      2.00500000	      0.08296921	      0.03688023	      0.08935587
      2.01000000	      0.08344208	      0.03698517	      0.08969137
      2.01500000	      0.08381877	      0.03706856	      0.08979037
      2.02000000	      0.08447002	      0.03721229	      0.09135400
      2.02500000	      0.08444552	      0.03720689	      0.09003694
      2.03000000	      0.08486146	      0.03729841	      0.09035610
      2.03500000	      0.08500381	      0.03732968	      0.08991578
      2.04000000	      0.08579101	      0.03750213	      0.09178607
      2.04500000	      0.08593344	      0.03753325	      0.09045085
      2.05000000	      0.08625247	      0.03760286	      0.09069420
      2.05500000	      0.08649485	      0.03765566	      0.09038006
      2.06000000	      0.08679112	      0.03772009	      0.09034427
      2.06500000	      0.08768608	      0.03791407	      0.09253959
      2.07000000	      0.08763124	      0.03790221	      0.09091389
      2.07500000	      0.08787196	      0.03795423	      0.09115393
      2.08000000	      0.08824476	      0.03803466	      0.09117808
      2.08500000	      0.08862242	      0.03811596	      0.09204731
      2.09000000	      0.08892524	      0.03818103	      0.09096053
      2.09500000	      0.08943053	      0.03828935	      0.09117277
      2.10000000	      0.09049528	      0.03851661	      0.09509644
      2.10500000	      0.09003702	      0.03841896	      0.09176815
      2.11000000	      0.09052004	      0.03852188	      0.09187000
      2.11500000	      0.09078197	      0.03857757	      0.09166415
      2.12000000	      0.09114978	      0.03865564	      0.09218747
      2.12500000	      0.09136478	      0.03870121	      0.09200674
      2.13000000	      0.09188166	      0.03881052	      0.09257590
      2.13500000	      0.09230719	      0.03890029	      0.09270521
      2.14000000	      0.09244582	      0.03892949	      0.09263718
      2.14500000	      0.09274224	      0.03899185	      0.09247442
      2.15000000	      0.09305636	      0.03905783	      0.09276118
      2.15500000	      0.09335697	      0.03912087	      0.09272700
      2.16000000	      0.09352613	      0.03915629	      0.09327996
      2.16500000	      0.09386558	      0.03922729	      0.09339391
      2.17000000	      0.09403296	      0.03926225	      0.09323676
      2.17500000	      0.09442216	      0.03934342	      0.09362436
      2.18000000	      0.09454600	      0.03936921	      0.09345693
      2.18500000	      0.09486633	      0.03943584	      0.09403613
      2.19000000	      0.09510745	      0.03948593	      0.09407947
      2.19500000	      0.09522234	      0.03950977	      0.09417498
      2.20000000	      0.09538280	      0.03954305	      0.09392493
      2.20500000	      0.09559672	      0.03958736	      0.09447591
      2.21000000	      0.09569303	      0.03960730	      0.09458283
      2.21500000	      0.09651160	      0.03977634	      0.09693754
      2.22000000	      0.09621177	      0.03971451	      0.09468511
      2.22500000	      0.09632019	      0.03973688	      0.09478939
      2.23000000	      0.09645912	      0.03976553	      0.09502298
      2.23500000	      0.09666184	      0.03980729	      0.09508869
      2.24000000	      0.09692326	      0.03986108	      0.09514428
      2.24500000	      0.09690446	      0.03985722	      0.09525807
      2.25000000	      0.09698671	      0.03987413	      0.09493663
      2.25500000	      0.09703765	      0.03988460	      0.09494867
      2.26000000	      0.09728331	      0.03993505	      0.09542417
      2.26500000	      0.09730853	      0.03994023	      0.09545377
      2.27000000	      0.09737919	      0.03995473	      0.09546673
      2.27500000	      0.09733210	      0.03994507	      0.09516616
      2.28000000	      0.09766035	      0.04001236	      0.09656016
      2.28500000	      0.09763584	      0.04000734	      0.09557998
      2.29000000	      0.09791577	      0.04006466	      0.09560632
      2.29500000	      0.09817959	      0.04011859	      0.09540693
      2.30000000	      0.09831941	      0.04014715	      0.09546566
      2.30500000	      0.09846116	      0.04017608	      0.09576067
      2.31000000	      0.09936888	      0.04036085	      0.09921733
      2.31500000	      0.09862696	      0.04020989	      0.09545018
      2.32000000	      0.09879467	      0.04024406	      0.09553034
      2.32500000	      0.09934479	      0.04035595	      0.09689906
      2.33000000	      0.09930606	      0.04034809	      0.09593107
      2.33500000	      0.09928033	      0.04034286	      0.09587693
      2.34000000	      0.09964339	      0.04041656	      0.09572604
      2.34500000	      0.09997401	      0.04048356	      0.09590801
      2.35000000	      0.10019499	      0.04052827	      0.09581325
      2.35500000	      0.10094064	      0.04067880	      0.09735371
      2.36000000	      0.10096473	      0.04068365	      0.09617299
      2.36500000	      0.10147043	      0.04078541	      0.09647662
      2.37000000	      0.10183696	      0.04085901	      0.09652763
      2.37500000	      0.10204585	      0.04090089	      0.09631449
      2.38000000	      0.10246537	      0.04098488	      0.09671003
      2.38500000	      0.10278445	      0.04104864	      0.09686951
      2.39000000	      0.10331814	      0.04115507	      0.09830241
      2.39500000	      0.10338386	      0.04116816	      0.09707405
      2.40000000	      0.10382167	      0.04125524	      0.09843304
      2.40500000	      0.10414272	      0.04131898	      0.09732495
      2.41000000	      0.10493478	      0.04147580	      0.09929890
      2.41500000	      0.10504844	      0.04149826	      0.09765267
      2.42000000	      0.10537011	      0.04156175	      0.09792699
      2.42500000	      0.10572156	      0.04163100	      0.09806305
      2.43000000	      0.10630432	      0.04174558	      0.09959088
      2.43500000	      0.10710008	      0.04190154	      0.10163990
      2.44000000	      0.10669402	      0.04182203	      0.09840732
      2.44500000	      0.10742606	      0.04196526	      0.09990586
      2.45000000	      0.10739906	      0.04195998	      0.09823644
      2.45500000	      0.10762341	      0.04200379	      0.09829590
      2.46000000	      0.10812055	      0.04210069	      0.10010302
      2.46500000	      0.10821854	      0.04211976	      0.09884889
      2.47000000	      0.10858242	      0.04219052	      0.09906679
      2.47500000	      0.10919751	      0.04230985	      0.10035990
      2.48000000	      0.10911101	      0.04229309	      0.09879779
      2.48500000	      0.10960968	      0.04238962	      0.09896945
      2.49000000	      0.10968493	      0.04240417	      0.09890933
      2.49500000	      0.11002170	      0.04246922	      0.09906946
      2.50000000	      0.11069820	      0.04259958	      0.10077991
      2.50500000	      0.11073784	      0.04260721	      0.09959470
      2.51000000	      0.11126102	      0.04270774	      0.10109511
      2.51500000	      0.11175691	      0.04280281	      0.10216474
      2.52000000	      0.11138363	      0.04273127	      0.09968102
      2.52500000	      0.11178843	      0.04280885	      0.10056098
      2.53000000	      0.11282738	      0.04300732	      0.10434948
      2.53500000	      0.11190102	      0.04283040	      0.09972518
      2.54000000	      0.11204496	      0.04285794	      0.09992211
      2.54500000	      0.11227556	      0.04290202	      0.09990193
      2.55000000	      0.11231564	      0.04290967	      0.09995457
      2.55500000	      0.11239612	      0.04292504	      0.10002992
      2.56000000	      0.11247297	      0.04293972	      0.10008625
      2.56500000	      0.11283020	      0.04300785	      0.10022196
      2.57000000	      0.11341617	      0.04311939	      0.10234452
      2.57500000	      0.11303821	      0.04304748	      0.10034095
      2.58000000	      0.11320608	      0.04307943	      0.10041181
      2.58500000	      0.11322315	      0.04308268	      0.10076020
      2.59000000	      0.11323172	      0.04308431	      0.10002418
      2.59500000	      0.11336439	      0.04310954	      0.10033567
      2.60000000	      0.11357530	      0.04314962	      0.10030012
      2.60500000	      0.11425419	      0.04327840	      0.10294747
      2.61000000	      0.11375779	      0.04318428	      0.10055179
      2.61500000	      0.11423740	      0.04327522	      0.10259950
      2.62000000	      0.11394739	      0.04322025	      0.10037183
      2.62500000	      0.11396760	      0.04322408	      0.10050517
      2.63000000	      0.11402137	      0.04323428	      0.10074562
      2.63500000	      0.11466540	      0.04335621	      0.10334655
      2.64000000	      0.11421713	      0.04327138	      0.10077687
      2.64500000	      0.11438376	      0.04330293	      0.10096208
      2.65000000	      0.11455612	      0.04333554	      0.10092297
      2.65500000	      0.11456266	      0.04333678	      0.10097689
      2.66000000	      0.11482845	      0.04338702	      0.10178451
      2.66500000	      0.11573419	      0.04355780	      0.10495288
      2.67000000	      0.11496172	      0.04341219	      0.10126502
      2.67500000	      0.11500861	      0.04342104	      0.10155462
      2.68000000	      0.11511057	      0.04344029	      0.10097393
      2.68500000	      0.11520548	      0.04345819	      0.10142409
      2.69000000	      0.11558682	      0.04353006	      0.10218552
      2.69500000	      0.11587879	      0.04358500	      0.10354578
      2.70000000	      0.11553780	      0.04352083	      0.10111593
      2.70500000	      0.11581229	      0.04357249	      0.10181447
      2.71000000	      0.11583464	      0.04357670	      0.10148614
      2.71500000	      0.11619009	      0.04364351	      0.10249688
      2.72000000	      0.11639678	      0.04368231	      0.10329903
      2.72500000	      0.11655985	      0.04371290	      0.10343996
      2.73000000	      0.11635458	      0.04367439	      0.10144775
      2.73500000	      0.11687569	      0.04377208	      0.10268871
      2.74000000	      0.11708778	      0.04381178	      0.10340954
      2.74500000	      0.11741946	      0.04387379	      0.10418267
      2.75000000	      0.11708527	      0.04381131	      0.10174373
      2.75500000	      0.11755515	      0.04389913	      0.10298478
      2.76000000	      0.11758277	      0.04390429	      0.10215154
      2.76500000	      0.11794933	      0.04397267	      0.10305942
      2.77000000	      0.11801303	      0.04398454	      0.10222918
      2.77500000	      0.11843163	      0.04406248	      0.10322535
      2.78000000	      0.11863959	      0.04410115	      0.10251112
      2.78500000	      0.11907656	      0.04418229	      0.10382427
      2.79000000	      0.11911624	      0.04418965	      0.10270600
      2.79500000	      0.11948023	      0.04425712	      0.10374681
      2.80000000	      0.11947995	      0.04425706	      0.10286607
      2.80500000	      0.11984343	      0.04432433	      0.10414854
      2.81000000	      0.12057422	      0.04445927	      0.10543588
      2.81500000	      0.12014715	      0.04438046	      0.10320785
      2.82000000	      0.12065847	      0.04447480	      0.10471008
      2.82500000	      0.12101784	      0.04454098	      0.10565329
      2.83000000	      0.12123190	      0.04458036	      0.10582991
      2.83500000	      0.12086827	      0.04451345	      0.10355467
      2.84000000	      0.12159851	      0.04464771	      0.10517072
      2.84500000	      0.12185698	      0.04469514	      0.10527034
      2.85000000	      0.12190616	      0.04470416	      0.10366377
      2.85500000	      0.12223100	      0.04476368	      0.10500343
      2.86000000	      0.12246460	      0.04480643	      0.10421373
      2.86500000	      0.12269652	      0.04484884	      0.10468689
      2.87000000	      0.12308994	      0.04492068	      0.10562961
      2.87500000	      0.12327463	      0.04495437	      0.10439324
      2.88000000	      0.12379508	      0.04504917	      0.10437724
      2.88500000	      0.12394676	      0.04507676	      0.10518718
      2.89000000	      0.12378043	      0.04504650	      0.10427881
      2.89500000	      0.12423434	      0.04512902	      0.10545595
      2.90000000	      0.12469282	      0.04521222	      0.10652492
      2.90500000	      0.12485970	      0.04524246	      0.10484346
      2.91000000	      0.12513566	      0.04529243	      0.10491931
      2.91500000	      0.12541939	      0.04534375	      0.10586704
      2.92000000	      0.12543749	      0.04534702	      0.10513043
      2.92500000	      0.12577993	      0.04540888	      0.10532901
      2.93000000	      0.12593088	      0.04543612	      0.10625334
      2.93500000	      0.12603395	      0.04545471	      0.10531297
      2.94000000	      0.12639194	      0.04551922	      0.10550270
      2.94500000	      0.12648283	      0.04553558	      0.10574678
      2.95000000	      0.12695040	      0.04561967	      0.10655965
      2.95500000	      0.12692512	      0.04561513	      0.10581909
      2.96000000	      0.12744863	      0.04570910	      0.10708396
      2.96500000	      0.12771990	      0.04575772	      0.10752689
      2.97000000	      0.12757278	      0.04573136	      0.10592156
      2.97500000	      0.12878485	      0.04594809	      0.10960731
      2.98000000	      0.12796293	      0.04580123	      0.10606404
      2.98500000	      0.12808769	      0.04582356	      0.10629867
      2.99000000	      0.12854113	      0.04590459	      0.10700965
      2.99500000	      0.12852724	      0.04590211	      0.10630108
      3.00000000	      0.12881326	      0.04595316	      0.10726134
      3.00500000	      0.12886433	      0.04596227	      0.10719262
      3.01000000	      0.12884332	      0.04595852	      0.10657807
      3.01500000	      0.12928158	      0.04603662	      0.10691469
      3.02000000	      0.13025238	      0.04620914	      0.11013954
      3.02500000	      0.12966782	      0.04610534	      0.10645447
      3.03000000	      0.13008152	      0.04617883	      0.10830474
      3.03500000	      0.13072427	      0.04629277	      0.10922646
      3.04000000	      0.13052420	      0.04625733	      0.10691916
      3.04500000	      0.13077044	      0.04630095	      0.10706797
      3.05000000	      0.13149202	      0.04642851	      0.10874808
      3.05500000	      0.13142007	      0.04641581	      0.10761795
      3.06000000	      0.13180522	      0.04648378	      0.10764929
      3.06500000	      0.13234145	      0.04657823	      0.10818214
      3.07000000	      0.13249891	      0.04660594	      0.10797136
      3.07500000	      0.13278961	      0.04665703	      0.10822542
      3.08000000	      0.13330233	      0.04674702	      0.10964256
      3.08500000	      0.13365833	      0.04680940	      0.10849792
      3.09000000	      0.13401876	      0.04687247	      0.10866084
      3.09500000	      0.13469234	      0.04699012	      0.11019868
      3.10000000	      0.13464103	      0.04698117	      0.10883647
      3.10500000	      0.13514827	      0.04706958	      0.10908734
      3.11000000	      0.13588706	      0.04719806	      0.11081300
      3.11500000	      0.13586197	      0.04719370	      0.10936916
      3.12000000	      0.13642741	      0.04729181	      0.11077774
      3.12500000	      0.13666149	      0.04733236	      0.10965496
      3.13000000	      0.13708347	      0.04740538	      0.11121729
      3.13500000	      0.13703025	      0.04739618	      0.10951310
      3.14000000	      0.13769920	      0.04751172	      0.11136466
      3.14500000	      0.13758584	      0.04749216	      0.11023703
      3.15000000	      0.13840505	      0.04763334	      0.11170623
      3.15500000	      0.13853389	      0.04765551	      0.11056147
      3.16000000	      0.13923296	      0.04777560	      0.11175750
      3.16500000	      0.13936856	      0.04779885	      0.11067490
      3.17000000	      0.14012623	      0.04792861	      0.11229240
      3.17500000	      0.14024949	      0.04794968	      0.11132318
      3.18000000	      0.14089843	      0.04806049	      0.11156112
      3.18500000	      0.14194393	      0.04823847	      0.11297114
      3.19000000	      0.14220882	      0.04828346	      0.11172718
      3.19500000	      0.14277480	      0.04837944	      0.11321757
      3.20000000	      0.14302912	      0.04842251	      0.11214789
      3.20500000	      0.14388972	      0.04856797	      0.11390008
      3.21000000	      0.14423536	      0.04862627	      0.11283149
      3.21500000	      0.14508739	      0.04876968	      0.11427566
      3.22000000	      0.14508334	      0.04876900	      0.11276550
      3.22500000	      0.14566491	      0.04886665	      0.11441374
      3.23000000	      0.14599899	      0.04892265	      0.11356815
      3.23500000	      0.14630972	      0.04897469	      0.11378955
      3.24000000	      0.14732278	      0.04914395	      0.11524527
      3.24500000	      0.14801363	      0.04925904	      0.11547569
      3.25000000	      0.14806744	      0.04926799	      0.11420445
      3.25500000	      0.14852439	      0.04934396	      0.11427985
      3.26000000	      0.14897857	      0.04941934	      0.11457187
      3.26500000	      0.14984183	      0.04956232	      0.11605373
      3.27000000	      0.15069518	      0.04970325	      0.11743854
      3.27500000	      0.15071753	      0.04970693	      0.11498394
      3.28000000	      0.15103331	      0.04975898	      0.11522843
      3.28500000	      0.15144997	      0.04982757	      0.11522993
      3.29000000	      0.15243246	      0.04998893	      0.11641743
      3.29500000	      0.15275476	      0.05004175	      0.11593868
      3.30000000	      0.15302240	      0.05008557	      0.11605899
      3.30500000	      0.15378134	      0.05020962	      0.11747841
      3.31000000	      0.15438039	      0.05030732	      0.11619956
      3.31500000	      0.15502334	      0.05041197	      0.11772526
      3.32000000	      0.15537784	      0.05046957	      0.11656681
      3.32500000	      0.15652432	      0.05065543	      0.11815852
      3.33000000	      0.15699354	      0.05073130	      0.11734167
      3.33500000	      0.15790776	      0.05087880	      0.11899154
      3.34000000	      0.15815743	      0.05091900	      0.11785317
      3.34500000	      0.15920431	      0.05108725	      0.11944546
      3.35000000	      0.16000328	      0.05121528	      0.12068844
      3.35500000	      0.16018506	      0.05124436	      0.11814594
      3.36000000	      0.16072651	      0.05133090	      0.11832241
      3.36500000	      0.16148353	      0.05145164	      0.11999864
      3.37000000	      0.16197302	      0.05152956	      0.11906723
      3.37500000	      0.16291080	      0.05167851	      0.12058327
      3.38000000	      0.16308129	      0.05170555	      0.11948098
      3.38500000	      0.16403454	      0.05185644	      0.11995078
      3.39000000	      0.16488403	      0.05199055	      0.12071879
      3.39500000	      0.16542866	      0.05207634	      0.12019036
      3.40000000	      0.16631250	      0.05221527	      0.12148013
      3.40500000	      0.16683061	      0.05229654	      0.12255289
      3.41000000	      0.16692125	      0.05231074	      0.12104146
      3.41500000	      0.16771464	      0.05243491	      0.12189591
      3.42000000	      0.16827760	      0.05252284	      0.12215908
      3.42500000	      0.16852484	      0.05256142	      0.12152312
      3.43000000	      0.16877284	      0.05260007	      0.12241077
      3.43500000	      0.16930993	      0.05268370	      0.12302564
      3.44000000	      0.16952136	      0.05271659	      0.12181309
      3.44500000	      0.16999830	      0.05279069	      0.12261917
      3.45000000	      0.17072349	      0.05290317	      0.12337540
      3.45500000	      0.17066982	      0.05289486	      0.12203767
      3.46000000	      0.17084605	      0.05292216	      0.12206609
      3.46500000	      0.17118017	      0.05297388	      0.12292729
      3.47000000	      0.17174952	      0.05306191	      0.12447093
      3.47500000	      0.17180952	      0.05307117	      0.12477134
      3.48000000	      0.17148351	      0.05302080	      0.12262740
      3.48500000	      0.17220320	      0.05313194	      0.12402631
      3.49000000	      0.17209246	      0.05311486	      0.12288945
      3.49500000	      0.17203557	      0.05310607	      0.12366303
      3.50000000	      0.17225682	      0.05314021	      0.12479683
      3.50500000	      0.17192565	      0.05308911	      0.12288542
      3.51000000	      0.17199134	      0.05309925	      0.12338781
      3.51500000	      0.17189272	      0.05308402	      0.12296549
      3.52000000	      0.17210363	      0.05311658	      0.12417292
      3.52500000	      0.17233765	      0.05315268	      0.12516373
      3.53000000	      0.17168883	      0.05305253	      0.12241345
      3.53500000	      0.17172084	      0.05305748	      0.12296296
      3.54000000	      0.17173293	      0.05305934	      0.12233543
      3.54500000	      0.17177914	      0.05306648	      0.12340297
      3.55000000	      0.17160733	      0.05303994	      0.12253719
      3.55500000	      0.17164422	      0.05304564	      0.12273373
      3.56000000	      0.17184183	      0.05307616	      0.12325559
      3.56500000	      0.17190630	      0.05308612	      0.12389637
      3.57000000	      0.17239102	      0.05316091	      0.12453600
      3.57500000	      0.17219623	      0.05313087	      0.12295338
      3.58000000	      0.17243452	      0.05316762	      0.12352653
      3.58500000	      0.17254332	      0.05318439	      0.12424073
      3.59000000	      0.17262151	      0.05319644	      0.12289161
      3.59500000	      0.17306970	      0.05326545	      0.12359813
      3.60000000	      0.17322648	      0.05328957	      0.12430973
      3.60500000	      0.17325667	      0.05329421	      0.12276024
      3.61000000	      0.17338466	      0.05331390	      0.12351891
      3.61500000	      0.17363524	      0.05335241	      0.12398673
      3.62000000	      0.17363675	      0.05335264	      0.12299663
      3.62500000	      0.17368475	      0.05336001	      0.12324746
      3.63000000	      0.17428764	      0.05345254	      0.12492992
      3.63500000	      0.17451529	      0.05348744	      0.12553328
      3.64000000	      0.17463914	      0.05350642	      0.12600446
      3.64500000	      0.17456455	      0.05349499	      0.12613048
      3.65000000	      0.17475487	      0.05352414	      0.12612582
      3.65500000	      0.17499173	      0.05356040	      0.12613776
      3.66000000	      0.17517724	      0.05358879	      0.12600527
      3.66500000	      0.17566575	      0.05366345	      0.12612804
      3.67000000	      0.17528771	      0.05360568	      0.12377361
      3.67500000	      0.17510985	      0.05357848	      0.12386934
      3.68000000	      0.17539224	      0.05362166	      0.12398625
      3.68500000	      0.17560882	      0.05365476	      0.12403338
      3.69000000	      0.17592844	      0.05370356	      0.12416850
      3.69500000	      0.17609964	      0.05372969	      0.12379593
      3.70000000	      0.17589725	      0.05369880	      0.12376170
      3.70500000	      0.17581966	      0.05368696	      0.12404384
      3.71000000	      0.17577441	      0.05368005	      0.12407944
      3.71500000	      0.17606441	      0.05372431	      0.12409592
      3.72000000	      0.17624704	      0.05375217	      0.12406912
      3.72500000	      0.17627213	      0.05375600	      0.12417459
      3.73000000	      0.17628019	      0.05375722	      0.12412314
      3.73500000	      0.17624477	      0.05375182	      0.12421769
      3.74000000	      0.17630299	      0.05376070	      0.12374891
      3.74500000	      0.17622260	      0.05374844	      0.12393933
      3.75000000	      0.17630219	      0.05376058	      0.12444465
      3.75500000	      0.17620938	      0.05374643	      0.12427265
      3.76000000	      0.17658486	      0.05380366	      0.12423785
      3.76500000	      0.17635862	      0.05376918	      0.12414801
      3.77000000	      0.17601389	      0.05371660	      0.12435862
      3.77500000	      0.17587927	      0.05369606	      0.12395090
      3.78000000	      0.17554195	      0.05364454	      0.12384056
      3.78500000	      0.17521243	      0.05359417	      0.12406597
      3.79000000	      0.17498953	      0.05356007	      0.12400905
      3.79500000	      0.17498825	      0.05355987	      0.12396507
      3.80000000	      0.17490104	      0.05354652	      0.12412367
      3.80500000	      0.17448276	      0.05348246	      0.12415547
      3.81000000	      0.17463743	      0.05350616	      0.12403814
      3.81500000	      0.17407554	      0.05342001	      0.12379858
      3.82000000	      0.17376514	      0.05337236	      0.12380087
      3.82500000	      0.17365131	      0.05335488	      0.12325568
      3.83000000	      0.17314914	      0.05327767	      0.12318076
      3.83500000	      0.17291018	      0.05324090	      0.12338240
      3.84000000	      0.17245121	      0.05317019	      0.12317484
      3.84500000	      0.17268209	      0.05320577	      0.12315486
      3.85000000	      0.17249872	      0.05317751	      0.12365697
      3.85500000	      0.17210455	      0.05311672	      0.12316207
      3.86000000	      0.17228107	      0.05314395	      0.12354495
      3.86500000	      0.17206579	      0.05311074	      0.12312013
      3.87000000	      0.17187485	      0.05308126	      0.12315660
      3.87500000	      0.17226997	      0.05314224	      0.12350415
      3.88000000	      0.17151598	      0.05302582	      0.12289159
      3.88500000	      0.17176463	      0.05306424	      0.12333651
      3.89000000	      0.17145328	      0.05301612	      0.12282201
      3.89500000	      0.17140019	      0.05300792	      0.12286819
      3.90000000	      0.17107963	      0.05295832	      0.12300762
      3.90500000	      0.17095322	      0.05293875	      0.12262420
      3.91000000	      0.17069685	      0.05289905	      0.12290775
      3.91500000	      0.17061069	      0.05288569	      0.12251506
      3.92000000	      0.17037849	      0.05284969	      0.12283324
      3.92500000	      0.17015198	      0.05281455	      0.12269236
      3.93000000	      0.16961582	      0.05273127	      0.12230645
      3.93500000	      0.16952357	      0.05271693	      0.12245438
      3.94000000	      0.16917502	      0.05266271	      0.12219326
      3.94500000	      0.16897581	      0.05263169	      0.12227760
      3.95000000	      0.16847544	      0.05255371	      0.12195919
      3.95500000	      0.16840577	      0.05254284	      0.12219142
      3.96000000	      0.16780764	      0.05244945	      0.12171432
      3.96500000	      0.16752513	      0.05240528	      0.12190102
      3.97000000	      0.16736860	      0.05238079	      0.12184549
      3.97500000	      0.16684699	      0.05229911	      0.12167589
      3.98000000	      0.16657599	      0.05225662	      0.12154935
      3.98500000	      0.16647716	      0.05224111	      0.12154708
      3.99000000	      0.16625705	      0.05220657	      0.12142890
      3.99500000	      0.16589784	      0.05215014	      0.12140459
      4.00000000	      0.16564304	      0.05211007	      0.12133974
      4.00500000	      0.16548224	      0.05208477	      0.12127567
      4.01000000	      0.16509700	      0.05202411	      0.12133490
      4.01500000	      0.16480688	      0.05197838	      0.12091769
      4.02000000	      0.16443426	      0.05191959	      0.12051899
      4.02500000	      0.16412154	      0.05187019	      0.12078127
      4.03000000	      0.16380543	      0.05182022	      0.12029755
      4.03500000	      0.16358752	      0.05178574	      0.12054378
      4.04000000	      0.16294404	      0.05168379	      0.11999275
      4.04500000	      0.16280290	      0.05166140	      0.12026975
      4.05000000	      0.16221141	      0.05156747	      0.11962852
      4.05500000	      0.16186306	      0.05151206	      0.11979468
      4.06000000	      0.16130068	      0.05142250	      0.11969787
      4.06500000	      0.16078049	      0.05133951	      0.11946531
      4.07000000	      0.16015811	      0.05124005	      0.11930320
      4.07500000	      0.15938036	      0.05111549	      0.11890336
      4.08000000	      0.15876829	      0.05101724	      0.11893131
      4.08500000	      0.15826820	      0.05093683	      0.11863864
      4.09000000	      0.15761623	      0.05083181	      0.11861670
      4.09500000	      0.15711475	      0.05075088	      0.11849815
      4.10000000	      0.15641413	      0.05063759	      0.11829461
      4.10500000	      0.15583058	      0.05054305	      0.11814201
      4.11000000	      0.15543567	      0.05047896	      0.11804742
      4.11500000	      0.15477029	      0.05037080	      0.11786736
      4.12000000	      0.15421577	      0.05028049	      0.11789183
      4.12500000	      0.15370622	      0.05019735	      0.11770866
      4.13000000	      0.15324577	      0.05012211	      0.11744742
      4.13500000	      0.15285654	      0.05005842	      0.11703157
      4.14000000	      0.15251299	      0.05000213	      0.11710147
      4.14500000	      0.15214905	      0.04994243	      0.11726016
      4.15000000	      0.15160304	      0.04985274	      0.11675684
      4.15500000	      0.15139652	      0.04981877	      0.11680187
      4.16000000	      0.15110129	      0.04977018	      0.11686667
      4.16500000	      0.15059943	      0.04968745	      0.11635880
      4.17000000	      0.15065298	      0.04969629	      0.11683392
      4.17500000	      0.15007825	      0.04960140	      0.11646160
      4.18000000	      0.14972468	      0.04954294	      0.11607277
      4.18500000	      0.14900150	      0.04942315	      0.11614288
      4.19000000	      0.14870355	      0.04937371	      0.11593432
      4.19500000	      0.14832151	      0.04931024	      0.11578804
      4.20000000	      0.14793983	      0.04924676	      0.11568180
      4.20500000	      0.14730646	      0.04914122	      0.11545897
      4.21000000	      0.14682428	      0.04906073	      0.11535488
      4.21500000	      0.14630788	      0.04897438	      0.11519168
      4.22000000	      0.14582454	      0.04889342	      0.11477333
      4.22500000	      0.14537978	      0.04881880	      0.11466290
      4.23000000	      0.14501126	      0.04875688	      0.11447843
      4.23500000	      0.14478375	      0.04871862	      0.11455907
      4.24000000	      0.14415566	      0.04861283	      0.11440079
      4.24500000	      0.14371480	      0.04853844	      0.11408238
      4.25000000	      0.14328172	      0.04846525	      0.11399257
      4.25500000	      0.14266314	      0.04836052	      0.11385597
      4.26000000	      0.14240332	      0.04831646	      0.11374870
      4.26500000	      0.14192205	      0.04823475	      0.11292463
      4.27000000	      0.14145021	      0.04815450	      0.11290819
      4.27500000	      0.14106029	      0.04808808	      0.11306897
      4.28000000	      0.14081380	      0.04804605	      0.11263736
      4.28500000	      0.14007917	      0.04792056	      0.11266236
      4.29000000	      0.13953485	      0.04782736	      0.11237005
      4.29500000	      0.13903667	      0.04774191	      0.11191223
      4.30000000	      0.13827172	      0.04761039	      0.11203184
      4.30500000	      0.13784206	      0.04753636	      0.11181161
      4.31000000	      0.13723566	      0.04743169	      0.11138040
      4.31500000	      0.13645002	      0.04729572	      0.11119665
      4.32000000	      0.13570873	      0.04716708	      0.11098142
      4.32500000	      0.13515393	      0.04707057	      0.11067682
      4.33000000	      0.13440583	      0.04694011	      0.11030930
      4.33500000	      0.13379273	      0.04683293	      0.11030218
      4.34000000	      0.13296932	      0.04668860	      0.10976964
      4.34500000	      0.13233826	      0.04657767	      0.10951949
      4.35000000	      0.13149646	      0.04642930	      0.10930190
      4.35500000	      0.13064353	      0.04627847	      0.10894607
      4.36000000	      0.13013044	      0.04618751	      0.10874889
      4.36500000	      0.12927499	      0.04603544	      0.10833879
      4.37000000	      0.12832918	      0.04586673	      0.10785884
      4.37500000	      0.12748267	      0.04571520	      0.10782678
      4.38000000	      0.12676349	      0.04558607	      0.10734658
      4.38500000	      0.12605462	      0.04545843	      0.10703039
      4.39000000	      0.12538516	      0.04533756	      0.10665536
      4.39500000	      0.12426125	      0.04513391	      0.10658495
      4.40000000	      0.12347935	      0.04499168	      0.10622428
      4.40500000	      0.12250793	      0.04481436	      0.10571771
      4.41000000	      0.12193100	      0.04470871	      0.10533075
      4.41500000	      0.12086115	      0.04451214	      0.10495093
      4.42000000	      0.11995230	      0.04434446	      0.10483562
      4.42500000	      0.11877277	      0.04412590	      0.10434080
      4.43000000	      0.11835542	      0.04404830	      0.10390012
      4.43500000	      0.11715607	      0.04382455	      0.10353528
      4.44000000	      0.11612911	      0.04363205	      0.10300151
      4.44500000	      0.11498400	      0.04341640	      0.10301190
      4.45000000	      0.11388904	      0.04320918	      0.10243546
      4.45500000	      0.11296193	      0.04303295	      0.10205019
      4.46000000	      0.11203085	      0.04285524	      0.10167101
      4.46500000	      0.11121045	      0.04269803	      0.10140394
      4.47000000	      0.10992713	      0.04245096	      0.10083583
      4.47500000	      0.10913581	      0.04229789	      0.10058856
      4.48000000	      0.10809412	      0.04209554	      0.09960564
      4.48500000	      0.10726956	      0.04193468	      0.09997296
      4.49000000	      0.10635834	      0.04175619	      0.09918482
      4.49500000	      0.10510295	      0.04150903	      0.09886964
      4.50000000	      0.10416954	      0.04132429	      0.09778500
      4.50500000	      0.10292814	      0.04107732	      0.09768697
      4.51000000	      0.10223768	      0.04093931	      0.09739334
      4.51500000	      0.10095117	      0.04068092	      0.09698170
      4.52000000	      0.10019416	      0.04052810	      0.09673862
      4.52500000	      0.09880487	      0.04024614	      0.09633246
      4.53000000	      0.09823541	      0.04013000	      0.09572036
      4.53500000	      0.09685091	      0.03984620	      0.09561104
      4.54000000	      0.09634867	      0.03974275	      0.09507059
      4.54500000	      0.09517984	      0.03950095	      0.09466630
      4.55000000	      0.09445442	      0.03935013	      0.09412833
      4.55500000	      0.09316729	      0.03908110	      0.09408435
      4.56000000	      0.09255370	      0.03895220	      0.09352060
      4.56500000	      0.09153731	      0.03873773	      0.09338606
      4.57000000	      0.09100512	      0.03862496	      0.09295982
      4.57500000	      0.08990621	      0.03839104	      0.09255946
      4.58000000	      0.08894818	      0.03818595	      0.09214316
      4.58500000	      0.08841418	      0.03807115	      0.09164611
      4.59000000	      0.08752366	      0.03787894	      0.09144345
      4.59500000	      0.08686466	      0.03773607	      0.09089697
      4.60000000	      0.08632100	      0.03761779	      0.09061937
      4.60500000	      0.08495697	      0.03731939	      0.09004658
      4.61000000	      0.08443113	      0.03720372	      0.08962782
      4.61500000	      0.08350778	      0.03699973	      0.08961623
      4.62000000	      0.08296721	      0.03687978	      0.08903940
      4.62500000	      0.08179546	      0.03661843	      0.08884685
      4.63000000	      0.08127179	      0.03650102	      0.08840338
      4.63500000	      0.08039169	      0.03630285	      0.08797980
      4.64000000	      0.07970203	      0.03614679	      0.08739781
      4.64500000	      0.07867432	      0.03591299	      0.08722914
      4.65000000	      0.07786808	      0.03572850	      0.08684809
      4.65500000	      0.07695649	      0.03551875	      0.08654137
      4.66000000	      0.07634745	      0.03537792	      0.08625480
      4.66500000	      0.07564581	      0.03521499	      0.08587251
      4.67000000	      0.07513401	      0.03509566	      0.08555410
      4.67500000	      0.07421776	      0.03488101	      0.08542871
      4.68000000	      0.07369975	      0.03475906	      0.08502231
      4.68500000	      0.07263897	      0.03450801	      0.08466601
      4.69000000	      0.07187812	      0.03432681	      0.08437135
      4.69500000	      0.07144444	      0.03422310	      0.08406093
      4.70000000	      0.07058200	      0.03401591	      0.08367266
      4.70500000	      0.06991285	      0.03385428	      0.08354149
      4.71000000	      0.06928109	      0.03370097	      0.08318192
      4.71500000	      0.06838887	      0.03348327	      0.08308982
      4.72000000	      0.06773791	      0.03332353	      0.08283424
      4.72500000	      0.06729367	      0.03321408	      0.08232291
      4.73000000	      0.06610945	      0.03292053	      0.08214705
      4.73500000	      0.06547941	      0.03276329	      0.08218980
      4.74000000	      0.06485835	      0.03260754	      0.08183303
      4.74500000	      0.06413673	      0.03242563	      0.08138653
      4.75000000	      0.06323340	      0.03219648	      0.08095179
      4.75500000	      0.06269834	      0.03205997	      0.08060444
      4.76000000	      0.06185357	      0.03184326	      0.08014514
      4.76500000	      0.06148200	      0.03174747	      0.07989804
      4.77000000	      0.06090337	      0.03159772	      0.07971908
      4.77500000	      0.06032852	      0.03144824	      0.07940150
      4.78000000	      0.05965267	      0.03127160	      0.07918804
      4.78500000	      0.05921326	      0.03115621	      0.07916895
      4.79000000	      0.05881450	      0.03105112	      0.07878483
      4.79500000	      0.05844710	      0.03095398	      0.07925649
      4.80000000	      0.05773714	      0.03076541	      0.07842825
      4.80500000	      0.05757305	      0.03072166	      0.07822976
      4.81000000	      0.05725358	      0.03063631	      0.07808999
      4.81500000	      0.05710251	      0.03059586	      0.07805698
      4.82000000	      0.05691319	      0.03054510	      0.07786159
      4.82500000	      0.05670682	      0.03048967	      0.07779738
      4.83000000	      0.05638520	      0.03040308	      0.07769808
      4.83500000	      0.05622571	      0.03036005	      0.07746378
      4.84000000	      0.05614316	      0.03033776	      0.07745387
      4.84500000	      0.05590078	      0.03027220	      0.07732983
      4.85000000	      0.05568596	      0.03021398	      0.07717725
      4.85500000	      0.05544832	      0.03014944	      0.07718725
      4.86000000	      0.05518643	      0.03007816	      0.07692866
      4.86500000	      0.05507437	      0.03004760	      0.07680449
      4.87000000	      0.05499737	      0.03002659	      0.07670153
      4.87500000	      0.05475123	      0.02995933	      0.07649833
      4.88000000	      0.05454693	      0.02990338	      0.07636574
      4.88500000	      0.05437335	      0.02985576	      0.07635395
      4.89000000	      0.05415184	      0.02979488	      0.07631610
      4.89500000	      0.05395867	      0.02974169	      0.07601649
      4.90000000	      0.05405368	      0.02976787	      0.07743613
