Inverse Dynamics Generalized Forces
version=1
nRows=129
nColumns=40
inDegrees=no
endheader
time	pelvis_tilt_moment	pelvis_list_moment	pelvis_rotation_moment	pelvis_tx_force	pelvis_ty_force	pelvis_tz_force	hip_flexion_r_moment	hip_adduction_r_moment	hip_rotation_r_moment	hip_flexion_l_moment	hip_adduction_l_moment	hip_rotation_l_moment	lumbar_extension_moment	lumbar_bending_moment	lumbar_rotation_moment	knee_angle_r_moment	knee_angle_r_beta_force	knee_angle_l_moment	knee_angle_l_beta_force	arm_flex_r_moment	arm_add_r_moment	arm_rot_r_moment	arm_flex_l_moment	arm_add_l_moment	arm_rot_l_moment	ankle_angle_r_moment	ankle_angle_l_moment	elbow_flex_r_moment	elbow_flex_l_moment	subtalar_angle_r_moment	subtalar_angle_l_moment	pro_sup_r_moment	pro_sup_l_moment	mtp_angle_r_moment	mtp_angle_l_moment	wrist_flex_r_moment	wrist_dev_r_moment	wrist_flex_l_moment	wrist_dev_l_moment
      4.50500000	   3440.40620273	-731298.40191463	-192274.22265932	      5.82933716	    753.86835550	    790.68110567	  28021.75006460	-146919.93776188	 724354.96959620	     26.03963735	     -4.05476166	      0.97479893	     57.82803882	     22.86276633	      2.77339589	-197280.72347819	     -0.02211326	      5.96670503	     -0.02221277	     -3.79319065	     -5.81186605	      1.49596180	     -3.52336118	     -2.56074273	      1.76076745	 162692.29076592	      1.00099979	      0.94367640	      2.38125686	-424697.86391960	     -0.23552411	      0.02288393	     -0.00258956	     -0.03908539	     -0.03850200	      0.19559847	     -0.05705761	      0.24638683	     -0.20365133
      4.51000000	   3304.42084013	-734663.38101981	-193212.73148993	      2.61232060	    761.49437433	    793.51068497	  28309.16292471	-147585.85430135	 727773.68110663	     26.00059408	     -3.99752052	      0.96835313	     57.93655459	     22.62760991	      3.05651404	-197835.70980968	     -0.02207872	      6.00706471	     -0.02217607	     -3.84699231	     -5.89598614	      1.54369643	     -3.54122012	     -2.55354247	      1.77951882	 163041.75313738	      1.00002786	      0.94866443	      2.41262857	-426395.57823960	     -0.23403027	      0.02440454	     -0.00157790	     -0.03935559	     -0.03868932	      0.20282362	     -0.05510089	      0.25200158	     -0.20687745
      4.51500000	   3039.09188911	-737117.16436797	-193929.77923396	     -0.43876050	    769.85316295	    795.63190771	  28439.60125323	-148085.91712132	 730319.74676809	     25.96837173	     -3.93725772	      0.95981885	     58.15859296	     22.41961926	      3.35480498	-198019.38027446	     -0.02204215	      6.04324350	     -0.02213865	     -3.89989190	     -5.98793620	      1.59071848	     -3.56470647	     -2.56026153	      1.80123042	 163069.15610793	      0.99859838	      0.95354002	      2.44312752	-427575.05988999	     -0.23231664	      0.02592481	     -0.00047189	     -0.03959152	     -0.03884193	      0.20994662	     -0.05313031	      0.25786580	     -0.20975582
      4.52000000	   2806.51747275	-739598.45112852	-194314.35613801	     -3.19174282	    779.14003872	    797.98393698	  28618.29384070	-148255.34223810	 732864.70577727	     25.94392364	     -3.87827187	      0.95039549	     58.53814073	     22.25822524	      3.68710403	-198202.16563773	     -0.02200295	      6.07514365	     -0.02209995	     -3.94879834	     -6.09051577	      1.63571489	     -3.59883811	     -2.60095587	      1.82870197	 163017.34861770	      0.99673592	      0.95773620	      2.46876356	-428429.62952379	     -0.23048859	      0.02743840	      0.00085009	     -0.03978871	     -0.03895644	      0.21680912	     -0.05109971	      0.26410031	     -0.21150530
      4.52500000	   2763.85470206	-743237.45662634	-194389.10902092	     -5.54711506	    789.41229546	    801.66195019	  29051.23714223	-148051.66344195	 736476.86459114	     25.92824559	     -3.82484044	      0.94133144	     59.11175576	     22.16162793	      4.06847103	-198806.27706232	     -0.02196056	      6.10265276	     -0.02205963	     -3.99080751	     -6.20620652	      1.67744444	     -3.64840086	     -2.69435258	      1.86447517	 163189.85475527	      0.99447423	      0.96073022	      2.48581305	-429341.30294949	     -0.22865512	      0.02893936	      0.00249348	     -0.03994262	     -0.03902996	      0.22326070	     -0.04896660	      0.27080292	     -0.21140046
      4.53000000	   3007.10243175	-747792.90690492	-194474.88215644	     -7.33384683	    800.48962386	    806.37085390	  29815.23252847	-147815.92049679	 740922.57475441	     25.92234388	     -3.78115425	      0.93391733	     59.91629461	     22.14691267	      4.51193642	-199884.70755911	     -0.02191482	      6.12563080	     -0.02201758	     -4.02331254	     -6.33716917	      1.71475198	     -3.71757723	     -2.85738881	      1.91068998	 163729.54474954	      0.99185634	      0.96204488	      2.49092065	-430521.93046698	     -0.22692824	      0.03042192	      0.00455207	     -0.04004865	     -0.03906017	      0.22915786	     -0.04669259	      0.27804780	     -0.20878757
      4.53500000	   3505.02038202	-752969.47796604	-194955.42817541	     -8.53189351	    812.24924531	    811.66320956	  30855.15264930	-147956.79727928	 745947.37475980	     25.92719298	     -3.75127420	      0.92947991	     61.00879311	     22.23102528	      5.03390008	-201359.89324792	     -0.02186605	      6.14387793	     -0.02197396	     -4.04414413	     -6.48527567	      1.74658311	     -3.80922652	     -3.10488480	      1.96883013	 164671.88456783	      0.98893307	      0.96125180	      2.48116709	-432233.02825629	     -0.22542223	      0.03188086	      0.00712593	     -0.04010219	     -0.03904518	      0.23436280	     -0.04424482	      0.28589032	     -0.20309008
      4.54000000	   3774.03856975	-759618.33569032	-196129.27041407	     -9.68516249	    824.98027303	    817.85781580	  31717.61006461	-148727.77111380	 752505.71069458	     25.94374683	     -3.73909944	      0.92936699	     62.47610581	     22.43142146	      5.65653309	-202988.76698138	     -0.02181519	      6.15711493	     -0.02192919	     -4.05171253	     -6.65204657	      1.77200705	     -3.92441126	     -3.44884733	      2.03955702	 165762.49821873	      0.98576271	      0.95800321	      2.45423709	-435056.93803650	     -0.22425223	      0.03331073	      0.01032748	     -0.04009895	     -0.03898365	      0.23874434	     -0.04160107	      0.29437048	     -0.19383429
      4.54500000	   3404.77670581	-768337.73303333	-198073.99031076	    -11.29057328	    839.04165799	    825.20248759	  32020.33747610	-150180.39345564	 761273.44689839	     25.97303950	     -3.74830783	      0.93492723	     64.41667431	     22.76525320	      6.40207534	-204519.62416484	     -0.02176358	      6.16501937	     -0.02188405	     -4.04508871	     -6.83844973	      1.79023768	     -4.06267872	     -3.89731881	      2.12280485	 166715.02913444	      0.98241468	      0.95209355	      2.40871516	-439279.09998203	     -0.22353297	      0.03470261	      0.01425679	     -0.04003544	     -0.03887493	      0.24218028	     -0.03875783	      0.30350670	     -0.18070646
      4.55000000	   2740.84875704	-777542.36024834	-200071.41984102	    -13.01000742	    854.62808214	    832.87141417	  32059.59228650	-151712.67609853	 770580.46485634	     26.01631564	     -3.78226141	      0.94748872	     66.91323438	     23.24774785	      7.28468496	-205837.01676221	     -0.02171281	      6.16728962	     -0.02183978	     -4.02402958	     -7.04469705	      1.80064252	     -4.22265380	     -4.45338188	      2.21798866	 167414.93443105	      0.97897605	      0.94351647	      2.34434845	-443680.95145519	     -0.22337788	      0.03604020	      0.01896782	     -0.03990961	     -0.03871960	      0.24455879	     -0.03573725	      0.31328475	     -0.16360769
      4.55500000	   2199.44954799	-785858.30023667	-201515.10621649	    -14.39908059	    871.87265275	    840.18213039	  32208.45357864	-152824.02217201	 778953.70942054	     26.07510391	     -3.84389481	      0.96832005	     70.01943734	     23.89112910	      8.30664447	-206960.56884685	     -0.02166467	      6.16369083	     -0.02179809	     -3.98900480	     -7.27013452	      1.80274744	     -4.40232347	     -5.11466395	      2.32411385	 167884.05189762	      0.97555750	      0.93249791	      2.26217708	-447221.91587746	     -0.22389715	      0.03729745	      0.02445114	     -0.03972118	     -0.03851997	      0.24577889	     -0.03259119	      0.32365058	     -0.14268115
      4.56000000	   1721.04584278	-795053.89491983	-203110.06504527	    -15.52156217	    890.94337760	    848.07997326	  32466.40308622	-154130.88377798	 788173.61653810	     26.15119058	     -3.93555480	      0.99856091	     73.75773979	     24.70420155	      9.45802936	-208311.53225565	     -0.02162111	      6.15408866	     -0.02176126	     -3.94124710	     -7.51317161	      1.79624962	     -4.59902828	     -5.87311327	      2.43978840	 168513.39689323	      0.97229633	      0.91951937	      2.16458632	-451155.25531064	     -0.22519261	      0.03843737	      0.03063015	     -0.03947185	     -0.03828061	      0.24575197	     -0.02940454	      0.33450788	     -0.11832220
      4.56500000	   1122.54675564	-806968.27958349	-205575.47917250	    -16.54710723	    911.89646426	    857.59632653	  32715.24839785	-156265.58850082	 800116.28017230	     26.24650023	     -4.05875900	      1.03914540	     78.11705203	     25.69182932	     10.71630150	-210205.97279801	     -0.02158423	      6.13848413	     -0.02173205	     -3.88279078	     -7.77120056	      1.78103253	     -4.80943323	     -6.71484053	      2.56322660	 169587.44780084	      0.96935503	      0.90534160	      2.05533538	-456773.51520751	     -0.22735025	      0.03941128	      0.03735830	     -0.03916548	     -0.03800873	      0.24440431	     -0.02629830	      0.34571628	     -0.09118525
      4.57000000	    228.36221132	-820483.00865795	-208338.15617673	    -17.61826245	    934.43182511	    868.45406847	  32747.10951144	-158757.67751148	 813685.27576114	     26.36295367	     -4.21394006	      1.09074220	     83.04640384	     26.85396644	     12.04464679	-212155.61894272	     -0.02155626	      6.11703886	     -0.02171366	     -3.81646074	     -8.04053481	      1.75716933	     -5.02956003	     -7.61998029	      2.69226329	 170619.14487944	      0.96691578	      0.89102042	      1.93956954	-463182.98938739	     -0.23043290	      0.04015811	      0.04441331	     -0.03880845	     -0.03771425	      0.24167839	     -0.02343133	      0.35708730	     -0.06219067
      4.57500000	  -1014.66489447	-834226.39010336	-210758.78947219	    -18.69926507	    958.13547405	    880.21499127	  32463.84170046	-161089.20237869	 827505.54679831	     26.50239010	     -4.40024517	      1.15369077	     88.44792975	     28.18458315	     13.38995764	-213729.55082422	     -0.02153947	      6.09008582	     -0.02170953	     -3.74582834	     -8.31640212	      1.72491910	     -5.25476609	     -8.56246584	      2.82431925	 171189.25575935	      0.96517428	      0.87790429	      1.82383115	-469345.52420592	     -0.23447372	      0.04060419	      0.05149091	     -0.03840987	     -0.03740978	      0.23753335	     -0.02099960	      0.36837716	     -0.03253380
      4.58000000	  -2196.14626815	-848954.40037088	-213329.04174289	    -19.17038754	    982.67842418	    893.08062294	  32294.84534025	-163749.09108385	 842251.19001351	     26.66658148	     -4.61536692	      1.22790422	     94.17217606	     29.67072902	     14.68128592	-215542.91583346	     -0.02153624	      6.05812744	     -0.02172320	     -3.67516601	     -8.59299090	      1.68473161	     -5.47954296	     -9.50957511	      2.95625515	 171931.14146732	      0.96433530	      0.86761345	      1.71609454	-475967.64054716	     -0.23946901	      0.04066380	      0.05820104	     -0.03798156	     -0.03711056	      0.23194663	     -0.01923282	      0.37927605	     -0.00370033
      4.58500000	  -3082.93391178	-865758.69018911	-216633.69746673	    -18.49284457	   1007.74882367	    907.49078170	  32506.27747160	-167308.44699295	 858965.86259901	     26.85728613	     -4.85541057	      1.31275678	    100.01511214	     31.29159019	     15.82848304	-218124.86853922	     -0.02154900	      6.02182178	     -0.02175810	     -3.60940517	     -8.86352919	      1.63726746	     -5.69709634	    -10.42116472	      3.08408742	 173382.02633312	      0.96460847	      0.86200824	      1.62583004	-483961.84297981	     -0.24537098	      0.04024043	      0.06406595	     -0.03753790	     -0.03683454	      0.22491807	     -0.01838945	      0.38939258	      0.02250985
      4.59000000	  -4593.71789597	-884792.22753915	-220390.99831862	    -17.18369217	   1033.22937375	    924.16679280	  32195.28815793	-171534.91846811	 877964.00965457	     27.07622272	     -5.11485455	      1.40699751	    105.71752975	     33.01759331	     16.72096567	-220600.82358490	     -0.02158026	      5.98198108	     -0.02181739	     -3.55411157	     -9.12037197	      1.58343819	     -5.89867632	    -11.24856142	      3.20253500	 174622.29553916	      0.96620100	      0.86315417	      1.56408428	-493165.90221289	     -0.25208306	      0.03922938	      0.06852053	     -0.03709593	     -0.03660195	      0.21647768	     -0.01875162	      0.39823045	      0.04395167
      4.59500000	  -7582.55691262	-905831.56278238	-224168.05918584	    -15.66870777	   1058.78227336	    943.55555871	  30508.55293853	-176074.82610567	 899166.68477847	     27.32490322	     -5.38660807	      1.50869702	    110.97121293	     34.80994192	     17.22771661	-222059.94582492	     -0.02163268	      5.93960191	     -0.02190391	     -3.51550976	     -9.35508675	      1.52447730	     -6.07258170	    -11.93320291	      3.30435302	 174702.50629541	      0.96930388	      0.87328931	      1.54354789	-503150.64899776	     -0.25945757	      0.03752227	      0.07091885	     -0.03667504	     -0.03643412	      0.20669874	     -0.02062113	      0.40515651	      0.05810286
      4.60000000	 -11497.27567687	-928172.14230835	-227901.25124579	    -13.10456306	   1083.22682466	    964.65955683	  27959.52313451	-180977.87770275	 921749.96259402	     27.60440510	     -5.66217190	      1.61520305	    115.43992647	     36.62122029	     17.20122030	-222870.76224144	     -0.02170918	      5.89589917	     -0.02202018	     -3.50057148	     -9.55859220	      1.46204230	     -6.20274097	    -12.40552660	      3.37942988	 174042.88384126	      0.97407168	      0.89479159	      1.57850989	-513629.32766187	     -0.26729323	      0.03501376	      0.07055776	     -0.03629603	     -0.03635157	      0.19571579	     -0.02431556	      0.40936391	      0.06205429
      4.60500000	 -15665.61055020	-951377.31197495	-231646.60802086	     -8.54486053	   1105.35364858	    986.75295533	  25188.14737689	-186401.01956937	 945132.99563054	     27.91518120	     -5.93196730	      1.72311126	    118.80055873	     38.39759361	     16.48776471	-223595.51435125	     -0.02181296	      5.85229877	     -0.02216825	     -3.51712640	     -9.72145375	      1.39832087	     -6.26704773	    -12.58520666	      3.41376634	 173252.13097316	      0.98060062	      0.93012813	      1.68448103	-524516.27434619	     -0.27533329	      0.03161058	      0.06672673	     -0.03597923	     -0.03637200	      0.18374307	     -0.03016122	      0.40983636	      0.05256766
      4.61000000	 -20326.88342726	-976495.95021977	-235476.62395380	     -1.80887000	   1124.74302144	   1011.54184745	  21996.28291142	-192450.76658116	 970375.86553923	     28.25693857	     -6.18581408	      1.82829362	    120.78566547	     40.08160274	     14.93958165	-224265.07323283	     -0.02194753	      5.81037530	     -0.02234958	     -3.57384090	     -9.83433821	      1.33608417	     -6.23639779	    -12.38368705	      3.38878267	 172281.45429290	      0.98891016	      0.98177165	      1.87733592	-536255.55711918	     -0.28326856	      0.02724108	      0.05876569	     -0.03574232	     -0.03650844	      0.17108624	     -0.03848028	      0.40531705	      0.02622707
      4.61500000	 -25870.09672156	-1004518.36682513	-239437.58948288	      7.01103960	   1141.12363571	   1040.74424247	  18032.96281394	-199231.38987670	 998508.47521802	     28.62858650	     -6.41337470	      1.92599512	    121.19182356	     41.61334796	     12.41901606	-224749.87312963	     -0.02211651	      5.77175423	     -0.02256493	     -3.67988903	     -9.88849407	      1.27862823	     -6.07557474	    -11.70862123	      3.28149459	 170927.52937226	      0.99893359	      1.05208158	      2.17213542	-549255.11959833	     -0.29074827	      0.02186118	      0.04609115	     -0.03559931	     -0.03676793	      0.15814014	     -0.04957168	      0.39428585	     -0.02035017
      4.62000000	 -32398.35700903	-1034780.87881947	-243568.37128981	     17.78524838	   1153.86446062	   1073.64351004	  13145.59326801	-206925.00434184	1028880.80349970	     29.02821473	     -6.60444699	      2.01097281	    119.85312552	     42.92989190	      8.79482197	-224816.88619426	     -0.02232332	      5.73799920	     -0.02281419	     -3.84432120	     -9.87622655	      1.22959654	     -5.74595091	    -10.46914229	      3.06567251	 169048.56700728	      1.01052095	      1.14314906	      2.58195090	-563380.11129300	     -0.29739652	      0.01545480	      0.02818680	     -0.03556132	     -0.03715136	      0.14537101	     -0.06368661	      0.37496620	     -0.09029387
      4.62500000	 -39903.57022693	-1066307.96048695	-247826.05931662	     30.47124736	   1162.23607251	   1109.16132154	   7275.61158740	-215639.29922386	1060506.89108357	     29.45302060	     -6.74925350	      2.07769359	    116.61891435	     43.96528215	      3.94253258	-224270.41231223	     -0.02257072	      5.71049865	     -0.02309629	     -4.07526721	     -9.79152065	      1.19272649	     -5.20913144	     -8.58182741	      2.71382336	 166552.44241843	      1.02344548	      1.25660566	      3.11686461	-578317.58086610	     -0.30283131	      0.00803314	      0.00459995	     -0.03563799	     -0.03765373	      0.13328894	     -0.08099920	      0.34540559	     -0.18625975
      4.63000000	 -48178.34019875	-1098422.39713402	-251677.61746368	     45.35426016	   1165.47766860	   1147.24632948	    592.36974115	-224971.09961960	1092633.24045369	     29.89913942	     -6.83894942	      2.12063397	    111.35781483	     44.65259255	     -2.24388401	-223148.66787467	     -0.02286052	      5.69037238	     -0.02340904	     -4.37901171	     -9.63091009	      1.17153053	     -4.43138197	     -5.97776253	      2.20011635	 163440.08687474	      1.03740409	      1.39339559	      3.78323885	-593380.10017220	     -0.30668455	     -0.00036414	     -0.02503053	     -0.03583713	     -0.03826377	      0.12241255	     -0.10157327	      0.30367591	     -0.31020245
      4.63500000	 -57004.67975744	-1130707.91611041	-254661.17131931	     62.70012547	   1162.97427682	   1188.04644402	  -6714.49760558	-234570.01641798	1124771.53792110	     30.36144316	     -6.86635818	      2.13465791	    103.97739791	     44.92711861	     -9.83176153	-221572.47455487	     -0.02319332	      5.67841091	     -0.02374916	     -4.75887593	     -9.39452307	      1.16887796	     -3.38941498	     -2.61049704	      1.50459165	 159782.42222683	      1.05201392	      1.55351653	      4.58342096	-608032.07603298	     -0.30861976	     -0.00966761	     -0.06092316	     -0.03616307	     -0.03896337	      0.11322059	     -0.12532598	      0.24822277	     -0.46316692
      4.64000000	 -66391.02664453	-1163633.13516395	-257265.29627416	     82.46465495	   1154.50841702	   1231.62683721	 -14667.83930973	-245014.97319887	1157374.23806574	     30.83341989	     -6.82673073	      2.11539185	     94.44643351	     44.72970545	    -18.82485244	-219719.33549429	     -0.02356847	      5.67503860	     -0.02411240	     -5.21387681	     -9.08718597	      1.18647000	     -2.07786401	      1.53570002	      0.61879057	 155822.10252277	      1.06681186	      1.73575274	      5.51602364	-622932.01917844	     -0.30834620	     -0.01977913	     -0.10309133	     -0.03661460	     -0.03972725	      0.10608942	     -0.15199156	      0.17837298	     -0.64512528
      4.64500000	 -76447.37123783	-1197694.88941838	-260030.35671265	    104.35989990	   1140.23308213	   1277.84080987	 -23392.79479046	-256949.96403445	1190928.04164613	     31.30717899	     -6.71836585	      2.05955184	     82.81590716	     44.00985673	    -29.13596715	-217681.00309052	     -0.02398378	      5.68028162	     -0.02449364	     -5.73722102	     -8.71948536	      1.22424566	     -0.51815558	      6.43774925	     -0.44745100	 151726.87963967	      1.08126069	      1.93741637	      6.57674893	-638801.80748589	     -0.30563437	     -0.03057515	     -0.15127225	     -0.03718336	     -0.04052302	      0.10122104	     -0.18108660	      0.09497805	     -0.85486503
      4.65000000	 -87393.92709411	-1232501.28808818	-262554.66395828	    127.79857368	   1120.85865680	   1326.02881174	 -33138.72476123	-270088.40199887	1225050.32742517	     31.77358963	     -6.54307535	      1.96521917	     69.23862745	     42.72883179	    -40.55929982	-215175.11077755	     -0.02443528	      5.69372143	     -0.02488705	     -6.31475738	     -8.30869362	      1.27977019	      1.23206303	     12.02611849	     -1.65873700	 147186.05307500	      1.09476236	      2.15409776	      7.75947960	-655186.95163129	     -0.30033553	     -0.04191144	     -0.20484982	     -0.03785286	     -0.04131155	      0.09856622	     -0.21187767	      0.00112278	     -1.08990720
      4.65500000	 -99336.43284979	-1267255.63924401	-264237.91539706	    152.01165322	   1097.52861078	   1375.21808785	 -44052.24110444	-283925.22148623	1258950.95941133	     32.22257193	     -6.30644671	      1.83204930	     53.98778023	     40.86403843	    -52.74544613	-211926.90327895	     -0.02491701	      5.71443090	     -0.02528626	     -6.92358951	     -7.87943478	      1.34768521	      3.07023177	     18.17764701	     -2.94748721	 141891.21868400	      1.10667503	      2.37946302	      9.05705952	-671305.01175553	     -0.29240018	     -0.05362829	     -0.26277659	     -0.03859791	     -0.04204748	      0.09775198	     -0.24335885	     -0.09722858	     -1.34639862
      4.66000000	-111842.20123212	-1300462.34660929	-264770.49820260	    176.40142351	   1071.74743228	   1423.96454048	 -55781.96373491	-298194.21827170	1291064.07628124	     32.64350843	     -6.01781479	      1.66140157	     37.47363877	     38.41632220	    -65.18363184	-208044.94714290	     -0.02542092	      5.74090532	     -0.02568481	     -7.53112343	     -7.46391098	      1.41934031	      4.84272290	     24.70855332	     -4.20953421	 136030.42535380	      1.11632920	      2.60516418	     10.46083818	-686389.55574473	     -0.28188922	     -0.06555477	     -0.32350480	     -0.03938419	     -0.04267982	      0.09802914	     -0.27425023	     -0.19084113	     -1.61888477
      4.66500000	-124225.94746452	-1330803.82070442	-264082.83445319	    200.24174711	   1045.37250250	   1470.75801911	 -67714.56981434	-312804.41188794	1319956.72225457	     33.02570698	     -5.68998439	      1.45639461	     20.25586518	     35.42065596	    -77.19763808	-203935.55422841	     -0.02593702	      5.77100632	     -0.02607654	     -8.09485036	     -7.10146883	      1.48274227	      6.34363095	     31.36716340	     -5.30402868	 130108.66442937	      1.12304233	      2.82087145	     11.95777328	-699932.08583798	     -0.26897793	     -0.07750894	     -0.38494153	     -0.04016775	     -0.04315247	      0.09825574	     -0.30301773	     -0.26732828	     -1.89984431
      4.67000000	-135359.18178643	-1358494.02922095	-262649.45796509	    222.85509718	   1020.30535422	   1514.60112396	 -78727.33145769	-328207.13462349	1345592.24997237	     33.35888878	     -5.33880074	      1.22188145	      3.04815164	     31.95982923	    -87.96298317	-200816.24066579	     -0.02645357	      5.80195152	     -0.02645616	     -8.56318102	     -6.83730412	      1.52295918	      7.32127317	     37.82608733	     -6.06010644	 125385.46708524	      1.12613584	      3.01440865	     13.52393343	-712417.45036256	     -0.25395475	     -0.08929061	     -0.44444992	     -0.04089521	     -0.04340517	      0.09693116	     -0.32790869	     -0.31207157	     -2.17888586
      4.67500000	-144366.45520543	-1384017.63172836	-260889.64118296	    243.17347118	    998.86244869	   1554.32149053	 -87928.76535920	-344806.30431573	1368231.90899249	     33.63365475	     -4.98255622	      0.96433868	    -13.28740532	     28.17999705	    -96.55232237	-199709.88684762	     -0.02695755	      5.83037484	     -0.02681966	     -8.87766354	     -6.72016538	      1.52309988	      7.49500900	     43.67441022	     -6.29281084	 122892.53237184	      1.12495593	      3.17204716	     15.11382403	-724370.49888986	     -0.23721514	     -0.10066522	     -0.49892576	     -0.04150478	     -0.04337501	      0.09229688	     -0.34700901	     -0.31021338	     -2.44159538
      4.68000000	-151772.69228902	-1407323.65052839	-258410.99140660	    258.95260049	    984.09030142	   1588.07545288	 -95819.04271361	-362169.06521100	1387926.11161886	     33.84229028	     -4.64014398	      0.69095052	    -27.75846807	     24.30511349	   -102.01365608	-200092.09373531	     -0.02743669	      5.85239767	     -0.02716851	     -8.97685472	     -6.79897812	      1.46593025	      6.58407022	     48.41219371	     -5.83020628	 122035.10721455	      1.11888434	      3.27908539	     16.64615928	-735412.99138759	     -0.21919825	     -0.11134107	     -0.54498219	     -0.04192779	     -0.04299885	      0.08251544	     -0.35833878	     -0.24988288	     -2.66818532
      4.68500000	-158250.98234831	-1428313.52649657	-254796.71564374	    268.01900294	    979.07898797	   1613.73568977	-103041.05294431	-379823.62565200	1404732.28867566	     33.97780508	     -4.33288452	      0.41123887	    -39.27619019	     20.64458980	   -103.48128302	-201267.44812914	     -0.02787818	      5.86383921	     -0.02749842	     -8.80198011	     -7.11839383	      1.33610774	      4.34786070	     51.45246364	     -4.55195006	 122053.11735932	      1.10737672	      3.32083405	     17.98860724	-745129.54496009	     -0.20049543	     -0.12094441	     -0.57926354	     -0.04209005	     -0.04221341	      0.06592984	     -0.36000140	     -0.12654965	     -2.83233052
      4.69000000	-163689.18705719	-1447194.33896848	-250435.02854529	    269.15829494	    986.18130158	   1629.63008754	-109458.67495597	-398116.40677980	1418797.05871160	     34.03503465	     -4.08168669	      0.13540836	    -46.70819435	     17.58652523	   -100.31187943	-203422.47280953	     -0.02826555	      5.86026056	     -0.02781008	     -8.30432878	     -7.71343542	      1.12292291	      0.63308078	     52.13984216	     -2.43623186	 123180.59667221	      1.08995804	      3.28404990	     18.94652444	-753937.42750239	     -0.18173096	     -0.12899746	     -0.59887330	     -0.04191263	     -0.04095783	      0.04139250	     -0.35038755	      0.05207787	     -2.90085084
      4.69500000	-167839.22757699	-1464088.29874680	-245727.38940807	    262.07960968	   1007.07180033	   1633.93380359	-114797.75591845	-417400.30550956	1430132.33286968	     34.01079012	     -3.90660108	     -0.12572954	    -48.95402600	     15.56953018	    -92.22754693	-206847.88290588	     -0.02858700	      5.83713982	     -0.02810779	     -7.45396695	     -8.60367557	      0.82327767	     -4.58287004	     49.79897046	      0.39338563	 125760.05748166	      1.06624718	      3.15874983	     19.26321034	-762231.21259543	     -0.16355377	     -0.13490634	     -0.60183140	     -0.04131494	     -0.03917522	      0.00862971	     -0.32841977	      0.26187953	     -2.83512809
      4.70000000	-170689.56820899	-1478509.43738860	-240260.06620697	    247.48012050	   1042.82146125	   1624.34615517	-119014.99372703	-437140.62450977	1438284.21382884	     33.90404353	     -3.82621421	     -0.36105979	    -45.04338739	     15.03119177	    -79.43588597	-211388.77131788	     -0.02883357	      5.79011688	     -0.02839934	     -6.24885274	     -9.78771166	      0.44444700	    -11.16860563	     43.82716202	      3.63640111	 129580.18894678	      1.03599241	      2.94026592	     18.64070047	-769434.02449952	     -0.14661964	     -0.13796868	     -0.58738778	     -0.04021753	     -0.03681552	     -0.03141461	     -0.29381580	      0.46090659	     -2.59520117
      4.70500000	-172278.14021150	-1490152.25869859	-233657.77935945	    226.88408855	   1093.09123682	   1599.39069458	-122105.56741882	-456837.39250760	1443008.95142752	     33.71600879	     -3.85684551	     -0.55963215	    -34.24937792	     16.34025043	    -62.68952361	-216872.80093720	     -0.02900051	      5.71532500	     -0.02869640	     -4.72298069	    -11.23901551	      0.00606115	    -18.85286612	     33.83999381	      6.81944989	 134401.60404012	      0.99911184	      2.63135932	     16.78896656	-775071.08299028	     -0.13156735	     -0.13741199	     -0.55596826	     -0.03854582	     -0.03383901	     -0.07632391	     -0.24734727	      0.59316115	     -2.14721516
      4.71000000	-172622.08619935	-1500100.45312109	-226535.94044617	    202.19514923	   1155.61812954	   1559.76327418	-124017.06743575	-477182.27475817	1445269.35624639	     33.45007010	     -4.01157614	     -0.71116688	    -16.19471196	     19.72857414	    -43.25085507	-223552.27939411	     -0.02908863	      5.60978553	     -0.02901489	     -2.95176617	    -12.90438230	     -0.45931864	    -27.28229458	     19.86092043	      9.35480776	 140486.46212619	      0.95572933	      2.24406501	     13.50562240	-780110.16762787	     -0.11899271	     -0.13247022	     -0.50861152	     -0.03623410	     -0.03021953	     -0.12212175	     -0.19105441	      0.59937597	     -1.47415947
      4.71500000	-171609.25328762	-1509717.54373591	-219660.51495866	    175.21349770	   1227.01219793	   1508.78749902	-124564.40495450	-499136.55712859	1446185.41952104	     33.11158255	     -4.29915687	     -0.80661232	      9.08632851	     25.24057424	    -22.74534465	-231892.94547729	     -0.02910573	      5.47182260	     -0.02937538	     -1.05269026	    -14.70597785	     -0.90760856	    -36.10271922	      2.51571601	     10.65840881	 148316.05391385	      0.90620140	      1.80068302	      8.77686486	-785787.31609944	     -0.10941914	     -0.12249659	     -0.44604878	     -0.03322969	     -0.02594674	     -0.16343504	     -0.12834540	      0.43430712	     -0.58858136
      4.72000000	-168607.75946948	-1519987.53750257	-213457.74933273	    147.27491940	   1303.70530448	   1453.26505254	-123051.65444966	-523341.98818900	1446386.65550795	     32.70754768	     -4.72291315	     -0.83876953	     41.16334789	     32.70693983	     -2.91627253	-242753.43318906	     -0.02906805	      5.30149357	     -0.02980348	      0.82037660	    -16.54732214	     -1.28687347	    -45.01172894	    -16.84156470	     10.30675334	 158718.71543987	      0.85114329	      1.33323929	      2.87504800	-792894.21110746	     -0.10326797	     -0.10709798	     -0.36801680	     -0.02949706	     -0.02102840	     -0.19395884	     -0.06389420	      0.08632756	      0.45563595
      4.72500000	-162906.33276591	-1531384.65173937	-208202.89807204	    118.71780622	   1383.25706293	   1401.58937574	-118720.40974151	-550252.71166057	1445965.50402392	     32.24618424	     -5.27975836	     -0.80293744	     79.29319174	     41.73487421	     14.67516246	-256935.98727037	     -0.02900181	      5.10104456	     -0.03033005	      2.49015613	    -18.32280783	     -1.54318942	    -53.72077538	    -36.16430709	      8.18479937	 172480.52791315	      0.79146556	      0.88095491	     -3.58666309	-801914.26844955	     -0.10083512	     -0.08626989	     -0.27365827	     -0.02502261	     -0.01549343	     -0.20722194	     -0.00327797	     -0.40841033	      1.55706013
      4.73000000	-153971.41999008	-1542799.12452771	-203959.52860441	     89.33562264	   1465.96498608	   1360.16143881	-111036.33677559	-579767.17330547	1443550.14001985	     31.73637778	     -5.95962523	     -0.69742974	    122.50687333	     51.70755588	     28.94147519	-274643.21020927	     -0.02894457	      4.87536541	     -0.03099118	      3.77668140	    -19.92986255	     -1.62836064	    -61.80883785	    -52.98561896	      4.56564340	 189883.06797328	      0.72842330	      0.48559854	     -9.68888236	-812534.45469196	     -0.10228308	     -0.06050856	     -0.16346982	     -0.01981979	     -0.00939602	     -0.19760477	      0.04766166	     -0.96561348	      2.57196058
      4.73500000	-141385.89268753	-1553065.66198730	-200697.63192971	     58.24708852	   1553.18103248	   1334.81399014	 -99578.94026288	-611585.73209942	1437763.44936254	     31.18689402	     -6.74569968	     -0.52376508	    169.61131149	     61.80694119	     39.47836106	-295926.04948890	     -0.02894627	      4.63241121	     -0.03182802	      4.52480192	    -21.28215170	     -1.50873800	    -68.54502053	    -64.92459227	      0.08096880	 211036.29492820	      0.66367252	      0.18503039	    -14.36243708	-824321.16717955	     -0.10765954	     -0.03087470	     -0.04206988	     -0.01393414	     -0.00282008	     -0.16150069	      0.08370061	     -1.47031441	      3.33610334
      4.74000000	-125126.60776031	-1562244.70668664	-198141.03751857	     23.55132412	   1644.37439648	   1331.84577348	 -84285.56048298	-645422.09809559	1428544.12940939	     30.60740460	     -7.60507981	     -0.29262960	    219.06697205	     71.09378613	     46.61550226	-320755.84683117	     -0.02906996	      4.38332969	     -0.03277572	      4.63507537	    -22.32154384	     -1.17372283	    -72.84445648	    -70.30337724	     -4.41564311	 235820.52040056	      0.59922087	      0.00584790	    -16.65661864	-837119.20469223	     -0.11649010	      0.00102336	      0.08024796	     -0.00744785	      0.00411134	     -0.09841693	      0.10124919	     -1.80782262	      3.70331441
      4.74500000	-105421.78702242	-1570858.31332748	-196005.02916475	    -15.97039772	   1737.64197810	   1354.71630517	 -65343.70512485	-681124.48158503	1416332.55730926	     30.00216993	     -8.51797572	     -0.00724700	    268.88064817	     78.66155818	     51.27213217	-348985.04264926	     -0.02929219	      4.14319289	     -0.03391380	      4.09065588	    -23.02671005	     -0.64132533	    -73.49789316	    -68.64717083	     -8.04814907	 263972.65163032	      0.53777220	     -0.04314966	    -16.04369501	-850984.88566816	     -0.12903475	      0.03318945	      0.18932761	     -0.00048795	      0.01124519	     -0.01163213	      0.09926680	     -1.89608478	      3.59153843
      4.75000000	 -82957.70152522	-1580168.51824395	-194225.85823747	    -60.50977983	   1830.57259139	   1402.71440261	 -43395.22045029	-719040.81505602	1402285.08365735	     29.37384022	     -9.45771226	      0.32349967	    316.75036411	     83.81232484	     54.65575318	-380261.28344172	     -0.02971259	      3.93030550	     -0.03527861	      2.96782074	    -23.41532017	      0.04289581	    -69.62899804	    -60.81785257	    -10.11463592	 295027.51035734	      0.48252026	      0.02607970	    -12.62574387	-866540.92695450	     -0.14535483	      0.06358260	      0.27244626	      0.00678131	      0.01838486	      0.09209462	      0.07966874	     -1.70542991	      3.01654680
      4.75500000	 -58535.53605450	-1590724.01682311	-192654.53554125	   -109.83358510	   1919.54676172	   1470.83111987	 -19228.43699977	-759286.09759467	1386929.69078480	     28.72219295	    -10.40053788	      0.68989798	    360.42677996	     86.15166620	     57.89891852	-413961.66246640	     -0.03041818	      3.76580463	     -0.03690414	      1.42123952	    -23.53602584	      0.81466267	    -61.12229187	    -48.67798289	    -10.21954909	 328275.59252623	      0.43721956	      0.18377466	     -7.12459952	-884073.46190787	     -0.16567551	      0.09051803	      0.32414378	      0.01414956	      0.02529286	      0.20385273	      0.04689321	     -1.25830380	      2.09322035
      4.76000000	 -33080.71583490	-1599437.79191073	-190630.01039118	   -163.59506972	   2000.14330243	   1548.94152512	   6142.87901857	-800126.61541872	1367753.23269082	     28.04429957	    -11.32923997	      1.08254088	    397.98914388	     85.56403915	     61.75709850	-448271.64066043	     -0.03149373	      3.67270234	     -0.03882357	     -0.34959337	    -23.45134443	      1.60344293	    -48.75950067	    -34.46119251	     -8.31600669	 361996.70725437	      0.40613376	      0.39032501	     -0.65107027	-901786.50606453	     -0.19046040	      0.11289994	      0.34863832	      0.02136280	      0.03169331	      0.31430486	      0.00677906	     -0.61381450	      1.00120336
      4.76500000	  -7655.24496902	-1603927.05255876	-187591.87105892	   -221.02361369	   2068.03896004	   1626.82134035	  31575.74662486	-839888.67242506	1343072.61589739	     27.33447674	    -12.23654565	      1.49335339	    427.92375830	     82.14338565	     66.47287766	-481417.84084626	     -0.03302714	      3.67450348	     -0.04106904	     -2.13704551	    -23.21920898	      2.34322186	    -34.00529673	    -20.17833169	     -4.67626764	 394470.78231572	      0.39392347	      0.60550404	      5.63002017	-918180.40152708	     -0.22046389	      0.13021747	      0.35728430	      0.02812690	      0.03727662	      0.41508352	     -0.03471903	      0.15109725	     -0.06833314
      4.77000000	  16326.50073573	-1608278.69512381	-183705.11156627	   -280.98182488	   2119.04002075	   1700.35084641	  55723.49110810	-880156.46969152	1316817.34691129	     26.58392970	    -13.12710265	      1.91607721	    449.14150115	     76.16364854	     71.82147743	-513260.81256506	     -0.03510637	      3.79344585	     -0.04367544	     -3.75487916	    -22.88053176	      2.97959381	    -18.58445622	     -7.27952406	      0.18346717	 425261.79223085	      0.40546246	      0.79580502	     10.79548404	-935400.05739185	     -0.25672708	      0.14241189	      0.36294884	      0.03411286	      0.04170628	      0.49964059	     -0.07255694	      0.95607545	     -0.96173645
      4.77500000	  37775.67996483	-1616455.42378083	-179108.53021926	   -340.83672954	   2150.62400242	   1767.22997634	  77554.66790210	-922839.26298265	1292544.33236665	     25.80150743	    -13.97564474	      2.32459489	    461.01477683	     68.09280274	     77.26196431	-544026.71437288	     -0.03785044	      4.04691265	     -0.04706837	     -5.05771613	    -22.45493593	      3.47348285	     -4.06158556	      3.40889086	      5.60982595	 454308.85362879	      0.44526996	      0.93864211	     14.32788666	-955686.70457978	     -0.29880813	      0.14972173	      0.37469011	      0.03896276	      0.04460776	      0.56362579	     -0.10321064	      1.72675960	     -1.59136941
      4.78000000	  57244.98324379	-1625528.48115875	-173357.73771456	   -395.11805429	   2163.81093221	   1821.61190327	  97506.40529101	-966281.99736780	1267682.75481429	     24.95836507	    -14.83140204	      2.72985151	    463.40252104	     58.59683809	     82.11115404	-573359.25430561	     -0.04177087	      4.44926493	     -0.05115898	     -5.95046051	    -21.94320125	      3.80215250	      8.42446049	     11.57382321	     10.93410422	 481415.09330572	      0.51791161	      1.02345121	     16.12920768	-977419.37722552	     -0.34907486	      0.15255089	      0.39517764	      0.04228420	      0.04563929	      0.60489922	     -0.12486667	      2.40128508	     -1.93904936
      4.78500000	  75563.46317229	-1631863.55654336	-166127.72593995	   -438.27101959	   2160.77995063	   1859.62313757	 116273.67483157	-1008213.79907207	1239199.94747525	     24.03894899	    -15.71498607	      3.12590624	    456.62867608	     48.48836215	     85.69963431	-600893.75760177	     -0.04680391	      5.00576760	     -0.05603792	     -6.38918878	    -21.33363955	      3.95824732	     18.23615792	     17.24959828	     15.58297211	 506463.94118514	      0.62679524	      1.05041424	     16.42336740	-998529.92292743	     -0.40846696	      0.15137490	      0.42125393	      0.04372121	      0.04446359	      0.62329432	     -0.13727936	      2.93493672	     -2.04033841
      4.79000000	  92963.15854681	-1635895.79485410	-157886.48903424	   -466.69111078	   2142.31803620	   1882.59757740	 134060.68999578	-1048875.77273791	1207368.87714680	     23.02987797	    -16.63997223	      3.50386007	    441.41071124	     38.61855991	     87.49589654	-627021.36586762	     -0.05307774	      5.71167408	     -0.06179007	     -6.37588205	    -20.60949640	      3.94760142	     25.17555257	     20.67273671	     19.15306853	 529933.74329838	      0.77385549	      1.02782804	     15.61100466	-1019599.17571891	     -0.47736860	      0.14668588	      0.44646299	      0.04292682	      0.04078529	      0.62024479	     -0.14142617	      3.30256339	     -1.96036593
      4.79500000	 109836.39203849	-1639243.67888892	-149125.73070762	   -478.05120376	   2109.31784820	   1894.20276082	 151266.99990723	-1089212.27719260	1173310.35557165	     21.92696786	    -17.59348496	      3.84493694	    418.75873973	     29.74920843	     87.18880617	-652679.51185882	     -0.06069587	      6.55131319	     -0.06840833	     -5.94953423	    -19.75531036	      3.78643799	     29.36265593	     22.18173201	     21.43822686	 552781.31322531	      0.95892734	      0.96905717	     14.13225063	-1041849.17598079	     -0.55478509	      0.13896864	      0.46395261	      0.03960066	      0.03436752	      0.59836734	     -0.13908773	      3.49816710	     -1.77085234
      4.80000000	 127840.70722677	-1644125.65907654	-139708.29730727	   -470.11069596	   2063.18044692	   1899.90436055	 169570.96658569	-1130156.32399806	1138571.66153772	     20.75577433	    -18.47574332	      4.09855572	    389.87169567	     22.44922386	     84.72017668	-680146.23429619	     -0.06929954	      7.49946892	     -0.07496145	     -5.17584137	    -18.76128521	      3.49844039	     31.11256644	     22.15510205	     22.41472196	 577186.11387966	      1.17887903	      0.88970484	     12.36976250	-1066327.58799846	     -0.63593369	      0.12869829	      0.46862367	      0.03348237	      0.02502489	      0.56106254	     -0.13244195	      3.53189484	     -1.53394885
      4.80500000	 148183.46143236	-1651628.15331363	-129367.54521960	   -442.52949490	   2005.67526720	   1903.74209724	 190176.19600884	-1172067.44521993	1103925.14673181	     19.50186944	    -19.31581572	      4.27666748	    356.04596687	     17.04207511	     80.26728263	-710815.29513635	     -0.07781383	      8.51622105	     -0.08121025	     -4.13704866	    -17.62556414	      3.11199596	     30.83887343	     20.97283790	     22.20011327	 604642.79201184	      1.42911429	      0.80530698	     10.60023468	-1093438.87692399	     -0.72053906	      0.11634970	      0.45812370	      0.02441785	      0.01276214	      0.51216492	     -0.12371881	      3.42545541	     -1.29427825
      4.81000000	 169090.73575210	-1657836.08805614	-118143.45395973	   -398.99488940	   1939.25801363	   1903.75288742	 211191.83339344	-1212313.61071217	1066987.27186408	     18.18168778	    -20.05765696	      4.36111672	    318.60032710	     13.60622911	     74.18689742	-741669.41012924	     -0.08593026	      9.55419741	     -0.08684630	     -2.92287670	    -16.35479118	      2.65776236	     28.98776421	     18.99047062	     21.00256630	 632641.76523278	      1.70155088	      0.72962616	      8.98641839	-1120895.03639841	     -0.80448294	      0.10241014	      0.43282877	      0.01240949	     -0.00231263	      0.45565129	     -0.11493218	      3.20718884	     -1.07775463
      4.81500000	 188428.36550806	-1658656.80870801	-106333.89891330	   -344.13544952	   1866.42736488	   1897.01762682	 230373.07515672	-1247871.99483240	1025560.75323160	     16.83637571	    -20.59002661	      4.32201006	    278.81640784	     12.01471253	     66.94029790	-769244.21861538	     -0.09321612	     10.55784744	     -0.09179304	     -1.62294810	    -14.96350711	      2.16660347	     25.99666044	     16.52113727	     19.07312382	 658272.62006929	      1.98501772	      0.67352230	      7.59494273	-1146118.62802173	     -0.88099622	      0.08738861	      0.39519668	     -0.00242708	     -0.01995289	      0.39540469	     -0.10769269	      2.90771522	     -0.89464861
      4.82000000	 205531.18396194	-1654189.44614046	 -94512.20330518	   -281.05100958	   1790.35317171	   1884.18595805	 247060.17549537	-1278505.15371785	 980149.98206859	     15.54317706	    -20.72753619	      4.11662729	    237.89302079	     11.99432121	     59.01864294	-792822.24461807	     -0.10071707	     11.46773260	     -0.09745585	     -0.32085661	    -13.47286474	      1.66789517	     22.26939717	     13.82461202	     16.66755978	 681134.44322553	      2.26547522	      0.64433819	      6.42547776	-1169017.91518254	     -0.93995419	      0.07181751	      0.34888042	     -0.01988839	     -0.03977822	      0.33502775	     -0.10309952	      2.55662316	     -0.74446217
      4.82500000	 220105.71569479	-1644884.47628712	 -83064.57408839	   -212.63468906	   1713.41738536	   1866.13370075	 260980.64273501	-1304113.72590328	 931540.06748220	     14.31216594	    -20.49788800	      3.78738390	    196.91237835	     13.18733973	     50.88232138	-812087.63026564	     -0.10922125	     12.24172855	     -0.10380478	      0.91010310	    -11.90906402	      1.18820354	     18.16176931	     11.10309747	     14.01983146	 701206.51521728	      2.52870208	      0.64569757	      5.44046818	-1189478.17443619	     -0.97885132	      0.05624589	      0.29788625	     -0.03952554	     -0.06116266	      0.27770078	     -0.10170005	      2.18027912	     -0.62083527
      4.83000000	 231840.59189662	-1628390.75358391	 -71552.90929704	   -141.83573749	   1635.67935650	   1841.55023141	 271772.76328793	-1321952.33132577	 879441.94502359	     13.19548558	    -19.82874250	      3.34559290	    156.81649431	     15.20485457	     42.92049326	-825685.65602544	     -0.11845288	     12.84019310	     -0.11070028	      2.00963359	    -10.30179489	      0.75033320	     13.97356937	      8.50304229	     11.32641925	 717396.80506319	      2.75895296	      0.67760586	      4.58916350	-1204752.32164671	     -0.99134013	      0.04122563	      0.24593423	     -0.06075730	     -0.08337917	      0.22608105	     -0.10350175	      1.80062452	     -0.51546896
      4.83500000	 240302.89772112	-1602003.96501020	 -59669.56936679	    -71.42921427	   1556.08349794	   1808.32795478	 278957.84778018	-1328984.45567913	 823643.52763959	     12.31479868	    -18.49519153	      2.76757779	    118.39265756	     17.66680721	     35.43091277	-831944.08625656	     -0.12575406	     13.24621921	     -0.11490586	      2.93179801	     -8.68282566	      0.37270084	      9.94501757	      6.12146148	      8.73957203	 728301.87444436	      2.94035248	      0.73677334	      3.82362063	-1211725.34550809	     -0.96570824	      0.02729181	      0.19607014	     -0.08297469	     -0.10571034	      0.18223703	     -0.10802372	      1.43474452	     -0.42070324
      4.84000000	 244628.04362087	-1564422.26762465	 -48192.85263438	     -5.25630841	   1472.97058357	   1763.76035074	 281688.25194997	-1323874.28134742	 764241.42523480	     11.67876684	    -16.57699217	      2.12294257	     82.26733841	     20.22825146	     28.61634611	-829333.82578677	     -0.12834531	     13.44424773	     -0.11570281	      3.64533001	     -7.08477616	      0.06897984	      6.25657673	      4.01480497	      6.36709602	 732652.45632245	      3.06005695	      0.81710426	      3.10709231	-1208894.41736497	     -0.90215229	      0.01493913	      0.15050449	     -0.10536406	     -0.12718045	      0.14761243	     -0.11437833	      1.09498410	     -0.33083447
      4.84500000	 243981.50672693	-1513915.29620926	 -37940.99444945	     53.23585567	   1384.74498094	   1704.91663133	 279146.86001305	-1304898.19460427	 701130.97250764	     11.30574403	    -14.13933067	      1.46791616	     48.90806853	     22.59422384	     22.59244300	-816365.27651183	     -0.12735834	     13.44006838	     -0.11370124	      4.13303197	     -5.54000775	     -0.15198658	      3.03158533	      2.20857899	      4.27647427	 728930.15556272	      3.10828484	      0.91032767	      2.41656033	-1194344.08432228	     -0.80160989	      0.00459771	      0.11062050	     -0.12695790	     -0.14683702	      0.12302248	     -0.12137657	      0.78941700	     -0.24247182
      4.85000000	 238075.98804474	-1445782.60092317	 -29014.85127310	    102.62477881	   1290.81151883	   1627.53542036	 270992.04455490	-1267336.71006014	 633369.19776227	     11.26039659	    -11.16759660	      0.83204233	     18.63261337	     24.52688026	     17.40205782	-790809.42475194	     -0.12415553	     13.25588385	     -0.11007724	      4.39036528	     -4.07948414	     -0.28599850	      0.34122569	      0.70640465	      2.50145914	 714773.09650421	      3.07913360	      1.00676570	      1.74150585	-1163222.76848716	     -0.66348241	     -0.00338865	      0.07708740	     -0.14688492	     -0.16385637	      0.10868600	     -0.12765279	      0.52251199	     -0.15428122
      4.85500000	 226578.44389675	-1356215.37732759	 -21447.00655010	    141.60817581	   1190.73811642	   1527.44358904	 256861.97017202	-1207111.48110771	 560912.26533719	     11.57639958	     -7.71352732	      0.25391107	     -8.37591906	     25.84806134	     13.03194421	-750598.03334027	     -0.12139384	     12.92709240	     -0.10673866	      4.42350787	     -2.73158552	     -0.33309895	     -1.78869758	     -0.50230421	      1.04963189	 687754.95575115	      2.97230664	      1.09618167	      1.08082774	-1111238.39363157	     -0.49130148	     -0.00877979	      0.05002134	     -0.16432283	     -0.17753887	      0.10428723	     -0.13179900	      0.29587327	     -0.06643410
      4.86000000	 208231.95767133	-1246728.87934747	 -15542.22857686	    166.65228690	   1082.86085869	   1402.07285502	 235590.40155436	-1125093.03995307	 486122.30570120	     12.17970065	     -4.01012009	     -0.20723291	    -32.04999215	     26.43915080	      9.42889705	-695080.00126964	     -0.11763402	     12.49699686	     -0.10250420	      4.24720970	     -1.52105708	     -0.29704016	     -3.36977160	     -1.43641868	     -0.09020330	 646327.56445505	      2.79440132	      1.16858878	      0.43935362	-1038920.22673501	     -0.29737808	     -0.01145023	      0.02915059	     -0.17848523	     -0.18731932	      0.10905588	     -0.13249099	      0.10896263	      0.01999891
      4.86500000	 180903.49815792	-1116438.46889221	 -11275.20797627	    174.75018621	    967.02417789	   1250.09267924	 205062.64354492	-1020149.18192913	 410356.90896069	     13.04938592	     -0.19656737	     -0.53145057	    -52.41653576	     26.23887455	      6.51365789	-621863.84337418	     -0.11270881	     11.99965876	     -0.09722990	      3.88265021	     -0.46825863	     -0.18466018	     -4.44242396	     -2.11894504	     -0.94150865	 587206.86865225	      2.55678210	      1.21493132	     -0.17519555	-945204.07911616	     -0.09153368	     -0.01139215	      0.01395967	     -0.18883306	     -0.19294808	      0.12185874	     -0.12859173	     -0.04025455	      0.10356610
      4.87000000	 141881.82841224	-956317.67297767	  -7820.26466201	    165.64858752	    848.87386082	   1073.39980951	 162380.58065526	-883516.98968410	 332457.03385800	     14.20159843	      3.67256658	     -0.72463594	    -69.57547864	     25.23953976	      4.19218328	-524438.02022026	     -0.10453617	     11.46072433	     -0.08979447	      3.35543889	      0.41128209	     -0.00520894	     -5.06747704	     -2.57439673	     -1.53474020	 503210.75930179	      2.27487823	      1.22761909	     -0.75442572	-822056.04052878	      0.11915562	     -0.00871062	      0.00380195	     -0.19516998	     -0.19452973	      0.14129815	     -0.11922788	     -0.15476893	      0.18280612
      4.87500000	  92512.48559323	-770346.43532489	  -5238.78087128	    140.03914496	    734.05699662	    875.54504736	 108969.79436067	-718745.11934109	 254923.97388912	     15.54419960	      7.32814717	     -0.77748398	    -83.67944355	     23.48260421	      2.36459161	-405461.32424729	     -0.09525864	     10.87799058	     -0.08103492	      2.69392456	      1.10708554	      0.23030816	     -5.31840380	     -2.82730030	     -1.90340256	 395853.56910952	      1.96898924	      1.20091019	     -1.29063276	-672941.14168254	      0.31963081	     -0.00361270	     -0.00202009	     -0.19733716	     -0.19235300	      0.16580878	     -0.10383972	     -0.23810273	      0.25646761
      4.88000000	  39131.36295153	-588612.60198226	  -5460.47091318	    101.69790284	    620.36052323	    661.81429383	  51792.93985522	-554824.63739055	 185769.94572013	     16.99823036	     10.54390226	     -0.70438051	    -94.91579870	     21.05384679	      0.93210825	-283728.54070458	     -0.08551108	     10.23197426	     -0.07192643	      1.92794097	      1.61374518	      0.50969809	     -5.27461148	     -2.90147700	     -2.08133039	 282732.87725301	      1.66091285	      1.13112987	     -1.77744030	-525228.88179718	      0.49718573	      0.00360719	     -0.00420293	     -0.19557498	     -0.18700342	      0.19374214	     -0.08220487	     -0.29399566	      0.32360143
      4.88500000	 -17510.38220996	-408406.63698362	  -6336.26596975	     58.72009132	    505.67651872	    442.30685239	  -8557.93167374	-389267.56661299	 124650.39003623	     18.51243643	     13.16595079	     -0.53757440	   -103.49148106	     18.07741941	     -0.19761192	-158406.73119760	     -0.07562659	      9.48846627	     -0.06282046	      1.08795614	      1.93078647	      0.82004783	     -5.01586379	     -2.81981951	     -2.10098940	 163084.19181928	      1.37191357	      1.01674279	     -2.20993025	-376732.80075992	      0.64315192	      0.01258405	     -0.00341147	     -0.19039314	     -0.17931753	      0.22343629	     -0.05443841	     -0.32618650	      0.38356190
      4.89000000	 -46205.45917633	-217409.13579723	  -2343.70001036	     32.84637799	    395.69881253	    244.02246879	 -41317.54183353	-208777.35419025	  68151.62568584	     20.03490169	     15.05606663	     -0.31445320	   -109.62045073	     14.70795114	     -1.10624178	 -51255.81756162	     -0.06593772	      8.60195107	     -0.05399101	      0.20445187	      2.06238730	      1.14814431	     -4.61789706	     -2.60435365	     -1.99256496	  57537.17719528	      1.12132411	      0.85831962	     -2.58448854	-209119.00421839	      0.75090519	      0.02290139	     -0.00026372	     -0.18250762	     -0.17025767	      0.25327738	     -0.02097469	     -0.33827339	      0.43595384
      4.89500000	 -25063.78099331	 -77348.93995195	   1848.69808177	     40.29285521	    296.39730919	     94.06474589	 -23250.79486968	 -74001.02001313	  26651.45627099	     21.51237751	     16.09436332	     -0.07335962	   -113.51368653	     11.12033639	     -1.86139072	  -9945.22683273	     -0.05654122	      7.52484175	     -0.04568206	     -0.69261416	      2.01695880	      1.48088611	     -4.14920878	     -2.27645922	     -1.78361182	  13584.95842999	      0.92487771	      0.65841944	     -2.89854391	 -75961.53026824	      0.81587528	      0.03411236	      0.00467510	     -0.17277800	     -0.16079640	      0.28175732	      0.01746597	     -0.33363430	      0.48055592
      4.90000000	 -12408.66485992	 -16726.47097497	    910.08474874	     61.27255667	    207.37344887	      3.13005988	 -11923.61543551	 -16054.44464435	   6824.65711167	     22.89629707	     16.19779252	      0.14964960	   -115.37164338	      7.49749338	     -2.51424456	   4261.88091109	     -0.04762487	      6.21879001	     -0.03800530	     -1.57434112	      1.80659753	      1.80568469	     -3.66890439	     -1.85714435	     -1.49903102	  -2866.53985594	      0.79319627	      0.42139446	     -3.15033986	 -17975.50170301	      0.83598244	      0.04576176	      0.01089399	     -0.16209631	     -0.15179836	      0.30752501	      0.05992295	     -0.31538667	      0.51724778
      4.90500000	  -3915.00175942	  -1579.30226290	    -68.37355781	     72.57372264	    127.04934695	    -29.21319758	  -3769.25725406	  -1593.80531254	    795.45805355	     24.13942348	     15.31979742	      0.32493568	   -115.37893378	      4.01715768	     -3.09838549	   2796.02012279	     -0.03941479	      4.66387566	     -0.03108248	     -2.41349559	      1.44648663	      2.11085497	     -3.22544214	     -1.36724140	     -1.16117620	  -2485.57841970	      0.73091612	      0.15313678	     -3.33882901	  -2385.52333568	      0.81124206	      0.05740720	      0.01793725	     -0.15128025	     -0.14390518	      0.32943001	      0.10524867	     -0.28636921	      0.54596007
      4.91000000	    -70.08173125	     -6.63772506	    -43.54076510	     73.46244050	     56.49865493	    -31.37488474	     28.28464856	     16.32388176	      1.23488585	     25.19958027	     13.46225211	      0.43180014	   -113.70140868	      0.83927689	     -3.62988550	      3.41741312	     -0.03207728	      2.86542717	     -0.02501590	     -3.18524927	      0.95435084	      2.38599919	     -2.85607517	     -0.82744805	     -0.78999349	      0.73433268	      0.73636370	     -0.13919817	     -3.46368735	      0.82714246	      0.74383584	      0.06863834	      0.02540518	     -0.14098149	     -0.13746413	      0.34655945	      0.15216385	     -0.24913920	      0.56665015
      4.91500000	   -234.84258774	    -46.64641874	    -46.66996504	     68.46972546	     -2.97728907	    -32.10241596	   -144.50823899	    -28.75199093	     23.49414687	     26.04517712	     10.68762452	      0.45983586	   -110.48619489	     -1.90445751	     -4.10883523	    140.43755800	     -0.02570363	      0.85667402	     -0.01985004	     -3.86799815	      0.35004257	      2.62236237	     -2.58680725	     -0.25824818	     -0.40316935	   -123.87891573	      0.80191139	     -0.44744943	     -3.52539805	    -83.09453478	      0.63825879	      0.07909205	      0.03295332	     -0.13162049	     -0.13250923	      0.35826726	      0.19930793	     -0.20598294	      0.57929783
      4.92000000	    -52.13996600	     -4.21807295	    -38.69406499	     61.02776512	    -50.55059609	    -33.25922039	     27.54940183	     15.81716759	      1.91833408	     26.65681255	      7.12107711	      0.40895190	   -105.86515337	     -4.11800992	     -4.52237999	      1.74666720	     -0.02031162	     -1.30294056	     -0.01557748	     -4.44415158	     -0.34471247	      2.81311656	     -2.43274620	      0.32024140	     -0.01627692	      0.58476315	      0.91500669	     -0.76267166	     -3.52536671	      0.83904371	      0.50116454	      0.08846184	      0.04028969	     -0.12336138	     -0.12879172	      0.36419171	      0.24528142	     -0.15893708	      0.58391726
      4.92500000	    -56.16596526	     -5.49700752	    -36.11254490	     53.60115225	    -86.04667135	    -31.12956519	     13.94346868	     10.79381303	      3.53481073	     27.02556078	      2.94416058	      0.28796296	    -99.96196410	     -5.74532755	     -4.84907645	     10.70980397	     -0.01585808	     -3.53292986	     -0.01214984	     -4.90075633	     -1.10647009	      2.95353321	     -2.39876091	      0.88854039	      0.35707724	     -8.35965632	      1.05969381	     -1.07536170	     -3.46601898	     -5.28175151	      0.34097400	      0.09650147	      0.04716840	     -0.11612931	     -0.12585220	      0.36425565	      0.28868576	     -0.10982156	      0.58057665
      4.93000000	    -34.84432447	     -2.25341644	    -32.50527026	     46.18221497	   -110.46014116	    -26.25622876	     25.38237017	     10.11228371	      2.23105844	     27.14876781	     -1.61981996	      0.11220346	    -92.90137406	     -6.77186582	     -5.06387421	     -0.76948577	     -0.01225599	     -5.73944098	     -0.00949002	     -5.22987994	     -1.91027035	      3.04103942	     -2.48036630	      1.42822178	      0.70512141	      0.64163541	      1.21840416	     -1.37575043	     -3.35083881	      0.66720169	      0.16724596	      0.10302507	      0.05337953	     -0.10966455	     -0.12311652	      0.35864913	      0.32816839	     -0.06027883	      0.56941736
      4.93500000	    -27.44382735	     -1.80643549	    -29.06766729	     38.25769721	   -125.17035531	    -20.06761721	     22.90464876	      5.49118611	      2.35734106	     27.02522882	     -6.32692294	     -0.09925798	    -84.81737068	     -7.22305226	     -5.14267468	     -1.53989963	     -0.00939183	     -7.82424693	     -0.00750347	     -5.42876296	     -2.72998659	      3.07518170	     -2.66482955	      1.92240032	      1.01785853	      0.13197227	      1.37375029	     -1.65415756	     -3.18436655	      0.04226277	     -0.01012191	      0.10790562	      0.05874077	     -0.10359842	     -0.11999364	      0.34779952	      0.36247153	     -0.01180342	      0.55067451
      4.94000000	    -18.67419628	     -0.76536265	    -25.37558940	     29.90479509	   -131.46475265	    -12.99496609	     21.73621273	      1.06512691	      2.16920831	     26.65147277	    -10.93637224	     -0.32619821	    -75.85828575	     -7.15943008	     -5.06577818	     -3.52555191	     -0.00714134	     -9.69374920	     -0.00608781	     -5.49973244	     -3.53878798	      3.05749876	     -2.93253695	      2.35622144	      1.28710975	      0.79878747	      1.51007601	     -1.90136100	     -2.97218432	      0.37082782	     -0.18172918	      0.11107192	      0.06309472	     -0.09753290	     -0.11595734	      0.33233218	      0.39047668	      0.03424943	      0.52470309
      4.94500000	    -11.10306812	     -0.06560860	    -21.53637189	     21.29694650	   -130.62920080	     -5.32881926	     19.40726642	     -3.85241579	      2.03508350	     26.01996763	    -15.23214217	     -0.54910428	    -66.18935134	     -6.66924266	     -4.82018254	     -4.69937116	     -0.00538268	    -11.26673899	     -0.00514016	     -5.44983010	     -4.30967557	      2.99129008	     -3.25863386	      2.71735435	      1.50661461	      0.82210284	      1.61459372	     -2.10895975	     -2.72087335	      0.18030309	     -0.33939289	      0.11250372	      0.06631049	     -0.09110862	     -0.11060220	      0.31302169	      0.41124326	      0.07667016	      0.49200488
      4.95000000	     -3.65764426	      0.62284847	    -17.54891476	     12.43708164	   -123.98656023	      2.33702361	     17.08100355	     -8.62031801	      1.84766279	     25.11919330	    -19.03851198	     -0.75014161	    -55.99364772	     -5.86001698	     -4.40105920	     -5.82550114	     -0.00400591	    -12.48002792	     -0.00456221	     -5.29014483	     -5.01614848	      2.88128779	     -3.61487343	      2.99649749	      1.67212724	      0.94167762	      1.67804788	     -2.26974112	     -2.43792111	      0.03778554	     -0.47664460	      0.11222532	      0.06828656	     -0.08405292	     -0.10367293	      0.29073411	      0.42404523	      0.11440686	      0.45324904
      4.95500000	      3.37256312	      1.39583681	    -13.45596663	      3.31145673	   -112.81403972	      9.39969132	     14.59850992	    -12.91415997	      1.63365508	     23.93541286	    -22.22827814	     -0.91344904	    -45.47080185	     -4.85004533	     -3.81252556	     -6.63585101	     -0.00291861	    -13.29169997	     -0.00426344	     -5.03489757	     -5.63305702	      2.73325635	     -3.97156316	      3.18785065	      1.78149847	      0.98039739	      1.69493887	     -2.37804763	     -2.13157231	     -0.12061514	     -0.58896933	      0.11029885	      0.06895520	     -0.07620533	     -0.09507119	      0.26636355	      0.42840690	      0.14658327	      0.40928266
      4.96000000	      9.99606936	      2.27336989	     -9.30642958	     -6.02313294	    -98.29860873	     15.42516672	     12.12359505	    -16.50844646	      1.39914770	     22.45622324	    -24.72434371	     -1.02520212	    -34.83224324	     -3.75955778	     -3.06749083	     -7.16117812	     -0.00204778	    -13.68229804	     -0.00416271	     -4.70038893	     -6.13757994	      2.55356313	     -4.29949900	      3.28944255	      1.83473182	      0.98880052	      1.66340017	     -2.43009888	     -1.81061368	     -0.24903101	     -0.67380956	      0.10681761	      0.06828863	     -0.06752313	     -0.08484639	      0.24076999	      0.42413146	      0.17252492	      0.36112767
      4.96500000	     16.10883823	      3.19864208	     -5.16566710	    -15.46904009	    -81.54114804	     20.11438377	      9.72134127	    -19.30446914	      1.16084544	     20.67559561	    -26.49629574	     -1.07382580	    -24.29364097	     -2.70186987	     -2.18662036	     -7.39466860	     -0.00133891	    -13.65441016	     -0.00418884	     -4.30395253	     -6.51019454	      2.34877579	     -4.57175639	      3.30320133	      1.83396172	      0.96387771	      1.58483920	     -2.42421008	     -1.48408014	     -0.35719760	     -0.73039123	      0.10190020	      0.06630528	     -0.05807182	     -0.07317677	      0.21472695	      0.41131562	      0.19178748	      0.30995850
      4.97000000	     21.59458458	      4.11647347	     -1.10916087	    -24.90140665	    -63.56008633	     23.28149917	      7.43988292	    -21.25456074	      0.92862662	     18.59942312	    -27.55372808	     -1.05057271	    -14.06642390	     -1.77582411	     -1.19682663	     -7.34735692	     -0.00075313	    -13.23096347	     -0.00428070	     -3.86297554	     -6.73556099	      2.12531473	     -4.76519249	      3.23471856	      1.78331851	      0.90989353	      1.46343334	     -2.36088818	     -1.16089766	     -0.43949502	     -0.75944399	      0.09568529	      0.06307347	     -0.04800612	     -0.06034564	      0.18888324	      0.39034882	      0.20417911	      0.25706017
      4.97500000	     26.32920573	      4.95281763	      2.78097078	    -34.15218245	    -45.28661396	     24.87015168	      5.29929971	    -22.37928714	      0.71142508	     16.25026073	    -27.93790792	     -0.95048899	     -4.34985926	     -1.06028632	     -0.12964904	     -7.03860260	     -0.00026353	    -12.45242904	     -0.00438694	     -3.39397966	     -6.80328438	      1.88915819	     -4.86155800	      3.09270903	      1.68867917	      0.82700681	      1.30554735	     -2.24281818	     -0.84950858	     -0.49440979	     -0.76288544	      0.08832726	      0.05871193	     -0.03754658	     -0.04671554	      0.16373745	      0.36189888	      0.20977224	      0.20377320
      4.98000000	     30.21440116	      5.61619353	      6.42129984	    -43.00313188	    -27.56088097	     24.95022906	      3.31257370	    -22.76027784	      0.51789293	     13.66991561	    -27.71322618	     -0.77348482	      4.67538162	     -0.61063210	      0.98022111	     -6.50664005	      0.00014857	    -11.37322057	     -0.00446538	     -2.91185474	     -6.70847771	      1.64562603	     -4.84817398	      2.88823338	      1.55730164	      0.72074787	      1.11913299	     -2.07472507	     -0.55752645	     -0.52381454	     -0.74352607	      0.07999258	      0.05338628	     -0.02695590	     -0.03270311	      0.13962793	      0.32688229	      0.20889760	      0.15143288
      4.98500000	     33.18615485	      6.01858264	      9.73274843	    -51.19349115	    -11.12832153	     23.68995081	      1.48638342	    -22.51502934	      0.35539949	     10.91898830	    -26.95971610	     -0.52505123	     12.85202051	     -0.45741550	      2.09617565	     -5.79905066	      0.00049714	    -10.05765498	     -0.00448235	     -2.42940050	     -6.45202736	      1.39928646	     -4.71815212	      2.63378797	      1.39733962	      0.59795156	      0.91316156	     -1.86308709	     -0.29142648	     -0.53155516	     -0.70483036	      0.07085675	      0.04729948	     -0.01651742	     -0.01875617	      0.11674287	      0.28641735	      0.20211445	      0.10130390
      4.99000000	     35.22052424	      6.09304339	     12.64581776	    -58.43278495	      3.36758979	     21.32197743	     -0.17523361	    -21.77422586	      0.22885008	      8.07313737	    -25.76733042	     -0.21633430	     20.04997734	     -0.60743459	      3.18079558	     -4.96676585	      0.00079436	     -8.57569876	     -0.00441195	     -1.95719089	     -6.04051697	      1.15397733	     -4.47018242	      2.34232646	      1.21726860	      0.46529381	      0.69709406	     -1.61572880	     -0.05625386	     -0.52149396	     -0.65073986	      0.06110168	      0.04067599	     -0.00651653	     -0.00533224	      0.09514712	      0.24176497	      0.19015983	      0.05450922
      4.99500000	     36.33451510	      5.80165136	     15.10477317	    -64.41950250	     15.39471734	     18.11130985	     -1.66701175	    -20.66763552	      0.14028191	      5.21643526	    -24.23173840	      0.13648402	     26.16949875	     -1.04688507	      4.19695593	     -4.06113704	      0.00105261	     -6.99856427	     -0.00423527	     -1.50362070	     -5.48581885	      0.91287516	     -4.10801327	      2.02628813	      1.02530593	      0.32926473	      0.48035457	     -1.34135565	      0.14461595	     -0.49759044	     -0.58553125	      0.05091251	      0.03374308	      0.00277480	      0.00712514	      0.07481438	      0.19426416	      0.17388862	      0.01196271
      5.00000000	     36.58030033	      5.13834441	     17.07044682	    -68.86773025	     24.54105780	     14.32654059	     -2.98122106	    -19.31431216	      0.08863327	      2.43320158	    -22.45103233	      0.51341715	     31.14304221	     -1.74600958	      5.10897262	     -3.13128522	      0.00128541	     -5.39447320	     -0.00393957	     -1.07498129	     -4.80438549	      0.67854749	     -3.63979297	      1.69678020	      0.82892761	      0.19614098	      0.27180935	     -1.04907608	      0.30957902	     -0.46384107	     -0.51367240	      0.04047299	      0.02671456	      0.01111081	      0.01821238	      0.05565510	      0.14526665	      0.15421559	     -0.02567569
      5.00500000	     36.03438088	      4.12765992	     18.52126153	    -71.53613053	     30.52215450	     10.21735649	     -4.10925780	    -17.81658242	      0.06974690	     -0.19950293	    -20.52290523	      0.89231045	     34.93519873	     -2.66437636	      5.88381687	     -2.22125319	      0.00150720	     -3.82517863	     -0.00351792	     -0.67553671	     -4.01634272	      0.45298869	     -3.07736812	      1.36305369	      0.63454606	      0.07152254	      0.07931194	     -0.74795261	      0.43872503	     -0.42394618	     -0.43965607	      0.02996010	      0.01977960	      0.01828263	      0.02759032	      0.03753910	      0.09607680	      0.13206518	     -0.05801229
      5.01000000	     34.78575462	      2.81933594	     19.45260411	    -72.25276926	     33.18719371	      6.00079629	     -5.04413726	    -16.25830621	      0.07681490	     -2.61729033	    -18.54182004	      1.25063952	     37.54092886	     -3.75572329	      6.49241803	     -1.36807935	      0.00173237	     -2.34354198	     -0.00296913	     -0.30769463	     -3.14453655	      0.23769120	     -2.43555666	      1.03230188	      0.44734344	     -0.03995966	     -0.09064295	     -0.44662150	      0.53363379	     -0.38113201	     -0.36780222	      0.01954013	      0.01309574	      0.02412697	      0.03500374	      0.02031878	      0.04790297	      0.10833030	     -0.08490706
      5.01500000	     32.92590068	      1.28032553	     19.87517214	    -70.93278267	     32.52379456	      1.85556167	     -5.78288544	    -14.70606257	      0.10121201	     -4.77168802	    -16.59564626	      1.56730090	     38.98343080	     -4.97165751	      6.91096511	     -0.60085418	      0.00197377	     -0.99203220	     -0.00229805	      0.02769973	     -2.21360084	      0.03375678	     -1.73141990	      0.70970838	      0.27122500	     -0.13471667	     -0.23315881	     -0.15298521	      0.59712496	     -0.33815978	     -0.30202890	      0.00936650	      0.00678490	      0.02853248	      0.04029484	      0.00385306	      0.00182080	      0.08384042	     -0.10644857
      5.02000000	     30.54253867	     -0.41359724	     19.81281995	    -67.58610154	     28.66132528	     -2.07820893	     -6.32826825	    -13.21141445	      0.13347485	     -6.63126421	    -14.76175255	      1.82419799	     39.31267161	     -6.26401859	      7.12208791	      0.05959541	      0.00224134	      0.19799984	     -0.00151573	      0.33104135	     -1.24903153	     -0.15800575	     -0.98359316	      0.39868230	      0.10888869	     -0.21022179	     -0.34506875	      0.12603358	      0.63298653	     -0.29734835	     -0.24561428	     -0.00042246	      0.00093321	      0.03144293	      0.04340992	     -0.01197456	     -0.04125539	      0.05934298	     -0.12291948
      5.02500000	     27.71827904	     -2.18492195	     19.30031751	    -62.31373193	     21.87221546	     -5.69545222	     -6.68921064	    -11.81319447	      0.16419293	     -8.18044855	    -13.10317316	      2.00738586	     38.60440928	     -7.58597648	      7.11594210	      0.60049683	      0.00254066	      1.20631876	     -0.00063981	      0.60366531	     -0.27630875	     -0.33701036	     -0.21170823	      0.10127831	     -0.03798544	     -0.26500953	     -0.42494659	      0.38466317	      0.64568612	     -0.26056980	     -0.20099022	     -0.00970586	     -0.00440501	      0.03285738	      0.04439781	     -0.02724566	     -0.08059143	      0.03550004	     -0.13475354
      5.03000000	     24.53263364	     -3.95937472	     18.38141984	    -55.29648950	     12.56984743	     -8.92007028	     -6.87985612	    -10.53929835	      0.18476231	     -9.41674180	    -11.66553924	      2.10772935	     36.95873699	     -8.89218558	      6.89118696	      1.01646444	      0.00287174	      2.02319348	      0.00030516	      0.84752533	      0.67984220	     -0.50281307	      0.56413021	     -0.18122227	     -0.16847809	     -0.29862735	     -0.47299945	      0.61836059	      0.64008199	     -0.22923831	     -0.16960324	     -0.01838078	     -0.00920116	      0.03282776	      0.04339989	     -0.04199864	     -0.11563869	      0.01289237	     -0.14248958
      5.03500000	     21.06416518	     -5.66866716	     17.10725602	    -46.78162634	      1.30111322	    -11.69799509	     -6.91801800	     -9.40776964	      0.18807708	    -10.34765906	    -10.47525012	      2.12120365	     34.49733863	    -10.13843077	      6.45557242	      1.30857706	      0.00322796	      2.64832287	      0.00128785	      1.06485887	      1.59603931	     -0.65501754	      1.32386267	     -0.44769046	     -0.28218369	     -0.31155179	     -0.49085684	      0.82380864	      0.62114553	     -0.20429229	     -0.15186445	     -0.02636125	     -0.01344663	      0.03145442	      0.04063271	     -0.05622146	     -0.14602733	     -0.00797821	     -0.14672720
      5.04000000	     17.39137125	     -7.25111922	     15.53480557	    -37.06866057	    -11.26670828	    -13.99133651	     -6.82363364	     -8.42736283	      0.16912127	    -10.98810388	     -9.53924893	      2.04890212	     31.35957562	    -11.28099727	      5.82584839	      1.48335423	      0.00359574	      3.08939573	      0.00227081	      1.25792022	      2.45075330	     -0.79320883	      2.04797780	     -0.69664247	     -0.37900936	     -0.30508120	     -0.48128493	      0.99887141	      0.59371784	     -0.18617638	     -0.14719653	     -0.03357719	     -0.01714764	      0.02887949	      0.03636599	     -0.06984905	     -0.17155447	     -0.02668869	     -0.14808720
      5.04500000	     13.59295268	     -8.65081114	     13.72556761	    -26.49440090	    -24.36269764	    -15.77477953	     -6.61731894	     -7.59802863	      0.12533481	    -11.35829705	     -8.84647938	      1.89675311	     27.69831482	    -12.27606826	      5.02708564	      1.55166816	      0.00395456	      3.36044256	      0.00321149	      1.42879930	      3.22475931	     -0.91692694	      2.71797302	     -0.92591652	     -0.45901386	     -0.28120091	     -0.44787147	      1.14253753	      0.56232909	     -0.17484471	     -0.15416769	     -0.03997415	     -0.02032012	      0.02527805	      0.03089993	     -0.08276620	     -0.19217182	     -0.04289160	     -0.14718095
      5.05000000	      9.74765964	     -9.81654461	     11.74451882	    -15.41810872	    -37.13100906	    -17.03446059	     -6.31912617	     -6.91167681	      0.05669987	    -11.48226908	     -8.37070715	      1.67495089	     23.67589995	    -13.07976838	      4.09162390	      1.52762041	      0.00427728	      3.48016537	      0.00406364	      1.57931221	      3.90147441	     -1.02566478	      3.31679099	     -1.13253708	     -0.52228964	     -0.24242113	     -0.39472009	      1.25484468	      0.53107698	     -0.16979941	     -0.17068811	     -0.04551329	     -0.02298505	      0.02084765	      0.02454482	     -0.09481359	     -0.20797143	     -0.05630934	     -0.14458911
      5.05500000	      5.93305846	    -10.70152394	      9.65888998	     -4.20549709	    -48.65243366	    -17.76859570	     -5.94769983	     -6.35340498	     -0.03443620	    -11.38656098	     -8.07434682	      1.39707692	     19.45951543	    -13.64921769	      3.05761999	      1.42742930	      0.00453088	      3.47031760	      0.00477872	      1.71101925	      4.46715065	     -1.11890373	      3.82923924	     -1.31275077	     -0.56890791	     -0.19159844	     -0.32617186	      1.33676237	      0.50353845	     -0.17016562	     -0.19424472	     -0.05017115	     -0.02516541	      0.01579748	      0.01760442	     -0.10579922	     -0.21916612	     -0.06673183	     -0.14084686
      5.06000000	      2.22304461	    -11.26398094	      7.53634725	      6.78926879	    -57.96976533	    -17.98880563	     -5.51981932	     -5.90336621	     -0.14375410	    -11.09873460	     -7.91299811	      1.07895442	     15.21532797	    -13.94433756	      1.96715720	      1.26834341	      0.00467721	      3.35414079	      0.00530728	      1.82537778	      4.91094793	     -1.19619149	      4.24232825	     -1.46217937	     -0.59892444	     -0.13175192	     -0.24656447	      1.39003445	      0.48270323	     -0.17479844	     -0.22214729	     -0.05393964	     -0.02688486	      0.01033805	      0.01036362	     -0.11551586	     -0.22606518	     -0.07401901	     -0.13643251
      5.06500000	     -1.31542598	    -11.46865238	      5.44288986	     17.23901407	    -64.11592838	    -17.72141177	     -5.05022807	     -5.53930860	     -0.26548915	    -10.64593231	     -7.84024824	      0.73743042	     11.10206999	    -13.92991176	      0.86411462	      1.06759556	      0.00467410	      3.15491454	      0.00560042	      1.92391172	      5.22491484	     -1.25722172	      4.54546498	     -1.57603493	     -0.61241679	     -0.06588346	     -0.16003461	      1.41701225	      0.47093710	     -0.18241119	     -0.25175591	     -0.05682579	     -0.02816771	      0.00467186	      0.00308047	     -0.12375872	     -0.22904932	     -0.07810398	     -0.13175988
      5.07000000	     -4.62563609	    -11.28856660	      3.44101004	     26.85275312	    -66.14279690	    -17.00850385	     -4.55166640	     -5.23937799	     -0.39300452	    -10.05395618	     -7.81222021	      0.38928145	      7.26533808	    -13.57753438	     -0.20794071	      0.84145545	      0.00447648	      2.89471251	      0.00561115	      2.00831333	      5.40389419	     -1.30188582	      4.73054252	     -1.64938836	     -0.60953169	      0.00318629	     -0.07035747	      1.42050200	      0.46998796	     -0.19170630	     -0.28066912	     -0.05885101	     -0.02903941	     -0.00101447	     -0.00401907	     -0.13033901	     -0.22854810	     -0.07899309	     -0.12717607
      5.07500000	     -7.66334873	    -10.70622968	      1.58845243	     35.38037014	    -63.14819996	    -15.90849421	     -4.03497393	     -4.98451472	     -0.51932798	     -9.34694441	     -7.79138495	      0.05033377	      3.83368883	    -12.86707774	     -1.20758467	      0.60446817	      0.00403785	      2.59347008	      0.00529584	      2.08050046	      5.44537083	     -1.33030742	      4.79202164	     -1.67750080	     -0.59054082	      0.07295062	      0.01918069	      1.40362618	      0.48103949	     -0.20148586	     -0.30686368	     -0.06005014	     -0.02952747	     -0.00655639	     -0.01074488	     -0.13509463	     -0.22502052	     -0.07676294	     -0.12296657
      5.08000000	    -10.39717443	     -9.71347918	     -0.06217894	     42.61342303	    -54.29944114	    -14.49502929	     -3.50923994	     -4.76000036	     -0.63756271	     -8.54756784	     -7.74916979	     -0.26514402	      0.91717884	    -11.78710850	     -2.09678857	      0.36895372	      0.00331188	      2.26847335	      0.00461560	      2.14267363	      5.34926678	     -1.34287441	      4.72701502	     -1.65620545	     -0.55591137	      0.14130653	      0.10586555	      1.36968138	      0.50479598	     -0.21072433	     -0.32877584	     -0.06047015	     -0.02966249	     -0.01181550	     -0.01694480	     -0.13790040	     -0.21893715	     -0.07155633	     -0.11936589
      5.08500000	    -12.80745363	     -8.31002944	     -1.46333315	     48.38284264	    -38.85491529	    -12.85364800	     -2.98196021	     -4.55607434	     -0.74118450	     -7.67745707	     -7.66714949	     -0.54480966	     -1.39246116	    -10.33410608	     -2.84163340	      0.14475449	      0.00225418	      1.93423384	      0.00353759	      2.19738660	      5.11768715	     -1.34026905	      4.53528673	     -1.58228952	     -0.50638497	      0.20660215	      0.18758698	      1.32198155	      0.54157295	     -0.21860173	     -0.34532176	     -0.06016829	     -0.02947886	     -0.01668188	     -0.02250487	     -0.13867782	     -0.21076222	     -0.06357797	     -0.11656917
      5.09000000	    -14.88459289	     -6.50159959	     -2.57292273	     52.55896743	    -16.18706621	    -11.07715765	     -2.45893793	     -4.36774032	     -0.82435860	     -6.75715021	     -7.53703394	     -0.77856364	     -3.02197763	     -8.51125952	     -3.41298428	     -0.06086901	      0.00082423	      1.60249957	      0.00203617	      2.24759258	      4.75465887	     -1.32348517	      4.21911497	     -1.45380024	     -0.44302990	      0.26765263	      0.26284058	      1.26370627	      0.59137974	     -0.22450922	     -0.35587378	     -0.05920985	     -0.02901502	     -0.02107466	     -0.02734811	     -0.13740292	     -0.20093673	     -0.05308772	     -0.11474029
      5.09500000	    -16.62722729	     -4.29832514	     -3.35543479	     55.05554485	     14.19283659	     -9.26041856	     -1.94393470	     -4.19394828	     -0.88229610	     -5.80534034	     -7.35974632	     -0.95888660	     -3.91764011	     -6.32744415	     -3.78733670	     -0.24323115	     -0.00101252	      1.28224077	      0.00009364	      2.29658796	      4.26590729	     -1.29381102	      3.78305705	     -1.27021678	     -0.36722710	      0.32373219	      0.33071776	      1.19778435	      0.65398587	     -0.22803663	     -0.36021193	     -0.05766604	     -0.02831270	     -0.02494151	     -0.03143290	     -0.13410891	     -0.18986554	     -0.04038732	     -0.11401426
      5.10000000	    -18.04083414	     -1.71357215	     -3.78333772	     55.83313422	     52.60988536	     -7.49460290	     -1.43843752	     -4.03639420	     -0.91151955	     -4.83811802	     -7.14372753	     -1.08103545	     -4.04657106	     -3.79628116	     -3.94768116	     -0.40006921	     -0.00328251	      0.97971535	     -0.00229898	      2.34782902	      3.65867392	     -1.25277129	      3.23367195	     -1.03247080	     -0.28058988	      0.37454182	      0.39087645	      1.12682318	      0.72897379	     -0.22894461	     -0.35845578	     -0.05561193	     -0.02741508	     -0.02825711	     -0.03475092	     -0.12888280	     -0.17791004	     -0.02580155	     -0.11449552
      5.10500000	    -19.13792935	      1.23663353	     -3.83893797	     54.90077334	     99.20206699	     -5.86191008	     -0.94165682	     -3.89820989	     -0.90999159	     -3.86870233	     -6.90266751	     -1.14299451	     -3.39860829	     -0.93534665	     -3.88440642	     -0.53127344	     -0.00600214	      0.69870597	     -0.00514123	      2.40469031	      2.94156845	     -1.20205111	      2.57921724	     -0.74283888	     -0.18485855	      0.42015512	      0.44347853	      1.05307585	      0.81579729	     -0.22712795	     -0.35098036	     -0.05312487	     -0.02636567	     -0.03102058	     -0.03732390	     -0.12185858	     -0.16538524	     -0.00965945	     -0.11625712
      5.11000000	    -19.93943809	      4.53360496	     -3.51648610	     52.31744822	    153.90016855	     -4.43143433	     -0.45068705	     -3.78272202	     -0.87714785	     -2.90746056	     -6.65300355	     -1.14526915	     -1.98850494	      2.23435850	     -3.59610385	     -0.63854244	     -0.00917598	      0.44087344	     -0.00842259	      2.47023298	      2.12443898	     -1.14341951	      1.82932134	     -0.40478390	     -0.08181081	      0.46094993	      0.48910026	      0.97842360	      0.91383576	     -0.22257970	     -0.33832932	     -0.05028299	     -0.02520823	     -0.03325232	     -0.03919906	     -0.11320943	     -0.15255838	      0.00771973	     -0.11934094
      5.11500000	    -20.47513818	      8.15578168	     -2.82335954	     48.19124013	    216.41340749	     -3.25530959	      0.03907194	     -3.69236390	     -0.81383524	     -1.96201059	     -6.41144350	     -1.09063205	      0.14326669	      5.68885386	     -3.08979526	     -0.72494177	     -0.01279537	      0.20619644	     -0.01212196	      2.54696644	      1.21822348	     -1.07863902	      0.99465160	     -0.02282605	      0.02680810	      0.49753165	      0.52862519	      0.90435414	      1.02240229	     -0.21536103	     -0.32113850	     -0.04716275	     -0.02398576	     -0.03499059	     -0.04044386	     -0.10313753	     -0.13964632	      0.02603734	     -0.12375450
      5.12000000	    -20.78214216	     12.07828972	     -1.77973383	     42.67363610	    286.22159407	     -2.36463697	      0.53319420	     -3.62786574	     -0.72216591	     -1.03742569	     -6.19268043	     -0.98384798	      2.93205989	      9.40153688	     -2.38039949	     -0.79437817	     -0.01683739	     -0.00652152	     -0.01620729	      2.63659351	      0.23477000	     -1.00936029	      0.08661926	      0.39756137	      0.13934763	      0.53065329	      0.56312711	      0.83193815	      1.14069691	     -0.20558029	     -0.30007490	     -0.04383533	     -0.02273756	     -0.03628824	     -0.04114031	     -0.09186129	     -0.12681254	      0.04502446	     -0.12946344
      5.12500000	    -20.90286007	     16.27222135	     -0.41753266	     35.95071811	    362.57449743	     -1.76641551	      1.03734655	     -3.58786374	     -0.60532985	     -0.13655615	     -6.00753001	     -0.83134974	      6.29175267	     13.34335729	     -1.48977570	     -0.85109857	     -0.02126441	     -0.19919263	     -0.02063532	      2.73983251	     -0.81335179	     -0.93704115	     -0.88286097	      0.85009006	      0.25430218	      0.56114179	      0.59375899	      0.76181075	      1.26773939	     -0.19338521	     -0.27579201	     -0.04036335	     -0.02149604	     -0.03720952	     -0.04137967	     -0.07960483	     -0.11416499	      0.06444708	     -0.13638389
      5.13000000	    -20.88458139	     20.70389558	      1.22038969	     28.23447070	    444.50026652	     -1.44279700	      1.55636812	     -3.56891325	     -0.46738102	      0.73944170	     -5.86167906	     -0.64085205	     10.11700861	     17.48289479	     -0.44578457	     -0.89930434	     -0.02602419	     -0.37410225	     -0.02535181	      2.85640287	     -1.91302662	     -0.86292289	     -1.90157109	      1.32785888	      0.37034427	      0.58983696	      0.62165502	      0.69416295	      1.40231604	     -0.17896699	     -0.24890068	     -0.03679935	     -0.02028479	     -0.03782715	     -0.04125725	     -0.06659372	     -0.10175540	      0.08410580	     -0.14437775
      5.13500000	    -20.78050132	     25.33443358	      3.08095593	     19.75538182	    530.82601516	     -1.35250663	      2.09344022	     -3.56576841	     -0.31300441	      1.59039040	     -5.75507664	     -0.42095533	     14.28530986	     21.78649972	      0.71856450	     -0.94288017	     -0.03105088	     -0.53364051	     -0.03029233	      2.98514429	     -3.05076112	     -0.78805306	     -2.95714917	      1.82360581	      0.48635272	      0.61754475	      0.64784070	      0.62875930	      1.54295634	     -0.16257053	     -0.21995320	     -0.03318590	     -0.01911874	     -0.03821955	     -0.04086684	     -0.05305521	     -0.08958199	      0.10383305	     -0.15325194
      5.14000000	    -20.64914846	     30.12004873	      5.10239029	     10.75687612	    620.21537221	     -1.43339918	      2.64959736	     -3.57188216	     -0.14730895	      2.41673631	     -5.68201198	     -0.18083633	     18.66078233	     26.21868485	      1.96623806	     -0.98523476	     -0.03626700	     -0.68015186	     -0.03538406	      3.12419802	     -4.21287719	     -0.71332762	     -4.03719752	      2.32995540	      0.60144291	      0.64501055	      0.67317075	      0.56499698	      1.68794598	     -0.14450914	     -0.18944619	     -0.02955689	     -0.01800574	     -0.03846876	     -0.04029592	     -0.03921900	     -0.07759784	      0.12349198	     -0.16276338
      5.14500000	    -20.55067213	     35.01326981	      7.21700995	      1.49177116	    711.22663134	     -1.60582197	      3.22374293	     -3.58020892	      0.02431624	      3.21988192	     -5.63202051	      0.06993392	     23.10082504	     30.74290245	      3.25780161	     -1.02928367	     -0.04158692	     -0.81597537	     -0.04054890	      3.27123707	     -5.38575874	     -0.63954517	     -5.12937609	      2.83962423	      0.71498514	      0.67291647	      0.69832829	      0.50200562	      1.83538643	     -0.12518427	     -0.15785092	     -0.02593975	     -0.01694766	     -0.03865887	     -0.03962458	     -0.02531771	     -0.06572464	      0.14297745	     -0.17263165
