Model Marker Errors from IK
version=1
nRows=801
nColumns=4
inDegrees=no
endheader
time	total_squared_error	marker_error_RMS	marker_error_max
      2.00000000	      0.02626142	      0.02109760	      0.08509069
      2.00500000	      0.02638731	      0.02114811	      0.08538218
      2.01000000	      0.02643766	      0.02116828	      0.08554120
      2.01500000	      0.02640853	      0.02115661	      0.08548257
      2.02000000	      0.02655985	      0.02121714	      0.08576380
      2.02500000	      0.02662759	      0.02124418	      0.08584249
      2.03000000	      0.02665180	      0.02125383	      0.08617878
      2.03500000	      0.02666804	      0.02126031	      0.08600876
      2.04000000	      0.02676503	      0.02129893	      0.08604992
      2.04500000	      0.02676149	      0.02129753	      0.08639984
      2.05000000	      0.02687430	      0.02134237	      0.08655588
      2.05500000	      0.02716094	      0.02145588	      0.08655500
      2.06000000	      0.02690097	      0.02135295	      0.08659959
      2.06500000	      0.02713086	      0.02144400	      0.08684810
      2.07000000	      0.02723437	      0.02148487	      0.08692550
      2.07500000	      0.02728056	      0.02150308	      0.08714416
      2.08000000	      0.02758197	      0.02162154	      0.08721473
      2.08500000	      0.02763099	      0.02164075	      0.08720431
      2.09000000	      0.02765615	      0.02165060	      0.08730631
      2.09500000	      0.02771059	      0.02167189	      0.08738987
      2.10000000	      0.02770915	      0.02167133	      0.08759384
      2.10500000	      0.02765790	      0.02165128	      0.08767335
      2.11000000	      0.02767005	      0.02165604	      0.08746152
      2.11500000	      0.02763597	      0.02164270	      0.08760900
      2.12000000	      0.02770425	      0.02166942	      0.08772327
      2.12500000	      0.02781411	      0.02171234	      0.08788646
      2.13000000	      0.02806119	      0.02180856	      0.08784037
      2.13500000	      0.02794969	      0.02176519	      0.08805356
      2.14000000	      0.02819494	      0.02186047	      0.08791398
      2.14500000	      0.02809604	      0.02182210	      0.08808848
      2.15000000	      0.02808150	      0.02181645	      0.08809776
      2.15500000	      0.02812711	      0.02183416	      0.08834478
      2.16000000	      0.02839950	      0.02193963	      0.08827832
      2.16500000	      0.02828767	      0.02189639	      0.08827714
      2.17000000	      0.02839591	      0.02193825	      0.08833826
      2.17500000	      0.02864338	      0.02203363	      0.08846495
      2.18000000	      0.02884310	      0.02211032	      0.08855688
      2.18500000	      0.02894814	      0.02215054	      0.08854829
      2.19000000	      0.02907148	      0.02219768	      0.08848766
      2.19500000	      0.02918273	      0.02224011	      0.08847052
      2.20000000	      0.02928549	      0.02227923	      0.08845941
      2.20500000	      0.02933295	      0.02229728	      0.08865931
      2.21000000	      0.02954819	      0.02237894	      0.08866929
      2.21500000	      0.02955811	      0.02238269	      0.08857344
      2.22000000	      0.02975053	      0.02245543	      0.08871970
      2.22500000	      0.02989663	      0.02251050	      0.08886170
      2.23000000	      0.02993607	      0.02252534	      0.08865480
      2.23500000	      0.03003141	      0.02256118	      0.08866814
      2.24000000	      0.03020207	      0.02262520	      0.08901915
      2.24500000	      0.03039385	      0.02269692	      0.08910577
      2.25000000	      0.03033967	      0.02267668	      0.08913445
      2.25500000	      0.03066939	      0.02279956	      0.08917820
      2.26000000	      0.03088539	      0.02287971	      0.08926214
      2.26500000	      0.03109359	      0.02295670	      0.08911830
      2.27000000	      0.03109415	      0.02295691	      0.08929549
      2.27500000	      0.03149763	      0.02310537	      0.08939746
      2.28000000	      0.03161113	      0.02314696	      0.08963158
      2.28500000	      0.03160712	      0.02314549	      0.08966796
      2.29000000	      0.03194225	      0.02326788	      0.08944599
      2.29500000	      0.03228507	      0.02339241	      0.08968518
      2.30000000	      0.03225726	      0.02338233	      0.08981750
      2.30500000	      0.03251502	      0.02347556	      0.08994697
      2.31000000	      0.03297721	      0.02364182	      0.08992265
      2.31500000	      0.03328341	      0.02375133	      0.09003876
      2.32000000	      0.03322763	      0.02373142	      0.08997716
      2.32500000	      0.03337932	      0.02378553	      0.08989551
      2.33000000	      0.03388840	      0.02396622	      0.09015037
      2.33500000	      0.03397938	      0.02399837	      0.09034343
      2.34000000	      0.03429153	      0.02410835	      0.09043575
      2.34500000	      0.03438605	      0.02414155	      0.09022267
      2.35000000	      0.03482061	      0.02429362	      0.09063656
      2.35500000	      0.03500180	      0.02435674	      0.09053187
      2.36000000	      0.03531970	      0.02446710	      0.09068492
      2.36500000	      0.03541007	      0.02449838	      0.09054160
      2.37000000	      0.03602596	      0.02471052	      0.09054845
      2.37500000	      0.03613893	      0.02474923	      0.09065902
      2.38000000	      0.03620750	      0.02477269	      0.09056250
      2.38500000	      0.03640586	      0.02484046	      0.09068450
      2.39000000	      0.03684361	      0.02498936	      0.09061733
      2.39500000	      0.03706508	      0.02506435	      0.09070183
      2.40000000	      0.03713461	      0.02508785	      0.09066760
      2.40500000	      0.03724463	      0.02512499	      0.09084225
      2.41000000	      0.03755042	      0.02522792	      0.09101094
      2.41500000	      0.03763837	      0.02525744	      0.09083800
      2.42000000	      0.03793698	      0.02535744	      0.09087399
      2.42500000	      0.03848433	      0.02553971	      0.09105967
      2.43000000	      0.03862661	      0.02558688	      0.09069418
      2.43500000	      0.04032428	      0.02614311	      0.09244189
      2.44000000	      0.04049042	      0.02619691	      0.09262337
      2.44500000	      0.04056467	      0.02622092	      0.09242083
      2.45000000	      0.04071611	      0.02626982	      0.09250779
      2.45500000	      0.04098084	      0.02635508	      0.09255293
      2.46000000	      0.04130048	      0.02645767	      0.09256601
      2.46500000	      0.04151061	      0.02652489	      0.09256429
      2.47000000	      0.04174484	      0.02659962	      0.09262169
      2.47500000	      0.04189848	      0.02664852	      0.09239490
      2.48000000	      0.04208057	      0.02670636	      0.09248489
      2.48500000	      0.04239590	      0.02680624	      0.09253779
      2.49000000	      0.04261636	      0.02687585	      0.09247290
      2.49500000	      0.04260362	      0.02687183	      0.09229632
      2.50000000	      0.04284322	      0.02694729	      0.09247962
      2.50500000	      0.04295776	      0.02698328	      0.09235175
      2.51000000	      0.04299695	      0.02699559	      0.09233770
      2.51500000	      0.04329412	      0.02708872	      0.09233551
      2.52000000	      0.04388183	      0.02727196	      0.09260480
      2.52500000	      0.04398859	      0.02730511	      0.09242412
      2.53000000	      0.04407214	      0.02733103	      0.09219247
      2.53500000	      0.04514981	      0.02766317	      0.09234238
      2.54000000	      0.04482947	      0.02756486	      0.09261410
      2.54500000	      0.04486627	      0.02757617	      0.09224663
      2.55000000	      0.04523477	      0.02768919	      0.09230990
      2.55500000	      0.04532869	      0.02771792	      0.09239106
      2.56000000	      0.04539917	      0.02773946	      0.09221810
      2.56500000	      0.04578184	      0.02785612	      0.09224468
      2.57000000	      0.04603955	      0.02793441	      0.09218477
      2.57500000	      0.04634170	      0.02802592	      0.09221142
      2.58000000	      0.04634565	      0.02802712	      0.09209856
      2.58500000	      0.04657895	      0.02809757	      0.09188189
      2.59000000	      0.04700205	      0.02822490	      0.09186559
      2.59500000	      0.04746061	      0.02836225	      0.09211054
      2.60000000	      0.04772361	      0.02844072	      0.09196566
      2.60500000	      0.04803389	      0.02853303	      0.09193624
      2.61000000	      0.04822539	      0.02858985	      0.09192459
      2.61500000	      0.04829065	      0.02860919	      0.09182440
      2.62000000	      0.04855306	      0.02868681	      0.09152609
      2.62500000	      0.04893837	      0.02880042	      0.09162579
      2.63000000	      0.04917643	      0.02887038	      0.09149309
      2.63500000	      0.04914712	      0.02886178	      0.09146004
      2.64000000	      0.04982974	      0.02906152	      0.09147074
      2.64500000	      0.05012885	      0.02914861	      0.09144068
      2.65000000	      0.05044366	      0.02923999	      0.09139893
      2.65500000	      0.05091136	      0.02937524	      0.09119822
      2.66000000	      0.05080405	      0.02934426	      0.09111469
      2.66500000	      0.05112630	      0.02943718	      0.09138806
      2.67000000	      0.05101975	      0.02940649	      0.09119945
      2.67500000	      0.05176387	      0.02962016	      0.09112656
      2.68000000	      0.05204842	      0.02970146	      0.09111830
      2.68500000	      0.05217857	      0.02973857	      0.09117622
      2.69000000	      0.05293782	      0.02995415	      0.09122439
      2.69500000	      0.05320457	      0.03002952	      0.09105223
      2.70000000	      0.05295451	      0.02995887	      0.09107903
      2.70500000	      0.05390461	      0.03022644	      0.09123200
      2.71000000	      0.05416794	      0.03030018	      0.09126997
      2.71500000	      0.05454258	      0.03040478	      0.09123895
      2.72000000	      0.05513633	      0.03056982	      0.09108167
      2.72500000	      0.05467188	      0.03044080	      0.09114830
      2.73000000	      0.05551293	      0.03067405	      0.09111722
      2.73500000	      0.05576773	      0.03074436	      0.09106804
      2.74000000	      0.05594598	      0.03079346	      0.09111810
      2.74500000	      0.05639971	      0.03091807	      0.09114434
      2.75000000	      0.05700430	      0.03108335	      0.09123583
      2.75500000	      0.05741601	      0.03119539	      0.09131760
      2.76000000	      0.05778404	      0.03129521	      0.09133306
      2.76500000	      0.05806739	      0.03137185	      0.09129256
      2.77000000	      0.05801654	      0.03135811	      0.09114906
      2.77500000	      0.05866561	      0.03153304	      0.09093159
      2.78000000	      0.05871204	      0.03154551	      0.09113932
      2.78500000	      0.05935862	      0.03171874	      0.09122712
      2.79000000	      0.05947913	      0.03175092	      0.09125136
      2.79500000	      0.06008649	      0.03191262	      0.09113446
      2.80000000	      0.05971207	      0.03181303	      0.09096374
      2.80500000	      0.06027718	      0.03196322	      0.09113812
      2.81000000	      0.06086979	      0.03211995	      0.09109187
      2.81500000	      0.06062924	      0.03205642	      0.09101077
      2.82000000	      0.06182526	      0.03237106	      0.09101616
      2.82500000	      0.06145169	      0.03227312	      0.09101885
      2.83000000	      0.06141451	      0.03226335	      0.09094410
      2.83500000	      0.06206966	      0.03243498	      0.09080791
      2.84000000	      0.06223135	      0.03247720	      0.09092065
      2.84500000	      0.06226288	      0.03248543	      0.09075451
      2.85000000	      0.06232799	      0.03250241	      0.09079178
      2.85500000	      0.06297176	      0.03266983	      0.09084189
      2.86000000	      0.06270572	      0.03260075	      0.09076158
      2.86500000	      0.06329448	      0.03275344	      0.09084807
      2.87000000	      0.06332010	      0.03276007	      0.09066212
      2.87500000	      0.06345546	      0.03279507	      0.09064169
      2.88000000	      0.06407423	      0.03295457	      0.09042074
      2.88500000	      0.06439464	      0.03303687	      0.09064560
      2.89000000	      0.06428445	      0.03300859	      0.09069714
      2.89500000	      0.06453134	      0.03307191	      0.09047134
      2.90000000	      0.06490414	      0.03316731	      0.09055974
      2.90500000	      0.06501299	      0.03319511	      0.09055922
      2.91000000	      0.06534211	      0.03327902	      0.09057956
      2.91500000	      0.06542493	      0.03330011	      0.09059945
      2.92000000	      0.06558208	      0.03334008	      0.09061325
      2.92500000	      0.06589630	      0.03341985	      0.09079177
      2.93000000	      0.06600400	      0.03344715	      0.09083916
      2.93500000	      0.06639678	      0.03354652	      0.09090075
      2.94000000	      0.06677499	      0.03364193	      0.09070893
      2.94500000	      0.06688145	      0.03366874	      0.09060520
      2.95000000	      0.06732552	      0.03378033	      0.09063022
      2.95500000	      0.06820009	      0.03399903	      0.09103579
      2.96000000	      0.06790465	      0.03392530	      0.09090377
      2.96500000	      0.07666962	      0.03604837	      0.10181742
      2.97000000	      0.07722189	      0.03617797	      0.10182769
      2.97500000	      0.06942891	      0.03430395	      0.09107087
      2.98000000	      0.07727374	      0.03619012	      0.09803038
      2.98500000	      0.07870324	      0.03652333	      0.10241171
      2.99000000	      0.07093210	      0.03467332	      0.09102980
      2.99500000	      0.07134853	      0.03477495	      0.09114554
      3.00000000	      0.07168935	      0.03485791	      0.09074974
      3.00500000	      0.07250208	      0.03505494	      0.09102385
      3.01000000	      0.07275374	      0.03511573	      0.09098890
      3.01500000	      0.07393319	      0.03539922	      0.09092160
      3.02000000	      0.07403335	      0.03542319	      0.09097504
      3.02500000	      0.07434295	      0.03549718	      0.09084319
      3.03000000	      0.08371306	      0.03766783	      0.10388036
      3.03500000	      0.08402997	      0.03773906	      0.10407762
      3.04000000	      0.08470598	      0.03789056	      0.10413027
      3.04500000	      0.08406550	      0.03774704	      0.09734899
      3.05000000	      0.08599548	      0.03817788	      0.10424964
      3.05500000	      0.08642476	      0.03827305	      0.10453295
      3.06000000	      0.08710637	      0.03842368	      0.10471463
      3.06500000	      0.08590847	      0.03815856	      0.09629128
      3.07000000	      0.08625694	      0.03823587	      0.09579394
      3.07500000	      0.08900658	      0.03884052	      0.10545920
      3.08000000	      0.08959005	      0.03896762	      0.10552795
      3.08500000	      0.09043168	      0.03915023	      0.10560314
      3.09000000	      0.09104592	      0.03928296	      0.10575414
      3.09500000	      0.08944431	      0.03893591	      0.09498636
      3.10000000	      0.09226890	      0.03954592	      0.10576821
      3.10500000	      0.09303145	      0.03970900	      0.10673583
      3.11000000	      0.09164426	      0.03941183	      0.09450210
      3.11500000	      0.09398942	      0.03991292	      0.10564927
      3.12000000	      0.09486305	      0.04009798	      0.10540525
      3.12500000	      0.09533850	      0.04019834	      0.10581954
      3.13000000	      0.09604727	      0.04034749	      0.10597166
      3.13500000	      0.09491823	      0.04010964	      0.09900527
      3.14000000	      0.09421033	      0.03995980	      0.09352449
      3.14500000	      0.09356043	      0.03982173	      0.09290125
      3.15000000	      0.09320882	      0.03974683	      0.09239616
      3.15500000	      0.09254064	      0.03960411	      0.09143609
      3.16000000	      0.09263089	      0.03962341	      0.09206346
      3.16500000	      0.09235863	      0.03956514	      0.09227619
      3.17000000	      0.09255667	      0.03960754	      0.09377056
      3.17500000	      0.09241602	      0.03957743	      0.09338110
      3.18000000	      0.09272563	      0.03964367	      0.09399705
      3.18500000	      0.09337369	      0.03978197	      0.09420829
      3.19000000	      0.09396753	      0.03990827	      0.09475185
      3.19500000	      0.09466126	      0.04005531	      0.09484006
      3.20000000	      0.09532044	      0.04019454	      0.09520389
      3.20500000	      0.09575809	      0.04028670	      0.09564905
      3.21000000	      0.09657871	      0.04045896	      0.09589850
      3.21500000	      0.09716930	      0.04058248	      0.09588892
      3.22000000	      0.09758214	      0.04066859	      0.09605849
      3.22500000	      0.09816427	      0.04078972	      0.09646237
      3.23000000	      0.09869434	      0.04089970	      0.09662709
      3.23500000	      0.09942003	      0.04104979	      0.09683271
      3.24000000	      0.09990116	      0.04114900	      0.09700713
      3.24500000	      0.10021697	      0.04121399	      0.09726913
      3.25000000	      0.10137744	      0.04145192	      0.09863214
      3.25500000	      0.10136739	      0.04144987	      0.09790400
      3.26000000	      0.10254017	      0.04168896	      0.09791341
      3.26500000	      0.10275833	      0.04173328	      0.09799875
      3.27000000	      0.10316439	      0.04181565	      0.09827114
      3.27500000	      0.10410747	      0.04200635	      0.09853049
      3.28000000	      0.10470642	      0.04212701	      0.09885729
      3.28500000	      0.10494676	      0.04217533	      0.09892559
      3.29000000	      0.10549826	      0.04228600	      0.09913420
      3.29500000	      0.10617445	      0.04242130	      0.09934780
      3.30000000	      0.10679112	      0.04254432	      0.09963457
      3.30500000	      0.10700515	      0.04258693	      0.10016195
      3.31000000	      0.10814893	      0.04281393	      0.10018783
      3.31500000	      0.10857535	      0.04289825	      0.10061207
      3.32000000	      0.10921373	      0.04302418	      0.10065002
      3.32500000	      0.10973596	      0.04312692	      0.10117062
      3.33000000	      0.11042800	      0.04326270	      0.10143913
      3.33500000	      0.11095003	      0.04336484	      0.10160277
      3.34000000	      0.11148443	      0.04346914	      0.10182565
      3.34500000	      0.11202503	      0.04357441	      0.10226292
      3.35000000	      0.11305856	      0.04377496	      0.10246629
      3.35500000	      0.11328645	      0.04381905	      0.10284549
      3.36000000	      0.11393568	      0.04394443	      0.10318838
      3.36500000	      0.11452473	      0.04405788	      0.10323582
      3.37000000	      0.11532216	      0.04421100	      0.10352402
      3.37500000	      0.11582155	      0.04430663	      0.10386608
      3.38000000	      0.11687346	      0.04450737	      0.10529123
      3.38500000	      0.11690040	      0.04451250	      0.10428053
      3.39000000	      0.11755433	      0.04463683	      0.10459036
      3.39500000	      0.11810916	      0.04474204	      0.10492720
      3.40000000	      0.11907397	      0.04492441	      0.10503920
      3.40500000	      0.11963809	      0.04503070	      0.10528764
      3.41000000	      0.12018249	      0.04513304	      0.10553924
      3.41500000	      0.12119795	      0.04532331	      0.10594409
      3.42000000	      0.12194386	      0.04546257	      0.10606096
      3.42500000	      0.12235484	      0.04553911	      0.10652813
      3.43000000	      0.12307018	      0.04567204	      0.10674506
      3.43500000	      0.12370765	      0.04579017	      0.10694937
      3.44000000	      0.12409103	      0.04586107	      0.10706803
      3.44500000	      0.12471887	      0.04597694	      0.10747726
      3.45000000	      0.12522697	      0.04607050	      0.10774720
      3.45500000	      0.12591182	      0.04619630	      0.10789780
      3.46000000	      0.12653307	      0.04631013	      0.10809970
      3.46500000	      0.12668029	      0.04633706	      0.10844254
      3.47000000	      0.12742194	      0.04647251	      0.10909259
      3.47500000	      0.12795934	      0.04657040	      0.10871606
      3.48000000	      0.12890249	      0.04674171	      0.11011561
      3.48500000	      0.12845538	      0.04666058	      0.10913611
      3.49000000	      0.12991548	      0.04692502	      0.11054219
      3.49500000	      0.13002832	      0.04694539	      0.10937336
      3.50000000	      0.13100038	      0.04712054	      0.10950198
      3.50500000	      0.13162122	      0.04723207	      0.11026906
      3.51000000	      0.13267451	      0.04742068	      0.11166213
      3.51500000	      0.13301972	      0.04748233	      0.11082431
      3.52000000	      0.13398064	      0.04765352	      0.11129924
      3.52500000	      0.13446994	      0.04774046	      0.11179600
      3.53000000	      0.13484999	      0.04780788	      0.11178832
      3.53500000	      0.13564986	      0.04794945	      0.11165877
      3.54000000	      0.13632506	      0.04806864	      0.11230461
      3.54500000	      0.13707473	      0.04820063	      0.11259273
      3.55000000	      0.13782548	      0.04833244	      0.11271906
      3.55500000	      0.13856541	      0.04846201	      0.11388557
      3.56000000	      0.13894319	      0.04852803	      0.11345451
      3.56500000	      0.13979236	      0.04867609	      0.11378524
      3.57000000	      0.14081577	      0.04885394	      0.11404848
      3.57500000	      0.14125678	      0.04893039	      0.11428021
      3.58000000	      0.14204769	      0.04906718	      0.11430586
      3.58500000	      0.14258046	      0.04915911	      0.11449325
      3.59000000	      0.14318873	      0.04926386	      0.11474931
      3.59500000	      0.14411768	      0.04942340	      0.11491070
      3.60000000	      0.14479198	      0.04953889	      0.11506724
      3.60500000	      0.14542990	      0.04964790	      0.11550777
      3.61000000	      0.14610258	      0.04976259	      0.11567867
      3.61500000	      0.14707149	      0.04992732	      0.11590627
      3.62000000	      0.14795447	      0.05007697	      0.11590124
      3.62500000	      0.14874723	      0.05021095	      0.11629374
      3.63000000	      0.14975694	      0.05038108	      0.11653280
      3.63500000	      0.15025524	      0.05046483	      0.11689391
      3.64000000	      0.15080853	      0.05055766	      0.11746152
      3.64500000	      0.15179536	      0.05072280	      0.11716854
      3.65000000	      0.15259435	      0.05085612	      0.11774620
      3.65500000	      0.15360513	      0.05102428	      0.11818357
      3.66000000	      0.15414747	      0.05111427	      0.11813507
      3.66500000	      0.15499009	      0.05125379	      0.11860027
      3.67000000	      0.15636314	      0.05148031	      0.11968735
      3.67500000	      0.15671519	      0.05153823	      0.11913583
      3.68000000	      0.15759417	      0.05168257	      0.11933727
      3.68500000	      0.15859636	      0.05184664	      0.11991207
      3.69000000	      0.15941821	      0.05198080	      0.12025459
      3.69500000	      0.16023737	      0.05211418	      0.12044673
      3.70000000	      0.16116971	      0.05226557	      0.12080579
      3.70500000	      0.16213807	      0.05242235	      0.12108734
      3.71000000	      0.16315495	      0.05258648	      0.12174383
      3.71500000	      0.16354011	      0.05264852	      0.12175619
      3.72000000	      0.16533219	      0.05293619	      0.12234652
      3.72500000	      0.16554367	      0.05297004	      0.12276718
      3.73000000	      0.16643151	      0.05311189	      0.12224228
      3.73500000	      0.16797724	      0.05335796	      0.12431082
      3.74000000	      0.16913684	      0.05354182	      0.12616488
      3.74500000	      0.16937798	      0.05357997	      0.12369990
      3.75000000	      0.17014792	      0.05370161	      0.12389094
      3.75500000	      0.17088512	      0.05381782	      0.12350949
      3.76000000	      0.17175874	      0.05395521	      0.12419760
      3.76500000	      0.17239185	      0.05405456	      0.12424769
      3.77000000	      0.17339495	      0.05421160	      0.12477029
      3.77500000	      0.17416342	      0.05433160	      0.12490035
      3.78000000	      0.17497121	      0.05445745	      0.12537873
      3.78500000	      0.17660014	      0.05471035	      0.12776573
      3.79000000	      0.17689956	      0.05475671	      0.12614427
      3.79500000	      0.18265825	      0.05564084	      0.12623510
      3.80000000	      0.17911631	      0.05509873	      0.12819571
      3.80500000	      0.17963440	      0.05517835	      0.12635099
      3.81000000	      0.18109583	      0.05540235	      0.12830308
      3.81500000	      0.18125956	      0.05542739	      0.12638762
      3.82000000	      0.18224279	      0.05557752	      0.12874112
      3.82500000	      0.18266363	      0.05564166	      0.12744483
      3.83000000	      0.18390501	      0.05583040	      0.12818461
      3.83500000	      0.18424050	      0.05588131	      0.12762557
      3.84000000	      0.18483667	      0.05597164	      0.12787190
      3.84500000	      0.18555493	      0.05608029	      0.12811837
      3.85000000	      0.18653652	      0.05622843	      0.12881620
      3.85500000	      0.18799816	      0.05644829	      0.13077536
      3.86000000	      0.18821360	      0.05648063	      0.12951347
      3.86500000	      0.18854615	      0.05653050	      0.12863180
      3.87000000	      0.18927930	      0.05664030	      0.12929140
      3.87500000	      0.19075359	      0.05686046	      0.13132263
      3.88000000	      0.19140609	      0.05695762	      0.13152754
      3.88500000	      0.19177641	      0.05701270	      0.13009115
      3.89000000	      0.19186156	      0.05702535	      0.12956991
      3.89500000	      0.19298583	      0.05719219	      0.13009896
      3.90000000	      0.19391739	      0.05733006	      0.13039403
      3.90500000	      0.19443430	      0.05740642	      0.13037667
      3.91000000	      0.19462266	      0.05743422	      0.13092612
      3.91500000	      0.19594037	      0.05762832	      0.13142702
      3.92000000	      0.19621185	      0.05766823	      0.13111430
      3.92500000	      0.19719380	      0.05781235	      0.13072532
      3.93000000	      0.19765411	      0.05787979	      0.13148345
      3.93500000	      0.19891110	      0.05806354	      0.13318560
      3.94000000	      0.19920326	      0.05810616	      0.13217302
      3.94500000	      0.20009305	      0.05823579	      0.13196984
      3.95000000	      0.20103966	      0.05837338	      0.13280298
      3.95500000	      0.20188652	      0.05849620	      0.13320661
      3.96000000	      0.20273764	      0.05861938	      0.13386429
      3.96500000	      0.20393775	      0.05879262	      0.13302500
      3.97000000	      0.20478421	      0.05891450	      0.13387783
      3.97500000	      0.20472051	      0.05890534	      0.13345395
      3.98000000	      0.20612919	      0.05910766	      0.13411765
      3.98500000	      0.20733719	      0.05928060	      0.13435886
      3.99000000	      0.20810065	      0.05938964	      0.13524938
      3.99500000	      0.20831382	      0.05942005	      0.13413771
      4.00000000	      0.20934675	      0.05956719	      0.13516693
      4.00500000	      0.21045830	      0.05972512	      0.13496567
      4.01000000	      0.21030153	      0.05970287	      0.13429879
      4.01500000	      0.21096765	      0.05979735	      0.13499731
      4.02000000	      0.21192550	      0.05993294	      0.13452909
      4.02500000	      0.21248070	      0.06001140	      0.13526227
      4.03000000	      0.21276795	      0.06005195	      0.13490756
      4.03500000	      0.21362141	      0.06017227	      0.13659070
      4.04000000	      0.21390910	      0.06021277	      0.13581411
      4.04500000	      0.21448644	      0.06029398	      0.13612702
      4.05000000	      0.21582476	      0.06048179	      0.13661517
      4.05500000	      0.21599564	      0.06050573	      0.13658703
      4.06000000	      0.22067856	      0.06115811	      0.13704638
      4.06500000	      0.22122355	      0.06123358	      0.13737654
      4.07000000	      0.22139233	      0.06125694	      0.13654789
      4.07500000	      0.22222638	      0.06137222	      0.13704280
      4.08000000	      0.22295115	      0.06147221	      0.13837739
      4.08500000	      0.22486419	      0.06173538	      0.13916821
      4.09000000	      0.22545989	      0.06181710	      0.13977650
      4.09500000	      0.22604500	      0.06189726	      0.14028980
      4.10000000	      0.22660040	      0.06197326	      0.14063661
      4.10500000	      0.22769120	      0.06212224	      0.14094046
      4.11000000	      0.22726020	      0.06206342	      0.13841128
      4.11500000	      0.22779805	      0.06213682	      0.13884309
      4.12000000	      0.22912894	      0.06231807	      0.13897281
      4.12500000	      0.22978950	      0.06240783	      0.13930341
      4.13000000	      0.23067560	      0.06252804	      0.14139259
      4.13500000	      0.23082945	      0.06254889	      0.14022293
      4.14000000	      0.23072284	      0.06253444	      0.14074159
      4.14500000	      0.23233013	      0.06275188	      0.14134253
      4.15000000	      0.23317477	      0.06286585	      0.14205491
      4.15500000	      0.23359601	      0.06292261	      0.14087162
      4.16000000	      0.23386790	      0.06295921	      0.14252308
      4.16500000	      0.23374095	      0.06294212	      0.14151357
      4.17000000	      0.23452141	      0.06304712	      0.14083997
      4.17500000	      0.23500694	      0.06311235	      0.14135610
      4.18000000	      0.23568887	      0.06320385	      0.14164675
      4.18500000	      0.23671993	      0.06334195	      0.14179922
      4.19000000	      0.23700580	      0.06338018	      0.14237486
      4.19500000	      0.23752012	      0.06344891	      0.14299608
      4.20000000	      0.23796611	      0.06350846	      0.14247672
      4.20500000	      0.23854267	      0.06358534	      0.14241537
      4.21000000	      0.23959705	      0.06372572	      0.14393230
      4.21500000	      0.24017344	      0.06380232	      0.14444636
      4.22000000	      0.23754141	      0.06345176	      0.14481754
      4.22500000	      0.23752572	      0.06344966	      0.14387181
      4.23000000	      0.24122983	      0.06394248	      0.14328966
      4.23500000	      0.24195013	      0.06403788	      0.14332411
      4.24000000	      0.24207417	      0.06405429	      0.14367494
      4.24500000	      0.24227461	      0.06408080	      0.14479347
      4.25000000	      0.24515907	      0.06446114	      0.14444740
      4.25500000	      0.25016794	      0.06511632	      0.14495255
      4.26000000	      0.24786024	      0.06481528	      0.14509215
      4.26500000	      0.24802933	      0.06483739	      0.14429555
      4.27000000	      0.24886511	      0.06494654	      0.14521136
      4.27500000	      0.24974165	      0.06506081	      0.14572373
      4.28000000	      0.24965035	      0.06504892	      0.14482952
      4.28500000	      0.24994148	      0.06508684	      0.14482731
      4.29000000	      0.25033109	      0.06513755	      0.14483706
      4.29500000	      0.25069684	      0.06518511	      0.14564200
      4.30000000	      0.25094431	      0.06521728	      0.14625489
      4.30500000	      0.25115913	      0.06524519	      0.14651971
      4.31000000	      0.25170007	      0.06531541	      0.14658068
      4.31500000	      0.25131506	      0.06526544	      0.14572238
      4.32000000	      0.25175511	      0.06532255	      0.14606660
      4.32500000	      0.25197899	      0.06535159	      0.14579072
      4.33000000	      0.25243142	      0.06541023	      0.14629160
      4.33500000	      0.25263837	      0.06543704	      0.14636795
      4.34000000	      0.25290365	      0.06547139	      0.14677242
      4.34500000	      0.25289228	      0.06546991	      0.14716814
      4.35000000	      0.25255685	      0.06542648	      0.14569623
      4.35500000	      0.25256139	      0.06542707	      0.14585954
      4.36000000	      0.25272323	      0.06544803	      0.14623511
      4.36500000	      0.25297825	      0.06548104	      0.14641734
      4.37000000	      0.25301495	      0.06548579	      0.14644318
      4.37500000	      0.25303298	      0.06548813	      0.14666018
      4.38000000	      0.25259621	      0.06543158	      0.14566096
      4.38500000	      0.25277226	      0.06545438	      0.14587098
      4.39000000	      0.25295729	      0.06547833	      0.14613239
      4.39500000	      0.25351007	      0.06554983	      0.14617602
      4.40000000	      0.25325484	      0.06551683	      0.14536681
      4.40500000	      0.25347523	      0.06554533	      0.14552737
      4.41000000	      0.25339314	      0.06553472	      0.14555326
      4.41500000	      0.25384679	      0.06559335	      0.14613596
      4.42000000	      0.25355708	      0.06555591	      0.14548006
      4.42500000	      0.25393774	      0.06560510	      0.14532671
      4.43000000	      0.25416180	      0.06563404	      0.14537587
      4.43500000	      0.25433007	      0.06565576	      0.14560440
      4.44000000	      0.25449540	      0.06567710	      0.14624934
      4.44500000	      0.25414677	      0.06563210	      0.14577515
      4.45000000	      0.25435287	      0.06565870	      0.14533681
      4.45500000	      0.25440144	      0.06566497	      0.14594053
      4.46000000	      0.25505598	      0.06574939	      0.14633786
      4.46500000	      0.25506593	      0.06575068	      0.14659125
      4.47000000	      0.25545733	      0.06580110	      0.14642727
      4.47500000	      0.25560798	      0.06582050	      0.14667650
      4.48000000	      0.25560484	      0.06582010	      0.14594812
      4.48500000	      0.25576047	      0.06584013	      0.14609861
      4.49000000	      0.25612753	      0.06588736	      0.14654984
      4.49500000	      0.25638337	      0.06592026	      0.14672624
      4.50000000	      0.25619177	      0.06589563	      0.14700047
      4.50500000	      0.25593177	      0.06586218	      0.14622666
      4.51000000	      0.25610820	      0.06588488	      0.14654779
      4.51500000	      0.25574060	      0.06583758	      0.14573119
      4.52000000	      0.25553783	      0.06581147	      0.14601066
      4.52500000	      0.25537835	      0.06579093	      0.14564922
      4.53000000	      0.25530601	      0.06578161	      0.14565557
      4.53500000	      0.25571690	      0.06583452	      0.14647645
      4.54000000	      0.25595175	      0.06586475	      0.14671047
      4.54500000	      0.25505647	      0.06574946	      0.14577993
      4.55000000	      0.25505846	      0.06574971	      0.14584102
      4.55500000	      0.25509248	      0.06575410	      0.14639356
      4.56000000	      0.25501916	      0.06574465	      0.14633449
      4.56500000	      0.25528489	      0.06577889	      0.14655619
      4.57000000	      0.25473439	      0.06570793	      0.14580327
      4.57500000	      0.25532980	      0.06578468	      0.14652873
      4.58000000	      0.25479405	      0.06571562	      0.14521025
      4.58500000	      0.25460716	      0.06569152	      0.14524819
      4.59000000	      0.25469501	      0.06570285	      0.14555085
      4.59500000	      0.25482820	      0.06572003	      0.14567890
      4.60000000	      0.25477531	      0.06571321	      0.14550534
      4.60500000	      0.25508433	      0.06575305	      0.14577789
      4.61000000	      0.25508653	      0.06575333	      0.14566382
      4.61500000	      0.25563639	      0.06582416	      0.14573163
      4.62000000	      0.25551482	      0.06580851	      0.14573570
      4.62500000	      0.25509184	      0.06575402	      0.14565053
      4.63000000	      0.25519868	      0.06576778	      0.14594462
      4.63500000	      0.25542261	      0.06579663	      0.14594840
      4.64000000	      0.25572434	      0.06583548	      0.14603176
      4.64500000	      0.25577496	      0.06584200	      0.14573792
      4.65000000	      0.25582033	      0.06584784	      0.14598346
      4.65500000	      0.25562298	      0.06582243	      0.14531493
      4.66000000	      0.25541074	      0.06579510	      0.14576663
      4.66500000	      0.25531183	      0.06578236	      0.14587389
      4.67000000	      0.25568843	      0.06583086	      0.14575119
      4.67500000	      0.25621669	      0.06589883	      0.14573872
      4.68000000	      0.25614472	      0.06588957	      0.14547237
      4.68500000	      0.25539729	      0.06579337	      0.14580231
      4.69000000	      0.25574036	      0.06583755	      0.14591767
      4.69500000	      0.25608347	      0.06588170	      0.14563986
      4.70000000	      0.25642433	      0.06592553	      0.14554105
      4.70500000	      0.25632021	      0.06591214	      0.14590521
      4.71000000	      0.25652040	      0.06593787	      0.14610116
      4.71500000	      0.25678085	      0.06597134	      0.14579956
      4.72000000	      0.25712309	      0.06601529	      0.14590256
      4.72500000	      0.25704745	      0.06600558	      0.14625111
      4.73000000	      0.25722780	      0.06602873	      0.14596573
      4.73500000	      0.25703712	      0.06600425	      0.14598166
      4.74000000	      0.25744088	      0.06605607	      0.14592022
      4.74500000	      0.25708574	      0.06601049	      0.14628667
      4.75000000	      0.25700630	      0.06600030	      0.14610290
      4.75500000	      0.25762368	      0.06607952	      0.14592824
      4.76000000	      0.25755987	      0.06607134	      0.14596370
      4.76500000	      0.25773989	      0.06609442	      0.14612749
      4.77000000	      0.25799065	      0.06612657	      0.14595522
      4.77500000	      0.25795931	      0.06612255	      0.14569657
      4.78000000	      0.25747365	      0.06606028	      0.14590445
      4.78500000	      0.25721121	      0.06602660	      0.14576462
      4.79000000	      0.25702345	      0.06600250	      0.14565982
      4.79500000	      0.25693660	      0.06599134	      0.14576391
      4.80000000	      0.25666422	      0.06595636	      0.14572869
      4.80500000	      0.25634051	      0.06591475	      0.14571016
      4.81000000	      0.25620942	      0.06589789	      0.14573272
      4.81500000	      0.25627591	      0.06590645	      0.14579849
      4.82000000	      0.25633076	      0.06591350	      0.14580788
      4.82500000	      0.25658440	      0.06594610	      0.14573892
      4.83000000	      0.25099692	      0.06522411	      0.14574264
      4.83500000	      0.24810172	      0.06484685	      0.14582929
      4.84000000	      0.24672416	      0.06466657	      0.14565466
      4.84500000	      0.24625565	      0.06460514	      0.14567061
      4.85000000	      0.24644834	      0.06463041	      0.14555686
      4.85500000	      0.24642723	      0.06462765	      0.14548467
      4.86000000	      0.24597357	      0.06456813	      0.14522387
      4.86500000	      0.24597972	      0.06456894	      0.14509747
      4.87000000	      0.24571540	      0.06453424	      0.14507974
      4.87500000	      0.24614187	      0.06459022	      0.14497329
      4.88000000	      0.24554917	      0.06451240	      0.14472228
      4.88500000	      0.24595914	      0.06456624	      0.14465491
      4.89000000	      0.24610754	      0.06458571	      0.14454210
      4.89500000	      0.24658162	      0.06464789	      0.14454581
      4.90000000	      0.24691612	      0.06469172	      0.14433818
      4.90500000	      0.24682314	      0.06467954	      0.14434165
      4.91000000	      0.24696338	      0.06469791	      0.14413511
      4.91500000	      0.24718886	      0.06472744	      0.14412549
      4.92000000	      0.24742963	      0.06475896	      0.14394916
      4.92500000	      0.24771773	      0.06479665	      0.14401140
      4.93000000	      0.24770585	      0.06479509	      0.14376660
      4.93500000	      0.24814393	      0.06485237	      0.14368941
      4.94000000	      0.24836240	      0.06488091	      0.14349824
      4.94500000	      0.24821315	      0.06486141	      0.14342221
      4.95000000	      0.24836414	      0.06488114	      0.14315521
      4.95500000	      0.24876979	      0.06493410	      0.14321174
      4.96000000	      0.24907706	      0.06497419	      0.14299504
      4.96500000	      0.24893832	      0.06495609	      0.14278876
      4.97000000	      0.24952445	      0.06503251	      0.14271405
      4.97500000	      0.24928050	      0.06500072	      0.14259854
      4.98000000	      0.25004685	      0.06510055	      0.14244845
      4.98500000	      0.24957427	      0.06503901	      0.14219981
      4.99000000	      0.25007286	      0.06510394	      0.14213446
      4.99500000	      0.25083807	      0.06520347	      0.14188918
      5.00000000	      0.25102647	      0.06522795	      0.14245808
      5.00500000	      0.25112396	      0.06524062	      0.14457896
      5.01000000	      0.25152993	      0.06529333	      0.14805427
      5.01500000	      0.25202773	      0.06535791	      0.15084746
      5.02000000	      0.25070289	      0.06518590	      0.15069925
      5.02500000	      0.25072025	      0.06518816	      0.15095120
      5.03000000	      0.25004722	      0.06510060	      0.15067749
      5.03500000	      0.24978614	      0.06506661	      0.15062176
      5.04000000	      0.24868771	      0.06492338	      0.15057525
      5.04500000	      0.24808981	      0.06484529	      0.15046076
      5.05000000	      0.24744336	      0.06476075	      0.15035857
      5.05500000	      0.24710329	      0.06471624	      0.15039032
      5.06000000	      0.24609580	      0.06458417	      0.15023336
      5.06500000	      0.24543850	      0.06449786	      0.15003297
      5.07000000	      0.24505605	      0.06444759	      0.15001186
      5.07500000	      0.24426613	      0.06434364	      0.15023028
      5.08000000	      0.24332830	      0.06422000	      0.14968592
      5.08500000	      0.24202387	      0.06404763	      0.14970268
      5.09000000	      0.24169709	      0.06400438	      0.15002270
      5.09500000	      0.24075341	      0.06387931	      0.14935850
      5.10000000	      0.23990597	      0.06376678	      0.14928258
      5.10500000	      0.23948533	      0.06371086	      0.14909282
      5.11000000	      0.23820426	      0.06354023	      0.14926575
      5.11500000	      0.23743889	      0.06343806	      0.14902491
      5.12000000	      0.23659256	      0.06332490	      0.14900585
      5.12500000	      0.23625744	      0.06328004	      0.14877113
      5.13000000	      0.23583325	      0.06322321	      0.14880367
      5.13500000	      0.23484551	      0.06309067	      0.14853820
      5.14000000	      0.23400934	      0.06297825	      0.14878616
      5.14500000	      0.23373391	      0.06294118	      0.14870564
      5.15000000	      0.23412194	      0.06299340	      0.15261868
      5.15500000	      0.23164963	      0.06265991	      0.14853839
      5.16000000	      0.23168730	      0.06266501	      0.15084640
      5.16500000	      0.23179485	      0.06267955	      0.15029276
      5.17000000	      0.22947526	      0.06236514	      0.14939042
      5.17500000	      0.22878707	      0.06227156	      0.14923622
      5.18000000	      0.22765816	      0.06211773	      0.14828803
      5.18500000	      0.22680681	      0.06200148	      0.14804186
      5.19000000	      0.22565345	      0.06184363	      0.14886763
      5.19500000	      0.22403487	      0.06162143	      0.14781797
      5.20000000	      0.22372645	      0.06157900	      0.14745829
      5.20500000	      0.22230228	      0.06138269	      0.14803073
      5.21000000	      0.22139670	      0.06125754	      0.14720663
      5.21500000	      0.21989148	      0.06104895	      0.14704043
      5.22000000	      0.21922330	      0.06095613	      0.14699923
      5.22500000	      0.21850726	      0.06085649	      0.14683426
      5.23000000	      0.21714937	      0.06066711	      0.14631661
      5.23500000	      0.21631067	      0.06054984	      0.14566755
      5.24000000	      0.21526859	      0.06040381	      0.14399697
      5.24500000	      0.21409855	      0.06023943	      0.14435267
      5.25000000	      0.21289680	      0.06007013	      0.14297067
      5.25500000	      0.21194616	      0.05993586	      0.14290675
      5.26000000	      0.21118418	      0.05982803	      0.14232405
      5.26500000	      0.21004514	      0.05966647	      0.14160549
      5.27000000	      0.20901671	      0.05952022	      0.14072499
      5.27500000	      0.20811572	      0.05939179	      0.14013558
      5.28000000	      0.20671807	      0.05919203	      0.13935469
      5.28500000	      0.20582189	      0.05906358	      0.13869897
      5.29000000	      0.20419195	      0.05882925	      0.13783248
      5.29500000	      0.20319983	      0.05868616	      0.13713892
      5.30000000	      0.20201367	      0.05851462	      0.13633244
      5.30500000	      0.20068502	      0.05832187	      0.13564961
      5.31000000	      0.19939845	      0.05813463	      0.13495903
      5.31500000	      0.19834461	      0.05798080	      0.13416175
      5.32000000	      0.19693517	      0.05777443	      0.13348341
      5.32500000	      0.19576244	      0.05760215	      0.13247199
      5.33000000	      0.19443257	      0.05740616	      0.13193994
      5.33500000	      0.19381187	      0.05731446	      0.13108695
      5.34000000	      0.19185781	      0.05702479	      0.13030859
      5.34500000	      0.19105150	      0.05690484	      0.12951109
      5.35000000	      0.18953531	      0.05667859	      0.12879055
      5.35500000	      0.18838500	      0.05650634	      0.12819952
      5.36000000	      0.18691835	      0.05628594	      0.12763624
      5.36500000	      0.18596573	      0.05614233	      0.12667915
      5.37000000	      0.18505340	      0.05600445	      0.12591803
      5.37500000	      0.18330715	      0.05573958	      0.12527426
      5.38000000	      0.18253606	      0.05562222	      0.12455948
      5.38500000	      0.18118449	      0.05541591	      0.12383511
      5.39000000	      0.18007219	      0.05524555	      0.12289619
      5.39500000	      0.17870609	      0.05503560	      0.12255839
      5.40000000	      0.17762963	      0.05486959	      0.12141792
      5.40500000	      0.17637934	      0.05467614	      0.12092062
      5.41000000	      0.17543241	      0.05452917	      0.12010039
      5.41500000	      0.17429790	      0.05435257	      0.11969513
      5.42000000	      0.17311825	      0.05416833	      0.11883742
      5.42500000	      0.17185763	      0.05397074	      0.11807568
      5.43000000	      0.17074028	      0.05379501	      0.11727890
      5.43500000	      0.16912654	      0.05354019	      0.11659798
      5.44000000	      0.16810092	      0.05337760	      0.11584770
      5.44500000	      0.16688549	      0.05318428	      0.11534270
      5.45000000	      0.16559153	      0.05297769	      0.11462183
      5.45500000	      0.16437807	      0.05278323	      0.11408141
      5.46000000	      0.16323115	      0.05259876	      0.11374654
      5.46500000	      0.16174564	      0.05235887	      0.11311729
      5.47000000	      0.16049082	      0.05215538	      0.11317089
      5.47500000	      0.15947166	      0.05198951	      0.11289095
      5.48000000	      0.15798907	      0.05174728	      0.11226487
      5.48500000	      0.15680377	      0.05155280	      0.11182112
      5.49000000	      0.15540241	      0.05132192	      0.11139098
      5.49500000	      0.15413585	      0.05111235	      0.11078907
      5.50000000	      0.15265590	      0.05086637	      0.11044463
      5.50500000	      0.15135784	      0.05064965	      0.10992056
      5.51000000	      0.15008468	      0.05043618	      0.10990904
      5.51500000	      0.14878280	      0.05021695	      0.10925306
      5.52000000	      0.14720258	      0.04994956	      0.10882293
      5.52500000	      0.14597420	      0.04974072	      0.10816135
      5.53000000	      0.14436136	      0.04946517	      0.10815935
      5.53500000	      0.14340429	      0.04930093	      0.10762482
      5.54000000	      0.14162517	      0.04899415	      0.10713265
      5.54500000	      0.14052743	      0.04880390	      0.10645261
      5.55000000	      0.13885090	      0.04851191	      0.10618199
      5.55500000	      0.13793673	      0.04835195	      0.10550897
      5.56000000	      0.13631644	      0.04806712	      0.10529564
      5.56500000	      0.13527738	      0.04788358	      0.10481706
      5.57000000	      0.13407195	      0.04766976	      0.10410341
      5.57500000	      0.13256237	      0.04740063	      0.10386033
      5.58000000	      0.13151918	      0.04721376	      0.10309461
      5.58500000	      0.13013424	      0.04696451	      0.10327460
      5.59000000	      0.12893212	      0.04674709	      0.10248552
      5.59500000	      0.12747872	      0.04648286	      0.10206784
      5.60000000	      0.12603312	      0.04621855	      0.10138171
      5.60500000	      0.12511002	      0.04604898	      0.10059854
      5.61000000	      0.12333514	      0.04572118	      0.10067087
      5.61500000	      0.12244899	      0.04555663	      0.09992954
      5.62000000	      0.12101340	      0.04528879	      0.09938286
      5.62500000	      0.11975251	      0.04505223	      0.09928031
      5.63000000	      0.11856060	      0.04482747	      0.09813969
      5.63500000	      0.11747031	      0.04462087	      0.09808419
      5.64000000	      0.11640689	      0.04441844	      0.09734303
      5.64500000	      0.11527547	      0.04420205	      0.09732679
      5.65000000	      0.11403805	      0.04396417	      0.09669906
      5.65500000	      0.11292602	      0.04374929	      0.09664296
      5.66000000	      0.11205553	      0.04358034	      0.09583500
      5.66500000	      0.11110522	      0.04339515	      0.09570145
      5.67000000	      0.11005199	      0.04318898	      0.09474683
      5.67500000	      0.10881304	      0.04294518	      0.09459718
      5.68000000	      0.10757855	      0.04270088	      0.09417934
      5.68500000	      0.10648923	      0.04248414	      0.09341232
      5.69000000	      0.10510107	      0.04220633	      0.09316751
      5.69500000	      0.10405448	      0.04199566	      0.09257759
      5.70000000	      0.10315397	      0.04181354	      0.09224657
      5.70500000	      0.10332981	      0.04184917	      0.09177505
      5.71000000	      0.10065820	      0.04130461	      0.09153328
      5.71500000	      0.09967332	      0.04110205	      0.09110672
      5.72000000	      0.09831207	      0.04082041	      0.09062263
      5.72500000	      0.09761975	      0.04067643	      0.08993350
      5.73000000	      0.09606803	      0.04035185	      0.08961173
      5.73500000	      0.09502750	      0.04013272	      0.08918957
      5.74000000	      0.09385028	      0.03988336	      0.08843386
      5.74500000	      0.09261129	      0.03961922	      0.08846221
      5.75000000	      0.09147103	      0.03937457	      0.08755785
      5.75500000	      0.09032067	      0.03912619	      0.08738265
      5.76000000	      0.08931611	      0.03890800	      0.08680474
      5.76500000	      0.08850931	      0.03873187	      0.08661827
      5.77000000	      0.08712114	      0.03842694	      0.08581047
      5.77500000	      0.08545426	      0.03805755	      0.08551446
      5.78000000	      0.08454187	      0.03785384	      0.08482112
      5.78500000	      0.08480934	      0.03791367	      0.08402935
      5.79000000	      0.08213670	      0.03731149	      0.08382074
      5.79500000	      0.08104796	      0.03706338	      0.08308291
      5.80000000	      0.07968451	      0.03675030	      0.08293144
      5.80500000	      0.07871715	      0.03652655	      0.08224507
      5.81000000	      0.07760545	      0.03626771	      0.08224650
      5.81500000	      0.07660389	      0.03603292	      0.08137036
      5.82000000	      0.07561912	      0.03580056	      0.08140081
      5.82500000	      0.07453525	      0.03554306	      0.08045387
      5.83000000	      0.07314684	      0.03521047	      0.08009481
      5.83500000	      0.07248497	      0.03505080	      0.07941366
      5.84000000	      0.07139554	      0.03478640	      0.07848610
      5.84500000	      0.06990680	      0.03442181	      0.07848211
      5.85000000	      0.06888497	      0.03416931	      0.07764755
      5.85500000	      0.06771141	      0.03387700	      0.07758861
      5.86000000	      0.06670073	      0.03362322	      0.07673758
      5.86500000	      0.06508472	      0.03321341	      0.07610100
      5.87000000	      0.06409078	      0.03295883	      0.07576857
      5.87500000	      0.06295163	      0.03266461	      0.07468037
      5.88000000	      0.06194440	      0.03240224	      0.07367163
      5.88500000	      0.06062034	      0.03205407	      0.07391361
      5.89000000	      0.05943384	      0.03173883	      0.07329250
      5.89500000	      0.05852805	      0.03149604	      0.07223949
      5.90000000	      0.05713987	      0.03112029	      0.07208551
      5.90500000	      0.05623107	      0.03087182	      0.07112488
      5.91000000	      0.05484397	      0.03048867	      0.07110666
      5.91500000	      0.05401211	      0.03025656	      0.07010457
      5.92000000	      0.05260896	      0.02986097	      0.07007541
      5.92500000	      0.05170084	      0.02960212	      0.06921565
      5.93000000	      0.05051094	      0.02925949	      0.06807578
      5.93500000	      0.04935636	      0.02892315	      0.06757103
      5.94000000	      0.04837520	      0.02863422	      0.06739736
      5.94500000	      0.04714629	      0.02826818	      0.06659205
      5.95000000	      0.04623978	      0.02799509	      0.06660098
      5.95500000	      0.04507236	      0.02763943	      0.06621843
      5.96000000	      0.04399023	      0.02730562	      0.06627139
      5.96500000	      0.04278343	      0.02692848	      0.06561029
      5.97000000	      0.04187954	      0.02664250	      0.06567055
      5.97500000	      0.04093660	      0.02634086	      0.06521170
      5.98000000	      0.04015535	      0.02608829	      0.06489324
      5.98500000	      0.03944643	      0.02585698	      0.06486967
      5.99000000	      0.03843269	      0.02552257	      0.06428614
      5.99500000	      0.03765764	      0.02526391	      0.06406260
      6.00000000	      0.03692769	      0.02501786	      0.06390848
