Model Marker Errors from IK
version=1
nRows=139
nColumns=4
inDegrees=no
endheader
time	total_squared_error	marker_error_RMS	marker_error_max
      7.03500000	      0.10347733	      0.04118676	      0.17963712
      7.04000000	      0.10375349	      0.04124169	      0.17992683
      7.04500000	      0.10392203	      0.04127517	      0.18006108
      7.05000000	      0.10395267	      0.04128126	      0.17988385
      7.05500000	      0.10417129	      0.04132464	      0.18040176
      7.06000000	      0.10429032	      0.04134825	      0.18056101
      7.06500000	      0.10437289	      0.04136461	      0.18051555
      7.07000000	      0.10463126	      0.04141578	      0.18092364
      7.07500000	      0.10491808	      0.04147250	      0.18132249
      7.08000000	      0.10547917	      0.04158325	      0.18189576
      7.08500000	      0.10570792	      0.04162832	      0.18205787
      7.09000000	      0.10585493	      0.04165725	      0.18212856
      7.09500000	      0.10612709	      0.04171077	      0.18248488
      7.10000000	      0.10646567	      0.04177725	      0.18295008
      7.10500000	      0.10679475	      0.04184177	      0.18342918
      7.11000000	      0.10724896	      0.04193065	      0.18402267
      7.11500000	      0.10748748	      0.04197725	      0.18454569
      7.12000000	      0.10795962	      0.04206935	      0.18505712
      7.12500000	      0.10825695	      0.04212724	      0.18545487
      7.13000000	      0.10878338	      0.04222954	      0.18624449
      7.13500000	      0.10909980	      0.04229091	      0.18665344
      7.14000000	      0.10938991	      0.04234710	      0.18721099
      7.14500000	      0.11004738	      0.04247417	      0.18816138
      7.15000000	      0.11044444	      0.04255073	      0.18839102
      7.15500000	      0.11080773	      0.04262065	      0.18885590
      7.16000000	      0.11090525	      0.04263940	      0.18936558
      7.16500000	      0.11144014	      0.04274211	      0.19000321
      7.17000000	      0.11158828	      0.04277050	      0.19034609
      7.17500000	      0.11181052	      0.04281307	      0.19058714
      7.18000000	      0.11212708	      0.04287364	      0.19095375
      7.18500000	      0.11210822	      0.04287003	      0.19088146
      7.19000000	      0.11228556	      0.04290393	      0.19124709
      7.19500000	      0.11219435	      0.04288650	      0.19129979
      7.20000000	      0.11173390	      0.04279840	      0.19071458
      7.20500000	      0.11208799	      0.04286616	      0.19073199
      7.21000000	      0.11175692	      0.04280281	      0.19067495
      7.21500000	      0.11168436	      0.04278891	      0.19025816
      7.22000000	      0.11144122	      0.04274231	      0.19027073
      7.22500000	      0.11080033	      0.04261923	      0.18977053
      7.23000000	      0.11053985	      0.04256911	      0.18917648
      7.23500000	      0.10988033	      0.04244192	      0.18847937
      7.24000000	      0.10919234	      0.04230885	      0.18781029
      7.24500000	      0.10893472	      0.04225891	      0.18703694
      7.25000000	      0.10815580	      0.04210755	      0.18652096
      7.25500000	      0.10751175	      0.04198199	      0.18566173
      7.26000000	      0.10668254	      0.04181978	      0.18480458
      7.26500000	      0.10623323	      0.04173162	      0.18371684
      7.27000000	      0.10573081	      0.04163282	      0.18337687
      7.27500000	      0.10478052	      0.04144531	      0.18256124
      7.28000000	      0.10396535	      0.04128377	      0.18072942
      7.28500000	      0.10284524	      0.04106078	      0.17997649
      7.29000000	      0.10162865	      0.04081719	      0.17833267
      7.29500000	      0.10039765	      0.04056924	      0.17703829
      7.30000000	      0.09878457	      0.04024201	      0.17510303
      7.30500000	      0.09717218	      0.03991224	      0.17332538
      7.31000000	      0.09564998	      0.03959839	      0.17131785
      7.31500000	      0.09382227	      0.03921824	      0.16914604
      7.32000000	      0.09174379	      0.03878139	      0.16627193
      7.32500000	      0.08996785	      0.03840420	      0.16388960
      7.33000000	      0.08815002	      0.03801424	      0.16148918
      7.33500000	      0.08596232	      0.03753956	      0.15858658
      7.34000000	      0.08420819	      0.03715457	      0.15610317
      7.34500000	      0.08235376	      0.03674319	      0.15326577
      7.35000000	      0.08038654	      0.03630168	      0.15055700
      7.35500000	      0.07841153	      0.03585296	      0.14764390
      7.36000000	      0.07662986	      0.03544330	      0.14511512
      7.36500000	      0.07469886	      0.03499388	      0.14189737
      7.37000000	      0.07307044	      0.03461035	      0.13924362
      7.37500000	      0.07145574	      0.03422580	      0.13617013
      7.38000000	      0.06989041	      0.03384885	      0.13302228
      7.38500000	      0.06832492	      0.03346761	      0.12981672
      7.39000000	      0.06681412	      0.03309552	      0.12656362
      7.39500000	      0.06527878	      0.03271305	      0.12338370
      7.40000000	      0.06381082	      0.03234314	      0.11982381
      7.40500000	      0.06250078	      0.03200942	      0.11644831
      7.41000000	      0.06098858	      0.03161982	      0.11284500
      7.41500000	      0.05962427	      0.03126415	      0.10937385
      7.42000000	      0.05820288	      0.03088925	      0.10573967
      7.42500000	      0.05689941	      0.03054140	      0.10252535
      7.43000000	      0.05551568	      0.03016775	      0.09892466
      7.43500000	      0.05410513	      0.02978203	      0.09554218
      7.44000000	      0.05286828	      0.02943965	      0.09211179
      7.44500000	      0.05162197	      0.02909058	      0.08898439
      7.45000000	      0.05061525	      0.02880552	      0.08591301
      7.45500000	      0.04984587	      0.02858575	      0.08271817
      7.46000000	      0.04924169	      0.02841198	      0.07980076
      7.46500000	      0.04872736	      0.02826321	      0.07700442
      7.47000000	      0.04859295	      0.02822421	      0.07448176
      7.47500000	      0.04823551	      0.02812021	      0.07178658
      7.48000000	      0.04809281	      0.02807858	      0.06905804
      7.48500000	      0.04801480	      0.02805580	      0.06697397
      7.49000000	      0.04802819	      0.02805971	      0.06474682
      7.49500000	      0.04831805	      0.02814426	      0.06285182
      7.50000000	      0.04897136	      0.02833389	      0.06143164
      7.50500000	      0.04934639	      0.02844217	      0.06004318
      7.51000000	      0.04976039	      0.02856123	      0.05975244
      7.51500000	      0.04976558	      0.02856272	      0.05882035
      7.52000000	      0.05004231	      0.02864203	      0.05917609
      7.52500000	      0.05011071	      0.02866160	      0.05891305
      7.53000000	      0.05011056	      0.02866155	      0.05862115
      7.53500000	      0.05008541	      0.02865436	      0.05884847
      7.54000000	      0.04992794	      0.02860928	      0.05961666
      7.54500000	      0.04964233	      0.02852733	      0.06019468
      7.55000000	      0.04941873	      0.02846301	      0.06104610
      7.55500000	      0.04937363	      0.02845002	      0.06198434
      7.56000000	      0.04913679	      0.02838170	      0.06262219
      7.56500000	      0.04894063	      0.02832500	      0.06316178
      7.57000000	      0.04873145	      0.02826440	      0.06422504
      7.57500000	      0.04849816	      0.02819666	      0.06496213
      7.58000000	      0.04819884	      0.02810952	      0.06540749
      7.58500000	      0.04788867	      0.02801893	      0.06588499
      7.59000000	      0.04754967	      0.02791958	      0.06590785
      7.59500000	      0.04730285	      0.02784702	      0.06667391
      7.60000000	      0.04678942	      0.02769548	      0.06640981
      7.60500000	      0.04637819	      0.02757350	      0.06643182
      7.61000000	      0.04600753	      0.02746310	      0.06632180
      7.61500000	      0.04557314	      0.02733314	      0.06621964
      7.62000000	      0.04526747	      0.02724132	      0.06637987
      7.62500000	      0.04486736	      0.02712067	      0.06550057
      7.63000000	      0.04470994	      0.02707304	      0.06570052
      7.63500000	      0.04457427	      0.02703194	      0.06544056
      7.64000000	      0.04446888	      0.02699996	      0.06503543
      7.64500000	      0.04442896	      0.02698784	      0.06467368
      7.65000000	      0.04441879	      0.02698475	      0.06408172
      7.65500000	      0.04448261	      0.02700413	      0.06361435
      7.66000000	      0.04465305	      0.02705582	      0.06309826
      7.66500000	      0.04478898	      0.02709697	      0.06289510
      7.67000000	      0.04493564	      0.02714129	      0.06202594
      7.67500000	      0.04513999	      0.02720294	      0.06184921
      7.68000000	      0.04522411	      0.02722827	      0.06138243
      7.68500000	      0.04546041	      0.02729932	      0.06144603
      7.69000000	      0.04540732	      0.02728337	      0.06118278
      7.69500000	      0.04555680	      0.02732824	      0.06123718
      7.70000000	      0.04550530	      0.02731279	      0.06137557
      7.70500000	      0.04536908	      0.02727188	      0.06140061
      7.71000000	      0.04529495	      0.02724959	      0.06157492
      7.71500000	      0.04513645	      0.02720187	      0.06172471
      7.72000000	      0.04500853	      0.02716330	      0.06157941
      7.72500000	      0.04473632	      0.02708103	      0.06184419
