Inverse Dynamics Generalized Forces
version=1
nRows=139
nColumns=40
inDegrees=no
endheader
time	pelvis_tilt_moment	pelvis_list_moment	pelvis_rotation_moment	pelvis_tx_force	pelvis_ty_force	pelvis_tz_force	hip_flexion_r_moment	hip_adduction_r_moment	hip_rotation_r_moment	hip_flexion_l_moment	hip_adduction_l_moment	hip_rotation_l_moment	lumbar_extension_moment	lumbar_bending_moment	lumbar_rotation_moment	knee_angle_r_moment	knee_angle_r_beta_force	knee_angle_l_moment	knee_angle_l_beta_force	arm_flex_r_moment	arm_add_r_moment	arm_rot_r_moment	arm_flex_l_moment	arm_add_l_moment	arm_rot_l_moment	ankle_angle_r_moment	ankle_angle_l_moment	elbow_flex_r_moment	elbow_flex_l_moment	subtalar_angle_r_moment	subtalar_angle_l_moment	pro_sup_r_moment	pro_sup_l_moment	mtp_angle_r_moment	mtp_angle_l_moment	wrist_flex_r_moment	wrist_dev_r_moment	wrist_flex_l_moment	wrist_dev_l_moment
      7.03500000	   6151.20692549	-698112.78969690	 -26108.46139546	      2.47155192	    699.90620611	    720.53939367	 -61162.69381098	 -69837.18700354	 665106.46152202	     26.29332201	     -5.81203283	      0.11409419	     73.14644044	      0.16053899	      0.35677424	-235424.58004006	     -0.01951509	      6.34550899	     -0.02170963	     -3.08400892	     -4.33996200	      1.65337374	     -3.18184082	     -4.09976902	      1.80516385	 200887.88233946	      0.90875052	      2.12865159	      2.33599406	-345437.14637344	     -0.16879797	      0.00164719	      0.00370052	     -0.03814326	     -0.03628644	      0.20538166	     -0.16072302	      0.22139639	     -0.17049931
      7.04000000	   7226.09792395	-701320.94605185	 -25830.97336854	      3.09437884	    711.00081421	    722.41821687	 -60762.19048018	 -70283.29988395	 667915.38571689	     26.35669336	     -5.98025375	      0.14431843	     72.73641913	      0.64641851	      0.61301861	-237259.83824285	     -0.01943366	      6.39059678	     -0.02168140	     -3.12325090	     -4.38889845	      1.69360085	     -3.24510947	     -4.15600081	      1.84867425	 202571.62959148	      0.90937774	      2.16882935	      2.39702957	-346874.95463851	     -0.16916720	      0.00188947	      0.00323394	     -0.03854142	     -0.03647695	      0.21165128	     -0.16392290	      0.22724083	     -0.17528433
      7.04500000	   8015.09105902	-707881.39406216	 -25670.53872787	      3.45776251	    722.14450303	    727.80087342	 -60973.29468716	 -71049.73598256	 674010.54186855	     26.42690953	     -6.14252637	      0.17221555	     72.40343709	      1.14090836	      0.86886685	-239921.38824450	     -0.01935241	      6.43371325	     -0.02165571	     -3.16215885	     -4.43924567	      1.73308638	     -3.30760440	     -4.21439608	      1.89131331	 204919.67061440	      0.91006222	      2.20919592	      2.45796820	-349977.59693400	     -0.16947081	      0.00211321	      0.00276154	     -0.03892771	     -0.03666767	      0.21781016	     -0.16714110	      0.23295684	     -0.18003119
      7.05000000	   8648.38401821	-715494.93275902	 -25485.22506179	      3.84350086	    733.43694136	    734.68945121	 -61443.22781916	 -71844.20336924	 681163.36650763	     26.50737914	     -6.29478854	      0.19673166	     72.18711390	      1.64216431	      1.12118591	-242769.09386808	     -0.01927353	      6.47342528	     -0.02163453	     -3.19938717	     -4.49197135	      1.77072512	     -3.36759493	     -4.27592480	      1.93184417	 207383.66465866	      0.91079435	      2.24969281	      2.51833280	-353527.16690556	     -0.16969604	      0.00229242	      0.00227316	     -0.03928924	     -0.03685224	      0.22371691	     -0.17038200	      0.23839221	     -0.18469383
      7.05500000	   9375.19359416	-721655.35559027	 -25144.86126650	      4.63775407	    744.95134990	    740.68638030	 -61675.49143348	 -72367.98505177	 686912.73013126	     26.60060337	     -6.43307481	      0.21687515	     72.12573075	      2.14780137	      1.36707668	-245211.44895944	     -0.01919928	      6.50859491	     -0.02161953	     -3.23381665	     -4.54789568	      1.80555103	     -3.42353326	     -4.34157936	      1.96914566	 209473.86868639	      0.91155175	      2.29027181	      2.57771662	-356207.05279771	     -0.16982142	      0.00240561	      0.00175984	     -0.03961428	     -0.03702438	      0.22924646	     -0.17365090	      0.24340948	     -0.18923566
      7.06000000	  10314.80260642	-727265.66395422	 -24696.93151025	      6.04872320	    756.74914577	    746.03669218	 -61634.88058751	 -72719.29789582	 692087.93683670	     26.70829000	     -6.55363099	      0.23172876	     72.25579562	      2.65483684	      1.60393911	-247656.70023751	     -0.01913180	      6.53834332	     -0.02161215	     -3.26459064	     -4.60768385	      1.83676082	     -3.47414955	     -4.41238682	      2.00227766	 211549.82605606	      0.91231047	      2.33089187	      2.63579375	-358450.17947446	     -0.16981888	      0.00243677	      0.00121542	     -0.03989307	     -0.03717893	      0.23429258	     -0.17695282	      0.24789336	     -0.19362917
      7.06500000	  11522.09895757	-733635.63503155	 -24209.51805721	      8.19037753	    768.87181549	    751.55139364	 -61392.02904827	 -73047.94257420	 697924.71404529	     26.83154522	     -6.65307752	      0.24048199	     72.61156760	      3.15988927	      1.82941013	-250584.69857901	     -0.01907309	      6.56199283	     -0.02161356	     -3.29113445	     -4.67186531	      1.86372760	     -3.51849633	     -4.48938059	      2.03051646	 214027.02448562	      0.91304644	      2.37148547	      2.69230161	-360904.41027272	     -0.16965704	      0.00237601	      0.00063729	     -0.04011808	     -0.03731177	      0.23876776	     -0.18028676	      0.25175398	     -0.19785177
      7.07000000	  12914.36308251	-740238.42796929	 -23687.19840495	     11.02478625	    781.31298929	    757.67641726	 -60973.17637016	 -73321.31154928	 703942.16588971	     26.97093775	     -6.72855633	      0.24249243	     73.22424772	      3.65948179	      2.04132627	-253743.95244080	     -0.01902494	      6.57902916	     -0.02162457	     -3.31315304	     -4.74083648	      1.88600497	     -3.55594591	     -4.57352927	      2.05335634	 216683.97949534	      0.91373318	      2.41193724	      2.74702122	-363321.93523027	     -0.16930640	      0.00221931	      0.00002595	     -0.04028362	     -0.03741946	      0.24260303	     -0.18364205	      0.25492646	     -0.20188263
      7.07500000	  14301.87240015	-746755.23071568	 -23184.08945351	     14.40605214	    794.07753085	    764.93734481	 -60530.58426961	 -73570.73142480	 709885.05810074	     27.12643509	     -6.77780368	      0.23734596	     74.12113457	      4.15024119	      2.23772222	-256852.79093508	     -0.01898892	      6.58909097	     -0.02164548	     -3.33060820	     -4.81483121	      1.90331745	     -3.58616840	     -4.66565061	      2.07049519	 219272.31376874	      0.91434115	      2.45209933	      2.79977456	-365605.95228373	     -0.16874468	      0.00196742	     -0.00061606	     -0.04038541	     -0.03749916	      0.24574763	     -0.18700072	      0.25736937	     -0.20570281
      7.08000000	  15226.73970676	-755600.65395012	 -22997.12566216	     17.91320910	    807.26209032	    774.56015101	 -60757.86359545	 -74255.02218053	 718176.14904435	     27.29732226	     -6.79912958	      0.22490049	     75.32531616	      4.62896231	      2.41673306	-260274.43576442	     -0.01896636	      6.59198514	     -0.02167615	     -3.34370137	     -4.89389209	      1.91554680	     -3.60910580	     -4.76633487	      2.08181847	 222098.53883593	      0.91483719	      2.49180946	      2.85043016	-369166.47901608	     -0.16795974	      0.00162482	     -0.00128459	     -0.04042041	     -0.03754849	      0.24816820	     -0.19034064	      0.25906365	     -0.20929702
      7.08500000	  15299.73398356	-768616.57186231	 -23313.42649255	     21.14099811	    820.89839633	    787.17950530	 -62224.38941378	 -75690.57844462	 730676.62799653	     27.48211546	     -6.79133359	      0.20532746	     76.85596337	      5.09264309	      2.57640691	-264242.26288358	     -0.01895845	      6.58772201	     -0.02171607	     -3.35287624	     -4.97787167	      1.92272482	     -3.62494628	     -4.87588963	      2.08738447	 225343.89155787	      0.91518481	      2.53088724	      2.89890684	-375042.51728985	     -0.16695031	      0.00119934	     -0.00197343	     -0.04038692	     -0.03756550	      0.24984742	     -0.19363626	      0.26001195	     -0.21265537
      7.09000000	  14649.61404158	-782497.29539794	 -23672.15991168	     24.05864117	    834.68606616	    800.36343954	 -64461.45358830	 -77203.66815056	 744210.68202140	     27.67847501	     -6.75361925	      0.17914958	     78.72869089	      5.53852472	      2.71456966	-267781.09967712	     -0.01896615	      6.57654581	     -0.02176454	     -3.35882557	     -5.06645024	      1.92503067	     -3.63410008	     -4.99431094	      2.08740926	 228105.97654335	      0.91534744	      2.56912780	      2.94517827	-381272.57454644	     -0.16572642	      0.00070187	     -0.00267417	     -0.04028527	     -0.03754900	      0.25078326	     -0.19685882	      0.26023777	     -0.21577522
      7.09500000	  13531.68951240	-793956.78079797	 -23628.60228100	     26.72619883	    848.31447525	    811.91208544	 -66872.11537701	 -78138.04692638	 755584.14704831	     27.88326561	     -6.68552628	      0.14724597	     80.95541243	      5.96408710	      2.82880089	-270048.62534152	     -0.01899007	      6.55891912	     -0.02182070	     -3.36248433	     -5.15914925	      1.92278926	     -3.63716994	     -5.12127352	      2.08224668	 229616.24063513	      0.91529356	      2.60631182	      2.98927513	-385917.86452098	     -0.16431056	      0.00014600	     -0.00337681	     -0.04011852	     -0.03749886	      0.25098929	     -0.19997789	      0.25978341	     -0.21866231
      7.10000000	  12189.70103559	-805127.15228289	 -23517.38896062	     29.27952750	    861.80666527	    823.60346434	 -69422.01714200	 -78987.60625426	 766749.31137017	     28.09283768	     -6.58690539	      0.11081759	     83.54372127	      6.36699830	      2.91649776	-271981.38927068	     -0.01903035	      6.53545223	     -0.02188362	     -3.36500255	     -5.25534327	      1.91646756	     -3.63490492	     -5.25612981	      2.07235582	 230762.40101818	      0.91500000	      2.64222851	      3.03127425	-390238.74750560	     -0.16273913	     -0.00045257	     -0.00407111	     -0.03989254	     -0.03741599	      0.25049562	     -0.20296344	      0.25870568	     -0.22132975
      7.10500000	  10776.39979824	-818670.04414899	 -23741.03787646	     31.78814566	    875.24720393	    837.51171992	 -72222.70202758	 -80354.80823812	 780187.73287199	     28.30334358	     -6.45799136	      0.07134133	     86.49633357	      6.74508121	      2.97498864	-274599.84535208	     -0.01908669	      6.50682626	     -0.02195227	     -3.36768820	     -5.35428206	      1.90665650	     -3.62813351	     -5.39790518	      2.05825136	 232503.31148146	      0.91445289	      2.67670492	      3.07128026	-395801.87516004	     -0.16106355	     -0.00107674	     -0.00474805	     -0.03961533	     -0.03730202	      0.24934878	     -0.20578886	      0.25706921	     -0.22379629
      7.11000000	   9097.45382736	-833882.59086610	 -24175.61945600	     33.99489901	    888.63980844	    852.91225219	 -75386.87984714	 -82086.47022240	 795285.95455954	     28.51086011	     -6.29952851	      0.03053464	     89.81089289	      7.09632634	      3.00165364	-277484.90612140	     -0.01915838	      6.47376372	     -0.02202555	     -3.37191808	     -5.45512220	      1.89402904	     -3.61769394	     -5.54527519	      2.04045113	 234435.51195818	      0.91364841	      2.70964007	      3.10942177	-402186.18634497	     -0.15935116	     -0.00170939	     -0.00540082	     -0.03929624	     -0.03715904	      0.24760918	     -0.20843583	      0.25494019	     -0.22608684
      7.11500000	   6894.96399751	-849543.12556367	 -24604.23357120	     35.57590964	    901.94617063	    868.74117234	 -79036.80444587	 -83901.76660117	 810956.02097050	     28.71133558	     -6.11282792	     -0.00967620	     93.47997777	      7.41887974	      2.99408786	-279987.38518349	     -0.01924447	      6.43704386	     -0.02210224	     -3.37903324	     -5.55695586	      1.87928460	     -3.60439421	     -5.69654323	      2.01944563	 235936.30918420	      0.91259289	      2.74103559	      3.14586652	-408660.87000092	     -0.15768424	     -0.00233516	     -0.00602542	     -0.03894517	     -0.03698959	      0.24534672	     -0.21089944	      0.25238339	     -0.22823496
      7.12000000	   4006.77773278	-865691.29740030	 -24989.16387103	     36.26549232	    915.04549070	    885.37137415	 -83328.37996524	 -85788.33245388	 827280.70897597	     28.90057897	     -5.89972022	     -0.04721360	     97.49114877	      7.71094655	      2.95035644	-281962.99999659	     -0.01934386	      6.39751440	     -0.02218103	     -3.39024269	     -5.65883900	      1.86310103	     -3.58900279	     -5.84966113	      1.99568897	 236855.70651565	      0.91130245	      2.77100610	      3.18083283	-415227.28364646	     -0.15615648	     -0.00294184	     -0.00662086	     -0.03857216	     -0.03679673	      0.24263663	     -0.21319015	      0.24946113	     -0.23028406
      7.12500000	    413.64330429	-882451.24555225	 -25378.17498232	     35.92825318	    927.80531384	    903.15365133	 -88284.80060399	 -87828.09103023	 844378.71600071	     29.07442362	     -5.66242448	     -0.07994902	    101.82715365	      7.97071173	      2.86924394	-283433.07245895	     -0.01945536	      6.35605584	     -0.02226046	     -3.40656182	     -5.75982957	      1.84610891	     -3.57224978	     -6.00230018	      1.96959675	 237221.15312175	      0.90980311	      2.79976165	      3.21457917	-421990.59668959	     -0.15486869	     -0.00352091	     -0.00718911	     -0.03818718	     -0.03658407	      0.23955659	     -0.21533100	      0.24623192	     -0.23228499
      7.13000000	  -3441.58661432	-899077.11399043	 -25981.24260361	     34.86525030	    940.11974934	    920.91959656	 -93384.42068118	 -90208.00181985	 861396.65468783	     29.22901060	     -5.40340163	     -0.10581931	    106.46645940	      8.19635481	      2.75036628	-284586.08964624	     -0.01957775	      6.31350576	     -0.02233906	     -3.42879508	     -5.85901551	      1.82888497	     -3.55483697	     -6.15195609	      1.94155415	 237305.18425967	      0.90812976	      2.82757997	      3.24737506	-428771.86470926	     -0.15392409	     -0.00406724	     -0.00773406	     -0.03779943	     -0.03635550	      0.23618509	     -0.21735311	      0.24274991	     -0.23429061
      7.13500000	  -7149.56907918	-914743.73836749	 -26902.54882160	     33.38279219	    951.89904766	    937.49616798	 -98132.56884894	 -93002.91598744	 877421.11391284	     29.36106709	     -5.12532904	     -0.12292226	    111.38393396	      8.38602786	      2.59418850	-285549.77581999	     -0.01970999	      6.27059948	     -0.02241543	     -3.45753140	     -5.95552033	      1.81194519	     -3.53744623	     -6.29608831	      1.91192879	 237301.29002532	      0.90632270	      2.85479260	      3.27946357	-435273.64705413	     -0.15342165	     -0.00457894	     -0.00825969	     -0.03741638	     -0.03611485	      0.23259981	     -0.21929326	      0.23906499	     -0.23634923
      7.14000000	 -10874.14380608	-929137.28391740	 -27618.82579074	     31.32463048	    963.05743740	    953.21838692	-102653.34272941	 -95693.20709567	 892227.97493804	     29.46809801	     -4.83118424	     -0.12959946	    116.55138234	      8.53776669	      2.40213405	-286040.60051144	     -0.01985118	      6.22795520	     -0.02248838	     -3.49312149	     -6.04852314	      1.79573077	     -3.52072169	     -6.43227717	      1.88106318	 236829.17010091	      0.90442537	      2.88177455	      3.31102596	-440922.46902841	     -0.15344892	     -0.00505751	     -0.00876903	     -0.03704331	     -0.03586567	      0.22887575	     -0.22119257	      0.23522059	     -0.23849934
      7.14500000	 -14888.09125205	-942419.92570038	 -27731.11240932	     28.48297622	    973.61144563	    968.77432783	-107229.62990090	 -97916.75347987	 906072.88294497	     29.54851553	     -4.52424993	     -0.12454523	    121.93805007	      8.64957267	      2.17685703	-285827.69150753	     -0.02000055	      6.18606594	     -0.02255695	     -3.53565332	     -6.13729924	      1.78059953	     -3.50523712	     -6.55836025	      1.84924821	 235566.48142082	      0.90248347	      2.90890847	      3.34215813	-445478.37774178	     -0.15407648	     -0.00550720	     -0.00926444	     -0.03668385	     -0.03561118	      0.22508372	     -0.22309204	      0.23124927	     -0.24076645
      7.15000000	 -19366.39638231	-956215.73620187	 -28082.32154001	     24.86328388	    983.94795123	    984.77528725	-112201.55622503	-100662.36745519	 920503.47496706	     29.60175555	     -4.20797295	     -0.10695745	    127.51124804	      8.71974227	      1.92252279	-285298.07122944	     -0.02015715	      6.14527642	     -0.02262058	     -3.58494439	     -6.22123477	      1.76682315	     -3.49148571	     -6.67256479	      1.81671242	 234011.50765304	      0.90054129	      2.93652900	      3.37286475	-450450.22359937	     -0.15535117	     -0.00593377	     -0.00974812	     -0.03634104	     -0.03535390	      0.22128850	     -0.22502560	      0.22717049	     -0.24316168
      7.15500000	 -24337.23694491	-971762.96336641	 -29492.85026890	     20.58870634	    994.36208245	   1001.46810615	-117722.66912509	-104878.12775340	 936653.94999571	     29.62833377	     -3.88575119	     -0.07668993	    133.23680052	      8.74709915	      1.64493865	-284850.80615467	     -0.02031967	      6.10577896	     -0.02267981	     -3.64054038	     -6.29982321	      1.75458104	     -3.47990757	     -6.77367216	      1.78364645	 232685.38956254	      0.89863865	      2.96488296	      3.40307274	-457137.08111302	     -0.15728606	     -0.00634332	     -0.01022232	     -0.03601797	     -0.03509588	      0.21754692	     -0.22701562	      0.22299346	     -0.24568191
      7.16000000	 -29272.21306017	-987184.50961487	 -31273.85120609	     16.00396673	   1004.37905187	   1017.72296274	-123079.65196632	-109775.36368577	 952620.62508728	     29.62969179	     -3.56093938	     -0.03411139	    139.07915034	      8.73073132	      1.35156502	-284347.35721401	     -0.02048620	      6.06764013	     -0.02273457	     -3.70171402	     -6.37269584	      1.74395727	     -3.47093521	     -6.86116107	      1.75023847	 231390.32515152	      0.89681874	      2.99411895	      3.43266056	-464069.06539355	     -0.15986596	     -0.00674180	     -0.01068957	     -0.03571839	     -0.03483964	      0.21390719	     -0.22907219	      0.21872200	     -0.24831288
      7.16500000	 -33697.72753180	-1000541.27667552	 -32586.03296773	     11.32783918	   1013.47146453	   1032.53166188	-127615.19887357	-114398.64513468	 966471.00031755	     29.60841017	     -3.23634655	      0.01963396	    145.00153672	      8.66933979	      1.05158907	-283573.33173484	     -0.02065418	      6.03081863	     -0.02278513	     -3.76746412	     -6.43965935	      1.73494497	     -3.46502722	     -6.93524290	      1.71668528	 229827.29953189	      0.89513613	      3.02429002	      3.46149093	-469632.97839344	     -0.16303150	     -0.00713458	     -0.01115359	     -0.03544705	     -0.03458958	      0.21041009	     -0.23119362	      0.21435622	     -0.25103432
      7.17000000	 -37971.69168446	-1012856.73746557	 -33692.10612932	      6.05943655	   1021.65778930	   1046.75853369	-131795.02148493	-119117.90464270	 979263.33516844	     29.56836615	     -2.91408309	      0.08258954	    150.96663710	      8.56082538	      0.75619638	-282518.34107447	     -0.02082042	      5.99521161	     -0.02283211	     -3.83651173	     -6.50066919	      1.72744736	     -3.46269291	     -6.99679603	      1.68318313	 228002.44445871	      0.89367146	      3.05536146	      3.48943950	-474573.68336439	     -0.16668036	     -0.00752633	     -0.01162039	     -0.03520989	     -0.03435314	      0.20708991	     -0.23336770	      0.20989135	     -0.25382519
      7.17500000	 -42558.44577605	-1025579.34125639	 -35029.17374486	     -0.30056763	   1029.13946606	   1061.45914662	-136228.82338262	-124523.44416581	 992474.55719347	     29.51478271	     -2.59545272	      0.15190709	    156.93741764	      8.40248840	      0.47877665	-281209.59242351	     -0.02098127	      5.96072204	     -0.02287650	     -3.90729755	     -6.55574276	      1.72126462	     -3.46451886	     -7.04728252	      1.64992684	 225975.03746256	      0.89254043	      3.08723426	      3.51641671	-479979.81827486	     -0.17066415	     -0.00792135	     -0.01209873	     -0.03501423	     -0.03414169	      0.20397378	     -0.23557619	      0.20531770	     -0.25666717
      7.18000000	 -47491.67359971	-1038863.53990434	 -36534.07482144	     -7.52769449	   1036.30286923	   1076.59924780	-140970.39998406	-130612.16213876	1006257.62810197	     29.45397352	     -2.28085457	      0.22384146	    162.87755455	      8.19150566	      0.23453072	-279646.99915344	     -0.02113293	      5.92731070	     -0.02291948	     -3.97798807	     -6.60486960	      1.71606618	     -3.47116554	     -7.08868202	      1.61711822	 223727.92469356	      0.89188967	      3.11978576	      3.54237180	-485890.37987478	     -0.17478638	     -0.00832504	     -0.01259953	     -0.03486846	     -0.03397072	      0.20107836	     -0.23780230	      0.20062316	     -0.25954512
      7.18500000	 -52666.67726989	-1052324.09111849	 -38006.94951834	    -15.25450566	   1043.46243321	   1091.74256549	-145886.47111641	-137200.88688157	1020220.78289849	     29.39279773	     -1.96966220	      0.29383294	    168.75116759	      7.92529544	      0.03945540	-277786.41107601	     -0.02127179	      5.89505495	     -0.02296208	     -4.04649803	     -6.64795947	      1.71136450	     -3.48331981	     -7.12338395	      1.58496898	 221199.09917572	      0.89187935	      3.15290880	      3.56728332	-491979.04203575	     -0.17880541	     -0.00874551	     -0.01313495	     -0.03478160	     -0.03385888	      0.19840578	     -0.24003788	      0.19579656	     -0.26244616
      7.19000000	 -57853.93444737	-1064690.89610589	 -39242.30125107	    -23.24554368	   1050.46394536	   1105.92815313	-150644.99567127	-144012.34886288	1033091.70289055	     29.33796669	     -1.66016581	      0.35665981	    174.52210660	      7.60182665	     -0.09073285	-275431.86606699	     -0.02139473	      5.86423660	     -0.02300483	     -4.11053753	     -6.68485287	      1.70651539	     -3.50164336	     -7.15401524	      1.55370067	 218227.82053111	      0.89265964	      3.18653892	      3.59116914	-497528.16261004	     -0.18244147	     -0.00919454	     -0.01371808	     -0.03476317	     -0.03382620	      0.19594237	     -0.24228832	      0.19083147	     -0.26536196
      7.19500000	 -62859.49297699	-1074941.60927634	 -40117.93195114	    -31.35954613	   1057.11001878	   1118.32607110	-154978.85556619	-150857.40603655	1043839.85756009	     29.29554036	     -1.34972953	      0.40663059	    180.15316583	      7.21996332	     -0.14140071	-272442.37597709	     -0.02150181	      5.83539009	     -0.02304762	     -4.16768391	     -6.71539096	      1.70075089	     -3.52672357	     -7.18326928	      1.52353936	 214715.57260079	      0.89435074	      3.22067534	      3.61412635	-502011.11277151	     -0.18538438	     -0.00968760	     -0.01436348	     -0.03482310	     -0.03389227	      0.19366148	     -0.24457523	      0.18572972	     -0.26829457
      7.20000000	 -67787.40336076	-1083995.97136148	 -40865.50109103	    -39.66119137	   1063.53676615	   1129.12065929	-159091.27534255	-158085.64079943	1053342.76925851	     29.27086954	     -1.03524673	      0.43779368	    185.60547228	      6.77973375	     -0.09970999	-269014.68541579	     -0.02159286	      5.80925831	     -0.02308986	     -4.21547923	     -6.73949074	      1.69323129	     -3.55899996	     -7.21376051	      1.49469460	 210870.31596897	      0.89703083	      3.25540121	      3.63636766	-506077.72766786	     -0.18730246	     -0.01024367	     -0.01508784	     -0.03497035	     -0.03407454	      0.19152817	     -0.24693737	      0.18050275	     -0.27126138
      7.20500000	 -72729.05368636	-1092910.91181025	 -41751.06738573	    -48.15997133	   1069.94907910	   1138.71295186	-163179.53736904	-166111.92052256	1062595.13386375	     29.26878657	     -0.71377248	      0.44417070	    190.83789325	      6.28253533	      0.04445246	-265402.14537821	     -0.02166755	      5.78669300	     -0.02313064	     -4.25157535	     -6.75717866	      1.68311451	     -3.59867520	     -7.24787422	      1.46733621	 206952.23626041	      0.90072938	      3.29090679	      3.65824318	-510462.63095684	     -0.18785500	     -0.01088461	     -0.01591011	     -0.03521198	     -0.03438685	      0.18950483	     -0.24943067	      0.17517284	     -0.27429751
      7.21000000	 -77377.30339631	-1101259.29787867	 -42820.07214310	    -56.46403102	   1076.49275970	   1147.34709794	-166914.04913152	-174979.02140070	1071079.19482878	     29.29356407	     -0.38315816	      0.42004173	    195.80644672	      5.73148884	      0.29730354	-261773.62375149	     -0.02172788	      5.76858844	     -0.02316875	     -4.27392750	     -6.76860984	      1.66964236	     -3.64561941	     -7.28762076	      1.44157576	 203169.00654943	      0.90542474	      3.32750752	      3.68026678	-515034.78975477	     -0.18670815	     -0.01163419	     -0.01685147	     -0.03555307	     -0.03483863	      0.18755790	     -0.25212787	      0.16977562	     -0.27745883
      7.21500000	 -81340.07262943	-1108130.26157635	 -43974.40062702	    -64.17550898	   1083.16007121	   1154.92319479	-169841.04120833	-184514.30413110	1077806.19637376	     29.34841157	     -0.04260387	      0.36028242	    200.46435967	      5.13196522	      0.66000772	-258233.64250870	     -0.02177752	      5.75591168	     -0.02320269	     -4.28096790	     -6.77412387	      1.65221215	     -3.69924766	     -7.33453799	      1.41743135	 199659.03350724	      0.91104823	      3.36563061	      3.70313640	-519320.67243111	     -0.18355298	     -0.01251677	     -0.01793547	     -0.03599732	     -0.03543495	      0.18566211	     -0.25511556	      0.16436061	     -0.28082525
      7.22000000	 -84343.99622565	-1112241.52413278	 -44749.85655835	    -71.31348422	   1089.37246963	   1160.12631513	-171592.29357804	-194101.75060448	1081510.99939790	     29.43471475	      0.30691042	      0.26072072	    204.76310263	      4.49189481	      1.12767066	-254656.08172319	     -0.02182199	      5.74978432	     -0.02323062	     -4.27169549	     -6.77434272	      1.63039927	     -3.75839888	     -7.38965844	      1.39478726	 196272.13424599	      0.91748997	      3.40576406	      3.72771749	-522364.12099778	     -0.17812611	     -0.01355613	     -0.01918749	     -0.03654764	     -0.03617673	      0.18379885	     -0.25848785	      0.15898956	     -0.28449990
      7.22500000	 -86277.45927201	-1112873.24625801	 -44784.34039644	    -78.03058012	   1094.60809492	   1161.93960643	-172008.40637206	-203259.03179337	1081511.22840002	     29.55139008	      0.66227800	      0.11850688	    208.65400135	      3.82143380	      1.68860491	-250951.02458383	     -0.02186856	      5.75151568	     -0.02325052	     -4.24570624	     -6.77027809	      1.60395123	     -3.82130476	     -7.45350026	      1.37339825	 192884.82891242	      0.92460092	      3.44838080	      3.75496809	-523546.77436326	     -0.17023508	     -0.01477437	     -0.02063230	     -0.03720592	     -0.03705996	      0.18195120	     -0.26233665	      0.15373624	     -0.28860016
      7.23000000	 -87520.88789915	-1111871.54577273	 -44519.18375870	    -84.56708793	   1099.16581928	   1161.72828697	-171629.79765874	-212647.27108422	1079607.19618255	     29.69466674	      1.01782342	     -0.06746651	    212.09000366	      3.13200005	      2.32430454	-247373.53900155	     -0.02192578	      5.76257272	     -0.02326046	     -4.20322416	     -6.76341154	      1.57280810	     -3.88569122	     -7.52603304	      1.35294710	 189751.61749257	      0.93219522	      3.49383835	      3.78580743	-524102.25806205	     -0.15978983	     -0.01618941	     -0.02228969	     -0.03797188	     -0.03807428	      0.18010261	     -0.26673603	      0.14868733	     -0.29324000
      7.23500000	 -88450.86277423	-1111257.95483486	 -44410.01307934	    -91.06603582	   1103.48023683	   1161.24396923	-170995.85535249	-223021.07402738	1077741.99814725	     29.85831240	      1.36454493	     -0.29606847	    215.02709125	      2.43498140	      3.01036530	-244225.07771834	     -0.02200252	      5.78455490	     -0.02325908	     -4.14513787	     -6.75573153	      1.53716299	     -3.94895656	     -7.60663288	      1.33311686	 187165.41452829	      0.94005895	      3.54226774	      3.82097739	-525351.64325527	     -0.14683817	     -0.01781106	     -0.02417014	     -0.03884173	     -0.03920148	      0.17824185	     -0.27172285	      0.14394149	     -0.29851063
      7.24000000	 -88943.97064069	-1111214.50409320	 -44167.08729838	    -97.20638995	   1107.70513537	   1161.38827477	-169984.49069513	-234159.22125575	1076066.97884556	     30.03392621	      1.68913472	     -0.56342558	    217.42487209	      1.74037337	      3.71791683	-241697.49877454	     -0.02210666	      5.81918353	     -0.02324605	     -4.07298729	     -6.74971731	      1.49750965	     -4.00833792	     -7.69409245	      1.31364728	 185241.44636458	      0.94796202	      3.59349618	      3.86094084	-527118.93592437	     -0.13159817	     -0.01963795	     -0.02627206	     -0.03980712	     -0.04041458	      0.17636930	     -0.27728225	      0.13960697	     -0.30446625
      7.24500000	 -88816.75430397	-1111322.44429210	 -43409.58442145	   -102.61545638	   1111.93086791	   1162.40048966	-168362.90000716	-245649.26467295	1074169.91762261	     30.21101146	      1.97328009	     -0.86254893	    219.24669794	      1.05561101	      4.41491640	-239866.09344690	     -0.02224393	      5.86822742	     -0.02322217	     -3.98885286	     -6.74824283	      1.45461184	     -4.06103404	     -7.78673141	      1.29437572	 183992.75424545	      0.95566327	      3.64703906	      3.90580765	-528880.08478813	     -0.11447895	     -0.02165757	     -0.02857989	     -0.04085399	     -0.04167736	      0.17449668	     -0.28334603	      0.13579914	     -0.31111418
      7.25000000	 -88157.43673206	-1110629.21966479	 -42121.13502357	   -107.24211771	   1116.26259789	   1162.77633722	-166140.28074292	-257310.05018632	1071150.09252557	     30.37697834	      2.19347143	     -1.18314273	    220.45999477	      0.38483852	      5.06714791	-238418.94584009	     -0.02241665	      5.93334216	     -0.02318944	     -3.89517605	     -6.75440716	      1.40940031	     -4.10432684	     -7.88256419	      1.27528267	 183166.60372407	      0.96290590	      3.70214129	      3.95528252	-530218.72830084	     -0.09608764	     -0.02384876	     -0.03106279	     -0.04196102	     -0.04294407	      0.17263949	     -0.28980111	      0.13263984	     -0.31840787
      7.25500000	 -87093.61466149	-1108818.35085902	 -40376.38978683	   -111.12785665	   1120.75906796	   1161.49807764	-163413.95504327	-269129.89742544	1066710.11998220	     30.51734278	      2.32107800	     -1.51156326	    221.03678054	     -0.27127618	      5.63936112	-237201.81316635	     -0.02262290	      6.01590426	     -0.02315115	     -3.79460471	     -6.77134917	      1.36288279	     -4.13573405	     -7.97943207	      1.25654413	 182646.81397573	      0.96941243	      3.75780364	      4.00864279	-531068.08650506	     -0.07722712	     -0.02618359	     -0.03367383	     -0.04309791	     -0.04415913	      0.17081030	     -0.29649606	      0.13025745	     -0.32624315
      7.26000000	 -85621.33660796	-1108579.62157819	 -38239.64858641	   -114.34123111	   1125.27062448	   1161.29031026	-160348.96073190	-281729.70838883	1063372.66882280	     30.61630385	      2.32296582	     -1.83105736	    220.95382691	     -0.91518334	      6.09688363	-237048.27722116	     -0.02285594	      6.11685528	     -0.02311216	     -3.68992052	     -6.80206741	      1.31612612	     -4.15315894	     -8.07508744	      1.23856870	 183118.30054142	      0.97489032	      3.81279766	      4.06475304	-532667.36189303	     -0.05888309	     -0.02862752	     -0.03635062	     -0.04422421	     -0.04525785	      0.16902025	     -0.30324341	      0.12878517	     -0.33445813
      7.26500000	 -83733.12047532	-1112098.97569179	 -35734.77778833	   -116.98744060	   1129.61188414	   1164.51121269	-157056.05028092	-295715.39466765	1063163.47409139	     30.65789580	      2.16346219	     -2.12256828	    220.19228063	     -1.55161934	      6.40749992	-238638.15963403	     -0.02310417	      6.23645074	     -0.02307926	     -3.58399999	     -6.84921803	      1.27027128	     -4.15500111	     -8.16727981	      1.22200570	 185141.67838700	      0.97904514	      3.86574768	      4.12214907	-536027.63034535	     -0.04218194	     -0.03113998	     -0.03901823	     -0.04528867	     -0.04616862	      0.16728698	     -0.30983007	      0.12835818	     -0.34284170
      7.27000000	 -81540.36369649	-1116608.80176607	 -32797.75606699	   -119.30063561	   1133.60922469	   1168.34815712	-153434.05473246	-310497.92747398	1063457.75200188	     30.62773417	      1.80759342	     -2.36612788	    218.73729146	     -2.18640054	      6.54327480	-241119.03873406	     -0.02335179	      6.37388933	     -0.02306185	     -3.47971743	     -6.91491037	      1.22651286	     -4.14022049	     -8.25381498	      1.20771527	 188018.71508855	      0.98158833	      3.91525431	      4.17918597	-539885.93597484	     -0.02830896	     -0.03367650	     -0.04159442	     -0.04622913	     -0.04681566	      0.16564055	     -0.31603532	      0.12910908	     -0.35115181
      7.27500000	 -79054.71409337	-1119056.01613140	 -29369.25836615	   -121.34486152	   1137.21230867	   1169.68248632	-149280.46905805	-325259.47812199	1061370.08923997	     30.51565317	      1.22545419	     -2.54324316	    216.57839424	     -2.82516528	      6.48221474	-243661.71171688	     -0.02358029	      6.52685505	     -0.02307689	     -3.37978119	     -7.00055737	      1.18604126	     -4.10832659	     -8.33252384	      1.19667844	 191073.86396395	      0.98222629	      3.95994216	      4.23416564	-542801.38353584	     -0.01836072	     -0.03618991	     -0.04399587	     -0.04697310	     -0.04712194	      0.16412292	     -0.32164015	      0.13115655	     -0.35913342
      7.28000000	 -75766.90567995	-1120144.47851347	 -25376.72054279	   -122.36953241	   1140.79893565	   1169.29320053	-144117.36935040	-340044.13000136	1057459.27016236	     30.31589061	      0.39222704	     -2.63619629	    213.71045017	     -3.47252950	      6.20961880	-247003.06583252	     -0.02377057	      6.69120930	     -0.02313679	     -3.28657795	     -7.10678104	      1.14999147	     -4.05925746	     -8.40118607	      1.18984421	 194958.52874663	      0.98067890	      3.99847404	      4.28542810	-544960.96661787	     -0.01338048	     -0.03863110	     -0.04614490	     -0.04743915	     -0.04700965	      0.16278612	     -0.32643025	      0.13458749	     -0.36653285
      7.28500000	 -71194.14613957	-1121408.56861104	 -20766.78178986	   -121.60126940	   1144.78792740	   1168.76258841	-137539.99330356	-355203.96417889	1053057.94500772	     30.02944051	     -0.70728348	     -2.63108404	    210.13425544	     -4.13172119	      5.71874976	-252081.86216317	     -0.02391404	      6.86057144	     -0.02325941	     -3.20205547	     -7.23336042	      1.11939882	     -3.99317799	     -8.45750288	      1.18795636	 200492.85457426	      0.97664686	      4.02967900	      4.33150199	-546968.93589302	     -0.01416841	     -0.04095209	     -0.04797750	     -0.04754016	     -0.04640372	      0.16169348	     -0.33021357	      0.13944170	     -0.37312051
      7.29000000	 -65490.89040376	-1124001.26527283	 -15606.42245195	   -119.06126794	   1149.27345452	   1168.97369050	-129756.25059947	-371178.24458862	1049233.25627169	     29.66354105	     -2.07746728	     -2.51824768	    205.85692095	     -4.80433465	      5.01072057	-259118.58577394	     -0.02398486	      7.02624021	     -0.02346510	     -3.12762137	     -7.37925816	      1.09513690	     -3.91027692	     -8.49914087	      1.19141071	 207852.43879230	      0.96979428	      4.05274194	      4.37132340	-549431.28244940	     -0.02124207	     -0.04311111	     -0.04945140	     -0.04718282	     -0.04523322	      0.16091927	     -0.33284785	      0.14570504	     -0.37872297
      7.29500000	 -58934.00524964	-1128667.91868439	  -9932.10786548	   -114.91786162	   1154.31124494	   1170.47629379	-121068.27396311	-388323.01160055	1046680.15037551	     29.23057026	     -3.71132478	     -2.29251645	    200.89289882	     -5.48988043	      4.09413359	-268101.93259486	     -0.02397522	      7.17738253	     -0.02377518	     -3.06408182	     -7.54271085	      1.07786120	     -3.81060863	     -8.52383390	      1.20014935	 217000.56510565	      0.95973354	      4.06727997	      4.40440609	-552767.98374383	     -0.03481015	     -0.04507542	     -0.05055203	     -0.04627262	     -0.04343267	      0.16054396	     -0.33425411	      0.15330597	     -0.38324846
      7.30000000	 -51657.83811737	-1134881.65903724	  -3607.71931883	   -109.18797926	   1160.12894048	   1173.15579595	-111559.55801562	-406444.96066597	1044928.15006055	     28.74671205	     -5.59042550	     -1.95331934	    195.26568292	     -6.18519151	      2.98490822	-278787.00645442	     -0.02388625	      7.30144864	     -0.02421098	     -3.01165064	     -7.72131080	      1.06798710	     -3.69398543	     -8.52952210	      1.21357858	 227687.74212416	      0.94602828	      4.07330163	      4.43090911	-556643.59092324	     -0.05476318	     -0.04682118	     -0.05129565	     -0.04471563	     -0.04094426	      0.16064854	     -0.33441348	      0.16211093	     -0.38669874
      7.30500000	 -43792.79031462	-1142202.13713563	   3465.03962550	   -101.86771055	   1167.03320009	   1176.94625116	-101324.22194666	-425389.22073837	1043585.95405759	     28.23036269	     -7.68511869	     -1.50472285	    189.00946975	     -6.88399936	      1.70605404	-290955.12858177	     -0.02372967	      7.38487930	     -0.02479287	     -2.96996487	     -7.91205961	      1.06566201	     -3.55993147	     -8.51449659	      1.23052833	 239689.94855480	      0.92820665	      4.07115858	      4.45164374	-560792.83760002	     -0.08067467	     -0.04833325	     -0.05173007	     -0.04242197	     -0.03772057	      0.16130728	     -0.33336312	      0.17192247	     -0.38917245
      7.31000000	 -35568.90015029	-1151860.32273989	  11130.17249563	    -93.01465005	   1175.48932009	   1182.55887195	 -90656.44542326	-445868.96833996	1043701.04958235	     27.70018832	     -9.95505362	     -0.95529744	    182.17012906	     -7.57666847	      0.28714781	-304785.27563067	     -0.02352882	      7.41415437	     -0.02553916	     -2.93804400	     -8.11141024	      1.07069890	     -3.40773258	     -8.47756039	      1.24929457	 253161.85514206	      0.90577549	      4.06152440	      4.46804362	-566006.93903766	     -0.11181528	     -0.04960669	     -0.05193266	     -0.03931021	     -0.03372679	      0.16257694	     -0.33119648	      0.18248608	     -0.39086193
      7.31500000	 -27179.25206955	-1165033.45666356	  19295.13732709	    -82.69277063	   1185.92017082	   1190.74755045	 -79802.46455638	-468622.03887334	1046225.66315137	     27.17304693	    -12.35027363	     -0.31770441	    174.80498386	     -8.24991713	     -1.23638043	-320488.44073021	     -0.02331921	      7.37705618	     -0.02646504	     -2.91426370	     -8.31530419	      1.08252557	     -3.23660871	     -8.41820766	      1.26778133	 268282.46914740	      0.87824926	      4.04536234	      4.48207851	-573032.41337501	     -0.14718985	     -0.05064820	     -0.05200490	     -0.03531232	     -0.02894321	      0.16448731	     -0.32806192	      0.19350659	     -0.39204056
      7.32000000	 -18645.86153253	-1180906.09138703	  28242.39912235	    -70.86461707	   1198.46415341	   1201.54748623	 -68729.78687528	-493285.05688769	1050414.00437047	     26.66207833	    -14.81317670	      0.39208114	    166.98112958	     -8.88683082	     -2.82422289	-337851.06501722	     -0.02314850	      7.26398203	     -0.02758163	     -2.89643751	     -8.51923212	      1.10020623	     -3.04595629	     -8.33673943	      1.28369712	 284803.30858982	      0.84521317	      4.02385587	      4.49609918	-581305.69533675	     -0.18560550	     -0.05147542	     -0.05206438	     -0.03037901	     -0.02336905	      0.16703839	     -0.32415419	      0.20466835	     -0.39304068
      7.32500000	  -9972.01479145	-1198380.53620245	  38210.67010922	    -57.52001401	   1213.07508788	   1214.86601414	 -57392.58995986	-519355.04407215	1055293.04702155	     26.17505541	    -17.28163242	      1.15600935	    158.77230535	     -9.46757511	     -4.43270285	-356586.26801520	     -0.02307590	      7.06925182	     -0.02889551	     -2.88199176	     -8.71834730	      1.12251895	     -2.83554894	     -8.23424187	      1.29473817	 302413.85863214	      0.80642407	      3.99832845	      4.51264240	-590149.66584255	     -0.22577543	     -0.05211517	     -0.05223590	     -0.02448540	     -0.01702767	      0.17020270	     -0.31970257	      0.21565360	     -0.39422746
      7.33000000	  -1173.96388236	-1217389.80250708	  48980.13199081	    -42.76646469	   1229.34066247	   1230.72116989	 -45834.31749826	-547149.70456191	1060619.91832323	     25.71289517	    -19.69329068	      1.95565117	    150.25461020	     -9.97075573	     -6.01680098	-376707.88982849	     -0.02317100	      6.79239986	     -0.03040892	     -2.86817294	     -8.90760640	      1.14805238	     -2.60566005	     -8.11246057	      1.29874536	 321155.64199389	      0.76194153	      3.97019186	      4.53422556	-599810.00353600	     -0.26645680	     -0.05260177	     -0.05264272	     -0.01763687	     -0.00997201	      0.17393056	     -0.31496153	      0.22615890	     -0.39597234
      7.33500000	   7679.89155593	-1237792.51189484	  60268.03490533	    -26.82435035	   1246.86374396	   1248.88148684	 -34157.22057964	-576990.49054014	1066045.34263017	     25.26841605	    -21.99056100	      2.77408839	    141.50174596	    -10.37506999	     -7.53227188	-398157.20881061	     -0.02351226	      6.43932446	     -0.03212070	     -2.85223953	     -9.08188169	      1.17529783	     -2.35715959	     -7.97366294	      1.29385989	 341009.72412096	      0.71227710	      3.94091926	      4.56312356	-610562.75165092	     -0.30660728	     -0.05297567	     -0.05339722	     -0.00987503	     -0.00229003	      0.17815648	     -0.31020481	      0.23591118	     -0.39862414
      7.34000000	  16287.40454063	-1257989.70807428	  71993.56719953	    -10.09988615	   1265.75872887	   1267.98647050	 -22649.24351491	-608222.60225855	1070147.27496825	     24.82874898	    -24.11663744	      3.59190512	    132.58064868	    -10.66078203	     -8.93738193	-420172.12042196	     -0.02408581	      6.02286627	     -0.03394630	     -2.83160354	     -9.23602013	      1.20272121	     -2.09160601	     -7.82054826	      1.27867209	 361267.17154428	      0.65845852	      3.91202549	      4.60112990	-621752.11534502	     -0.34517532	     -0.05328221	     -0.05459150	     -0.00128760	      0.00588677	      0.18280485	     -0.30572124	      0.24468138	     -0.40247767
      7.34500000	  24449.34466832	-1276524.30449351	  84060.44406040	      6.99463079	   1286.11663131	   1286.85724592	 -11522.77132665	-640125.11419351	1071669.68483181	     24.36970755	    -26.03923646	      4.40153724	    123.54814830	    -10.81081479	    -10.19417462	-442085.14104769	     -0.02497367	      5.56339064	     -0.03588570	     -2.80393062	     -9.36488009	      1.22882687	     -1.81129022	     -7.65619420	      1.25232905	 381310.24964602	      0.60237829	      3.88505178	      4.64934253	-632775.36414616	     -0.38204835	     -0.05356998	     -0.05628954	      0.00799450	      0.01438733	      0.18779618	     -0.30181074	      0.25229297	     -0.40774496
      7.35000000	  32615.92204283	-1293968.27703408	  96312.47017930	     24.41833612	   1307.47294896	   1306.22970648	   -417.88872173	-673058.14982037	1070865.88713272	     23.86324498	    -27.73691502	      5.19686814	    114.44898826	    -10.81176594	    -11.26946318	-464494.30278843	     -0.02626830	      5.08766275	     -0.03792898	     -2.76723264	     -9.46341343	      1.25223626	     -1.51920748	     -7.48397534	      1.21458373	 401699.06936749	      0.54674339	      3.86154155	      4.70801549	-644136.53201338	     -0.41744798	     -0.05388823	     -0.05852222	      0.01778729	      0.02298990	      0.19305579	     -0.29877757	      0.25862512	     -0.41453504
      7.35500000	  41103.74150396	-1310803.29805090	 108651.30572117	     41.96272749	   1329.29153426	   1326.73151869	  10899.99849800	-707310.75633249	1067937.68065314	     23.27970433	    -29.20169249	      5.97402956	    105.31541144	    -10.65500651	    -12.13563043	-487845.35829139	     -0.02803520	      4.62767187	     -0.04006232	     -2.71997185	     -9.52683044	      1.27178347	     -1.21899891	     -7.30741082	      1.16580005	 422840.52843718	      0.49515463	      3.84298493	      4.77649457	-656284.91614277	     -0.45201235	     -0.05428263	     -0.06128498	      0.02784923	      0.03141965	      0.19852374	     -0.29691850	      0.26361249	     -0.42284503
      7.36000000	  49050.56762393	-1325082.51567087	 121123.34375269	     58.42095659	   1351.40396469	   1346.77618083	  21551.48123396	-741537.41447147	1061588.38117983	     22.59047697	    -30.43881135	      6.73064250	     96.16855723	    -10.33757479	    -12.77120571	-510626.89323622	     -0.03033323	      4.21885996	     -0.04227932	     -2.66121545	     -9.55081051	      1.28663280	     -0.91491407	     -7.12997055	      1.10693790	 443263.15377244	      0.45208078	      3.83072673	      4.85322699	-668273.85829891	     -0.48675966	     -0.05478915	     -0.06453743	      0.03788060	      0.03934944	      0.20416586	     -0.29650572	      0.26724382	     -0.43256072
      7.36500000	  55727.02946407	-1335238.27056918	 133754.54168416	     72.77533767	   1373.70962478	   1365.05229563	  30766.79476761	-774452.73717289	1050931.19466279	     21.77123155	    -31.46303915	      7.46360051	     87.02178766	     -9.86277162	    -13.16134562	-531524.00438532	     -0.03321269	      3.89777192	     -0.04458360	     -2.59086770	     -9.53171020	      1.29642108	     -0.61179078	     -6.95489193	      1.03952600	 461684.89186534	      0.42270256	      3.82585353	      4.93581263	-679332.61073322	     -0.52293228	     -0.05542633	     -0.06820409	      0.04752482	      0.04640566	      0.20998562	     -0.29776553	      0.26955905	     -0.44346142
      7.37000000	  62114.35154491	-1343712.84087577	 146633.81233406	     85.79026060	   1396.12018416	   1383.71481302	  39405.16572605	-807302.98545387	1037722.92020873	     20.80594758	    -32.29245664	      8.16623684	     77.88548808	     -9.24055006	    -13.29830698	-552232.37258218	     -0.03672564	      3.69909599	     -0.04699058	     -2.50990223	     -9.46675445	      1.30137747	     -0.31502050	     -6.78504485	      0.96561977	 479673.53998992	      0.41263962	      3.82908333	      5.02107804	-690850.49092412	     -0.56176881	     -0.05618840	     -0.07217613	      0.05637251	      0.05217909	      0.21603221	     -0.30085680	      0.27064513	     -0.45522620
      7.37500000	  69245.47777625	-1353059.55709234	 159964.56729226	     98.38945015	   1418.47446021	   1404.94153843	  48403.10113600	-841563.36366690	1023678.36283856	     19.70540979	    -32.91908393	      8.81251853	     68.77230616	     -8.48743514	    -13.18170060	-574561.84500067	     -0.04139908	      3.65140812	     -0.04970548	     -2.42046464	     -9.35418955	      1.30235333	     -0.03049256	     -6.62288336	      0.88774825	 498936.39422299	      0.42741835	      3.84067500	      5.10518368	-704294.81152281	     -0.60337180	     -0.05704170	     -0.07631414	      0.06394934	      0.05623015	      0.22239865	     -0.30585359	      0.27063131	     -0.46744289
      7.38000000	  76624.96024041	-1362259.23949805	 173932.93535017	    109.95567213	   1440.39479740	   1427.93599758	  57248.69697785	-876347.50274256	1008293.89387699	     18.49113819	    -33.33535978	      9.37615325	     59.70167831	     -7.62556264	    -12.81828617	-597585.41815985	     -0.04708679	      3.77518003	     -0.05294788	     -2.32579130	     -9.19338870	      1.30074383	      0.23549127	     -6.47049277	      0.80884554	 518612.63499373	      0.47228822	      3.86035837	      5.18377084	-719172.54600454	     -0.64777334	     -0.05792505	     -0.08045258	      0.06978412	      0.05812339	      0.22920880	     -0.31273443	      0.26968392	     -0.47962120
      7.38500000	  83521.72210844	-1369564.45317317	 188531.83436319	    119.67282565	   1461.47691655	   1450.99450677	  65204.30254401	-910243.49585597	 990650.32840108	     17.19129971	    -33.54001514	      9.83554215	     50.70281358	     -6.68088171	    -12.22136161	-619847.89732481	     -0.05386795	      4.07951310	     -0.05672332	     -2.22998027	     -8.98493675	      1.29833405	      0.47637098	     -6.32967708	      0.73214486	 537373.92711265	      0.55180243	      3.88727505	      5.25213378	-734649.23856070	     -0.69512761	     -0.05875296	     -0.08440605	      0.07337830	      0.05745602	      0.23659715	     -0.32137650	      0.26799807	     -0.49120970
      7.39000000	  89859.85445230	-1373967.59398033	 203216.88246626	    127.19254780	   1481.58009287	   1472.38437424	  72172.87288879	-942573.16982643	 969924.58267802	     15.86542520	    -33.49902086	     10.15325089	     41.81590189	     -5.68099330	    -11.40996021	-640730.31785051	     -0.06179968	      4.55805588	     -0.06113885	     -2.13766460	     -8.73068601	      1.29710321	      0.68556610	     -6.20201183	      0.66102929	 554813.48449373	      0.66905608	      3.91992628	      5.30539664	-750589.73621125	     -0.74411577	     -0.05942068	     -0.08797712	      0.07424405	      0.05386690	      0.24468477	     -0.33155292	      0.26578550	     -0.50161471
      7.39500000	  95741.25327895	-1374946.93025200	 217446.66071241	    132.51418920	   1500.22117526	   1490.73024259	  78244.27310399	-972875.80537180	 945634.36946420	     14.59386409	    -33.16289695	     10.28884918	     33.09170313	     -4.65298118	    -10.40798013	-659915.56418909	     -0.07067545	      5.18782985	     -0.06629296	     -2.05363408	     -8.43372128	      1.29901438	      0.85675926	     -6.08882966	      0.59886458	 570826.49071388	      0.82538431	      3.95614437	      5.33868342	-767020.10863354	     -0.79253330	     -0.05981064	     -0.09096478	      0.07191443	      0.04706886	      0.25355487	     -0.34293359	      0.26326065	     -0.51021929
      7.40000000	 101237.28622436	-1373025.86384003	 231328.86125297	    136.25500520	   1515.54032175	   1506.58777454	  83490.78363560	-1001059.93364447	 918459.28177276	     13.50121765	    -32.40977236	     10.17442562	     24.58965598	     -3.62135579	     -9.24326358	-677379.45646476	     -0.07933895	      5.93042060	     -0.07188560	     -1.98246881	     -8.09820406	      1.30582598	      0.98419411	     -5.99116712	      0.54883684	 585534.77764733	      1.01952680	      3.99311545	      5.34727566	-784093.54318068	     -0.83510809	     -0.05979967	     -0.09317279	      0.06598401	      0.03684404	      0.26323281	     -0.35509171	      0.26062745	     -0.51640106
      7.40500000	 106516.89261487	-1368813.66015969	 245018.59500024	    139.02231484	   1525.27505480	   1520.59936595	  88097.72902812	-1027139.29516887	 889140.43542655	     12.70102530	    -31.16280727	      9.77645286	     16.37465802	     -2.60663551	     -7.94662954	-693270.10851769	     -0.08742203	      6.73141926	     -0.07711605	     -1.92820859	     -7.72915399	      1.31894263	      1.06299447	     -5.90971019	      0.51378887	 599192.00579363	      1.24832861	      4.02746315	      5.32675722	-801936.82750338	     -0.86766536	     -0.05926651	     -0.09441814	      0.05621512	      0.02311591	      0.27367325	     -0.36751706	      0.25806612	     -0.51955010
      7.41000000	 112223.50088495	-1362338.81979940	 258170.92631933	    141.17377336	   1526.87265454	   1531.50797726	  92742.62063585	-1050958.90083639	 857595.39434360	     12.28138114	    -29.40845588	      9.10094579	      8.51287954	     -1.62570338	     -6.55095257	-707947.25290899	     -0.09450066	      7.52271594	     -0.08179142	     -1.89402680	     -7.33226257	      1.33929680	      1.08951392	     -5.84471468	      0.49604101	 612350.74733395	      1.50656293	      4.05537584	      5.27315244	-820478.14545959	     -0.88764752	     -0.05809953	     -0.09453975	      0.04248879	      0.00598079	      0.28475352	     -0.37963391	      0.25571864	     -0.51908970
      7.41500000	 118759.17641575	-1353367.04770648	 270374.88000508	    142.95076427	   1518.13119091	   1537.50199451	  97881.81548704	-1072129.44563319	 823647.86679380	     12.33157469	    -27.11425206	      8.15516281	      1.06716196	     -0.69440943	     -5.09039277	-721406.39600490	     -0.10084370	      8.23127727	     -0.08563990	     -1.88190989	     -6.91375827	      1.36726050	      1.06167588	     -5.79587310	      0.49721382	 625235.96500153	      1.78616102	      4.07276341	      5.18306603	-839383.04424832	     -0.89109844	     -0.05620394	     -0.09340714	      0.02483258	     -0.01431351	      0.29627256	     -0.39082156	      0.25367491	     -0.51450113
      7.42000000	 125078.06910307	-1341078.41725637	 281428.51245889	    144.00009078	   1498.67988299	   1537.24524149	 102553.34440092	-1089569.88002489	 787438.57153020	     12.96183411	    -24.16245037	      6.92562415	     -5.90742142	      0.16858772	     -3.59967252	-731990.71342243	     -0.10777387	      8.77939539	     -0.08910049	     -1.89238972	     -6.48026418	      1.40259675	      0.97920517	     -5.76217805	      0.51810649	 636478.41021757	      2.07592193	      4.07543783	      5.05381910	-857780.99019120	     -0.87047175	     -0.05350820	     -0.09092762	      0.00351299	     -0.03737910	      0.30795591	     -0.40043721	      0.25196475	     -0.50534940
      7.42500000	 129982.89197198	-1324804.70229333	 291120.34356377	    143.75114685	   1468.48540243	   1529.56494116	 105658.05612260	-1102287.42064536	 749314.69891698	     14.18166294	    -20.59672537	      5.47994983	    -12.36720214	      0.93807715	     -2.11321607	-738077.06091850	     -0.11513394	      9.11028181	     -0.09334407	     -1.92437032	     -6.03860404	      1.44445115	      0.84367510	     -5.74182905	      0.55866390	 644616.68932166	      2.36346964	      4.05929692	      4.88356010	-874791.90235987	     -0.82339223	     -0.04996894	     -0.08705079	     -0.02094488	     -0.06260045	      0.31946503	     -0.40783922	      0.25055765	     -0.49130519
      7.43000000	 133105.78255670	-1305081.69739075	 299143.25230425	    141.90081789	   1426.92296962	   1513.75504920	 106914.03636026	-1110439.75303994	 709876.92070417	     15.91629508	    -16.56496914	      3.92791095	    -18.28210891	      1.57952321	     -0.66418591	-739407.79007468	     -0.12196418	      9.18994375	     -0.09824148	     -1.97509163	     -5.59551560	      1.49138175	      0.65837032	     -5.73217591	      0.61802643	 649450.58959635	      2.63529587	      4.02050591	      4.67133994	-890317.54621790	     -0.75090375	     -0.04557491	     -0.08176999	     -0.04783396	     -0.08915661	      0.33040953	     -0.41241018	      0.24936913	     -0.47216026
      7.43500000	 134169.56056922	-1281601.22710831	 305037.83696156	    138.23306010	   1373.38369031	   1488.53441964	 106152.98483094	-1113491.03902256	 669216.62241202	     18.07193365	    -12.16390964	      2.35801141	    -23.63619709	      2.04799841	      0.71636092	-735373.18804996	     -0.12369722	      9.00980406	     -0.10327472	     -2.04027530	     -5.15725443	      1.54143191	      0.42799511	     -5.72971343	      0.69465804	 650510.66762950	      2.87642790	      3.95569077	      4.41716683	-903579.33381560	     -0.65239417	     -0.04034982	     -0.07512093	     -0.07630204	     -0.11610003	      0.34036265	     -0.41358175	      0.24827464	     -0.44783765
      7.44000000	 132423.05564701	-1249496.40583276	 307622.02608032	    132.22023233	   1307.71346097	   1449.87346890	 102848.33716041	-1106746.30509739	 625529.94801928	     20.57440611	     -7.34628160	      0.81456057	    -28.42666494	      2.28933238	      1.99998814	-722821.34579156	     -0.12175040	      8.60332757	     -0.10426409	     -2.11446470	     -4.72918010	      1.59225018	      0.15827345	     -5.73015710	      0.78654168	 644908.22583941	      3.07107604	      3.86212294	      4.12205029	-910195.41740438	     -0.52289674	     -0.03435336	     -0.06717739	     -0.10505881	     -0.14245891	      0.34888011	     -0.41085903	      0.24713125	     -0.41839701
      7.44500000	 127241.12486384	-1204525.17658367	 305749.39380543	    123.16057843	   1230.32744073	   1393.78475869	  96614.88904914	-1085849.00640917	 577718.02647428	     23.10546426	     -2.52849567	     -0.53101745	    -32.66154849	      2.24373015	      3.16109520	-699086.57903959	     -0.11641853	      8.01454789	     -0.10241019	     -2.19157798	     -4.31541149	      1.64127568	     -0.14447471	     -5.72859002	      0.89139383	 630001.76131093	      3.20611432	      3.73787769	      3.78802358	-905821.60227456	     -0.37402103	     -0.02767926	     -0.05804544	     -0.13282054	     -0.16691557	      0.35552469	     -0.40384218	      0.24580144	     -0.38403503
      7.45000000	 118989.18398756	-1149314.45116562	 299622.87445583	    111.21416669	   1142.23675342	   1322.23993003	  87886.16277655	-1052702.67236105	 527760.52532169	     25.41808276	      2.06879225	     -1.59906892	    -36.35649784	      1.85216339	      4.17709944	-665804.26152509	     -0.11189835	      7.32797226	     -0.09789551	     -2.26568622	     -3.91852673	      1.68600351	     -0.47369626	     -5.71965864	      1.00684330	 606969.31641441	      3.26965071	      3.58199345	      3.41815677	-891245.25515520	     -0.21201070	     -0.02044983	     -0.04785788	     -0.15835148	     -0.18826709	      0.35990025	     -0.39224921	      0.24417313	     -0.34508330
      7.45500000	 108160.49229103	-1086494.02513170	 289687.41407308	     96.33325683	   1044.87410756	   1238.52079325	  77184.64041193	-1009451.56021696	 477434.71623631	     27.35575912	      6.38645386	     -2.37562583	    -39.53123439	      1.06535994	      5.02872427	-624864.65293415	     -0.10670826	      6.64292755	     -0.09334822	     -2.33186466	     -3.53932045	      1.72426512	     -0.82286324	     -5.69780963	      1.13055471	 577184.75872387	      3.25203150	      3.39461942	      3.01658864	-867543.44186196	     -0.03894685	     -0.01280901	     -0.03676978	     -0.18034341	     -0.20544943	      0.36168785	     -0.37594049	      0.24217489	     -0.30200819
      7.46000000	  94900.68408640	-1012464.96489231	 275453.21912935	     78.07762953	    939.74149012	   1141.24514783	  64828.38426914	-952517.17661510	 426184.66766748	     28.62752664	     10.11125904	     -2.81203438	    -42.20616782	     -0.14591292	      5.70022537	-574946.50869065	     -0.10052230	      6.07544675	     -0.08876181	     -2.38687479	     -3.17671902	      1.75442267	     -1.18562817	     -5.65755624	      1.26030785	 538948.99832345	      3.14958210	      3.17707877	      2.58856332	-830823.78140893	      0.13257284	     -0.00491572	     -0.02495481	     -0.19774490	     -0.21746062	      0.36066950	     -0.35493724	      0.23978739	     -0.25541101
      7.46500000	  79354.59060407	-923153.51949762	 255964.03748783	     56.25506984	    828.99853174	   1027.79168602	  51126.19939622	-877923.42889440	 373137.81796334	     29.03312058	     13.02338252	     -2.91742133	    -44.39957396	     -1.78105403	      6.17941478	-514645.96456889	     -0.09214101	      5.72794535	     -0.08344370	     -2.42961871	     -2.82789704	      1.77547707	     -1.55591189	     -5.59374606	      1.39404916	 490349.50651331	      2.96355380	      2.93183160	      2.14042966	-776870.75753015	      0.29162833	      0.00306236	     -0.01260172	     -0.20986275	     -0.22359241	      0.35673902	     -0.32942941	      0.23705072	     -0.20602332
      7.47000000	  61533.87683007	-817047.23717962	 229680.00585486	     31.06903726	    716.58693941	    894.92150380	  36134.96283507	-784285.58824207	 317346.08225363	     28.50220587	     15.05927140	     -2.75248366	    -46.12576303	     -3.80179799	      6.45762004	-443926.01847057	     -0.08157941	      5.67773257	     -0.07694445	     -2.46140610	     -2.48857498	      1.78714316	     -1.92795494	     -5.50177476	      1.52991757	 430634.40413282	      2.70010593	      2.66238008	      1.67959566	-704036.59361185	      0.43144849	      0.01095608	      0.00008858	     -0.21629598	     -0.22353479	      0.34990848	     -0.29977481	      0.23406630	     -0.15469676
      7.47500000	  42305.73646654	-692538.91519415	 196124.74455145	      3.99292137	    605.79132255	    742.69713750	  20711.77658853	-670034.72825962	 258586.96968072	     27.08591684	     16.31266506	     -2.40612999	    -47.39451274	     -6.12783876	      6.52974428	-363584.03619247	     -0.07060337	      5.96944768	     -0.06807437	     -2.48593537	     -2.15353720	      1.78987445	     -2.29633565	     -5.37769287	      1.66623702	 359692.13993428	      2.37005631	      2.37311411	      1.21445256	-610205.13895821	      0.54984907	      0.01860314	      0.01290493	     -0.21699507	     -0.21742690	      0.34030960	     -0.26648839	      0.23099286	     -0.10239059
      7.48000000	  27712.47974871	-553592.22238912	 158803.30949387	    -19.34488710	    494.99887162	    583.93632919	  10644.75703548	-539069.34699970	 200098.99137713	     24.76410676	     16.58203359	     -1.92880944	    -48.21178035	     -8.63752828	      6.39439664	-281450.15008618	     -0.05974244	      6.58939342	     -0.05885391	     -2.50887749	     -1.81741534	      1.78479009	     -2.65594997	     -5.21822215	      1.80147365	 284377.05742992	      1.99112241	      2.06907192	      0.75426093	-496954.91007050	      0.63464474	      0.02585623	      0.02562707	     -0.21239083	     -0.20566130	      0.32818361	     -0.23021852	      0.22803648	     -0.05015774
      7.48500000	  22821.98779911	-415034.87153157	 122035.96682083	    -35.07917879	    382.35917032	    432.18608203	  10361.99320584	-406378.71750408	 146443.01213597	     21.69647627	     15.96356657	     -1.40534875	    -48.58152165	    -11.17452531	      6.05406368	-209651.50306950	     -0.04941635	      7.49083152	     -0.04974932	     -2.53711748	     -1.47561791	      1.77350610	     -3.00193873	     -5.02073855	      1.93414919	 216174.37217138	      1.58293032	      1.75565285	      0.30896188	-377098.53339498	      0.68412216	      0.03258928	      0.03802664	     -0.20326140	     -0.18913236	      0.31385996	     -0.19171404	      0.22543250	      0.00087325
      7.49000000	  20224.04288123	-294141.30589892	  87473.42764125	    -51.82127458	    270.49458719	    289.98077535	  11770.66487392	-289442.95905062	 100482.13093598	     18.09206839	     14.60211020	     -0.90588137	    -48.50828999	    -13.55999781	      5.51547935	-150108.87275099	     -0.03991712	      8.58977008	     -0.04108838	     -2.57777531	     -1.12517784	      1.75789397	     -3.32955180	     -4.78325279	      2.06269895	 157453.93621460	      1.16671768	      1.43835834	     -0.11112079	-269603.98721226	      0.69918903	      0.03870028	      0.04986800	     -0.19063846	     -0.16903709	      0.29772782	     -0.15179071	      0.22341681	      0.04952457
      7.49500000	  10752.47892779	-184392.71167860	  54876.05792063	    -76.67251166	    164.25094933	    159.82979171	   5782.54204273	-182063.45673459	  61379.98255756	     14.17887370	     12.65754324	     -0.47915876	    -48.00011132	    -15.60903794	      4.79035709	 -91103.11797511	     -0.03125821	      9.77515924	     -0.03315490	     -2.63710722	     -0.76537767	      1.73978709	     -3.63403712	     -4.50442462	      2.18532409	  97459.17804785	      0.76360380	      1.12259756	     -0.49568989	-171226.11725451	      0.68258403	      0.04411002	      0.06091031	     -0.17570118	     -0.14674603	      0.28020333	     -0.11130098	      0.22219132	      0.09460635
      7.50000000	    854.38011353	 -87426.89217040	  28176.51454881	    -98.41215674	     73.69874229	     55.93509441	  -1293.06961814	 -86372.19747626	  31054.88624459	     10.18923974	     10.30734850	     -0.15287301	    -47.07085920	    -17.14951540	      3.89638728	 -38365.47283510	     -0.02358994	     10.92390635	     -0.02597161	     -2.71942455	     -0.39811448	      1.72067810	     -3.91069734	     -4.18364815	      2.29992580	  42542.12594154	      0.39270400	      0.81355415	     -0.83496310	 -82673.18625319	      0.63907747	      0.04875817	      0.07091284	     -0.15963129	     -0.12367407	      0.26169694	     -0.07110560	      0.22189441	      0.13496474
      7.50500000	   1227.77095151	 -31778.94564147	  11698.17785553	   -105.82870644	      6.30205366	     -8.66375133	    550.66540561	 -31431.64168060	  12417.77160360	      6.32861749	      7.69771316	      0.06566620	    -45.74122572	    -18.04140297	      2.85816649	 -14343.32316460	     -0.01697695	     11.91401706	     -0.01961394	     -2.82618432	     -0.02800292	      1.70145788	     -4.15511332	     -3.82117522	      2.40413119	  16177.78641316	      0.06997224	      0.51609889	     -1.12019296	 -29993.45522292	      0.57373795	      0.05259876	      0.07964323	     -0.14350902	     -0.10113643	      0.24258569	     -0.03204558	      0.22257986	      0.16953629
      7.51000000	   1560.48170767	  -5768.98595805	   2198.51256317	   -105.92911392	    -45.04229842	    -36.61420149	   1479.85635810	  -5719.92334532	   2147.25485873	      2.76413421	      4.93248466	      0.18374389	    -44.03787799	    -18.19407478	      1.70775955	  -3797.62702843	     -0.01140166	     12.63759363	     -0.01416144	     -2.95533552	      0.33777150	      1.68220979	     -4.36339659	     -3.41821070	      2.49534800	   4084.57344874	     -0.19267296	      0.23473731	     -1.34416851	  -5162.20787776	      0.49127539	      0.05559531	      0.08688647	     -0.12822658	     -0.08024609	      0.22319089	      0.00508352	      0.22420020	      0.19740159
      7.51500000	    232.74944518	    307.76100220	   -136.96046634	   -107.68243136	    -89.10834936	    -36.25876742	    267.08296015	    323.74611673	   -170.17737126	     -0.37829923	      2.07809464	      0.21707462	    -41.99120561	    -17.57867590	      0.48466546	    -93.00215860	     -0.00678460	     13.01092528	     -0.00963537	     -3.10100993	      0.68986764	      1.66207268	     -4.53236929	     -2.97698379	      2.57081832	     57.67949991	     -0.38780906	     -0.02640532	     -1.50165705	    378.22739085	      0.39581373	      0.05771536	      0.09245362	     -0.11443950	     -0.06184976	      0.20376120	      0.03955041	      0.22659435	      0.21783362
      7.52000000	    -20.42135267	    -28.18702243	     -2.78493018	   -109.42338567	   -125.73966070	    -22.65968629	      6.27127768	     -9.03465186	     -1.04475298	     -3.01392641	     -0.82862715	      0.18487451	    -39.63250565	    -16.23347343	     -0.76515332	      6.44823197	     -0.00301242	     12.98048452	     -0.00600314	     -3.25374528	      1.01750842	      1.63924651	     -4.65964685	     -2.50086405	      2.62768934	      0.29664688	     -0.51253857	     -0.26356549	     -1.58977345	      0.01626466	      0.29074814	      0.05892635	      0.09619089	     -0.10255593	     -0.04649739	      0.18446804	      0.07069996	      0.22948360	      0.23034120
      7.52500000	    -13.92037092	      7.52184677	    -17.91844366	   -107.77661499	   -153.14365946	     -9.50689269	     10.72856680	     21.13517543	    -17.44206264	     -5.09536302	     -3.76591037	      0.10636651	    -36.99141371	    -14.26140070	     -1.99140806	     12.93944785	      0.00003593	     12.52523405	     -0.00319074	     -3.40133913	      1.30946189	      1.61119624	     -4.74362983	     -1.99453426	      2.66312051	    -10.81227798	     -0.56823329	     -0.47331284	     -1.60826113	     36.60948860	      0.17888530	      0.05919505	      0.09798942	     -0.09275545	     -0.03444351	      0.16541790	      0.09796213	      0.23247897	      0.23470771
      7.53000000	    -20.13153102	    -25.52067170	     -2.91903508	   -102.87733574	   -171.14417053	      1.75837973	      1.74021352	    -17.62229818	     -1.12267371	     -6.60696842	     -6.71004729	     -0.00125567	    -34.09416967	    -11.81995079	     -3.14257736	      3.93163238	      0.00247055	     11.65564298	     -0.00109792	     -3.53015087	      1.55513697	      1.57499850	     -4.78343608	     -1.46411096	      2.67442901	      0.39177668	     -0.56004785	     -0.65254687	     -1.55961191	     -0.28242718	      0.06276162	      0.05849004	      0.09779415	     -0.08502640	     -0.02567516	      0.14667492	      0.12086005	      0.23510184	      0.23101688
      7.53500000	    -18.37956291	    -18.76830116	     -3.65454982	    -95.62423685	   -180.26039614	     12.36189077	      0.96973182	    -17.40327722	     -2.10444939	     -7.55845070	     -9.62042767	     -0.12381268	    -30.96315836	     -9.10454508	     -4.16952257	      3.13502436	      0.00438100	     10.40984088	      0.00038819	     -3.62656050	      1.74562117	      1.52773343	     -4.77880745	     -0.91709087	      2.65926261	     -0.40985015	     -0.49621138	     -0.79856596	     -1.44895271	      2.38274355	     -0.05500389	      0.05678638	      0.09560978	     -0.07921276	     -0.01996189	      0.12828304	      0.13902061	      0.23681759	      0.21965586
      7.54000000	    -17.01225702	    -16.63223177	     -2.38889151	    -86.21610440	   -181.82072204	     21.65126886	     -0.33453580	    -21.84300084	     -0.96543477	     -7.97818263	    -12.43029808	     -0.25062055	    -27.61807985	     -6.32733090	     -5.02920939	      0.92687311	      0.00583398	      8.84759933	      0.00138267	     -3.67840382	      1.87450985	      1.46687598	     -4.72997975	     -0.36211231	      2.61576681	      0.57872998	     -0.38714223	     -0.90924434	     -1.28371588	     -0.47015353	     -0.17145094	      0.05407267	      0.09150269	     -0.07506420	     -0.01691915	      0.11028396	      0.15219218	      0.23707689	      0.20129499
      7.54500000	    -14.32104798	    -10.85110337	     -1.99824868	    -74.78564617	   -177.28090911	     28.81092820	     -0.51492121	    -22.40916428	     -0.91393772	     -7.90721045	    -15.04540447	     -0.37478817	    -24.07883919	     -3.69389744	     -5.68803960	     -0.63861731	      0.00687591	      7.04333908	      0.00199527	     -3.67628860	      1.93840716	      1.39067874	     -4.63749177	      0.19139672	      2.54270312	      0.64735101	     -0.24451013	     -0.98330767	     -1.07316754	     -0.35934460	     -0.28318898	      0.05036113	      0.08559862	     -0.07228369	     -0.01607178	      0.09273292	      0.16027012	      0.23535601	      0.17685007
      7.55000000	    -10.98189005	     -5.25082156	     -1.25841617	    -61.74174420	   -167.83047174	     33.79261118	     -0.27056789	    -22.49916494	     -0.59280012	     -7.39505652	    -17.35080455	     -0.49335003	    -20.36969756	     -1.38082739	     -6.12428761	     -2.24413761	      0.00753819	      5.07931606	      0.00232521	     -3.61467741	      1.93706420	      1.29851923	     -4.50198977	      0.73362921	      2.43951529	      0.80204015	     -0.08035886	     -1.02063455	     -0.82786055	     -0.56750225	     -0.38650123	      0.04569934	      0.07807663	     -0.07056744	     -0.01690808	      0.07571463	      0.16332267	      0.23119181	      0.14743292
      7.55500000	     -7.03747702	     -0.03859754	     -0.51545111	    -47.57730093	   -154.51265314	     36.83668558	      0.36547096	    -21.96675640	     -0.35513388	     -6.49753607	    -19.22442587	     -0.60710734	    -16.52380321	      0.48301435	     -6.32938997	     -3.78281407	      0.00784334	      3.03960173	      0.00245765	     -3.49256997	      1.87323936	      1.19113707	     -4.32413660	      1.25483817	      2.30638742	      0.90450045	      0.09366680	     -1.02247233	     -0.55906930	     -0.57342777	     -0.47762494	      0.04017972	      0.06916159	     -0.06963328	     -0.01892215	      0.05935598	      0.16160427	      0.22421319	      0.11429663
      7.56000000	     -2.66493509	      4.11003801	      0.30009255	    -32.75543183	   -138.29670743	     38.17867065	      1.25288549	    -21.22672429	     -0.10759829	     -5.27611033	    -20.55460594	     -0.72000545	    -12.58732117	      1.82897124	     -6.30802838	     -5.26225547	      0.00781085	      1.00515657	      0.00246168	     -3.31363912	      1.75239255	      1.07068352	     -4.10468138	      1.74574724	      2.14432410	      1.01971648	      0.26695973	     -0.99150250	     -0.27825603	     -0.61194820	     -0.55314767	      0.03394326	      0.05911674	     -0.06923566	     -0.02164476	      0.04382912	      0.15554920	      0.21417079	      0.07878105
      7.56500000	      1.98916091	      6.99359549	      1.16478673	    -17.73784597	   -120.03946227	     38.11646728	      2.30874026	    -20.34353934	      0.14061039	     -3.79804091	    -21.25816802	     -0.83793210	     -8.62254824	      2.65300007	     -6.07692081	     -6.61339925	      0.00746246	     -0.94986981	      0.00238955	     -3.08580360	      1.58225158	      0.94057817	     -3.84468510	      2.19787671	      1.95523804	      1.11715342	      0.43041557	     -0.93177116	      0.00340415	     -0.62433697	     -0.61043076	      0.02717700	      0.04823596	     -0.06916856	     -0.02466242	      0.02934382	      0.14575052	      0.20096134	      0.04225962
      7.57000000	      6.72768451	      8.48250638	      2.05113386	     -2.99145170	   -100.48108743	     37.01989562	      3.43112541	    -19.44057431	      0.38390555	     -2.13655829	    -21.29571291	     -0.96703128	     -4.70911665	      3.01123887	     -5.66239916	     -7.79919760	      0.00682658	     -2.76067370	      0.00227754	     -2.82032180	      1.37224252	      0.80521647	     -3.54586764	      2.60379040	      1.74201274	      1.19943328	      0.57670306	     -0.84851603	      0.27543244	     -0.62984281	     -0.64797133	      0.02010710	      0.03683496	     -0.06925916	     -0.02762559	      0.01613259	      0.13293086	      0.18464253	      0.00608685
      7.57500000	     11.33917025	      8.64754642	      2.91805676	     11.04214515	    -80.28320010	     35.24465876	      4.52747401	    -18.57320833	      0.60522311	     -0.37049193	    -20.68140920	     -1.11185029	     -0.94220220	      3.00747254	     -5.09727345	     -8.78236346	      0.00594159	     -4.37331612	      0.00214803	     -2.53050076	      1.13283276	      0.66955049	     -3.21100671	      2.95729139	      1.50851842	      1.26595981	      0.70034797	     -0.74788655	      0.52838688	     -0.63029755	     -0.66563368	      0.01298727	      0.02524118	     -0.06935621	     -0.03024841	      0.00442944	      0.11790476	      0.16543632	     -0.02845306
      7.58000000	     15.61124337	      7.73906683	      3.73180220	     23.96817716	    -60.06115736	     33.07167029	      5.51868569	    -17.73123113	      0.79692029	      1.41694150	    -19.48543298	     -1.27372843	      2.57270260	      2.77465058	     -4.41763874	     -9.52436684	      0.00485750	     -5.74540738	      0.00201282	     -2.23017029	      0.87490017	      0.53857371	     -2.84429057	      3.25355754	      1.25956650	      1.31369940	      0.79766385	     -0.63655326	      0.75413008	     -0.62525775	     -0.66470532	      0.00608249	      0.01378315	     -0.06931718	     -0.03230339	     -0.00555762	      0.10153094	      0.14372128	     -0.06019431
      7.58500000	     19.34026335	      6.13128328	      4.45811930	     35.44573306	    -40.40058149	     30.68909164	      6.33869275	    -16.86017803	      0.95324860	      3.14045491	    -17.82843685	     -1.44980396	      5.72786843	      2.45352980	     -3.66005310	     -9.99091736	      0.00363560	     -6.84620350	      0.00187703	     -1.93215980	      0.60917034	      0.41679419	     -2.45153299	      3.48920633	      1.00078615	      1.33863175	      0.86657499	     -0.52125441	      0.94602227	     -0.61115783	     -0.64776205	     -0.00034977	      0.00277948	     -0.06899822	     -0.03361463	     -0.01367487	      0.08465973	      0.12001365	     -0.08813205
      7.59000000	     22.34173938	      4.25189355	      5.06083010	     45.19276247	    -21.86458604	     28.18825759	      6.93330215	    -15.88842573	      1.06885035	      4.71628387	    -15.86881957	     -1.63287923	      8.42310102	      2.17152134	     -2.85938761	    -10.15773398	      0.00234617	     -7.65635139	      0.00174276	     -1.64698606	      0.34568800	      0.30777392	     -2.04017753	      3.66233116	      0.73840786	      1.33830715	      0.90637641	     -0.40836336	      1.09905453	     -0.58622144	     -0.61835755	     -0.00607795	     -0.00747279	     -0.06824952	     -0.03405154	     -0.01984850	      0.06808531	      0.09493724	     -0.11145938
      7.59500000	     24.46417981	      2.52094565	      5.50515336	     52.99277255	     -4.98983823	     25.56911305	      7.26144271	    -14.74252577	      1.14055793	      6.06696937	    -13.78467623	     -1.81219734	     10.57575711	      2.02451801	     -2.04751322	    -10.01206137	      0.00106435	     -8.16743947	      0.00161176	     -1.38188046	      0.09336313	      0.21377477	     -1.61903940	      3.77254619	      0.47895042	      1.31106485	      0.91747387	     -0.30351472	      1.20993298	     -0.54935180	     -0.58058218	     -0.01091308	     -0.01671024	     -0.06691716	     -0.03352440	     -0.02410561	      0.05250575	      0.06918365	     -0.12959777
      7.60000000	     25.60147703	      1.29257352	      5.76177373	     58.70150818	      9.73172942	     22.76191697	      7.29610839	    -13.36318466	      1.16864578	      7.12686792	    -11.75296972	     -1.97500051	     12.12934387	      2.06454125	     -1.25248957	     -9.55423548	     -0.00013564	     -8.38145976	      0.00148684	     -1.14030516	     -0.14033637	      0.13557955	     -1.19778962	      3.82098253	      0.22882891	      1.25581642	      0.90114195	     -0.21126992	      1.27709385	     -0.49992992	     -0.53855898	     -0.01472201	     -0.02471466	     -0.06485094	     -0.03198264	     -0.02658177	      0.03848727	      0.04346448	     -0.14221553
      7.60500000	     25.70166541	      0.80746643	      5.81054193	     62.25072450	     21.88327628	     19.66290562	      7.02478385	    -11.72028526	      1.15653054	      7.84739991	     -9.92882244	     -2.10850377	     13.05933011	      2.29544238	     -0.49789320	     -8.79922290	     -0.00118720	     -8.31018019	      0.00137222	     -0.92208223	     -0.34954990	      0.07255253	     -0.78624822	      3.81016694	     -0.00607570	      1.17250302	      0.85932454	     -0.13483549	      1.30064824	     -0.43836170	     -0.49595200	     -0.01743467	     -0.03132339	     -0.06191660	     -0.02941543	     -0.02750730	      0.02643434	      0.01845971	     -0.14923141
      7.61000000	     24.77113097	      1.16577606	      5.64392480	     63.64629153	     31.16017846	     16.17449971	      6.44964005	     -9.82173889	      1.11017734	      8.20088318	     -8.42790023	     -2.20176328	     13.37553591	      2.67697833	      0.19742896	     -7.77680456	     -0.00203773	     -7.97429627	      0.00127282	     -0.72405769	     -0.53005789	      0.02289208	     -0.39359067	      3.74381705	     -0.22082072	      1.06240173	      0.79448566	     -0.07588927	      1.28229567	     -0.36634457	     -0.45555559	     -0.01904503	     -0.03643733	     -0.05801042	     -0.02585416	     -0.02717927	      0.01657133	     -0.00522863	     -0.15080666
      7.61500000	     22.87353780	      2.32329520	      5.26899548	     62.96198938	     37.40812728	     12.24141152	      5.58725357	     -7.71479033	      1.03737767	      8.18239333	     -7.31448966	     -2.24703598	     13.12098730	      3.13561803	      0.81889124	     -6.53016732	     -0.00265381	     -7.40228860	      0.00119262	     -0.54108286	     -0.67920446	     -0.01602675	     -0.02760716	      3.62660094	     -0.41170298	      0.92813193	      0.70950758	     -0.03454661	      1.22522078	     -0.28664902	     -0.41902306	     -0.01960789	     -0.04002514	     -0.05307398	     -0.02137517	     -0.02593137	      0.00893869	     -0.02710835	     -0.14732726
      7.62000000	     20.12330678	      4.10843366	      4.70722245	     60.33410192	     40.65641004	      7.87651896	      4.46759295	     -5.48102112	      0.94673707	      7.80968103	     -6.59699175	     -2.24044930	     12.36740706	      3.57944563	      1.35532591	     -5.11326897	     -0.00302426	     -6.62903735	      0.00113256	     -0.36714057	     -0.79580452	     -0.04726429	      0.30585773	      3.46384513	     -0.57641180	      0.77357177	      0.60762541	     -0.00947247	      1.13396005	     -0.20279369	     -0.38677547	     -0.01923159	     -0.04212283	     -0.04710631	     -0.01610089	     -0.02410409	      0.00340550	     -0.04681143	     -0.13937589
      7.62500000	     16.67442347	      6.25577659	      3.99222985	     55.95875208	     41.14141973	      3.17206755	      3.13236763	     -3.22639277	      0.84655529	      7.12127252	     -6.23129297	     -2.18197452	     11.20801062	      3.91449736	      1.79830443	     -3.58726044	     -0.00316124	     -5.69424284	      0.00108851	     -0.19647928	     -0.88009338	     -0.07390321	      0.60322787	      3.26119374	     -0.71403883	      0.60370697	      0.49238331	      0.00188406	      1.01423414	     -0.11870548	     -0.35809952	     -0.01806677	     -0.04282931	     -0.04017160	     -0.01019786	     -0.02201368	     -0.00030324	     -0.06409359	     -0.12769595
      7.63000000	     12.70587968	      8.45062716	      3.16605820	     50.08845840	     39.31712669	     -1.70485900	      1.63280958	     -1.06799743	      0.74391462	      6.17292578	     -6.13115825	     -2.07485232	      9.74881627	      4.06022141	      2.14188898	     -2.01632205	     -0.00309924	     -4.64068770	      0.00104954	     -0.02459851	     -0.93367194	     -0.09866588	      0.86327661	      3.02427149	     -0.82497467	      0.42437222	      0.36759568	      0.00299334	      0.87274309	     -0.03833227	     -0.33141026	     -0.01629277	     -0.04229886	     -0.03240163	     -0.00387087	     -0.01992276	     -0.00257167	     -0.07882379	     -0.11315023
      7.63500000	      8.40534724	     10.37727553	      2.27465665	     43.02437110	     35.85090370	     -6.53003475	      0.02688109	      0.88020709	      0.64416307	      5.03277843	     -6.18377453	     -1.92470869	      8.09983305	      3.96188425	      2.38281570	     -0.46341580	     -0.00289216	     -3.51243371	      0.00099689	      0.15105010	     -0.95942113	     -0.12362575	      1.08696005	      2.75840207	     -0.91071399	      0.24191289	      0.23730274	     -0.00207791	      0.71692481	      0.03474575	     -0.30463123	     -0.01410427	     -0.04073122	     -0.02399277	      0.00264623	     -0.01801897	     -0.00385506	     -0.09096762	     -0.09667637
      7.64000000	      3.95317144	     11.76340407	      1.36345691	     35.10379321	     31.60459588	    -11.04923836	     -1.62375564	      2.52038739	      0.55079471	      3.77564283	     -6.26795879	     -1.73860736	      6.36728244	      3.59807451	      2.52097704	      1.01350546	     -0.00260907	     -2.35307930	      0.00090366	      0.33072202	     -0.96143253	     -0.15004376	      1.27700895	      2.46841751	     -0.97358540	      0.06282629	      0.10571779	     -0.00901169	      0.55468703	      0.09762905	     -0.27563108	     -0.01169905	     -0.03835999	     -0.01519748	      0.00910204	     -0.01640530	     -0.00463856	     -0.10056615	     -0.07924264
      7.64500000	     -0.49109176	     12.41452887	      0.47357085	     26.68433178	     27.60205938	    -15.01078423	     -3.25649893	      3.78078464	      0.46560467	      2.47704776	     -6.27228481	     -1.52425734	      4.64767604	      2.98248956	      2.55983600	      2.36438449	     -0.00232919	     -1.20419796	      0.00073526	      0.51242375	     -0.94499440	     -0.17832966	      1.43737440	      2.15857419	     -1.01644317	     -0.10656968	     -0.02283542	     -0.01357937	      0.39412247	      0.14829407	     -0.24264813	     -0.00926662	     -0.03543959	     -0.00631177	      0.01523960	     -0.01510081	     -0.00539566	     -0.10771283	     -0.06180647
      7.65000000	     -4.79805816	     12.23452517	     -0.36113825	     18.12684044	     24.98532862	    -18.19799391	     -4.81023480	      4.62151365	      0.38902067	      1.20783295	     -6.11048948	     -1.28953201	      3.02410394	      2.16038568	      2.50635296	      3.54886182	     -0.00213683	     -0.10408045	      0.00045057	      0.69231511	     -0.91660464	     -0.20812176	      1.57266603	      1.83256756	     -1.04237247	     -0.26041177	     -0.14399890	     -0.01194043	      0.24321932	      0.18566082	     -0.20464043	     -0.00697816	     -0.03223169	      0.00234021	      0.02080803	     -0.01405027	     -0.00655148	     -0.11253152	     -0.04527810
      7.65500000	     -8.87349090	     11.23056399	     -1.11556604	      9.77911933	     24.96249978	    -20.45535456	     -6.22770484	      5.03577133	      0.32057781	      0.03001471	     -5.73203250	     -1.04235414	      1.56445314	      1.20084420	      2.37060371	      4.53706550	     -0.00211671	      0.91314550	      0.00000352	      0.86536047	     -0.88390895	     -0.23846789	      1.68762510	      1.49362540	     -1.05443756	     -0.39349747	     -0.25347473	     -0.00087080	      0.10957813	      0.20954396	     -0.16151429	     -0.00497929	     -0.02899258	      0.01042268	      0.02557314	     -0.01314236	     -0.00845510	     -0.11515928	     -0.03049072
      7.66000000	    -12.65957868	      9.50332575	     -1.77292303	      1.96102042	     28.75117176	    -21.70433032	     -7.45773794	      5.04681100	      0.25944415	     -1.00599707	     -5.12657390	     -0.79083679	      0.32088167	      0.18635529	      2.16562779	      5.30949311	     -0.00234993	      1.81808582	     -0.00065496	      1.02605684	     -0.85548696	     -0.26806528	      1.78662968	      1.14464320	     -1.05548458	     -0.50141605	     -0.34714219	      0.02210352	      0.00014693	      0.22051416	     -0.11420226	     -0.00338777	     -0.02596277	      0.01760427	      0.02932675	     -0.01223399	     -0.01136428	     -0.11573596	     -0.01817722
      7.66500000	    -16.13333080	      7.22587888	     -2.32278811	     -5.04855529	     37.52141178	    -21.94867094	     -8.45686422	      4.70185839	      0.20482062	     -1.86324300	     -4.32230105	     -0.54342055	     -0.66986836	     -0.79852573	      1.90742762	      5.85609678	     -0.00291081	      2.58647833	     -0.00157468	      1.16911088	     -0.84053395	     -0.29550621	      1.87332172	      0.78831523	     -1.04801734	     -0.58061384	     -0.42119732	      0.05866426	     -0.07901037	      0.21970485	     -0.06458243	     -0.00229489	     -0.02335901	      0.02357327	      0.03189414	     -0.01117509	     -0.01544179	     -0.11440022	     -0.00895402
      7.67000000	    -19.30227117	      4.61613323	     -2.75883672	    -11.02138834	     52.34123651	    -21.27004009	     -9.19011536	      4.06441888	      0.15612327	     -2.51907630	     -3.37913654	     -0.30880007	     -1.38535953	     -1.67748979	      1.61455754	      6.17483766	     -0.00386440	      3.19944304	     -0.00280356	      1.29002165	     -0.84851383	     -0.31949531	      1.95044743	      0.42724665	     -1.03415294	     -0.62841216	     -0.47230819	      0.10971155	     -0.12290778	      0.20860050	     -0.01525919	     -0.00176760	     -0.02136793	      0.02805177	      0.03313987	     -0.00983028	     -0.02075836	     -0.11129028	     -0.00331027
      7.67500000	    -22.19766225	      1.90749550	     -3.07709261	    -15.78517144	     74.12524243	    -19.81397681	     -9.63129073	      3.20614348	      0.11300981	     -2.96458989	     -2.37845309	     -0.09562505	     -1.81579000	     -2.39028064	      1.30702921	      6.27008264	     -0.00526470	      3.64356104	     -0.00438480	      1.38554031	     -0.88877878	     -0.33902630	      2.01987838	      0.06405344	     -1.01563210	     -0.64299581	     -0.49777385	      0.17539957	     -0.12779620	      0.18883856	      0.03074966	     -0.00185016	     -0.02014131	      0.03080737	      0.03297190	     -0.00809654	     -0.02729923	     -0.10654676	     -0.00160016
      7.68000000	    -24.86648897	     -0.67844902	     -3.27499102	    -19.22460724	    103.58604383	    -17.76858533	     -9.76295253	      2.19928924	      0.07532722	     -3.20287890	     -1.41112955	      0.08798409	     -1.96225260	     -2.89746840	      1.00463914	      6.15112861	     -0.00715300	      3.91089925	     -0.00635393	      1.45395002	     -0.97011451	     -0.35349776	      2.08274210	     -0.29858318	     -0.99385237	     -0.62339568	     -0.49567250	      0.25521040	     -0.09127425	      0.16204981	      0.07036635	     -0.00256531	     -0.01979281	      0.03166261	      0.03134396	     -0.00591437	     -0.03497594	     -0.10031463	     -0.00403914
      7.68500000	    -27.36383235	     -2.95353131	     -3.35109481	    -21.27994104	    141.19014177	    -15.34139104	     -9.57629672	      1.11072864	      0.04301874	     -3.24686811	     -0.56590452	      0.23505922	     -1.83533091	     -3.18202229	      0.72528286	      5.83101032	     -0.00955627	      3.99909629	     -0.00873577	      1.49510974	     -1.10017538	     -0.36274349	      2.13961379	     -0.65795887	     -0.96990953	     -0.56948857	     -0.46498520	      0.34808369	     -0.01233860	      0.12975037	      0.10079575	     -0.00391530	     -0.02039596	      0.03050326	      0.02825583	     -0.00326901	     -0.04364523	     -0.09274306	     -0.01070513
      7.69000000	    -29.74657484	     -4.77619722	     -3.30505036	    -21.94390987	    187.12115307	    -12.73865549	     -9.07109142	     -0.00202255	      0.01604694	     -3.11687490	      0.08026330	      0.34040481	     -1.45436963	     -3.24769262	      0.48401423	      5.32566836	     -0.01248525	      3.91142148	     -0.01154186	      1.51026247	     -1.28483119	     -0.36698528	      2.19071499	     -1.01147841	     -0.94464457	     -0.48201650	     -0.40568246	      0.45257656	      0.10861136	      0.09328682	      0.11981103	     -0.00588383	     -0.02198332	      0.02728540	      0.02375231	     -0.00018409	     -0.05313176	     -0.08398543	     -0.02154252
      7.69500000	    -32.06859580	     -6.05619549	     -3.13777748	    -21.25786962	    241.25279077	    -10.14854596	     -8.25575964	     -1.09283989	     -0.00563972	     -2.83803096	      0.46883047	      0.40108783	     -0.84726376	     -3.11490504	      0.29274833	      4.65346446	     -0.01593267	      3.65665489	     -0.01476856	      1.50169272	     -1.52756635	     -0.36674221	      2.23609948	     -1.35681447	     -0.91869428	     -0.36261311	     -0.31875880	      0.56699900	      0.26979834	      0.05382564	      0.12594935	     -0.00843862	     -0.02454662	      0.02204021	      0.01792104	      0.00328700	     -0.06324803	     -0.07420016	     -0.03636681
      7.70000000	    -34.37730772	     -6.75248335	     -2.85231968	    -19.30877914	    303.13382538	     -7.72859972	     -7.14748959	     -2.12742369	     -0.02213748	     -2.43825758	      0.56295103	      0.41678713	     -0.04992239	     -2.81539760	      0.15970150	      3.83494395	     -0.01987184	      3.24875812	     -0.01839573	      1.47235554	     -1.82908473	     -0.36272323	      2.27582625	     -1.69202942	     -0.89252704	     -0.21381987	     -0.20620592	      0.68949174	      0.46812147	      0.01237003	      0.11860227	     -0.01153227	     -0.02803735	      0.01487592	      0.01088893	      0.00707049	     -0.07380648	     -0.06354931	     -0.05486990
      7.70500000	    -36.71161197	     -6.86599587	     -2.45529310	    -16.22777495	    371.98716788	     -5.59811077	     -5.77220281	     -3.08250127	     -0.03365151	     -1.94738544	      0.34744463	      0.39000330	      0.89503748	     -2.38660733	      0.08827224	      2.89271402	     -0.02425605	      2.70636927	     -0.02238589	      1.42554639	     -2.18713119	     -0.35571212	      2.31006960	     -2.01564313	     -0.86643854	     -0.03907369	     -0.07092667	      0.81805843	      0.69924061	     -0.03021215	      0.09799962	     -0.01510054	     -0.03236745	      0.00597652	      0.00281693	      0.01108341	     -0.08462417	     -0.05219227	     -0.07662597
      7.71000000	    -39.10158400	     -6.42852747	     -1.95811717	    -12.18888707	    446.72483861	     -3.83559330	     -4.16429515	     -3.94413437	     -0.04057057	     -1.39726569	     -0.17410815	      0.32606500	      1.93988432	     -1.86635938	      0.07610807	      1.85134653	     -0.02901881	      2.05210736	     -0.02668436	      1.36459206	     -2.59645804	     -0.34644152	      2.33913862	     -2.32667674	     -0.84052354	      0.15733975	      0.08339939	      0.95058528	      0.95768913	     -0.07315598	      0.06509855	     -0.01905925	     -0.03741099	     -0.00440308	     -0.00610558	      0.01524726	     -0.09552332	     -0.04027828	     -0.10109868
      7.71500000	    -41.56978324	     -5.48958519	     -1.37740027	     -7.40638663	    525.98063001	     -2.48038495	     -2.36622976	     -4.70548701	     -0.04348486	     -0.82224305	     -0.98417397	      0.23286738	      3.03327440	     -1.28826427	      0.11498737	      0.73728199	     -0.03407513	      1.31168174	     -0.03122079	      1.29255049	     -3.04894274	     -0.33546891	      2.36347185	     -2.62469360	     -0.81467559	      0.37036903	      0.25248164	      1.08486635	      1.23702646	     -0.11576252	      0.02140459	     -0.02330207	     -0.04300812	     -0.01594525	     -0.01566609	      0.01950203	     -0.10633081	     -0.02794367	     -0.12765289
      7.72000000	    -44.13365726	     -4.10353837	     -0.73456259	     -2.13022169	    608.16235728	     -1.53682329	     -0.42801565	     -5.36441079	     -0.04312416	     -0.25951110	     -2.05663470	      0.12036192	      4.12184405	     -0.67811177	      0.19136541	     -0.42129362	     -0.03932414	      0.51290847	     -0.03591212	      1.21198595	     -3.53392290	     -0.32309451	      2.38367311	     -2.90982718	     -0.78863286	      0.59432529	      0.43159865	      1.21863615	      1.53005118	     -0.15736189	     -0.03123576	     -0.02770121	     -0.04897174	     -0.02828192	     -0.02563406	      0.02381527	     -0.11687795	     -0.01531369	     -0.15557400
      7.72500000	    -46.80874489	     -2.31887812	     -0.05486974	      3.36090911	    691.52570212	     -0.97971105	      1.59363683	     -5.92111427	     -0.04027418	      0.25086465	     -3.36140872	     -0.00011400	      5.15193451	     -0.05129851	      0.28736482	     -1.59468557	     -0.04465325	     -0.31523355	     -0.04066695	      1.12485655	     -4.03874945	     -0.30934139	      2.40057676	     -3.18280672	     -0.76204592	      0.82306150	      0.61578681	      1.34962633	      1.82907932	     -0.19728478	     -0.09082965	     -0.03211180	     -0.05509629	     -0.04101059	     -0.03576682	      0.02818440	     -0.12700345	     -0.00250509	     -0.18409432
