Model Marker Errors from IK
version=1
nRows=511
nColumns=4
inDegrees=no
endheader
time	total_squared_error	marker_error_RMS	marker_error_max
      1.70000000	      0.03312480	      0.02330299	      0.09887721
      1.70500000	      0.03317106	      0.02331926	      0.09871522
      1.71000000	      0.03318030	      0.02332251	      0.09874526
      1.71500000	      0.03322434	      0.02333798	      0.09905267
      1.72000000	      0.03326230	      0.02335131	      0.09920497
      1.72500000	      0.03337920	      0.02339231	      0.09944146
      1.73000000	      0.03337816	      0.02339194	      0.09975623
      1.73500000	      0.03350657	      0.02343689	      0.10002834
      1.74000000	      0.03354815	      0.02345143	      0.10029539
      1.74500000	      0.03360668	      0.02347188	      0.10039430
      1.75000000	      0.03366861	      0.02349350	      0.10073668
      1.75500000	      0.03381035	      0.02354290	      0.10102229
      1.76000000	      0.03391970	      0.02358094	      0.10147001
      1.76500000	      0.03397335	      0.02359958	      0.10185975
      1.77000000	      0.03415865	      0.02366385	      0.10222535
      1.77500000	      0.03423420	      0.02369000	      0.10256061
      1.78000000	      0.03426419	      0.02370038	      0.10273003
      1.78500000	      0.03433578	      0.02372513	      0.10307581
      1.79000000	      0.03446883	      0.02377105	      0.10357431
      1.79500000	      0.03475439	      0.02386931	      0.10400559
      1.80000000	      0.03466712	      0.02383933	      0.10435644
      1.80500000	      0.03496954	      0.02394308	      0.10467187
      1.81000000	      0.03497041	      0.02394338	      0.10504854
      1.81500000	      0.03505213	      0.02397134	      0.10527013
      1.82000000	      0.03517235	      0.02401241	      0.10563061
      1.82500000	      0.03531582	      0.02406134	      0.10588923
      1.83000000	      0.03543004	      0.02410021	      0.10615237
      1.83500000	      0.03547270	      0.02411472	      0.10622344
      1.84000000	      0.03554177	      0.02413819	      0.10633009
      1.84500000	      0.03571424	      0.02419668	      0.10659444
      1.85000000	      0.03577060	      0.02421577	      0.10687558
      1.85500000	      0.03581338	      0.02423024	      0.10706253
      1.86000000	      0.03587091	      0.02424970	      0.10714049
      1.86500000	      0.03606388	      0.02431483	      0.10735720
      1.87000000	      0.03620916	      0.02436376	      0.10760610
      1.87500000	      0.03611875	      0.02433333	      0.10766875
      1.88000000	      0.03619807	      0.02436003	      0.10785463
      1.88500000	      0.03619411	      0.02435870	      0.10784400
      1.89000000	      0.03629178	      0.02439154	      0.10789905
      1.89500000	      0.03639958	      0.02442774	      0.10829647
      1.90000000	      0.03654110	      0.02447518	      0.10853862
      1.90500000	      0.03656941	      0.02448466	      0.10838368
      1.91000000	      0.03663671	      0.02450718	      0.10848253
      1.91500000	      0.03667807	      0.02452101	      0.10882696
      1.92000000	      0.03670973	      0.02453159	      0.10887034
      1.92500000	      0.03681627	      0.02456716	      0.10910867
      1.93000000	      0.03683464	      0.02457329	      0.10918507
      1.93500000	      0.03673233	      0.02453914	      0.10905656
      1.94000000	      0.03697648	      0.02462056	      0.10946395
      1.94500000	      0.03694800	      0.02461107	      0.10967170
      1.95000000	      0.03700662	      0.02463059	      0.10981915
      1.95500000	      0.03699425	      0.02462647	      0.10980335
      1.96000000	      0.03727568	      0.02471996	      0.11051967
      1.96500000	      0.03714758	      0.02467745	      0.11029607
      1.97000000	      0.03720557	      0.02469671	      0.11044227
      1.97500000	      0.03726013	      0.02471481	      0.11068954
      1.98000000	      0.03737785	      0.02475382	      0.11093932
      1.98500000	      0.03743879	      0.02477399	      0.11140521
      1.99000000	      0.03746183	      0.02478161	      0.11116041
      1.99500000	      0.03769699	      0.02485927	      0.11155644
      2.00000000	      0.03754613	      0.02480948	      0.11159349
      2.00500000	      0.03754077	      0.02480771	      0.11185149
      2.01000000	      0.03762673	      0.02483610	      0.11196208
      2.01500000	      0.03773112	      0.02487052	      0.11218954
      2.02000000	      0.03782996	      0.02490308	      0.11230821
      2.02500000	      0.03787519	      0.02491796	      0.11238943
      2.03000000	      0.03783404	      0.02490442	      0.11241160
      2.03500000	      0.03797358	      0.02495030	      0.11283465
      2.04000000	      0.03797941	      0.02495222	      0.11296450
      2.04500000	      0.03813832	      0.02500437	      0.11331705
      2.05000000	      0.03812179	      0.02499895	      0.11317292
      2.05500000	      0.03815954	      0.02501132	      0.11348517
      2.06000000	      0.03824699	      0.02503997	      0.11358546
      2.06500000	      0.03848169	      0.02511667	      0.11409546
      2.07000000	      0.03848708	      0.02511843	      0.11396838
      2.07500000	      0.03872764	      0.02519681	      0.11437218
      2.08000000	      0.03886318	      0.02524087	      0.11508580
      2.08500000	      0.03877113	      0.02521096	      0.11464031
      2.09000000	      0.03900762	      0.02528773	      0.11475168
      2.09500000	      0.03909803	      0.02531702	      0.11494621
      2.10000000	      0.03932766	      0.02539125	      0.11510629
      2.10500000	      0.03945785	      0.02543325	      0.11530732
      2.11000000	      0.03948142	      0.02544084	      0.11547992
      2.11500000	      0.03983865	      0.02555568	      0.11593745
      2.12000000	      0.03993056	      0.02558514	      0.11571142
      2.12500000	      0.04009801	      0.02563873	      0.11588925
      2.13000000	      0.04033075	      0.02571303	      0.11607231
      2.13500000	      0.04065111	      0.02581495	      0.11617790
      2.14000000	      0.04085340	      0.02587910	      0.11631154
      2.14500000	      0.04103332	      0.02593602	      0.11633822
      2.15000000	      0.04112430	      0.02596476	      0.11636829
      2.15500000	      0.04125872	      0.02600716	      0.11648274
      2.16000000	      0.04136725	      0.02604134	      0.11655654
      2.16500000	      0.04157089	      0.02610536	      0.11663458
      2.17000000	      0.04160261	      0.02611532	      0.11662297
      2.17500000	      0.04174729	      0.02616069	      0.11715876
      2.18000000	      0.04164498	      0.02612862	      0.11666597
      2.18500000	      0.04161375	      0.02611882	      0.11665412
      2.19000000	      0.04175354	      0.02616265	      0.11664056
      2.19500000	      0.04189666	      0.02620745	      0.11676106
      2.20000000	      0.04187545	      0.02620082	      0.11675063
      2.20500000	      0.04193283	      0.02621876	      0.11655858
      2.21000000	      0.04195834	      0.02622674	      0.11650616
      2.21500000	      0.04212672	      0.02627931	      0.11700315
      2.22000000	      0.04226426	      0.02632217	      0.11669318
      2.22500000	      0.04230774	      0.02633571	      0.11663692
      2.23000000	      0.04239055	      0.02636147	      0.11649776
      2.23500000	      0.04255045	      0.02641114	      0.11655414
      2.24000000	      0.04287779	      0.02651254	      0.11699876
      2.24500000	      0.04292968	      0.02652857	      0.11653252
      2.25000000	      0.04299806	      0.02654969	      0.11683045
      2.25500000	      0.04319769	      0.02661125	      0.11648058
      2.26000000	      0.04331972	      0.02664881	      0.11622279
      2.26500000	      0.04359695	      0.02673395	      0.11657716
      2.27000000	      0.04348204	      0.02669870	      0.11599454
      2.27500000	      0.04366686	      0.02675538	      0.11593415
      2.28000000	      0.04398822	      0.02685365	      0.11632390
      2.28500000	      0.04390008	      0.02682673	      0.11579097
      2.29000000	      0.04426718	      0.02693866	      0.11551229
      2.29500000	      0.04443694	      0.02699026	      0.11621497
      2.30000000	      0.04424223	      0.02693107	      0.11539021
      2.30500000	      0.04463432	      0.02705014	      0.11593147
      2.31000000	      0.04487982	      0.02712443	      0.11500198
      2.31500000	      0.04475036	      0.02708528	      0.11510736
      2.32000000	      0.04491270	      0.02713436	      0.11547598
      2.32500000	      0.04502740	      0.02716899	      0.11496950
      2.33000000	      0.04516730	      0.02721116	      0.11492658
      2.33500000	      0.04548351	      0.02730625	      0.11524443
      2.34000000	      0.04541778	      0.02728651	      0.11461899
      2.34500000	      0.04566710	      0.02736131	      0.11469739
      2.35000000	      0.04596514	      0.02745044	      0.11486563
      2.35500000	      0.04622787	      0.02752878	      0.11459004
      2.36000000	      0.04625098	      0.02753566	      0.11466630
      2.36500000	      0.04658290	      0.02763429	      0.11460300
      2.37000000	      0.04659827	      0.02763885	      0.11376125
      2.37500000	      0.04698295	      0.02775270	      0.11442123
      2.38000000	      0.04726901	      0.02783706	      0.11424766
      2.38500000	      0.04770472	      0.02796506	      0.11396368
      2.39000000	      0.04805813	      0.02806846	      0.11402108
      2.39500000	      0.04785274	      0.02800841	      0.11348144
      2.40000000	      0.04823608	      0.02812037	      0.11389577
      2.40500000	      0.04873664	      0.02826590	      0.11392108
      2.41000000	      0.04893868	      0.02832443	      0.11378446
      2.41500000	      0.04926652	      0.02841915	      0.11382534
      2.42000000	      0.04935613	      0.02844498	      0.11326042
      2.42500000	      0.04976231	      0.02856179	      0.11319255
      2.43000000	      0.05015493	      0.02867424	      0.11366479
      2.43500000	      0.05031741	      0.02872065	      0.11340601
      2.44000000	      0.05074001	      0.02884100	      0.11338232
      2.44500000	      0.05091116	      0.02888960	      0.11315616
      2.45000000	      0.05117954	      0.02896565	      0.11271019
      2.45500000	      0.05158681	      0.02908067	      0.11287017
      2.46000000	      0.05182183	      0.02914684	      0.11291341
      2.46500000	      0.05219217	      0.02925080	      0.11257528
      2.47000000	      0.05256159	      0.02935414	      0.11251921
      2.47500000	      0.05282868	      0.02942862	      0.11222027
      2.48000000	      0.05324322	      0.02954386	      0.11197407
      2.48500000	      0.05360042	      0.02964280	      0.11182773
      2.49000000	      0.05408248	      0.02977580	      0.11163252
      2.49500000	      0.05442284	      0.02986934	      0.11135786
      2.50000000	      0.05492174	      0.03000594	      0.11117260
      2.50500000	      0.05539767	      0.03013567	      0.11100649
      2.51000000	      3.05172436	      0.22367000	      1.62497356
      2.51500000	      3.05424404	      0.22376232	      1.62616513
      2.52000000	      3.05712925	      0.22386798	      1.62764607
      2.52500000	      3.05641526	      0.22384184	      1.62743431
      2.53000000	      3.05654793	      0.22384670	      1.62749580
      2.53500000	      3.05694703	      0.22386131	      1.62759027
      2.54000000	      3.05775150	      0.22389076	      1.62776890
      2.54500000	      3.05815462	      0.22390552	      1.62804992
      2.55000000	      3.06072899	      0.22399974	      1.62825042
      2.55500000	      3.05927208	      0.22394643	      1.62785546
      2.56000000	      3.05920462	      0.22394396	      1.62775231
      2.56500000	      3.05975530	      0.22396411	      1.62786719
      2.57000000	      3.05979118	      0.22396542	      1.62778522
      2.57500000	      3.06112625	      0.22401428	      1.62810434
      2.58000000	      3.06079613	      0.22400220	      1.62791996
      2.58500000	      3.05475916	      0.22378119	      1.62520932
      2.59000000	      3.05962987	      0.22395952	      1.62764234
      2.59500000	      3.06123724	      0.22401834	      1.62802878
      2.60000000	      3.05981814	      0.22396641	      1.62754894
      2.60500000	      3.06090228	      0.22400608	      1.62806716
      2.61000000	      3.06024121	      0.22398189	      1.62777530
      2.61500000	      3.06094539	      0.22400766	      1.62787595
      2.62000000	      3.06202588	      0.22404720	      1.62827866
      2.62500000	      3.06081938	      0.22400305	      1.62787449
      2.63000000	      3.06168779	      0.22403483	      1.62816665
      2.63500000	      3.06325624	      0.22409220	      1.62858869
      2.64000000	      3.06205121	      0.22404812	      1.62820899
      2.64500000	      3.06236627	      0.22405965	      1.62810662
      2.65000000	      3.06157375	      0.22403065	      1.62769790
      2.65500000	      3.06116044	      0.22401553	      1.62776556
      2.66000000	      3.06110316	      0.22401344	      1.62761831
      2.66500000	      3.06051685	      0.22399198	      1.62731593
      2.67000000	      3.05685125	      0.22385780	      1.62527823
      2.67500000	      3.06266118	      0.22407044	      1.62798931
      2.68000000	      3.06236222	      0.22405950	      1.62752532
      2.68500000	      3.06382475	      0.22411300	      1.62803256
      2.69000000	      3.06285936	      0.22407769	      1.62761122
      2.69500000	      3.06305093	      0.22408469	      1.62783310
      2.70000000	      3.06260996	      0.22406856	      1.62769025
      2.70500000	      3.06282399	      0.22407639	      1.62761561
      2.71000000	      3.06342179	      0.22409826	      1.62769792
      2.71500000	      3.06390572	      0.22411596	      1.62776728
      2.72000000	      3.06493146	      0.22415347	      1.62809841
      2.72500000	      3.06277332	      0.22407454	      1.62761438
      2.73000000	      3.06185234	      0.22404085	      1.62742182
      2.73500000	      3.06168737	      0.22403481	      1.62740037
      2.74000000	      3.06480356	      0.22414879	      1.62791729
      2.74500000	      3.06486595	      0.22415107	      1.62794643
      2.75000000	      3.06653764	      0.22421220	      1.62816944
      2.75500000	      3.06717774	      0.22423560	      1.62838974
      2.76000000	      3.06703468	      0.22423037	      1.62820316
      2.76500000	      3.06605178	      0.22419443	      1.62819966
      2.77000000	      3.06698903	      0.22422870	      1.62830841
      2.77500000	      3.06716488	      0.22423513	      1.62833715
      2.78000000	      3.06799447	      0.22426545	      1.62848577
      2.78500000	      3.06804781	      0.22426740	      1.62862975
      2.79000000	      3.06914038	      0.22430733	      1.62867424
      2.79500000	      3.06932420	      0.22431404	      1.62866511
      2.80000000	      3.06876242	      0.22429351	      1.62865660
      2.80500000	      3.06962551	      0.22432505	      1.62875798
      2.81000000	      3.07039663	      0.22435323	      1.62899297
      2.81500000	      3.06963768	      0.22432550	      1.62871719
      2.82000000	      3.06803521	      0.22426694	      1.62752909
      2.82500000	      3.06833732	      0.22427798	      1.62766448
      2.83000000	      3.07087193	      0.22437059	      1.62882953
      2.83500000	      3.06789641	      0.22426186	      1.62763509
      2.84000000	      3.06997131	      0.22433769	      1.62873557
      2.84500000	      3.07166035	      0.22439939	      1.62896421
      2.85000000	      3.07144499	      0.22439153	      1.62873084
      2.85500000	      3.07219181	      0.22441881	      1.62880321
      2.86000000	      3.06978480	      0.22433087	      1.62787516
      2.86500000	      3.07230977	      0.22442311	      1.62876113
      2.87000000	      3.06948130	      0.22431978	      1.62757228
      2.87500000	      3.07029536	      0.22434953	      1.62769444
      2.88000000	      3.07056463	      0.22435937	      1.62755249
      2.88500000	      3.06951922	      0.22432117	      1.62727963
      2.89000000	      3.07022168	      0.22434684	      1.62740298
      2.89500000	      3.07084322	      0.22436954	      1.62721810
      2.90000000	      3.07213894	      0.22441687	      1.62774551
      2.90500000	      3.07465916	      0.22450891	      1.62874167
      2.91000000	      3.07243749	      0.22442778	      1.62739357
      2.91500000	      3.07519788	      0.22452857	      1.62837988
      2.92000000	      3.07295366	      0.22444663	      1.62726991
      2.92500000	      3.07547776	      0.22453879	      1.62834304
      2.93000000	      3.07537805	      0.22453515	      1.62831108
      2.93500000	      3.07642183	      0.22457325	      1.62843610
      2.94000000	      3.07357590	      0.22446935	      1.62709037
      2.94500000	      3.07580280	      0.22455066	      1.62830655
      2.95000000	      3.07393424	      0.22448244	      1.62705416
      2.95500000	      3.07389308	      0.22448093	      1.62687822
      2.96000000	      3.07661848	      0.22458043	      1.62819229
      2.96500000	      3.07398764	      0.22448439	      1.62703442
      2.97000000	      3.07683335	      0.22458827	      1.62803803
      2.97500000	      3.07388703	      0.22448071	      1.62668584
      2.98000000	      3.07741942	      0.22460966	      1.62798653
      2.98500000	      3.07432959	      0.22449687	      1.62671046
      2.99000000	      3.07492673	      0.22451867	      1.62654262
      2.99500000	      3.07498440	      0.22452078	      1.62654640
      3.00000000	      3.07491041	      0.22451808	      1.62637469
      3.00500000	      3.07572681	      0.22454788	      1.62652448
      3.01000000	      3.07595143	      0.22455608	      1.62665744
      3.01500000	      3.07598718	      0.22455739	      1.62658064
      3.02000000	      3.07676420	      0.22458575	      1.62662609
      3.02500000	      3.07704631	      0.22459604	      1.62679247
      3.03000000	      3.07661902	      0.22458045	      1.62659376
      3.03500000	      3.07795897	      0.22462935	      1.62688335
      3.04000000	      3.07709795	      0.22459793	      1.62686024
      3.04500000	      3.07727272	      0.22460430	      1.62665661
      3.05000000	      3.07751647	      0.22461320	      1.62703511
      3.05500000	      3.07696835	      0.22459320	      1.62667466
      3.06000000	      3.07790886	      0.22462752	      1.62679233
      3.06500000	      3.07735533	      0.22460732	      1.62641211
      3.07000000	      3.07690768	      0.22459098	      1.62640500
      3.07500000	      3.07758328	      0.22461564	      1.62664403
      3.08000000	      3.07834297	      0.22464336	      1.62666909
      3.08500000	      3.07836818	      0.22464428	      1.62663114
      3.09000000	      3.07849787	      0.22464901	      1.62689144
      3.09500000	      3.07944105	      0.22468342	      1.62698034
      3.10000000	      3.07901639	      0.22466793	      1.62675637
      3.10500000	      3.07916636	      0.22467340	      1.62691643
      3.11000000	      3.07944058	      0.22468340	      1.62687528
      3.11500000	      3.07918180	      0.22467396	      1.62680573
      3.12000000	      3.07865092	      0.22465460	      1.62647982
      3.12500000	      3.07890058	      0.22466370	      1.62673245
      3.13000000	      3.07900147	      0.22466739	      1.62664321
      3.13500000	      3.07820773	      0.22463842	      1.62636873
      3.14000000	      3.07784626	      0.22462523	      1.62624649
      3.14500000	      3.07789869	      0.22462715	      1.62641352
      3.15000000	      3.07855775	      0.22465120	      1.62650612
      3.15500000	      3.07728909	      0.22460490	      1.62615791
      3.16000000	      3.07629971	      0.22456879	      1.62593485
      3.16500000	      3.07707787	      0.22459719	      1.62601702
      3.17000000	      3.07707632	      0.22459714	      1.62631510
      3.17500000	      3.07638641	      0.22457196	      1.62648839
      3.18000000	      3.07614242	      0.22456305	      1.62638833
      3.18500000	      3.07635829	      0.22457093	      1.62623503
      3.19000000	      3.07613640	      0.22456283	      1.62632131
      3.19500000	      3.07600664	      0.22455810	      1.62618237
      3.20000000	      3.07609359	      0.22456127	      1.62632814
      3.20500000	      3.07581558	      0.22455112	      1.62627174
      3.21000000	      3.07510822	      0.22452530	      1.62627394
      3.21500000	      3.07542075	      0.22453671	      1.62614261
      3.22000000	      3.07524009	      0.22453011	      1.62608816
      3.22500000	      3.07539768	      0.22453587	      1.62623072
      3.23000000	      3.07525806	      0.22453077	      1.62626289
      3.23500000	      3.07514927	      0.22452680	      1.62615490
      3.24000000	      3.07518883	      0.22452824	      1.62637817
      3.24500000	      3.07516336	      0.22452731	      1.62626887
      3.25000000	      3.07470769	      0.22451068	      1.62611284
      3.25500000	      3.07460166	      0.22450681	      1.62612586
      3.26000000	      3.07404291	      0.22448641	      1.62602433
      3.26500000	      3.07391699	      0.22448181	      1.62605551
      3.27000000	      3.07444658	      0.22450114	      1.62621009
      3.27500000	      3.07470276	      0.22451050	      1.62623480
      3.28000000	      3.07426783	      0.22449462	      1.62615095
      3.28500000	      3.07381022	      0.22447791	      1.62597188
      3.29000000	      3.07286860	      0.22444352	      1.62618469
      3.29500000	      3.07335243	      0.22446119	      1.62637599
      3.30000000	      3.07391274	      0.22448165	      1.62705067
      3.30500000	      3.07298758	      0.22444787	      1.62609202
      3.31000000	      3.07307268	      0.22445098	      1.62635544
      3.31500000	      3.07315365	      0.22445393	      1.62624461
      3.32000000	      3.07200748	      0.22441207	      1.62627489
      3.32500000	      3.07195032	      0.22440999	      1.62616944
      3.33000000	      3.07234295	      0.22442433	      1.62616491
      3.33500000	      3.07224722	      0.22442083	      1.62615649
      3.34000000	      3.07213818	      0.22441685	      1.62618249
      3.34500000	      3.07138983	      0.22438951	      1.62605502
      3.35000000	      3.07137914	      0.22438912	      1.62586690
      3.35500000	      3.07138051	      0.22438917	      1.62595602
      3.36000000	      3.07028332	      0.22434909	      1.62557201
      3.36500000	      3.07043599	      0.22435467	      1.62575743
      3.37000000	      3.06986545	      0.22433382	      1.62535831
      3.37500000	      3.07023229	      0.22434722	      1.62575048
      3.38000000	      3.06935260	      0.22431508	      1.62537799
      3.38500000	      3.07022729	      0.22434704	      1.62572986
      3.39000000	      3.06936099	      0.22431539	      1.62529944
      3.39500000	      3.06948394	      0.22431988	      1.62551357
      3.40000000	      3.06932608	      0.22431411	      1.62538014
      3.40500000	      3.06889133	      0.22429823	      1.62546713
      3.41000000	      3.06923150	      0.22431066	      1.62532931
      3.41500000	      3.06852021	      0.22428466	      1.62524319
      3.42000000	      3.06864154	      0.22428910	      1.62515499
      3.42500000	      3.06840051	      0.22428029	      1.62507177
      3.43000000	      3.06957520	      0.22432322	      1.62548690
      3.43500000	      3.06966496	      0.22432650	      1.62547885
      3.44000000	      3.06843134	      0.22428142	      1.62505152
      3.44500000	      3.06909260	      0.22430558	      1.62539302
      3.45000000	      3.06941221	      0.22431726	      1.62551282
      3.45500000	      3.06797445	      0.22426472	      1.62504773
      3.46000000	      3.06881950	      0.22429560	      1.62527588
      3.46500000	      3.06801992	      0.22426638	      1.62533501
      3.47000000	      3.06853204	      0.22428510	      1.62526184
      3.47500000	      3.06849980	      0.22428392	      1.62524248
      3.48000000	      3.06876014	      0.22429343	      1.62517664
      3.48500000	      3.06990854	      0.22433540	      1.62565813
      3.49000000	      3.06933237	      0.22431434	      1.62551446
      3.49500000	      3.06947818	      0.22431967	      1.62540875
      3.50000000	      3.06860267	      0.22428768	      1.62512486
      3.50500000	      3.07017535	      0.22434514	      1.62559980
      3.51000000	      3.06960488	      0.22432430	      1.62517498
      3.51500000	      3.06941833	      0.22431748	      1.62538997
      3.52000000	      3.06946327	      0.22431913	      1.62531515
      3.52500000	      3.07314293	      0.22445354	      1.62706881
      3.53000000	      3.07280991	      0.22444138	      1.62689630
      3.53500000	      3.07061953	      0.22436137	      1.62547777
      3.54000000	      3.07105300	      0.22437721	      1.62587652
      3.54500000	      3.07020883	      0.22434637	      1.62554775
      3.55000000	      3.07052949	      0.22435808	      1.62566895
      3.55500000	      3.07094099	      0.22437312	      1.62583891
      3.56000000	      3.07349533	      0.22446641	      1.62707713
      3.56500000	      3.07421847	      0.22449282	      1.62710095
      3.57000000	      3.07429169	      0.22449549	      1.62724538
      3.57500000	      3.07096138	      0.22437386	      1.62552523
      3.58000000	      3.07165750	      0.22439929	      1.62586726
      3.58500000	      3.07184483	      0.22440613	      1.62596977
      3.59000000	      3.07198325	      0.22441119	      1.62613060
      3.59500000	      3.07298984	      0.22444795	      1.62681721
      3.60000000	      3.07297448	      0.22444739	      1.62704781
      3.60500000	      3.07346797	      0.22446541	      1.62714875
      3.61000000	      3.07079190	      0.22436767	      1.62572783
      3.61500000	      3.07441264	      0.22449990	      1.62736890
      3.62000000	      3.07396473	      0.22448355	      1.62755625
      3.62500000	      3.07395179	      0.22448308	      1.62736162
      3.63000000	      3.07127535	      0.22438533	      1.62602784
      3.63500000	      3.07086641	      0.22437039	      1.62611598
      3.64000000	      3.07151391	      0.22439404	      1.62608948
      3.64500000	      3.07469456	      0.22451020	      1.62759516
      3.65000000	      3.07390861	      0.22448150	      1.62749619
      3.65500000	      3.07446698	      0.22450189	      1.62795742
      3.66000000	      3.07524101	      0.22453015	      1.62796367
      3.66500000	      3.07283690	      0.22444237	      1.62732194
      3.67000000	      3.07265479	      0.22443571	      1.62735723
      3.67500000	      3.06872793	      0.22429225	      1.62527012
      3.68000000	      3.06844381	      0.22428187	      1.62528401
      3.68500000	      3.07402902	      0.22448590	      1.62785501
      3.69000000	      3.07503215	      0.22452252	      1.62806794
      3.69500000	      3.06831167	      0.22427704	      1.62526225
      3.70000000	      3.06327033	      0.22409272	      1.62339874
      3.70500000	      3.06693042	      0.22422655	      1.62521540
      3.71000000	      3.07260835	      0.22443402	      1.62741637
      3.71500000	      3.07594405	      0.22455581	      1.62870221
      3.72000000	      3.07469530	      0.22451022	      1.62829027
      3.72500000	      3.07270765	      0.22443765	      1.62759919
      3.73000000	      3.07175545	      0.22440287	      1.62716986
      3.73500000	      3.07247838	      0.22442927	      1.62756851
      3.74000000	      3.07262274	      0.22443454	      1.62753762
      3.74500000	      3.07220547	      0.22441930	      1.62736431
      3.75000000	      3.07188033	      0.22440743	      1.62738952
      3.75500000	      3.07237442	      0.22442547	      1.62763653
      3.76000000	      3.07164735	      0.22439892	      1.62747205
      3.76500000	      3.06726728	      0.22423887	      1.62560290
      3.77000000	      3.05980781	      0.22396603	      1.62286241
      3.77500000	      3.05402317	      0.22375423	      1.62071423
      3.78000000	      3.05439844	      0.22376797	      1.62088147
      3.78500000	      3.06208836	      0.22404948	      1.62396048
      3.79000000	      3.07229048	      0.22442241	      1.62823384
      3.79500000	      3.07690565	      0.22459091	      1.62991891
      3.80000000	      3.07473183	      0.22451156	      1.62897302
      3.80500000	      3.07181474	      0.22440503	      1.62790210
      3.81000000	      3.07018285	      0.22434542	      1.62729268
      3.81500000	      3.07108399	      0.22437834	      1.62799077
      3.82000000	      3.07138746	      0.22438942	      1.62797147
      3.82500000	      3.07073477	      0.22436558	      1.62778424
      3.83000000	      3.07043737	      0.22435472	      1.62779461
      3.83500000	      3.07274307	      0.22443894	      1.62870432
      3.84000000	      3.07156865	      0.22439604	      1.62814921
      3.84500000	      3.07268719	      0.22443690	      1.62864580
      3.85000000	      3.07429585	      0.22449564	      1.62911688
      3.85500000	      3.07273713	      0.22443872	      1.62876687
      3.86000000	      3.07240014	      0.22442641	      1.62894800
      3.86500000	      3.07214250	      0.22441700	      1.62899554
      3.87000000	      3.07187343	      0.22440718	      1.62875042
      3.87500000	      3.07217465	      0.22441818	      1.62892736
      3.88000000	      3.07058453	      0.22436009	      1.62838007
      3.88500000	      3.07175600	      0.22440289	      1.62890827
      3.89000000	      3.07190582	      0.22440836	      1.62895877
      3.89500000	      3.07189347	      0.22440791	      1.62894704
      3.90000000	      3.07148544	      0.22439300	      1.62906676
      3.90500000	      3.07282944	      0.22444209	      1.62935757
      3.91000000	      3.07274310	      0.22443894	      1.62943936
      3.91500000	      3.07250494	      0.22443024	      1.62950269
      3.92000000	      3.07246512	      0.22442879	      1.62946410
      3.92500000	      3.07341704	      0.22446355	      1.63001160
      3.93000000	      3.07231997	      0.22442349	      1.62946791
      3.93500000	      3.07218802	      0.22441867	      1.62956132
      3.94000000	      3.07175728	      0.22440293	      1.62948128
      3.94500000	      3.07090074	      0.22437165	      1.62929163
      3.95000000	      3.07010198	      0.22434246	      1.62896433
      3.95500000	      3.07064540	      0.22436232	      1.62940999
      3.96000000	      3.07037915	      0.22435259	      1.62931313
      3.96500000	      3.07041722	      0.22435398	      1.62941573
      3.97000000	      3.07041807	      0.22435401	      1.62945709
      3.97500000	      3.07173435	      0.22440210	      1.62998599
      3.98000000	      3.07081374	      0.22436847	      1.62966543
      3.98500000	      3.07157174	      0.22439616	      1.63006716
      3.99000000	      3.07220991	      0.22441947	      1.63024469
      3.99500000	      3.07213062	      0.22441657	      1.63027471
      4.00000000	      3.07231230	      0.22442321	      1.63041849
      4.00500000	      3.07208289	      0.22441483	      1.63034814
      4.01000000	      3.07368800	      0.22447345	      1.63080794
      4.01500000	      3.07147717	      0.22439270	      1.63028921
      4.02000000	      3.07236399	      0.22442509	      1.63058301
      4.02500000	      3.07174429	      0.22440246	      1.63039411
      4.03000000	      3.07197362	      0.22441084	      1.63056499
      4.03500000	      3.07143188	      0.22439105	      1.63046817
      4.04000000	      3.07218255	      0.22441847	      1.63043091
      4.04500000	      3.07118277	      0.22438195	      1.63107272
      4.05000000	      3.07088525	      0.22437108	      1.63120306
      4.05500000	      3.07136153	      0.22438848	      1.63131339
      4.06000000	      3.07076164	      0.22436656	      1.63125055
      4.06500000	      3.06970339	      0.22432790	      1.63089571
      4.07000000	      3.07078543	      0.22436743	      1.63131929
      4.07500000	      3.07144512	      0.22439153	      1.63167130
      4.08000000	      3.07075295	      0.22436625	      1.63144160
      4.08500000	      3.07056934	      0.22435954	      1.63136642
      4.09000000	      3.07077350	      0.22436700	      1.63156170
      4.09500000	      3.07083020	      0.22436907	      1.63168037
      4.10000000	      3.07143274	      0.22439108	      1.63195213
      4.10500000	      3.07087416	      0.22437067	      1.63174909
      4.11000000	      3.07065895	      0.22436281	      1.63169836
      4.11500000	      3.07187692	      0.22440730	      1.63206097
      4.12000000	      3.07040649	      0.22435359	      1.63175434
      4.12500000	      3.07117517	      0.22438167	      1.63197580
      4.13000000	      3.07159241	      0.22439691	      1.63194650
      4.13500000	      3.07041728	      0.22435398	      1.63153964
      4.14000000	      3.07034334	      0.22435128	      1.63166367
      4.14500000	      3.07038755	      0.22435290	      1.63183295
      4.15000000	      3.06999064	      0.22433839	      1.63161252
      4.15500000	      3.06943295	      0.22431802	      1.63143922
      4.16000000	      3.06984777	      0.22433317	      1.63160559
      4.16500000	      3.06919604	      0.22430936	      1.63144478
      4.17000000	      3.06987412	      0.22433414	      1.63164981
      4.17500000	      3.06965696	      0.22432620	      1.63173835
      4.18000000	      3.06942608	      0.22431777	      1.63163624
      4.18500000	      3.07015760	      0.22434450	      1.63197557
      4.19000000	      3.07012876	      0.22434344	      1.63196143
      4.19500000	      3.07003819	      0.22434013	      1.63196308
      4.20000000	      3.06996458	      0.22433744	      1.63199740
      4.20500000	      3.06973933	      0.22432921	      1.63208322
      4.21000000	      3.07005046	      0.22434058	      1.63233252
      4.21500000	      3.07049752	      0.22435691	      1.63244855
      4.22000000	      3.07085677	      0.22437004	      1.63253050
      4.22500000	      3.07051356	      0.22435750	      1.63250504
      4.23000000	      3.07065619	      0.22436271	      1.63272231
      4.23500000	      3.06998735	      0.22433827	      1.63267352
      4.24000000	      3.07075776	      0.22436642	      1.63280133
      4.24500000	      3.07156876	      0.22439605	      1.63292651
      4.25000000	      3.07129666	      0.22438611	      1.63294232
