_ik_marker_errors_all.sto
version=1
nRows=151
nColumns=62
in_degrees=yes
endheader
time	FHD	LBHD	RBHD	C7	T10	CLAV	LSHO	LUUPA	LMUPA	LDUPA	LLEP	LMEP	LRAD	LUL	LRFIN	RSHO	RUPA1	RMUPA	RDUPA	RLEP	RMEP	RRAD	RUL	RUFIN	LASI	RASI	USACR	LSACR	RSACR	LTHI1	LTHI2	LTHI3	LTHI4	LLFC	LMFC	LTIB1	LTIB2	LTIB3	LTIB4	LLMAL	LMMAL	LHEE	LMT1	LMT2	LMT5	RTHI	RTHI2	RTHI3	RTHI4	RLFC	RMFC	RTIB1	RTIB2	RTIB3	RTIB4	RLMAL	RMMAL	RHEE	RMT1	RMT2	RMT5
3.635000	0.171130	0.046600	0.053064	0.046623	0.019809	0.069253	0.062070	0.024700	0.051607	0.035802	0.024407	0.032937	0.068370	0.038426	0.054294	0.082873	0.046073	0.060672	0.034959	0.025690	0.017035	0.064874	0.032607	0.050441	0.014767	0.014109	0.005321	0.014227	0.012586	0.023820	0.026518	0.019835	0.027704	0.029847	0.039652	0.003207	0.004405	0.002673	0.007312	0.022145	0.020568	0.015256	0.021336	0.019405	0.025240	0.013233	0.015193	0.020491	0.010231	0.044054	0.062047	0.020499	0.028494	0.024182	0.012608	0.019170	0.008269	0.037826	0.020379	0.028346	0.026451
3.640000	0.171255	0.047042	0.053445	0.046953	0.019931	0.069332	0.062235	0.024684	0.051588	0.035799	0.024421	0.033008	0.068379	0.038355	0.054764	0.082918	0.046064	0.060593	0.034926	0.025599	0.017001	0.064814	0.032735	0.050601	0.015043	0.013083	0.005539	0.014205	0.012547	0.023443	0.026173	0.019389	0.027521	0.029937	0.040013	0.003394	0.004244	0.002870	0.007440	0.022130	0.020526	0.015342	0.021349	0.019427	0.025214	0.012851	0.014887	0.020177	0.009894	0.044544	0.062763	0.020839	0.028506	0.024350	0.012702	0.019013	0.008215	0.037591	0.020227	0.028275	0.026458
3.645000	0.171450	0.047200	0.053566	0.047019	0.019952	0.069452	0.062332	0.024692	0.051625	0.035854	0.024491	0.033221	0.068432	0.038496	0.054606	0.083053	0.046102	0.060519	0.034965	0.025632	0.016981	0.064816	0.032626	0.050828	0.013931	0.013598	0.005434	0.014145	0.012521	0.023423	0.026196	0.019355	0.027457	0.030040	0.039962	0.003343	0.004157	0.002912	0.007495	0.022162	0.020429	0.015159	0.021438	0.019380	0.025229	0.012957	0.014974	0.020235	0.009886	0.044502	0.062737	0.020820	0.028419	0.024264	0.012627	0.018915	0.007907	0.037548	0.020296	0.028296	0.026484
3.650000	0.171721	0.047368	0.053671	0.046952	0.019943	0.069641	0.062479	0.024892	0.051524	0.036206	0.024475	0.033014	0.068454	0.038384	0.054891	0.083102	0.046158	0.060514	0.035036	0.025590	0.017019	0.064894	0.032745	0.050931	0.015254	0.013114	0.005315	0.014110	0.012539	0.022992	0.026035	0.019194	0.027353	0.030080	0.039614	0.003211	0.004166	0.002840	0.007363	0.022277	0.020244	0.014912	0.021072	0.019221	0.025179	0.013469	0.015608	0.020865	0.010270	0.044152	0.062588	0.020714	0.028221	0.024245	0.012668	0.018874	0.007816	0.037337	0.020188	0.028211	0.026342
3.655000	0.172014	0.047585	0.053894	0.047072	0.020061	0.069758	0.062542	0.024818	0.051570	0.036193	0.024369	0.032980	0.068713	0.038270	0.055211	0.083220	0.046258	0.060514	0.035081	0.025683	0.017130	0.064874	0.032820	0.051087	0.014445	0.012540	0.005568	0.014069	0.012489	0.023110	0.025950	0.018926	0.027274	0.030205	0.039794	0.003510	0.004099	0.002954	0.007476	0.022124	0.020265	0.015026	0.021257	0.019292	0.025119	0.013159	0.015455	0.020641	0.010062	0.044286	0.062785	0.020825	0.028258	0.024242	0.012729	0.018810	0.007814	0.037324	0.020230	0.028257	0.026411
3.660000	0.172052	0.047423	0.053699	0.046840	0.019920	0.069990	0.062605	0.024877	0.051612	0.036340	0.024508	0.033003	0.068737	0.038395	0.055333	0.083270	0.046385	0.060537	0.035161	0.025597	0.017113	0.064937	0.032794	0.051156	0.015232	0.013452	0.004884	0.014143	0.012589	0.023411	0.026456	0.019279	0.027456	0.029823	0.038990	0.003483	0.004289	0.002563	0.007102	0.022220	0.020003	0.014758	0.020906	0.019264	0.025253	0.013843	0.016093	0.021290	0.010576	0.043632	0.062063	0.020503	0.028168	0.024147	0.012648	0.019035	0.007790	0.037498	0.020325	0.028266	0.026314
3.665000	0.172538	0.048049	0.054095	0.047054	0.020207	0.070148	0.062696	0.025052	0.051632	0.036540	0.024485	0.033064	0.068974	0.038162	0.055983	0.083392	0.046249	0.060406	0.034945	0.025601	0.016880	0.065084	0.032689	0.051324	0.014463	0.013374	0.005024	0.014012	0.012495	0.023060	0.026290	0.018763	0.027290	0.030409	0.039617	0.003597	0.004033	0.002884	0.007300	0.022229	0.019999	0.014829	0.020936	0.019394	0.025209	0.013244	0.015577	0.020709	0.010131	0.044220	0.062671	0.020756	0.028131	0.024193	0.012602	0.018763	0.007795	0.037199	0.020314	0.028380	0.026429
3.670000	0.172802	0.048209	0.054211	0.047161	0.020236	0.070275	0.062608	0.025035	0.051568	0.036506	0.024543	0.033021	0.068971	0.038487	0.055526	0.083595	0.046515	0.060599	0.035180	0.025610	0.017154	0.065180	0.032533	0.051412	0.015255	0.012785	0.005027	0.014083	0.012524	0.023032	0.026249	0.018790	0.027188	0.030288	0.039601	0.003437	0.003976	0.002842	0.007395	0.022341	0.020005	0.014696	0.020922	0.019189	0.025100	0.013427	0.015678	0.020862	0.010148	0.044076	0.062602	0.020711	0.028116	0.024197	0.012693	0.018931	0.007812	0.037230	0.020263	0.028235	0.026377
3.675000	0.173239	0.048419	0.054362	0.047113	0.020314	0.070459	0.062735	0.024928	0.051730	0.036612	0.024564	0.032951	0.069286	0.038250	0.055791	0.083940	0.046583	0.060652	0.035189	0.025683	0.017078	0.065376	0.032403	0.051417	0.015731	0.012845	0.005033	0.014034	0.012463	0.023137	0.026307	0.018785	0.027193	0.030368	0.039943	0.003477	0.004030	0.002818	0.007310	0.022273	0.020039	0.014722	0.020900	0.019210	0.025253	0.013177	0.015448	0.020709	0.010009	0.044188	0.062502	0.020644	0.028162	0.024183	0.012629	0.018963	0.007888	0.037407	0.020365	0.028349	0.026316
3.680000	0.173618	0.048758	0.054586	0.047141	0.020280	0.070575	0.062722	0.025010	0.051784	0.036718	0.024617	0.033078	0.069069	0.038519	0.055701	0.084073	0.046701	0.060773	0.035304	0.025590	0.017166	0.065279	0.032376	0.051062	0.013612	0.013785	0.004852	0.014040	0.012399	0.023322	0.026353	0.018737	0.027301	0.030491	0.040337	0.003704	0.004056	0.002866	0.007345	0.022256	0.020048	0.014886	0.021027	0.019262	0.025208	0.012725	0.014947	0.020185	0.009757	0.044417	0.062600	0.020722	0.028328	0.024220	0.012683	0.019117	0.008205	0.037503	0.020493	0.028428	0.026336
3.685000	0.173938	0.048980	0.054655	0.047146	0.020315	0.070706	0.062872	0.025214	0.051880	0.036811	0.024533	0.033009	0.069119	0.038370	0.056236	0.084196	0.046845	0.060840	0.035348	0.025358	0.017268	0.065145	0.032330	0.051438	0.015531	0.012673	0.004536	0.013971	0.012656	0.023067	0.026129	0.018675	0.027270	0.030433	0.039940	0.003438	0.004099	0.002768	0.007276	0.022386	0.019819	0.014463	0.020684	0.019109	0.025085	0.013341	0.015668	0.020805	0.010225	0.044129	0.062529	0.020520	0.028088	0.024083	0.012643	0.018851	0.007700	0.037071	0.020415	0.028364	0.026368
3.690000	0.174452	0.049439	0.055017	0.047136	0.020429	0.070778	0.062844	0.025240	0.051957	0.036817	0.024552	0.033052	0.068744	0.038495	0.056526	0.084337	0.047001	0.061005	0.035468	0.025444	0.017304	0.065058	0.032271	0.051763	0.016144	0.012701	0.004698	0.014015	0.012462	0.023085	0.026164	0.018657	0.027188	0.030515	0.040039	0.003094	0.003922	0.002827	0.007258	0.022287	0.019797	0.014457	0.020662	0.019045	0.025354	0.013290	0.015635	0.020775	0.010233	0.044009	0.062303	0.020726	0.028049	0.024132	0.012619	0.019106	0.007903	0.037405	0.020388	0.028390	0.026272
3.695000	0.174833	0.049930	0.055382	0.047184	0.020421	0.070726	0.062994	0.025305	0.052132	0.036941	0.024593	0.033149	0.069042	0.038506	0.056485	0.084423	0.046886	0.060952	0.035427	0.025487	0.017245	0.065078	0.032384	0.051849	0.014733	0.014241	0.004532	0.014066	0.012350	0.023242	0.026224	0.018545	0.027197	0.030627	0.040295	0.003288	0.003875	0.002987	0.007322	0.022281	0.019998	0.014687	0.020737	0.019115	0.025265	0.012697	0.014926	0.020175	0.009842	0.044186	0.062356	0.020772	0.028115	0.024191	0.012626	0.019197	0.007996	0.037477	0.020640	0.028526	0.026436
3.700000	0.175206	0.050522	0.055657	0.047345	0.020498	0.070911	0.063269	0.025386	0.052060	0.036909	0.024553	0.033082	0.069279	0.038222	0.056596	0.084656	0.047098	0.061106	0.035553	0.025510	0.017434	0.065485	0.032396	0.052167	0.015388	0.011160	0.004869	0.013894	0.012601	0.023098	0.026028	0.018273	0.026958	0.030962	0.040668	0.003530	0.003895	0.003193	0.007500	0.022364	0.019852	0.014690	0.020671	0.019122	0.025446	0.012472	0.014560	0.019903	0.009400	0.044629	0.062969	0.021116	0.028235	0.024507	0.012715	0.019071	0.007888	0.037285	0.020595	0.028568	0.026390
3.705000	0.175592	0.050419	0.055377	0.046766	0.020361	0.071161	0.063647	0.025549	0.052203	0.036992	0.024677	0.033197	0.069133	0.038345	0.056706	0.084830	0.047186	0.061166	0.035599	0.025629	0.017398	0.065935	0.031999	0.052543	0.014149	0.013914	0.004268	0.013821	0.012458	0.023777	0.026578	0.019005	0.027267	0.030059	0.039947	0.003366	0.004026	0.002730	0.007212	0.022464	0.019757	0.014465	0.020550	0.019060	0.025239	0.013581	0.015532	0.020811	0.010321	0.043500	0.061446	0.020404	0.027923	0.024061	0.012529	0.019418	0.008114	0.037739	0.020857	0.028800	0.026366
3.710000	0.176217	0.051138	0.055791	0.046682	0.020238	0.071176	0.063851	0.025576	0.052259	0.037096	0.024774	0.033301	0.069268	0.038335	0.057139	0.084856	0.047249	0.061272	0.035731	0.025664	0.017449	0.065614	0.031981	0.052331	0.013310	0.013544	0.004469	0.013772	0.012389	0.023675	0.026451	0.019031	0.027119	0.030211	0.040067	0.003344	0.003917	0.002651	0.007215	0.022551	0.019558	0.014212	0.020436	0.019010	0.025182	0.013707	0.015610	0.020744	0.010194	0.043611	0.061721	0.020607	0.027840	0.024132	0.012592	0.019245	0.008000	0.037532	0.020801	0.028754	0.026373
3.715000	0.176777	0.051418	0.055945	0.046351	0.020113	0.071255	0.064025	0.025964	0.052452	0.037356	0.024938	0.033398	0.069208	0.038234	0.057331	0.084803	0.047232	0.061156	0.035710	0.025636	0.017312	0.065771	0.032226	0.052472	0.016711	0.012380	0.003937	0.013639	0.012753	0.023587	0.026631	0.019352	0.027064	0.029767	0.039576	0.002703	0.004074	0.002325	0.006907	0.022606	0.019139	0.013828	0.019990	0.018851	0.025265	0.014156	0.016023	0.021230	0.010587	0.043395	0.061629	0.020512	0.027667	0.023971	0.012632	0.019135	0.007941	0.037275	0.020697	0.028701	0.026354
3.720000	0.177360	0.051993	0.056459	0.046992	0.020347	0.071266	0.064163	0.025958	0.052396	0.037360	0.024799	0.033243	0.069325	0.038076	0.057748	0.084962	0.047431	0.061325	0.035809	0.025648	0.017500	0.066169	0.031970	0.053108	0.013212	0.014838	0.003670	0.013480	0.012413	0.023621	0.026690	0.019197	0.026727	0.030475	0.040212	0.003421	0.004054	0.003100	0.007107	0.022586	0.019490	0.014131	0.020337	0.018992	0.025215	0.013088	0.015008	0.020374	0.010022	0.043824	0.061819	0.020314	0.027909	0.024154	0.012679	0.019419	0.008148	0.037684	0.020921	0.028868	0.026417
3.725000	0.178024	0.052719	0.057161	0.046332	0.020344	0.071129	0.064094	0.026077	0.052462	0.037474	0.025008	0.033419	0.069560	0.038039	0.057781	0.084922	0.047525	0.061346	0.035880	0.025853	0.017727	0.066169	0.031733	0.053228	0.015221	0.012077	0.004245	0.013477	0.012476	0.023422	0.026330	0.018933	0.026923	0.030455	0.039727	0.003125	0.003775	0.003042	0.007014	0.022764	0.018876	0.013457	0.019839	0.018838	0.025108	0.013906	0.015893	0.021202	0.010359	0.043663	0.062156	0.020806	0.027648	0.024160	0.012682	0.019080	0.007802	0.037074	0.020676	0.028690	0.026310
3.730000	0.178435	0.052756	0.057304	0.046351	0.020299	0.071227	0.064217	0.026127	0.052471	0.037577	0.025051	0.034097	0.069354	0.038309	0.057866	0.085289	0.047783	0.061436	0.036038	0.025702	0.017936	0.066573	0.031549	0.053401	0.014384	0.013976	0.003594	0.013469	0.012482	0.024014	0.026700	0.019440	0.026967	0.030086	0.039496	0.003126	0.003819	0.002951	0.006936	0.022509	0.018820	0.013381	0.019739	0.018718	0.025220	0.014001	0.016170	0.021471	0.010508	0.043251	0.061480	0.019950	0.027528	0.023836	0.012602	0.019330	0.008035	0.037437	0.020896	0.028836	0.026319
3.735000	0.179266	0.053324	0.058165	0.046493	0.020221	0.071086	0.064827	0.026133	0.051846	0.037694	0.025085	0.033953	0.069688	0.038215	0.058007	0.085341	0.047960	0.061427	0.036108	0.025687	0.017972	0.066289	0.031706	0.053763	0.015499	0.013263	0.003679	0.013405	0.012511	0.023660	0.026543	0.019205	0.026773	0.030221	0.039857	0.003401	0.003796	0.002999	0.006886	0.022933	0.018727	0.013340	0.019551	0.018757	0.025043	0.013897	0.016090	0.021411	0.010356	0.043485	0.061862	0.020518	0.027601	0.024081	0.012829	0.019190	0.007848	0.037089	0.020788	0.028813	0.026371
3.740000	0.180104	0.053786	0.058980	0.046413	0.020329	0.070865	0.064963	0.026228	0.051933	0.037898	0.025091	0.033827	0.070020	0.038009	0.058384	0.085484	0.048041	0.061483	0.036148	0.025808	0.018003	0.066256	0.031994	0.053672	0.015016	0.013036	0.003437	0.013219	0.012585	0.023751	0.026706	0.019268	0.027194	0.030415	0.040050	0.003545	0.003832	0.003091	0.006956	0.022879	0.019319	0.013357	0.019648	0.018743	0.025014	0.013333	0.015270	0.020877	0.009963	0.043846	0.061993	0.020619	0.027783	0.024165	0.012834	0.019220	0.007904	0.037254	0.020950	0.029005	0.026347
3.745000	0.180974	0.054346	0.059534	0.046044	0.020311	0.070573	0.064953	0.026414	0.052585	0.038047	0.025182	0.034105	0.069888	0.038311	0.058453	0.085611	0.048148	0.061546	0.036173	0.025871	0.017953	0.066428	0.031849	0.053964	0.014059	0.013059	0.003695	0.013263	0.012328	0.023793	0.026571	0.019180	0.027219	0.030400	0.039983	0.003407	0.003807	0.003251	0.007067	0.022724	0.019170	0.013181	0.019476	0.018764	0.025142	0.013681	0.015457	0.021097	0.010233	0.043578	0.061777	0.020351	0.027775	0.024017	0.012969	0.019227	0.007876	0.037240	0.021051	0.028989	0.026433
3.750000	0.181496	0.054399	0.059538	0.046088	0.020128	0.070320	0.064912	0.026573	0.052708	0.038104	0.025232	0.034085	0.070248	0.038228	0.058608	0.085812	0.048282	0.061776	0.036443	0.025843	0.018252	0.066593	0.031812	0.054571	0.015626	0.013481	0.003116	0.013098	0.012628	0.024042	0.026681	0.019713	0.027222	0.030138	0.039352	0.003105	0.003933	0.003070	0.007241	0.022898	0.018844	0.012919	0.019123	0.018603	0.025051	0.014285	0.015821	0.021624	0.010459	0.043096	0.061375	0.020198	0.027629	0.023846	0.012909	0.019336	0.007867	0.037291	0.021080	0.029081	0.026364
3.755000	0.182343	0.055429	0.060305	0.046048	0.020202	0.069811	0.064880	0.026577	0.052654	0.038071	0.025232	0.034487	0.070060	0.038208	0.059006	0.086101	0.048264	0.061789	0.036473	0.026000	0.018212	0.066586	0.031619	0.054253	0.015330	0.012910	0.003440	0.012997	0.012490	0.023798	0.026586	0.019440	0.027057	0.030267	0.039774	0.003050	0.003938	0.003318	0.007344	0.023022	0.018929	0.012933	0.019124	0.018567	0.024950	0.013848	0.015680	0.021221	0.010310	0.043257	0.061516	0.020314	0.027516	0.023942	0.012957	0.019265	0.007778	0.037228	0.021274	0.029220	0.026388
3.760000	0.183116	0.055995	0.060613	0.045385	0.020241	0.069463	0.064775	0.026504	0.052249	0.038373	0.025181	0.034768	0.070162	0.038250	0.059285	0.086158	0.048390	0.062058	0.036508	0.025836	0.018229	0.066754	0.031560	0.054885	0.014755	0.012967	0.003337	0.012814	0.012328	0.023992	0.026842	0.019677	0.026938	0.030331	0.040030	0.002939	0.003893	0.003363	0.007203	0.023103	0.018772	0.012702	0.019029	0.018568	0.025145	0.013091	0.015350	0.021073	0.010279	0.043389	0.061480	0.020389	0.027542	0.023949	0.013172	0.019438	0.007867	0.037477	0.021315	0.029246	0.026437
3.765000	0.183779	0.056283	0.060919	0.045219	0.020126	0.068944	0.064671	0.026703	0.052295	0.038544	0.025360	0.034428	0.070330	0.038179	0.059891	0.086279	0.048424	0.062146	0.036622	0.025865	0.018423	0.066546	0.031431	0.054630	0.014807	0.014545	0.003124	0.012842	0.012333	0.024307	0.027065	0.019980	0.027325	0.029993	0.039827	0.003042	0.003956	0.003123	0.007152	0.023050	0.018636	0.012562	0.018819	0.018506	0.025055	0.013810	0.015539	0.020923	0.010413	0.043324	0.061187	0.020283	0.027456	0.023895	0.013101	0.019385	0.007881	0.037479	0.021497	0.029369	0.026558
3.770000	0.184538	0.057203	0.061764	0.045198	0.020066	0.068109	0.064175	0.026700	0.052927	0.038777	0.025624	0.034899	0.070241	0.038466	0.059624	0.086193	0.048383	0.061917	0.036456	0.025726	0.018275	0.066821	0.031637	0.055431	0.015546	0.013317	0.003171	0.012725	0.012558	0.023997	0.026835	0.019839	0.027194	0.030150	0.039784	0.003192	0.003967	0.003356	0.007372	0.023242	0.018542	0.012518	0.018496	0.018425	0.024890	0.013426	0.015371	0.020731	0.009905	0.043434	0.061357	0.020373	0.027556	0.024020	0.013202	0.019418	0.007801	0.037415	0.021520	0.029438	0.026540
3.775000	0.185191	0.057514	0.061922	0.045039	0.020252	0.067573	0.063831	0.026477	0.052565	0.038829	0.025806	0.034968	0.070406	0.038189	0.060566	0.086654	0.048748	0.062185	0.036714	0.025904	0.018445	0.066704	0.031359	0.055069	0.014288	0.012955	0.003498	0.012486	0.012426	0.024207	0.026750	0.019929	0.027122	0.030281	0.040257	0.003256	0.004116	0.003385	0.007419	0.023317	0.018497	0.012527	0.018344	0.018244	0.025026	0.013278	0.014962	0.020440	0.010064	0.043522	0.061550	0.020345	0.027551	0.024008	0.013009	0.019399	0.007902	0.037543	0.021638	0.029595	0.026538
3.780000	0.185784	0.057754	0.062077	0.044745	0.019915	0.066821	0.063798	0.026730	0.052523	0.038841	0.025521	0.035051	0.070268	0.038383	0.060813	0.086564	0.048864	0.062517	0.036732	0.025744	0.018655	0.066693	0.031527	0.055979	0.015061	0.014052	0.003300	0.012509	0.012569	0.024487	0.027106	0.020638	0.027073	0.029642	0.039553	0.002698	0.004163	0.002920	0.007207	0.023364	0.018118	0.012169	0.018038	0.018146	0.024783	0.014091	0.015900	0.021287	0.010597	0.042755	0.060689	0.019832	0.027317	0.023785	0.012947	0.019548	0.007941	0.037641	0.021844	0.029740	0.026645
3.785000	0.186686	0.058507	0.062939	0.044864	0.019740	0.065925	0.062756	0.026397	0.052227	0.038913	0.025878	0.035305	0.070330	0.038676	0.060900	0.086548	0.048838	0.062402	0.036811	0.025854	0.018619	0.066748	0.031573	0.055155	0.014735	0.014202	0.003416	0.012358	0.012490	0.024258	0.027110	0.020416	0.026932	0.029773	0.039813	0.002921	0.003804	0.003074	0.007644	0.023634	0.018042	0.012170	0.017860	0.018026	0.024999	0.013813	0.015402	0.020967	0.010258	0.042804	0.060859	0.019983	0.027394	0.023819	0.012937	0.019766	0.007951	0.037781	0.021890	0.029757	0.026587
3.790000	0.187209	0.058914	0.063639	0.044784	0.019609	0.065235	0.062591	0.026613	0.051937	0.039231	0.026472	0.036005	0.070617	0.038360	0.061618	0.086465	0.048870	0.062313	0.036587	0.025799	0.018428	0.066740	0.031467	0.055935	0.015672	0.015136	0.003283	0.012131	0.012348	0.024416	0.027048	0.020495	0.026841	0.029728	0.039577	0.003250	0.004138	0.003128	0.007600	0.023741	0.017872	0.012137	0.017572	0.017949	0.024795	0.013442	0.015416	0.021034	0.010199	0.042981	0.060992	0.020089	0.027414	0.023946	0.013017	0.019421	0.007824	0.037673	0.022016	0.029914	0.026673
3.795000	0.187981	0.059495	0.064781	0.044975	0.019629	0.064546	0.061714	0.026193	0.051373	0.038542	0.025591	0.035987	0.070394	0.038578	0.062716	0.086527	0.048777	0.062367	0.036673	0.025671	0.018570	0.066582	0.031694	0.056506	0.015228	0.013496	0.003649	0.011962	0.012266	0.023958	0.026545	0.019927	0.026558	0.030330	0.040038	0.003133	0.004270	0.003420	0.007440	0.023896	0.017687	0.012145	0.017390	0.017994	0.024869	0.013229	0.014603	0.020312	0.009447	0.043712	0.061990	0.020557	0.027553	0.024160	0.013132	0.019237	0.007796	0.037390	0.021981	0.029841	0.026721
3.800000	0.188620	0.059578	0.065270	0.044705	0.019437	0.064060	0.061575	0.026265	0.051185	0.039240	0.026243	0.036360	0.070468	0.038715	0.062835	0.086770	0.048667	0.062239	0.036450	0.025745	0.018418	0.067016	0.031596	0.056189	0.016231	0.012786	0.003647	0.011715	0.012431	0.024027	0.026816	0.019822	0.026712	0.030239	0.040024	0.003148	0.003920	0.003431	0.007296	0.024005	0.017577	0.011990	0.017205	0.017914	0.024805	0.012940	0.014688	0.020523	0.009720	0.043544	0.061760	0.020495	0.027482	0.024074	0.013140	0.019284	0.007751	0.037517	0.022139	0.030012	0.026737
3.805000	0.189192	0.059826	0.065977	0.044567	0.019178	0.063499	0.061097	0.026009	0.050667	0.038895	0.026062	0.035945	0.070536	0.038792	0.063584	0.086743	0.048711	0.062142	0.036644	0.025613	0.018514	0.066738	0.032110	0.057100	0.015356	0.012977	0.003561	0.011756	0.012500	0.024144	0.026946	0.019690	0.026601	0.030126	0.040406	0.003383	0.003923	0.003684	0.007212	0.023975	0.017177	0.011851	0.017150	0.017875	0.024938	0.013551	0.014833	0.020445	0.009932	0.043365	0.061276	0.020110	0.027408	0.023894	0.013158	0.019627	0.008020	0.037827	0.022462	0.030139	0.026804
3.810000	0.189800	0.059770	0.066439	0.044239	0.018962	0.063065	0.060470	0.026149	0.050782	0.039085	0.025958	0.036257	0.070631	0.038850	0.064422	0.086767	0.048630	0.061921	0.036334	0.025544	0.018509	0.066847	0.032220	0.057438	0.014570	0.012804	0.003731	0.011488	0.012470	0.024410	0.027035	0.020459	0.026794	0.029785	0.040197	0.003270	0.003719	0.003668	0.007004	0.024133	0.016892	0.011754	0.016858	0.017767	0.024977	0.014132	0.015250	0.021030	0.010538	0.042734	0.060461	0.019763	0.027326	0.023672	0.013193	0.019734	0.008014	0.038051	0.022656	0.030325	0.026838
3.815000	0.190147	0.059818	0.066642	0.043715	0.018661	0.062286	0.059762	0.025912	0.050721	0.039008	0.026721	0.036343	0.070718	0.039213	0.064798	0.086361	0.048568	0.061854	0.036189	0.025687	0.018590	0.066920	0.032035	0.057871	0.015748	0.015396	0.003563	0.011472	0.012490	0.024995	0.027549	0.020391	0.026955	0.029185	0.039327	0.002985	0.003489	0.003442	0.006871	0.024410	0.016625	0.011486	0.016625	0.017631	0.024335	0.014744	0.015789	0.021451	0.010946	0.042132	0.059921	0.019675	0.027243	0.023671	0.013310	0.019833	0.008145	0.038060	0.022877	0.030492	0.026869
3.820000	0.190817	0.060605	0.067629	0.044020	0.018444	0.061421	0.058969	0.025591	0.050541	0.038812	0.026166	0.036492	0.070456	0.039601	0.065726	0.086068	0.048459	0.061559	0.036064	0.025676	0.018643	0.066720	0.032388	0.057869	0.016739	0.014543	0.003631	0.011454	0.012733	0.024244	0.027085	0.019743	0.026469	0.029534	0.039863	0.003298	0.003993	0.003637	0.007151	0.024389	0.016448	0.011557	0.016463	0.017645	0.024567	0.013731	0.014726	0.020622	0.010049	0.043017	0.061011	0.019961	0.027446	0.023737	0.013385	0.019599	0.008216	0.038102	0.022798	0.030454	0.026876
3.825000	0.191616	0.061371	0.068335	0.043911	0.018297	0.060898	0.058249	0.025141	0.049954	0.038116	0.026115	0.036665	0.070322	0.039894	0.065748	0.085611	0.048368	0.061506	0.036111	0.025773	0.018950	0.066451	0.032837	0.057658	0.015557	0.012737	0.004017	0.011213	0.012402	0.024246	0.027128	0.019570	0.026305	0.029364	0.039833	0.003087	0.004197	0.003685	0.007164	0.024597	0.016067	0.011463	0.016337	0.017695	0.024413	0.013500	0.014515	0.020211	0.010037	0.043192	0.060983	0.019933	0.027482	0.023787	0.013238	0.019693	0.008109	0.038148	0.023004	0.030636	0.026953
3.830000	0.192039	0.061097	0.068177	0.043428	0.018147	0.060220	0.057936	0.024938	0.049676	0.038481	0.025951	0.036379	0.070251	0.040073	0.066555	0.085088	0.048050	0.061258	0.035878	0.025670	0.018711	0.066785	0.032420	0.058695	0.016213	0.015281	0.004054	0.011059	0.012482	0.024829	0.027422	0.020201	0.026770	0.028879	0.039389	0.003206	0.004032	0.003564	0.007132	0.024699	0.016079	0.011273	0.016052	0.017629	0.024548	0.014097	0.014727	0.020645	0.010603	0.042704	0.060476	0.019621	0.027493	0.023635	0.013265	0.019912	0.007951	0.038344	0.023113	0.030714	0.027026
3.835000	0.192126	0.061636	0.068830	0.043805	0.017946	0.059701	0.057880	0.024616	0.049586	0.038133	0.025759	0.036736	0.070240	0.040043	0.067840	0.084709	0.047635	0.061038	0.035691	0.025653	0.018796	0.066504	0.033013	0.059245	0.015951	0.014131	0.004012	0.010989	0.012389	0.024369	0.027232	0.019794	0.026340	0.029407	0.039881	0.003430	0.004272	0.003812	0.007445	0.024705	0.015416	0.011278	0.015805	0.017656	0.024684	0.013517	0.014598	0.020359	0.010059	0.043023	0.061008	0.019752	0.027420	0.023574	0.013281	0.019727	0.008246	0.038149	0.023136	0.030838	0.027158
3.840000	0.193178	0.062072	0.069275	0.043547	0.017856	0.059029	0.056841	0.024245	0.049061	0.037811	0.025757	0.036700	0.070223	0.040469	0.067849	0.084134	0.047315	0.060841	0.035440	0.025707	0.018920	0.066630	0.033467	0.058851	0.014585	0.013336	0.004166	0.010650	0.012278	0.024153	0.027003	0.020265	0.026189	0.029334	0.039725	0.003474	0.004468	0.003796	0.007393	0.024837	0.015223	0.011292	0.015534	0.017437	0.024652	0.013820	0.014681	0.020428	0.010394	0.042815	0.060844	0.019685	0.027452	0.023534	0.013468	0.019678	0.008145	0.038129	0.023214	0.030895	0.027183
3.845000	0.192825	0.061752	0.068836	0.043181	0.017510	0.058426	0.057124	0.024029	0.049147	0.037693	0.025354	0.036148	0.069985	0.040686	0.069167	0.083684	0.046792	0.060180	0.034999	0.025550	0.018638	0.066530	0.033566	0.060106	0.018215	0.014468	0.004168	0.010788	0.012941	0.024632	0.027385	0.020564	0.026421	0.028856	0.038865	0.003171	0.004676	0.003521	0.007243	0.024938	0.014636	0.011052	0.015083	0.017257	0.025053	0.014939	0.015824	0.021442	0.010884	0.042155	0.060134	0.019409	0.027263	0.023371	0.013393	0.019952	0.007946	0.038248	0.023186	0.030857	0.027324
3.850000	0.193321	0.062266	0.069470	0.043525	0.017431	0.057714	0.056341	0.023504	0.048670	0.036989	0.024721	0.035799	0.070301	0.041025	0.069577	0.083373	0.046494	0.059921	0.034750	0.025864	0.018878	0.066600	0.033364	0.060869	0.016467	0.014993	0.004253	0.010755	0.012806	0.024774	0.027604	0.020631	0.026466	0.028989	0.039587	0.003283	0.004795	0.003752	0.007536	0.025093	0.015038	0.011123	0.015222	0.017271	0.024726	0.013652	0.014436	0.020224	0.010368	0.042735	0.060175	0.019613	0.027492	0.023433	0.013435	0.020195	0.008247	0.038689	0.023468	0.031307	0.027498
3.855000	0.194152	0.062843	0.070516	0.043463	0.017382	0.057325	0.055798	0.022888	0.048055	0.036442	0.025861	0.035904	0.069155	0.041978	0.069429	0.082143	0.046101	0.059563	0.034374	0.026017	0.018962	0.066652	0.034238	0.060230	0.016770	0.013837	0.004248	0.010446	0.012533	0.024262	0.027217	0.020287	0.026257	0.028910	0.039281	0.003055	0.005032	0.003730	0.007567	0.025534	0.014526	0.011182	0.014931	0.017289	0.024680	0.013919	0.014570	0.020522	0.010472	0.042479	0.059893	0.019662	0.027492	0.023429	0.013495	0.020250	0.008091	0.038477	0.023623	0.031329	0.027662
3.860000	0.194559	0.062810	0.070639	0.043201	0.017260	0.057169	0.055387	0.022509	0.047627	0.036138	0.025142	0.035627	0.069043	0.041982	0.070102	0.081571	0.045659	0.059118	0.033930	0.026115	0.018766	0.066904	0.034648	0.061046	0.017030	0.013630	0.004391	0.010389	0.012838	0.024475	0.027189	0.020419	0.026349	0.028818	0.039191	0.003175	0.005173	0.003744	0.007596	0.025558	0.014331	0.011214	0.014778	0.017190	0.024675	0.013504	0.014605	0.020672	0.010590	0.042585	0.059909	0.019662	0.027510	0.023318	0.013515	0.020362	0.007988	0.038529	0.023607	0.031396	0.027803
3.865000	0.194588	0.062501	0.070678	0.043186	0.017343	0.056513	0.055523	0.022189	0.047345	0.035872	0.024576	0.035029	0.068721	0.042160	0.071292	0.081043	0.045043	0.058927	0.033554	0.025938	0.018505	0.066242	0.034673	0.061691	0.016958	0.015280	0.004844	0.010261	0.012884	0.024702	0.027470	0.020348	0.026368	0.028706	0.039094	0.003209	0.005114	0.003811	0.007481	0.025511	0.014172	0.011009	0.014541	0.017174	0.024917	0.014001	0.014409	0.020315	0.010613	0.042476	0.059594	0.019468	0.027477	0.023137	0.013351	0.020438	0.008169	0.038682	0.023832	0.031635	0.028169
3.870000	0.195182	0.062961	0.071499	0.043421	0.017310	0.056197	0.055338	0.021543	0.046883	0.035097	0.024611	0.034589	0.068406	0.042417	0.071659	0.080214	0.044390	0.058303	0.032926	0.026150	0.018370	0.066428	0.035069	0.062204	0.017654	0.015325	0.004793	0.010146	0.012828	0.024556	0.027541	0.020378	0.026210	0.028799	0.038733	0.003111	0.004966	0.003818	0.007598	0.025637	0.014051	0.011086	0.014305	0.017176	0.024854	0.013341	0.014118	0.020069	0.010509	0.042814	0.059699	0.019633	0.027808	0.023252	0.013553	0.020618	0.008107	0.038715	0.023837	0.031626	0.028230
3.875000	0.195572	0.063034	0.071975	0.043577	0.017426	0.055841	0.055267	0.021047	0.046609	0.034644	0.023226	0.034292	0.067635	0.043035	0.072538	0.079481	0.043828	0.057907	0.032384	0.026065	0.018226	0.066358	0.035664	0.063380	0.016551	0.012352	0.005064	0.009977	0.012833	0.024071	0.027137	0.019802	0.026182	0.029128	0.039155	0.003285	0.005117	0.004134	0.007773	0.025544	0.013876	0.011108	0.014163	0.017095	0.025421	0.012853	0.013386	0.019397	0.010174	0.043309	0.060195	0.019811	0.027979	0.023211	0.013582	0.020460	0.008180	0.038564	0.023872	0.031689	0.028421
3.880000	0.196670	0.062900	0.072058	0.042796	0.017497	0.055726	0.055321	0.020506	0.046115	0.033925	0.022758	0.033676	0.067258	0.043419	0.072237	0.078948	0.043371	0.057268	0.031931	0.026304	0.017950	0.066939	0.035597	0.063458	0.017341	0.017731	0.005717	0.009896	0.012535	0.024587	0.027578	0.020595	0.026505	0.028374	0.038322	0.002910	0.004954	0.003895	0.007701	0.025913	0.013907	0.011119	0.013906	0.016897	0.024919	0.013911	0.014415	0.020257	0.011177	0.042653	0.059192	0.019656	0.028041	0.023090	0.013561	0.020666	0.008202	0.038651	0.024104	0.031862	0.028537
3.885000	0.196931	0.063774	0.072983	0.043584	0.017611	0.055275	0.055258	0.020047	0.045871	0.033273	0.022713	0.033520	0.066810	0.043647	0.073705	0.078096	0.042368	0.056694	0.030985	0.026437	0.017695	0.065921	0.036558	0.063295	0.017952	0.013349	0.005611	0.009610	0.013094	0.023634	0.026587	0.019460	0.025412	0.029455	0.039400	0.003257	0.005453	0.004307	0.007701	0.025972	0.013144	0.011252	0.013360	0.016940	0.025278	0.012729	0.013462	0.019482	0.010078	0.043398	0.060683	0.020132	0.028101	0.023297	0.013658	0.020196	0.007962	0.038078	0.023774	0.031638	0.028505
3.890000	0.197936	0.063875	0.073072	0.043457	0.017653	0.055329	0.055126	0.019106	0.045061	0.032167	0.022610	0.032868	0.066308	0.044409	0.073264	0.078023	0.041665	0.056330	0.030339	0.027013	0.017286	0.066644	0.035967	0.061781	0.016772	0.016566	0.006045	0.009567	0.012595	0.023979	0.027202	0.019950	0.025911	0.028614	0.038700	0.003011	0.005445	0.004199	0.007600	0.026177	0.013613	0.011134	0.013344	0.016729	0.025024	0.013144	0.013601	0.019722	0.010912	0.042951	0.059850	0.019726	0.028259	0.023125	0.013738	0.020437	0.008049	0.038345	0.023980	0.031798	0.028636
3.895000	0.198295	0.063848	0.073348	0.043440	0.017387	0.055162	0.055359	0.018252	0.044464	0.031490	0.022277	0.032579	0.065917	0.044709	0.074258	0.077258	0.041003	0.055806	0.029523	0.026757	0.017013	0.066397	0.036475	0.061393	0.017327	0.014506	0.005902	0.009585	0.013202	0.024486	0.027360	0.020456	0.025960	0.028368	0.038197	0.003149	0.005499	0.004153	0.007631	0.026170	0.013341	0.010985	0.013057	0.016649	0.025412	0.012558	0.012853	0.018929	0.010302	0.043328	0.060022	0.019788	0.028413	0.023184	0.013890	0.020454	0.008128	0.038389	0.024187	0.032038	0.028826
3.900000	0.198909	0.064011	0.073488	0.043407	0.017575	0.055075	0.055109	0.017103	0.043514	0.030204	0.021629	0.031805	0.065343	0.045256	0.074159	0.077089	0.040356	0.055421	0.029052	0.027067	0.016836	0.067495	0.035780	0.061690	0.017045	0.017394	0.006357	0.009330	0.012871	0.024566	0.027653	0.020772	0.026176	0.027663	0.037452	0.002922	0.005485	0.004067	0.007593	0.026530	0.013144	0.011085	0.012729	0.016585	0.025326	0.012754	0.013022	0.019164	0.010893	0.042905	0.059221	0.019501	0.028403	0.022961	0.013863	0.020722	0.008320	0.038606	0.024364	0.032074	0.028935
3.905000	0.199327	0.064535	0.073928	0.043623	0.017523	0.055075	0.055067	0.016559	0.043363	0.029734	0.021849	0.031233	0.065219	0.045672	0.075284	0.076467	0.039708	0.054619	0.028248	0.027090	0.016673	0.067334	0.036157	0.063874	0.017187	0.015211	0.006602	0.009404	0.013254	0.024997	0.027942	0.020970	0.026367	0.027586	0.037829	0.003026	0.005486	0.004131	0.007840	0.026478	0.013106	0.011036	0.012582	0.016491	0.025618	0.011564	0.011716	0.017831	0.010443	0.043761	0.059978	0.019965	0.028823	0.023292	0.014048	0.020586	0.008335	0.038500	0.024480	0.032203	0.029116
3.910000	0.200287	0.064178	0.074158	0.043390	0.017412	0.055109	0.055347	0.015796	0.042826	0.028967	0.021553	0.030935	0.064923	0.045765	0.075904	0.075752	0.038988	0.054145	0.027698	0.027494	0.016718	0.066839	0.036876	0.066543	0.017850	0.013298	0.006827	0.009190	0.013802	0.025080	0.028022	0.021227	0.026258	0.026995	0.037165	0.003037	0.005562	0.004158	0.007789	0.026871	0.012499	0.011311	0.012202	0.016393	0.025597	0.012220	0.012399	0.018326	0.011184	0.043379	0.059277	0.019740	0.028844	0.023128	0.014113	0.020767	0.008260	0.038424	0.024533	0.032238	0.029307
3.915000	0.201494	0.064969	0.074643	0.042987	0.017652	0.055427	0.054730	0.015245	0.042493	0.028472	0.021813	0.031004	0.064248	0.047125	0.074713	0.075223	0.038532	0.053726	0.027437	0.028467	0.017265	0.066272	0.037788	0.067368	0.017675	0.017354	0.007293	0.009195	0.012931	0.025482	0.028405	0.021831	0.026719	0.026332	0.036067	0.003012	0.005574	0.004053	0.007719	0.027293	0.012254	0.011481	0.012159	0.016294	0.025279	0.012996	0.012851	0.018684	0.012350	0.042587	0.058029	0.019255	0.029006	0.022925	0.014051	0.021148	0.008316	0.038553	0.024916	0.032502	0.029462
3.920000	0.201432	0.064727	0.074524	0.043111	0.017500	0.055628	0.055517	0.015342	0.042703	0.027877	0.021852	0.031058	0.063673	0.046637	0.076581	0.074405	0.037730	0.053174	0.026638	0.028464	0.017113	0.064484	0.038598	0.068276	0.019157	0.016723	0.007353	0.009589	0.013183	0.026484	0.029283	0.022744	0.027591	0.025118	0.034657	0.003431	0.005506	0.004058	0.007572	0.027198	0.011941	0.011286	0.011661	0.016189	0.026100	0.011561	0.011919	0.017832	0.011834	0.042870	0.058174	0.019420	0.029188	0.023036	0.014230	0.021270	0.008533	0.038791	0.025065	0.032713	0.029623
3.925000	0.202119	0.064822	0.074905	0.043179	0.017355	0.055786	0.055650	0.014473	0.042089	0.027703	0.021830	0.030716	0.063384	0.047217	0.077097	0.073869	0.037183	0.052906	0.026196	0.028728	0.017272	0.064329	0.038606	0.069126	0.019764	0.016548	0.007736	0.009524	0.013346	0.026590	0.029291	0.023033	0.027448	0.024967	0.034529	0.003279	0.005683	0.004278	0.007766	0.027632	0.011631	0.011660	0.011374	0.016171	0.025697	0.011994	0.011752	0.017647	0.011743	0.042753	0.058157	0.019409	0.029344	0.022991	0.014333	0.021293	0.008541	0.038627	0.025085	0.032683	0.029696
3.930000	0.202498	0.065294	0.075159	0.043124	0.017037	0.055927	0.055752	0.014020	0.041769	0.026873	0.022031	0.031231	0.062488	0.047586	0.077033	0.073221	0.036666	0.052373	0.025642	0.029086	0.017583	0.064185	0.038463	0.069257	0.019818	0.016500	0.007977	0.009725	0.013519	0.026779	0.029423	0.022994	0.027509	0.024697	0.034377	0.003463	0.005910	0.004346	0.007672	0.027698	0.011223	0.011698	0.010971	0.016159	0.025861	0.011485	0.011588	0.017372	0.012282	0.042936	0.057928	0.019187	0.029369	0.022904	0.014307	0.021437	0.008586	0.038713	0.025260	0.032787	0.029816
3.935000	0.202504	0.065541	0.075218	0.042971	0.016935	0.056674	0.055910	0.013500	0.041354	0.026503	0.021998	0.030379	0.061986	0.047670	0.077106	0.072704	0.036381	0.052063	0.025252	0.029443	0.017991	0.063554	0.039039	0.067967	0.020131	0.017262	0.008372	0.009608	0.013435	0.026916	0.029491	0.023160	0.027422	0.024596	0.033677	0.003662	0.006226	0.004426	0.007772	0.027936	0.011172	0.012035	0.010717	0.016053	0.025917	0.011866	0.011709	0.017512	0.012735	0.042561	0.057422	0.018880	0.029154	0.022693	0.014001	0.021419	0.008528	0.038517	0.025418	0.032937	0.029959
3.940000	0.202980	0.065682	0.075391	0.042923	0.016787	0.057123	0.055822	0.013139	0.040930	0.026311	0.022421	0.031230	0.061314	0.047699	0.076954	0.072075	0.036003	0.051606	0.024965	0.029108	0.018065	0.063280	0.038692	0.067822	0.020565	0.017024	0.008363	0.009695	0.013541	0.027117	0.029617	0.023079	0.027438	0.024438	0.033109	0.003908	0.006269	0.004365	0.007785	0.028119	0.010917	0.012170	0.010338	0.016165	0.026272	0.011775	0.011775	0.017446	0.013002	0.042172	0.057026	0.018718	0.029177	0.022530	0.014062	0.021543	0.008595	0.038494	0.025470	0.032982	0.030005
3.945000	0.202984	0.065855	0.075309	0.042775	0.016655	0.057619	0.055956	0.013131	0.040795	0.026115	0.021755	0.030268	0.060927	0.047824	0.076891	0.071574	0.035730	0.051252	0.024961	0.029423	0.018780	0.062691	0.038759	0.069031	0.020871	0.017608	0.008743	0.009932	0.013646	0.027430	0.029771	0.023383	0.027576	0.023987	0.032847	0.004089	0.006500	0.004554	0.007990	0.028551	0.011012	0.012587	0.010097	0.016033	0.025957	0.012120	0.011830	0.017445	0.013518	0.041800	0.056405	0.018490	0.029291	0.022388	0.014490	0.021592	0.008558	0.038340	0.025626	0.033149	0.030042
3.950000	0.202980	0.065895	0.075388	0.042745	0.016195	0.057716	0.056224	0.013086	0.040775	0.025822	0.022437	0.031422	0.060121	0.048136	0.076175	0.070828	0.035418	0.050860	0.024740	0.029458	0.018973	0.061939	0.039522	0.068082	0.021555	0.017243	0.008817	0.010072	0.013778	0.027901	0.029866	0.023266	0.027669	0.024036	0.032479	0.004146	0.006703	0.004480	0.008034	0.028767	0.010523	0.012837	0.009615	0.016186	0.026362	0.012127	0.012129	0.017595	0.013943	0.041168	0.055824	0.018126	0.029109	0.022077	0.014986	0.021543	0.008520	0.038203	0.025682	0.033221	0.030151
3.955000	0.202686	0.065447	0.074849	0.042347	0.016051	0.058600	0.056277	0.013054	0.040575	0.025757	0.021832	0.030154	0.059712	0.048075	0.076516	0.070447	0.035275	0.050358	0.024555	0.029280	0.018877	0.061581	0.038925	0.067854	0.021775	0.018161	0.008936	0.010336	0.014162	0.028359	0.029821	0.023528	0.027630	0.023846	0.032024	0.004137	0.006873	0.004572	0.008111	0.029161	0.010381	0.013115	0.009354	0.016454	0.026109	0.012839	0.012724	0.018164	0.014459	0.040600	0.054997	0.017782	0.029003	0.021783	0.014972	0.021516	0.008462	0.038057	0.025853	0.033345	0.030253
3.960000	0.202297	0.065088	0.074764	0.042130	0.015838	0.058805	0.056710	0.013411	0.040517	0.025908	0.021885	0.030325	0.058740	0.048083	0.075656	0.070014	0.035364	0.050403	0.024413	0.028967	0.018560	0.061052	0.038891	0.067614	0.022510	0.018379	0.009219	0.010527	0.014174	0.028697	0.029974	0.023676	0.027743	0.023715	0.031727	0.004259	0.006995	0.004297	0.008009	0.029328	0.009768	0.013337	0.009127	0.016423	0.026219	0.012812	0.012813	0.018223	0.014685	0.040321	0.054465	0.017532	0.028883	0.021539	0.014904	0.021493	0.008364	0.037948	0.025901	0.033396	0.030306
3.965000	0.201620	0.064670	0.074244	0.041982	0.015625	0.059329	0.056907	0.013658	0.040654	0.025397	0.021449	0.030045	0.057935	0.047982	0.075181	0.069731	0.035311	0.050122	0.024477	0.028588	0.018616	0.060625	0.039127	0.066717	0.022804	0.018999	0.009637	0.010762	0.014343	0.028893	0.030272	0.023623	0.027748	0.023652	0.031266	0.004476	0.007137	0.004403	0.008174	0.029578	0.009500	0.013729	0.008833	0.016536	0.026275	0.013057	0.012976	0.018357	0.014951	0.039679	0.053950	0.017264	0.028760	0.021346	0.014906	0.021595	0.008306	0.037901	0.025876	0.033480	0.030287
3.970000	0.200976	0.064361	0.073967	0.041713	0.015174	0.059632	0.057586	0.014073	0.040813	0.026219	0.021176	0.030270	0.057467	0.047852	0.074454	0.069012	0.035433	0.049770	0.024431	0.027964	0.018253	0.059829	0.039022	0.065846	0.023277	0.019544	0.009323	0.010803	0.014165	0.029634	0.030396	0.023819	0.027730	0.023547	0.030736	0.004656	0.007243	0.004444	0.007939	0.029840	0.009243	0.013988	0.008511	0.016602	0.026460	0.013531	0.013328	0.018332	0.015070	0.039099	0.053320	0.016916	0.028578	0.021128	0.014918	0.021518	0.008227	0.037537	0.025931	0.033523	0.030377
3.975000	0.200221	0.063763	0.073171	0.041649	0.015030	0.060758	0.057879	0.014279	0.041119	0.026057	0.020868	0.029828	0.056511	0.048254	0.073557	0.068882	0.035881	0.049831	0.024815	0.027341	0.018147	0.058990	0.039139	0.065176	0.023749	0.019506	0.009869	0.011962	0.016695	0.029790	0.030594	0.023752	0.028026	0.023567	0.030440	0.004627	0.007261	0.004412	0.007934	0.030067	0.009024	0.014146	0.008293	0.016726	0.026531	0.013226	0.013099	0.018449	0.015528	0.038786	0.052788	0.016746	0.028441	0.020861	0.014722	0.021493	0.008034	0.037344	0.025900	0.033421	0.030302
3.980000	0.199429	0.062958	0.072832	0.041461	0.015153	0.061115	0.058126	0.014494	0.041476	0.026007	0.020416	0.028756	0.055258	0.047464	0.072901	0.068612	0.036307	0.050026	0.024788	0.026736	0.017893	0.058516	0.038598	0.064272	0.023872	0.020052	0.009236	0.010699	0.014415	0.030306	0.031193	0.024283	0.027999	0.022943	0.029562	0.004953	0.007388	0.004212	0.007938	0.030282	0.008819	0.014631	0.008135	0.016712	0.026579	0.014443	0.014326	0.019279	0.016493	0.037469	0.050931	0.016137	0.028072	0.020168	0.014509	0.021493	0.007910	0.037294	0.025911	0.033518	0.030273
3.985000	0.198045	0.061640	0.071412	0.041190	0.014819	0.061798	0.059020	0.015155	0.042363	0.027072	0.019939	0.028666	0.054712	0.047231	0.072107	0.068494	0.036772	0.049989	0.025106	0.025293	0.017231	0.057670	0.038581	0.062304	0.024203	0.020327	0.009617	0.011851	0.016695	0.030488	0.031248	0.023892	0.027880	0.023358	0.030011	0.004852	0.007501	0.004091	0.007913	0.030540	0.008495	0.014870	0.007721	0.016764	0.026679	0.013948	0.014024	0.018849	0.016408	0.037263	0.050868	0.016010	0.027959	0.019987	0.014455	0.021334	0.007752	0.036968	0.025726	0.033331	0.030220
3.990000	0.197057	0.060883	0.070775	0.040968	0.014963	0.062931	0.059556	0.015939	0.043023	0.027399	0.018888	0.028733	0.054300	0.046654	0.071309	0.068180	0.037551	0.050411	0.025565	0.024285	0.016819	0.056684	0.038145	0.061428	0.024601	0.020706	0.009137	0.011439	0.014980	0.030682	0.031653	0.024379	0.028029	0.022771	0.029299	0.005143	0.007992	0.004039	0.007774	0.030823	0.008248	0.015247	0.007563	0.016664	0.026822	0.014902	0.014821	0.019728	0.016957	0.036085	0.049179	0.015360	0.027564	0.019415	0.014481	0.021393	0.007596	0.036988	0.025688	0.033323	0.030173
3.995000	0.195549	0.058868	0.069096	0.040399	0.014948	0.063877	0.060592	0.016331	0.043560	0.027555	0.018030	0.027573	0.053687	0.046393	0.070353	0.068349	0.038227	0.051011	0.026045	0.023232	0.016322	0.055749	0.037734	0.059943	0.024610	0.020961	0.009438	0.011862	0.015385	0.030710	0.031492	0.023908	0.027812	0.022951	0.029202	0.004994	0.007389	0.003851	0.007880	0.030865	0.008131	0.015375	0.007480	0.016789	0.026806	0.014911	0.014602	0.019333	0.016892	0.036006	0.048873	0.015375	0.027351	0.019362	0.014665	0.021155	0.007629	0.036453	0.025466	0.033232	0.030047
4.000000	0.194022	0.057718	0.067800	0.040259	0.015149	0.065023	0.061223	0.017442	0.044273	0.028395	0.017433	0.027001	0.053579	0.045926	0.069664	0.068197	0.038977	0.051745	0.026527	0.021704	0.016042	0.054793	0.037581	0.058350	0.024221	0.020900	0.009134	0.011851	0.014527	0.030939	0.031743	0.024089	0.027663	0.022843	0.029004	0.005111	0.007234	0.003959	0.007836	0.030714	0.008317	0.015590	0.007555	0.016550	0.026946	0.014827	0.014643	0.019278	0.016812	0.035129	0.048080	0.015026	0.026972	0.018929	0.014577	0.021014	0.007352	0.036107	0.025444	0.033112	0.029981
4.005000	0.192169	0.055683	0.065782	0.039805	0.015026	0.065767	0.062018	0.018315	0.044864	0.029317	0.017317	0.027781	0.052159	0.045542	0.068814	0.068852	0.039949	0.052376	0.027502	0.020486	0.015885	0.053860	0.037195	0.057125	0.024257	0.020944	0.008749	0.011838	0.014539	0.030563	0.030918	0.023625	0.027181	0.023030	0.028906	0.004651	0.007158	0.004054	0.007838	0.030701	0.008179	0.015841	0.007405	0.016620	0.026865	0.015061	0.014628	0.019280	0.016655	0.034691	0.047576	0.014945	0.026552	0.018644	0.014202	0.020760	0.006906	0.035425	0.025136	0.032869	0.029811
4.010000	0.190429	0.054123	0.064050	0.038826	0.015356	0.067286	0.063226	0.019571	0.045797	0.030098	0.016455	0.027040	0.052437	0.044976	0.068156	0.069127	0.040864	0.053308	0.028410	0.019191	0.015474	0.053345	0.036925	0.055105	0.023945	0.021712	0.009064	0.012816	0.015742	0.030078	0.030452	0.022902	0.026384	0.023404	0.028777	0.004353	0.007050	0.004010	0.008048	0.030433	0.007838	0.015791	0.007362	0.016554	0.027097	0.014721	0.014497	0.019210	0.016346	0.034261	0.047276	0.014909	0.026037	0.018493	0.013754	0.020571	0.006589	0.034906	0.024768	0.032486	0.029605
4.015000	0.188409	0.052372	0.061731	0.038564	0.015817	0.068827	0.064370	0.020873	0.047227	0.030936	0.016512	0.026752	0.052514	0.043927	0.068440	0.070183	0.042387	0.054550	0.029839	0.017859	0.015815	0.052190	0.036905	0.053133	0.024042	0.021359	0.008664	0.011904	0.015490	0.029682	0.030459	0.023039	0.026245	0.022791	0.027592	0.004782	0.006763	0.003999	0.008023	0.030541	0.007746	0.016115	0.007329	0.016850	0.027335	0.015318	0.015058	0.019813	0.016587	0.033121	0.045894	0.014832	0.025586	0.017845	0.013863	0.020568	0.006473	0.034816	0.024639	0.032332	0.029444
4.020000	0.186367	0.049939	0.059608	0.037883	0.016027	0.070294	0.065389	0.022271	0.048473	0.032388	0.016431	0.026733	0.052360	0.043928	0.068044	0.070735	0.043837	0.056377	0.031202	0.017173	0.016145	0.051404	0.036549	0.051093	0.024122	0.021429	0.008345	0.012012	0.015519	0.029311	0.029802	0.023065	0.025796	0.022559	0.027275	0.004773	0.006649	0.004357	0.007707	0.030574	0.007531	0.016320	0.007373	0.016784	0.027225	0.015428	0.015277	0.019844	0.016849	0.032123	0.045133	0.014378	0.025012	0.017296	0.013900	0.020299	0.005619	0.034255	0.024397	0.032153	0.029365
4.025000	0.184075	0.048026	0.056848	0.037680	0.016441	0.071547	0.066789	0.023896	0.049545	0.033698	0.016904	0.026998	0.052221	0.043629	0.067094	0.071950	0.045179	0.057761	0.032864	0.016573	0.016767	0.050889	0.036470	0.048828	0.024084	0.021731	0.008920	0.011964	0.015254	0.029097	0.029984	0.022890	0.025488	0.022306	0.026436	0.004983	0.006783	0.004587	0.007636	0.030621	0.007559	0.016568	0.007556	0.016902	0.027185	0.015878	0.015381	0.020052	0.016872	0.031498	0.044295	0.014313	0.024546	0.016920	0.013887	0.019976	0.005211	0.033919	0.024203	0.031928	0.029254
4.030000	0.181761	0.046356	0.054639	0.037326	0.016656	0.071771	0.067452	0.025138	0.050321	0.034738	0.017471	0.027240	0.051912	0.043645	0.066672	0.072745	0.046342	0.058907	0.033879	0.016223	0.017496	0.049162	0.036825	0.047254	0.024304	0.021365	0.008810	0.011817	0.015195	0.028843	0.029325	0.022394	0.025468	0.021579	0.025651	0.005663	0.005865	0.004334	0.007265	0.030438	0.007272	0.017090	0.007367	0.016839	0.027255	0.015809	0.015532	0.020049	0.016577	0.030231	0.043334	0.014038	0.024062	0.016517	0.013779	0.019985	0.004918	0.034074	0.023877	0.031700	0.029034
4.035000	0.179223	0.043760	0.051761	0.036996	0.016793	0.072395	0.068513	0.026501	0.051448	0.035766	0.017469	0.028228	0.051808	0.043582	0.065709	0.073710	0.047692	0.060191	0.035161	0.016167	0.018240	0.046473	0.036914	0.044995	0.024312	0.021026	0.009096	0.011714	0.015050	0.028476	0.029152	0.022434	0.024819	0.021313	0.024421	0.005901	0.006065	0.004647	0.006636	0.030258	0.007248	0.017334	0.007523	0.017271	0.026984	0.016207	0.015797	0.019837	0.016870	0.029629	0.042539	0.013622	0.023716	0.016228	0.013448	0.019771	0.004520	0.033653	0.023624	0.031363	0.028921
4.040000	0.176483	0.042380	0.049233	0.037069	0.016800	0.073207	0.069325	0.027629	0.052586	0.036452	0.018212	0.028872	0.050797	0.043832	0.065565	0.075077	0.048579	0.061236	0.036305	0.015801	0.018792	0.046697	0.037135	0.043273	0.024183	0.021106	0.009084	0.010991	0.014408	0.027801	0.028486	0.022473	0.024457	0.020949	0.023545	0.006247	0.005466	0.005144	0.006504	0.030113	0.007280	0.017333	0.007729	0.017298	0.026866	0.016336	0.015757	0.019781	0.016460	0.028654	0.041920	0.013571	0.023462	0.015666	0.013794	0.019701	0.004218	0.033655	0.023200	0.031027	0.028595
4.045000	0.173683	0.040263	0.046686	0.036659	0.016932	0.073841	0.070182	0.028949	0.053513	0.037548	0.018720	0.029521	0.050148	0.044325	0.064590	0.075974	0.049643	0.061934	0.037248	0.015750	0.019658	0.045560	0.037238	0.042471	0.024052	0.020433	0.009401	0.011969	0.015371	0.027049	0.028052	0.022212	0.023639	0.020771	0.023117	0.006660	0.005634	0.004981	0.006161	0.030020	0.007304	0.017155	0.008088	0.017040	0.026810	0.015890	0.015608	0.019241	0.016477	0.028588	0.041729	0.013431	0.023349	0.015478	0.013452	0.019453	0.004034	0.033283	0.022704	0.030543	0.028237
4.050000	0.171031	0.038483	0.044125	0.036727	0.016938	0.074933	0.070760	0.030072	0.054381	0.038355	0.019132	0.029910	0.049280	0.044697	0.063381	0.076821	0.050266	0.062508	0.038256	0.016041	0.020475	0.045308	0.037961	0.041290	0.023927	0.020372	0.009525	0.010931	0.014559	0.026345	0.027300	0.022325	0.023230	0.020382	0.021561	0.007342	0.005225	0.005436	0.005880	0.029891	0.007242	0.016816	0.007916	0.017018	0.026886	0.016143	0.015655	0.019319	0.016545	0.027423	0.040528	0.013203	0.022566	0.015388	0.013534	0.019393	0.003737	0.033457	0.022472	0.030300	0.028042
4.055000	0.168164	0.035979	0.041626	0.036419	0.016964	0.075162	0.071600	0.031169	0.055041	0.039100	0.019657	0.030637	0.048339	0.045285	0.062062	0.077743	0.051051	0.063198	0.038918	0.016025	0.021218	0.044481	0.038275	0.040458	0.023771	0.020225	0.009952	0.011165	0.014601	0.025519	0.026589	0.022239	0.022671	0.020176	0.020560	0.007729	0.004908	0.005760	0.005719	0.029424	0.007680	0.016484	0.008630	0.016863	0.026948	0.016076	0.015451	0.018758	0.016275	0.026600	0.039975	0.013178	0.022597	0.014853	0.013340	0.019069	0.003003	0.033183	0.022342	0.029927	0.027858
4.060000	0.165360	0.034269	0.038799	0.036436	0.017026	0.075986	0.072159	0.032425	0.055954	0.039880	0.020309	0.031038	0.047025	0.045738	0.062688	0.078572	0.051519	0.063353	0.039520	0.016364	0.021996	0.043612	0.039036	0.039624	0.023820	0.019821	0.010017	0.011455	0.014435	0.024393	0.026005	0.021829	0.022488	0.020040	0.019422	0.008003	0.004392	0.006012	0.005293	0.028978	0.007743	0.015983	0.008798	0.016918	0.027054	0.015689	0.015136	0.018468	0.016111	0.026007	0.039036	0.012868	0.021797	0.014577	0.013512	0.018765	0.002628	0.033158	0.022106	0.029526	0.027549
4.065000	0.162821	0.032346	0.036236	0.036369	0.017063	0.076584	0.072834	0.033522	0.056895	0.040306	0.021015	0.031511	0.044691	0.046988	0.061462	0.079180	0.051905	0.063912	0.040170	0.016521	0.022680	0.042209	0.039396	0.039424	0.023482	0.019891	0.010168	0.011278	0.014471	0.023413	0.024836	0.021362	0.022436	0.020045	0.018182	0.008576	0.004056	0.006173	0.005004	0.028408	0.008323	0.015502	0.009554	0.016757	0.027150	0.015295	0.015060	0.017734	0.015809	0.025437	0.038449	0.013138	0.021505	0.014126	0.013228	0.018379	0.002613	0.032483	0.021555	0.029077	0.027217
4.070000	0.160414	0.030634	0.034107	0.036330	0.017318	0.077855	0.073875	0.034449	0.057199	0.040680	0.021587	0.031775	0.043026	0.047896	0.059582	0.079824	0.052285	0.064003	0.040469	0.016545	0.023066	0.039281	0.039957	0.039118	0.023419	0.019700	0.010284	0.011258	0.014351	0.022479	0.023806	0.020666	0.021807	0.020037	0.017305	0.009435	0.003494	0.006731	0.004441	0.027890	0.008837	0.015110	0.009931	0.016603	0.027106	0.014831	0.014552	0.016847	0.015726	0.024936	0.037803	0.012851	0.020941	0.013891	0.013029	0.017652	0.001798	0.030973	0.021097	0.028525	0.026920
4.075000	0.158181	0.028839	0.031841	0.036354	0.017229	0.078379	0.074640	0.035259	0.057593	0.040965	0.021898	0.031744	0.044026	0.048465	0.056894	0.080057	0.052334	0.064014	0.040910	0.016626	0.023436	0.038752	0.040320	0.038492	0.023370	0.019970	0.010703	0.011336	0.014461	0.021225	0.022836	0.020050	0.021241	0.020328	0.016088	0.009327	0.003121	0.007481	0.004286	0.027072	0.009667	0.014625	0.010537	0.016513	0.027309	0.014198	0.013952	0.016004	0.015275	0.024203	0.037106	0.012731	0.020429	0.013424	0.013045	0.017395	0.001653	0.030069	0.020506	0.028138	0.026508
4.080000	0.155892	0.027269	0.029996	0.036269	0.017430	0.079137	0.075455	0.036015	0.057324	0.040899	0.022223	0.031981	0.042454	0.048919	0.055369	0.080591	0.052355	0.063946	0.040901	0.016740	0.023688	0.038058	0.040775	0.038156	0.023653	0.020197	0.010512	0.011237	0.014553	0.020299	0.021772	0.019370	0.020860	0.020614	0.014871	0.009779	0.002560	0.007626	0.004250	0.026429	0.009932	0.013945	0.010251	0.016502	0.027670	0.013537	0.013283	0.014852	0.014976	0.023596	0.036178	0.012529	0.019868	0.013083	0.012722	0.016789	0.001643	0.028937	0.020018	0.027662	0.026278
4.085000	0.153367	0.025224	0.028016	0.036619	0.017584	0.079521	0.076675	0.036614	0.057542	0.041018	0.022307	0.031694	0.041314	0.049293	0.053980	0.080606	0.052273	0.064001	0.040883	0.016691	0.023758	0.036911	0.042075	0.037509	0.023864	0.020304	0.010928	0.011133	0.014630	0.018900	0.020540	0.018446	0.020265	0.020984	0.014083	0.009893	0.001911	0.007552	0.003674	0.026153	0.010905	0.013680	0.010575	0.015790	0.028539	0.012240	0.012490	0.013851	0.014007	0.022620	0.034966	0.012405	0.019163	0.012826	0.012694	0.016616	0.002361	0.028736	0.019395	0.026825	0.025994
4.090000	0.151325	0.023418	0.026258	0.036724	0.017829	0.079844	0.077703	0.037257	0.057341	0.041029	0.022498	0.031861	0.039617	0.049577	0.052745	0.080653	0.051937	0.064100	0.040879	0.016828	0.023741	0.035529	0.042803	0.036828	0.023951	0.020603	0.010975	0.011462	0.014772	0.018531	0.019800	0.017620	0.020147	0.021698	0.013026	0.010151	0.002119	0.008222	0.003781	0.025633	0.012191	0.012764	0.011360	0.015899	0.028805	0.011628	0.012056	0.012735	0.013775	0.022571	0.034605	0.012305	0.018501	0.012439	0.012481	0.015801	0.004019	0.026689	0.018599	0.026160	0.025836
4.095000	0.149686	0.021897	0.024976	0.036978	0.017929	0.080249	0.078552	0.037744	0.056826	0.040901	0.022578	0.032161	0.038446	0.050254	0.051143	0.080778	0.052072	0.064189	0.040784	0.016825	0.023892	0.034193	0.043791	0.035735	0.024117	0.020579	0.011078	0.011275	0.014825	0.017593	0.018872	0.016904	0.019674	0.022342	0.012076	0.010436	0.002326	0.008630	0.004085	0.025205	0.012261	0.012648	0.011839	0.015893	0.029469	0.010763	0.011469	0.011678	0.012853	0.021958	0.033772	0.011950	0.017734	0.011926	0.012160	0.015229	0.004604	0.026005	0.017999	0.025872	0.025547
4.100000	0.147550	0.020418	0.023370	0.037180	0.018320	0.080675	0.079488	0.038025	0.056796	0.040902	0.022789	0.032251	0.037117	0.050847	0.049156	0.080773	0.051651	0.063885	0.040516	0.016741	0.023767	0.032656	0.044488	0.034344	0.024104	0.021029	0.011454	0.011488	0.015060	0.017099	0.018253	0.016075	0.019551	0.022930	0.011415	0.010901	0.002813	0.008862	0.004353	0.024559	0.013270	0.012549	0.012184	0.016363	0.030149	0.010369	0.011541	0.011492	0.012596	0.021598	0.033533	0.011737	0.016663	0.011498	0.011782	0.014560	0.005783	0.024754	0.017540	0.025327	0.025469
4.105000	0.145540	0.019095	0.022183	0.037419	0.018573	0.080898	0.080222	0.038497	0.056586	0.040415	0.023074	0.032650	0.035605	0.051761	0.047596	0.080501	0.051405	0.063625	0.040144	0.016768	0.023782	0.031467	0.044941	0.033952	0.024420	0.021100	0.011839	0.011420	0.015249	0.016799	0.017714	0.015508	0.019619	0.023651	0.010722	0.010937	0.003649	0.009439	0.004884	0.023911	0.013627	0.012750	0.012556	0.016797	0.031024	0.010030	0.011478	0.011511	0.012609	0.021265	0.033133	0.011478	0.015983	0.011065	0.011433	0.013780	0.006522	0.023751	0.017763	0.024563	0.025414
4.110000	0.143773	0.017991	0.021397	0.037893	0.018764	0.081024	0.080881	0.038958	0.056236	0.040310	0.023344	0.033173	0.033745	0.052438	0.046106	0.080234	0.050608	0.063080	0.039406	0.016984	0.023711	0.029868	0.046205	0.032594	0.024535	0.021576	0.012331	0.011527	0.015485	0.016545	0.017330	0.014799	0.019355	0.024289	0.010522	0.010838	0.004412	0.009707	0.005514	0.023075	0.014037	0.012865	0.012369	0.017351	0.032018	0.010139	0.012380	0.011995	0.012736	0.020951	0.032443	0.011161	0.015207	0.010793	0.011304	0.012708	0.006967	0.023268	0.017362	0.024247	0.025542
4.115000	0.141541	0.017582	0.020425	0.038404	0.019146	0.080823	0.081546	0.039167	0.055741	0.040372	0.023433	0.033496	0.032281	0.053062	0.044360	0.079829	0.050095	0.062586	0.038976	0.016861	0.023591	0.028673	0.046499	0.031798	0.024700	0.021662	0.012279	0.011694	0.015765	0.016571	0.017061	0.014324	0.019292	0.025209	0.010423	0.011087	0.004979	0.009925	0.006095	0.022117	0.015465	0.013272	0.012528	0.017782	0.032641	0.010873	0.013034	0.012575	0.013018	0.020879	0.032257	0.010898	0.014026	0.010350	0.010628	0.011625	0.007816	0.022214	0.016718	0.023836	0.025760
4.120000	0.139080	0.016671	0.019466	0.038911	0.019635	0.081015	0.082241	0.039523	0.055616	0.040552	0.023672	0.034500	0.030841	0.053488	0.043180	0.079497	0.049478	0.062420	0.038405	0.016869	0.023531	0.027106	0.047349	0.030747	0.024796	0.022311	0.013212	0.011792	0.015990	0.016374	0.016388	0.013519	0.018802	0.025756	0.010565	0.011346	0.005610	0.010754	0.006955	0.021052	0.016371	0.013720	0.012463	0.019029	0.034280	0.011906	0.013950	0.013496	0.013387	0.020161	0.032024	0.010302	0.013245	0.009826	0.010123	0.010418	0.008574	0.022112	0.015921	0.023702	0.026629
4.125000	0.136891	0.016128	0.018723	0.039559	0.019627	0.080896	0.082545	0.039926	0.055716	0.040503	0.024093	0.035054	0.029472	0.054095	0.041249	0.078610	0.048655	0.061644	0.037699	0.017092	0.023567	0.026059	0.048000	0.030032	0.025023	0.022662	0.013598	0.011773	0.016449	0.016112	0.015914	0.012547	0.018742	0.026359	0.010988	0.011179	0.006227	0.011415	0.007655	0.021512	0.017329	0.014512	0.012289	0.019930	0.034654	0.012662	0.015432	0.014922	0.014256	0.019953	0.031750	0.009844	0.012066	0.009527	0.009993	0.009024	0.009779	0.021434	0.015168	0.022963	0.027332
4.130000	0.134721	0.015997	0.018010	0.040054	0.019788	0.080581	0.082898	0.039953	0.055349	0.040388	0.024378	0.035611	0.028030	0.054193	0.039902	0.078137	0.048163	0.061130	0.037353	0.017368	0.023647	0.024743	0.049124	0.029031	0.025404	0.023655	0.014186	0.011862	0.016746	0.015366	0.014733	0.011462	0.017606	0.026710	0.011375	0.011326	0.006398	0.011090	0.008158	0.020980	0.018562	0.015311	0.012073	0.021313	0.036216	0.013149	0.015716	0.015784	0.014555	0.019788	0.031753	0.009168	0.010571	0.008873	0.009255	0.007581	0.010870	0.021833	0.014437	0.023397	0.028257
4.135000	0.132146	0.015790	0.017331	0.040744	0.019790	0.080294	0.083008	0.040117	0.054973	0.040174	0.024616	0.036114	0.026434	0.054560	0.038243	0.077045	0.047492	0.060124	0.036476	0.017704	0.023541	0.023105	0.049374	0.028604	0.025903	0.024822	0.014620	0.011728	0.016901	0.014256	0.013390	0.010124	0.016118	0.026620	0.011791	0.011059	0.006383	0.011491	0.008579	0.020522	0.019485	0.016456	0.013647	0.022503	0.036336	0.013622	0.016239	0.016704	0.014511	0.019021	0.032074	0.008388	0.009462	0.008572	0.008876	0.006393	0.012483	0.022045	0.013102	0.023930	0.029236
4.140000	0.129765	0.015976	0.016871	0.041329	0.019903	0.080120	0.083107	0.040157	0.054684	0.040050	0.025135	0.036379	0.025274	0.054789	0.037217	0.076540	0.046516	0.059521	0.035894	0.017826	0.023523	0.022494	0.049775	0.027708	0.026336	0.025505	0.015149	0.011903	0.017231	0.012744	0.011873	0.008382	0.014452	0.026256	0.012763	0.010565	0.006476	0.011290	0.008316	0.019558	0.020648	0.017260	0.013935	0.023348	0.036252	0.013869	0.016126	0.016834	0.014241	0.017680	0.032380	0.007533	0.008018	0.008075	0.008591	0.006043	0.014092	0.022017	0.012025	0.024412	0.030349
4.145000	0.127279	0.016337	0.016630	0.042063	0.019935	0.079692	0.083018	0.040154	0.054307	0.039948	0.025220	0.036816	0.024124	0.054789	0.034496	0.075857	0.046033	0.058589	0.035442	0.018244	0.023491	0.021697	0.050488	0.027141	0.027126	0.026159	0.015323	0.011814	0.017205	0.010671	0.009878	0.006187	0.012053	0.025722	0.013412	0.010675	0.006115	0.011094	0.008925	0.019913	0.021272	0.018681	0.013752	0.024279	0.035795	0.013634	0.016039	0.017037	0.013289	0.016514	0.033114	0.006846	0.006599	0.007598	0.008417	0.006780	0.015540	0.022001	0.010473	0.025164	0.031622
4.150000	0.124986	0.016883	0.016410	0.042613	0.020102	0.079212	0.083065	0.040088	0.053896	0.039803	0.025139	0.037030	0.023745	0.054241	0.033186	0.074906	0.045149	0.057780	0.034713	0.018883	0.023521	0.021316	0.050616	0.026369	0.027886	0.028098	0.015829	0.012065	0.017334	0.008722	0.007948	0.005031	0.009356	0.024826	0.014460	0.009876	0.005259	0.010319	0.008555	0.019944	0.021968	0.020095	0.012135	0.024985	0.036487	0.012809	0.014619	0.016326	0.011855	0.015438	0.034944	0.006000	0.005857	0.007465	0.008504	0.007469	0.016182	0.022245	0.008762	0.025647	0.032406
4.155000	0.122555	0.017523	0.016683	0.043361	0.020200	0.078708	0.082924	0.039788	0.053584	0.039536	0.024961	0.037148	0.023524	0.053912	0.032510	0.074258	0.044623	0.056651	0.034250	0.019147	0.023157	0.020052	0.050934	0.025347	0.028846	0.029317	0.016483	0.012501	0.017338	0.006904	0.006300	0.004824	0.007114	0.024053	0.016375	0.008761	0.004441	0.009473	0.007955	0.020304	0.022535	0.021460	0.011320	0.025812	0.037375	0.011169	0.012779	0.015137	0.009464	0.014271	0.036686	0.005819	0.005674	0.007577	0.008990	0.009031	0.017411	0.021893	0.006169	0.025855	0.033757
4.160000	0.120573	0.018535	0.017240	0.043924	0.020255	0.077883	0.082477	0.039772	0.053022	0.039235	0.024896	0.037238	0.022900	0.054062	0.031711	0.073713	0.043738	0.056076	0.033623	0.019528	0.023120	0.020124	0.050887	0.024822	0.030010	0.030898	0.016955	0.013115	0.017341	0.005927	0.005523	0.006097	0.005556	0.023155	0.018281	0.007184	0.003093	0.007883	0.006539	0.021471	0.022680	0.022802	0.008496	0.024409	0.037400	0.008850	0.010773	0.013364	0.007009	0.013333	0.039375	0.005418	0.005780	0.007559	0.008710	0.010020	0.017814	0.020792	0.004553	0.025805	0.034703
4.165000	0.118401	0.019815	0.017804	0.044746	0.020384	0.076930	0.082295	0.039244	0.052433	0.038696	0.025224	0.036989	0.022772	0.054043	0.030795	0.072865	0.042650	0.055033	0.032766	0.019890	0.022624	0.019379	0.050641	0.023713	0.031264	0.032271	0.017171	0.013124	0.016893	0.006207	0.005660	0.007713	0.004839	0.022507	0.020829	0.005147	0.002492	0.006265	0.005200	0.021532	0.023021	0.023198	0.008884	0.024904	0.037963	0.006872	0.008586	0.011835	0.005939	0.012800	0.042834	0.004742	0.006034	0.007225	0.007793	0.011547	0.018604	0.019021	0.005640	0.025322	0.035677
4.170000	0.116885	0.021186	0.018891	0.045536	0.020065	0.076129	0.081627	0.038531	0.051810	0.038099	0.025266	0.036353	0.022141	0.054283	0.030294	0.072047	0.041878	0.054122	0.032124	0.019987	0.022022	0.019479	0.050498	0.023103	0.031876	0.033129	0.017622	0.013278	0.016913	0.006468	0.006276	0.009052	0.005237	0.021626	0.021722	0.004397	0.002307	0.005265	0.004619	0.022910	0.023309	0.024419	0.006652	0.023894	0.038677	0.004359	0.006649	0.008865	0.007143	0.012350	0.043551	0.005092	0.005420	0.006756	0.006905	0.010772	0.019015	0.020526	0.006690	0.024928	0.035867
4.175000	0.115409	0.022602	0.020273	0.046201	0.019700	0.074843	0.081076	0.037624	0.050952	0.037281	0.024762	0.035686	0.021476	0.054421	0.030456	0.071075	0.040924	0.053001	0.031230	0.020102	0.021321	0.019298	0.049967	0.022683	0.032616	0.034344	0.017793	0.014421	0.017352	0.007075	0.006765	0.009878	0.005994	0.021090	0.022472	0.003875	0.002664	0.004885	0.004266	0.023135	0.023024	0.024383	0.005492	0.023867	0.039312	0.005043	0.006534	0.007814	0.008424	0.011352	0.043504	0.004975	0.005365	0.006741	0.006665	0.010495	0.019885	0.022249	0.007496	0.024697	0.036951
4.180000	0.114120	0.024334	0.021503	0.047452	0.019081	0.073594	0.080447	0.036638	0.050080	0.036326	0.023766	0.034739	0.021031	0.054381	0.029905	0.070066	0.040028	0.052142	0.030153	0.020112	0.020255	0.018916	0.049509	0.022078	0.033452	0.035218	0.017488	0.013899	0.016449	0.008300	0.007901	0.011100	0.006762	0.020386	0.023041	0.004193	0.003334	0.004557	0.003950	0.024014	0.023443	0.024662	0.004099	0.023483	0.039929	0.006398	0.006534	0.007307	0.008973	0.010088	0.041368	0.005253	0.005503	0.006857	0.006627	0.010915	0.021186	0.024086	0.008619	0.024726	0.039125
4.185000	0.113631	0.025545	0.022369	0.048098	0.018467	0.072231	0.080066	0.036053	0.049188	0.035348	0.023477	0.033987	0.020992	0.054458	0.029617	0.069227	0.038985	0.051381	0.029449	0.020117	0.019255	0.019290	0.048835	0.021286	0.033965	0.035634	0.017515	0.014699	0.016978	0.008629	0.008263	0.011258	0.007163	0.020166	0.022819	0.004397	0.003693	0.004807	0.004651	0.024364	0.023003	0.025049	0.004682	0.022909	0.039979	0.007702	0.006842	0.007116	0.008485	0.009081	0.038095	0.005683	0.006183	0.007719	0.007195	0.011235	0.021885	0.024379	0.009594	0.024243	0.041406
4.190000	0.113003	0.026954	0.023359	0.049114	0.017979	0.071576	0.079999	0.034819	0.047972	0.034066	0.022984	0.033058	0.020872	0.054286	0.028357	0.068561	0.038129	0.050408	0.028431	0.020580	0.018620	0.018622	0.048004	0.021907	0.034191	0.035441	0.017519	0.014831	0.016926	0.008798	0.008528	0.010385	0.007813	0.019773	0.021929	0.004567	0.004207	0.005123	0.005064	0.025061	0.022928	0.025354	0.005329	0.022075	0.040906	0.007104	0.006169	0.006445	0.007171	0.007982	0.034931	0.006253	0.007429	0.008746	0.007863	0.011492	0.022551	0.023545	0.011186	0.023831	0.043192
4.195000	0.112980	0.028201	0.024352	0.049856	0.017386	0.070873	0.079841	0.033566	0.047051	0.032993	0.022332	0.031923	0.021225	0.053657	0.028186	0.067639	0.037001	0.049666	0.027279	0.020644	0.017740	0.019062	0.047494	0.021058	0.034677	0.035174	0.017436	0.014839	0.016478	0.008748	0.008785	0.008317	0.008526	0.019984	0.019949	0.005134	0.004565	0.005231	0.005207	0.026178	0.022534	0.026083	0.006286	0.021011	0.040805	0.007075	0.006102	0.006974	0.006778	0.008131	0.030926	0.007557	0.008111	0.009824	0.008162	0.011046	0.022369	0.022886	0.011674	0.023625	0.044487
4.200000	0.112761	0.029275	0.025536	0.050299	0.016742	0.070175	0.081086	0.032254	0.046518	0.031826	0.021438	0.030968	0.020789	0.053114	0.028328	0.065731	0.036454	0.049265	0.026768	0.019696	0.015471	0.019744	0.046856	0.021212	0.034526	0.034441	0.017165	0.014787	0.016595	0.009357	0.009576	0.006601	0.009704	0.020095	0.017654	0.006104	0.005502	0.006380	0.005929	0.026503	0.022753	0.026119	0.007923	0.021126	0.041654	0.006649	0.006552	0.007942	0.007002	0.008372	0.027476	0.008822	0.008556	0.010461	0.009138	0.010753	0.022317	0.022475	0.012580	0.023410	0.045259
4.205000	0.113203	0.029936	0.026220	0.050684	0.016351	0.070051	0.081097	0.031084	0.045516	0.030763	0.021216	0.030115	0.020965	0.052700	0.028119	0.065539	0.035437	0.048575	0.025712	0.020003	0.014832	0.020513	0.045809	0.021475	0.034708	0.033691	0.016698	0.014498	0.016561	0.009453	0.010317	0.004797	0.010632	0.020365	0.014551	0.007240	0.006254	0.007335	0.006069	0.027016	0.022818	0.026433	0.010311	0.020598	0.042079	0.006330	0.007218	0.008710	0.007936	0.008973	0.024767	0.010185	0.008752	0.011144	0.009583	0.010305	0.022020	0.022033	0.013267	0.023452	0.045766
4.210000	0.113647	0.030784	0.026846	0.051367	0.015996	0.069311	0.081170	0.029996	0.044711	0.029686	0.020789	0.029732	0.020723	0.051953	0.027737	0.065429	0.034760	0.047901	0.024814	0.020053	0.014101	0.020902	0.044636	0.021991	0.034183	0.032089	0.016010	0.014262	0.016412	0.009535	0.011091	0.004679	0.011414	0.020884	0.010963	0.008903	0.007326	0.008670	0.007167	0.027452	0.023381	0.026741	0.011465	0.020606	0.042642	0.006361	0.007421	0.009619	0.008868	0.009757	0.021375	0.011618	0.008816	0.012040	0.010405	0.010084	0.022082	0.021541	0.013918	0.023073	0.045812
4.215000	0.114154	0.031185	0.027222	0.051674	0.015987	0.069367	0.081642	0.028872	0.044206	0.028597	0.019977	0.028696	0.020519	0.051476	0.027310	0.065457	0.033801	0.047321	0.023481	0.020478	0.013679	0.021296	0.043945	0.021374	0.034055	0.031903	0.015186	0.013649	0.016660	0.010113	0.012176	0.005642	0.012299	0.021366	0.007475	0.010277	0.008180	0.009969	0.007919	0.027610	0.023518	0.026221	0.013613	0.020131	0.042866	0.006515	0.007732	0.010018	0.009203	0.009497	0.020385	0.012025	0.008212	0.011938	0.010625	0.009728	0.021804	0.021320	0.013215	0.022983	0.045438
4.220000	0.115084	0.031626	0.027653	0.051745	0.015795	0.069031	0.082620	0.027841	0.043476	0.027803	0.019393	0.028419	0.020976	0.050568	0.026964	0.064727	0.033161	0.047130	0.022979	0.020280	0.012442	0.021922	0.043144	0.022126	0.033972	0.031169	0.014360	0.013169	0.016591	0.010341	0.012634	0.007617	0.012742	0.021657	0.004933	0.011173	0.009679	0.010774	0.008986	0.027064	0.023275	0.025637	0.014711	0.021227	0.043295	0.006448	0.008424	0.010523	0.008934	0.010062	0.018762	0.012694	0.007813	0.012290	0.011292	0.009796	0.021700	0.020981	0.012844	0.022969	0.045337
4.225000	0.115902	0.031865	0.027848	0.051637	0.016118	0.068347	0.083203	0.026864	0.043143	0.026831	0.019038	0.027879	0.020865	0.049644	0.026363	0.064994	0.032765	0.046709	0.022018	0.021140	0.012330	0.022504	0.041922	0.021902	0.032767	0.030305	0.013604	0.012606	0.015333	0.010376	0.013166	0.008326	0.013197	0.021723	0.002752	0.012009	0.010225	0.011619	0.009256	0.026972	0.023963	0.025990	0.016790	0.021555	0.043415	0.006321	0.008546	0.010079	0.008811	0.010026	0.017568	0.013217	0.007457	0.012496	0.011924	0.010057	0.021834	0.020632	0.012403	0.022977	0.045131
4.230000	0.116618	0.031941	0.028068	0.051617	0.016460	0.069107	0.084078	0.026146	0.042581	0.026148	0.018593	0.027634	0.021323	0.049001	0.026539	0.065319	0.032264	0.046539	0.021562	0.021620	0.012220	0.022914	0.040684	0.022721	0.032266	0.029773	0.012352	0.011642	0.012162	0.010805	0.013624	0.009773	0.013917	0.022249	0.003816	0.012697	0.010589	0.012395	0.010053	0.026253	0.024409	0.025730	0.017479	0.021397	0.043174	0.005909	0.008638	0.011054	0.008540	0.009981	0.015376	0.013687	0.006886	0.012312	0.012259	0.009871	0.021692	0.020797	0.012126	0.022744	0.045011
4.235000	0.117185	0.031550	0.027953	0.050715	0.016501	0.068920	0.084619	0.025781	0.042420	0.025798	0.018534	0.027722	0.021171	0.048715	0.026292	0.065710	0.031959	0.046454	0.020766	0.021960	0.012280	0.023416	0.039541	0.022438	0.031693	0.029093	0.012067	0.011789	0.012197	0.011073	0.013720	0.010016	0.013969	0.022850	0.004754	0.012762	0.011021	0.012363	0.009992	0.025445	0.024494	0.025046	0.018226	0.022847	0.043036	0.005767	0.008067	0.009999	0.008024	0.009933	0.015912	0.013149	0.006825	0.012304	0.012144	0.010350	0.021895	0.019785	0.012391	0.022822	0.044427
4.240000	0.117687	0.031516	0.028131	0.050491	0.017016	0.069201	0.085619	0.025179	0.042254	0.025381	0.018000	0.027536	0.021602	0.047975	0.026345	0.066140	0.031787	0.046493	0.020465	0.022030	0.012284	0.024206	0.038357	0.023409	0.030748	0.027955	0.010841	0.010972	0.011426	0.011377	0.013844	0.010734	0.014061	0.022994	0.006449	0.013219	0.011010	0.012804	0.010593	0.025212	0.024664	0.025459	0.018946	0.022353	0.042731	0.005365	0.007816	0.009803	0.007193	0.010245	0.015856	0.013191	0.006264	0.012025	0.012813	0.010296	0.021789	0.020015	0.011371	0.023066	0.044043
4.245000	0.118465	0.031113	0.028405	0.049943	0.017504	0.069408	0.085163	0.024600	0.042058	0.025041	0.017887	0.027725	0.021668	0.047852	0.026438	0.066525	0.031549	0.046125	0.019917	0.022515	0.012450	0.025059	0.037371	0.023494	0.029667	0.027304	0.009694	0.010478	0.011145	0.011334	0.013834	0.010935	0.014025	0.023219	0.007170	0.013153	0.010930	0.012794	0.010373	0.024614	0.024487	0.025019	0.019311	0.022560	0.042434	0.005181	0.007557	0.010300	0.006918	0.010223	0.016437	0.012811	0.005993	0.011653	0.012597	0.010359	0.021779	0.019521	0.011058	0.022969	0.043537
4.250000	0.118989	0.030880	0.028592	0.049498	0.018468	0.069905	0.086014	0.024541	0.042139	0.024755	0.018038	0.027810	0.021816	0.047595	0.026247	0.067082	0.031418	0.046134	0.019503	0.022643	0.012840	0.025264	0.036621	0.023302	0.028686	0.026263	0.009171	0.009954	0.010488	0.011178	0.013596	0.010975	0.013943	0.023409	0.007002	0.013311	0.010933	0.012754	0.010575	0.023845	0.024747	0.024438	0.019198	0.022811	0.042164	0.004647	0.006869	0.009466	0.006507	0.010420	0.017182	0.012187	0.005736	0.011195	0.012217	0.010310	0.021654	0.019397	0.010637	0.023227	0.042909
4.255000	0.119063	0.030527	0.028819	0.049046	0.019109	0.070187	0.086394	0.024361	0.041929	0.024547	0.017630	0.027734	0.022254	0.047096	0.026512	0.067526	0.031323	0.046064	0.019466	0.022821	0.012887	0.025060	0.035791	0.023755	0.027696	0.025814	0.008485	0.009195	0.010544	0.010558	0.013324	0.010881	0.013658	0.023277	0.006528	0.013123	0.010628	0.012630	0.010458	0.023802	0.024644	0.024444	0.018436	0.023467	0.041836	0.004803	0.006956	0.008282	0.005487	0.010583	0.018121	0.011589	0.005543	0.010870	0.011607	0.009826	0.021391	0.019612	0.009714	0.023233	0.042094
4.260000	0.119529	0.029923	0.028998	0.048575	0.019760	0.070422	0.086639	0.024180	0.041457	0.024490	0.018158	0.028108	0.022888	0.046996	0.026496	0.067922	0.031065	0.045948	0.019170	0.022861	0.013380	0.025602	0.035056	0.023498	0.026623	0.025108	0.007984	0.008726	0.010361	0.010382	0.013029	0.010683	0.013406	0.023463	0.006235	0.012961	0.010420	0.012439	0.010524	0.023370	0.024211	0.024139	0.018203	0.022665	0.041694	0.004799	0.006479	0.007734	0.004922	0.010888	0.018760	0.011005	0.005951	0.010509	0.011235	0.010171	0.021278	0.019415	0.009739	0.023304	0.041366
4.265000	0.119298	0.029548	0.029050	0.048302	0.020435	0.070717	0.087133	0.024024	0.041247	0.024231	0.018289	0.028190	0.022829	0.047391	0.026107	0.068147	0.031024	0.045850	0.019218	0.023005	0.013843	0.025439	0.034435	0.023704	0.026121	0.024276	0.007729	0.008047	0.010547	0.009833	0.012576	0.010600	0.012975	0.023254	0.005784	0.013017	0.010140	0.012188	0.010141	0.023472	0.024224	0.023594	0.017354	0.022580	0.041184	0.005144	0.006332	0.007660	0.004614	0.010793	0.019619	0.010390	0.006184	0.010110	0.010822	0.009899	0.021162	0.019757	0.009896	0.023116	0.040588
4.270000	0.119186	0.029155	0.029151	0.048218	0.020922	0.070790	0.087204	0.024088	0.041244	0.024263	0.018316	0.028082	0.022927	0.047054	0.026678	0.068429	0.030768	0.045873	0.019852	0.023100	0.014082	0.025755	0.033843	0.023462	0.024265	0.023824	0.007336	0.007362	0.010488	0.009248	0.011893	0.009781	0.012469	0.022741	0.005129	0.012486	0.009889	0.012005	0.010044	0.023463	0.024232	0.023837	0.016538	0.023066	0.040987	0.005526	0.006300	0.007310	0.004223	0.010756	0.020371	0.009898	0.005842	0.009759	0.010294	0.009461	0.020692	0.020286	0.009004	0.023504	0.039734
4.275000	0.118915	0.028474	0.028652	0.048011	0.021508	0.070861	0.087265	0.023991	0.040674	0.023997	0.018536	0.028419	0.022894	0.046996	0.026775	0.068831	0.030769	0.045908	0.019817	0.023178	0.014198	0.025693	0.033285	0.023335	0.024058	0.024321	0.006943	0.006861	0.010745	0.008596	0.011501	0.009442	0.011970	0.023027	0.004905	0.011937	0.009625	0.011560	0.009813	0.023179	0.023492	0.023634	0.015912	0.022846	0.040990	0.005449	0.006113	0.007422	0.003944	0.011295	0.020701	0.009084	0.006410	0.009215	0.009484	0.009096	0.020485	0.020645	0.008866	0.023472	0.039196
4.280000	0.118361	0.028138	0.028491	0.048042	0.022170	0.070823	0.087366	0.023713	0.040582	0.023750	0.018608	0.028019	0.023132	0.047128	0.027164	0.068873	0.030414	0.045589	0.019310	0.023386	0.014621	0.025439	0.032841	0.023234	0.023316	0.023506	0.007446	0.006428	0.010824	0.008207	0.011050	0.008871	0.011388	0.022695	0.004731	0.011393	0.009068	0.010799	0.009060	0.023296	0.023206	0.023605	0.014770	0.022942	0.040605	0.005463	0.005824	0.006880	0.003471	0.011011	0.021260	0.008166	0.006214	0.008658	0.008556	0.008897	0.020847	0.021582	0.008420	0.023622	0.039189
4.285000	0.118042	0.027915	0.028435	0.048162	0.022364	0.070465	0.087166	0.023568	0.040246	0.023513	0.018724	0.027955	0.023409	0.046713	0.027431	0.068865	0.030157	0.045252	0.019866	0.023648	0.015008	0.025457	0.032793	0.022886	0.022991	0.023604	0.007284	0.005909	0.011127	0.007840	0.010594	0.008331	0.010883	0.022452	0.005009	0.010829	0.008620	0.010207	0.008835	0.023814	0.023398	0.024024	0.013578	0.022819	0.040522	0.005512	0.005337	0.006250	0.003326	0.010640	0.022717	0.007402	0.006121	0.007864	0.007825	0.008567	0.021037	0.022587	0.007701	0.023774	0.038403
4.290000	0.117334	0.027850	0.028356	0.048252	0.022514	0.070462	0.087018	0.023112	0.040084	0.023170	0.018811	0.027451	0.023568	0.046531	0.027870	0.068855	0.029823	0.045085	0.019556	0.024001	0.015506	0.024931	0.032919	0.022412	0.022777	0.023436	0.007251	0.005398	0.011828	0.007532	0.010111	0.007443	0.010407	0.022083	0.005397	0.010260	0.008132	0.009766	0.008280	0.024254	0.023195	0.024277	0.013169	0.023587	0.040487	0.005782	0.005363	0.006138	0.003142	0.010643	0.023001	0.006599	0.005630	0.007172	0.007056	0.007950	0.021122	0.023995	0.006967	0.023997	0.037827
4.295000	0.116940	0.027532	0.027971	0.048638	0.022761	0.070029	0.086836	0.022896	0.039558	0.022821	0.019129	0.027708	0.023222	0.046416	0.027871	0.068951	0.029629	0.045102	0.019558	0.024197	0.015427	0.025200	0.032303	0.022732	0.022317	0.024039	0.007484	0.005099	0.011763	0.007633	0.009995	0.007290	0.010134	0.021693	0.006622	0.010113	0.007849	0.009539	0.008443	0.024237	0.022737	0.024383	0.011998	0.023104	0.041072	0.004887	0.004911	0.005231	0.002959	0.010732	0.022908	0.006098	0.005852	0.006905	0.006563	0.007897	0.021464	0.024694	0.007180	0.023753	0.037708
4.300000	0.115998	0.027573	0.027816	0.048983	0.022605	0.069758	0.086406	0.022499	0.039510	0.022632	0.019037	0.027328	0.023274	0.046667	0.027825	0.068597	0.029088	0.044431	0.019301	0.024562	0.015964	0.025465	0.031775	0.022364	0.022505	0.023939	0.007665	0.004865	0.011596	0.007719	0.009654	0.006504	0.009703	0.021310	0.006940	0.009449	0.007365	0.008962	0.008102	0.024564	0.022956	0.024835	0.011093	0.023516	0.040872	0.004994	0.004564	0.004910	0.002612	0.010152	0.023096	0.005521	0.005282	0.006277	0.005761	0.007764	0.021737	0.026402	0.006514	0.024111	0.037087
4.305000	0.115360	0.027609	0.027830	0.049185	0.022419	0.069109	0.085779	0.022332	0.038950	0.022083	0.019599	0.027080	0.023417	0.045851	0.028122	0.068505	0.028761	0.044276	0.019328	0.024760	0.016106	0.024994	0.032000	0.022345	0.022626	0.024362	0.007441	0.004694	0.011727	0.007965	0.009750	0.005980	0.009700	0.020981	0.007359	0.009246	0.007152	0.008595	0.008026	0.025221	0.022809	0.025257	0.010171	0.023815	0.041128	0.004722	0.004230	0.004864	0.002364	0.009935	0.023246	0.005236	0.005025	0.005912	0.005362	0.007711	0.022264	0.027498	0.006345	0.024298	0.037270
4.310000	0.114992	0.027628	0.027786	0.049606	0.022154	0.068425	0.085463	0.022056	0.038519	0.021725	0.019468	0.027065	0.023702	0.045821	0.028112	0.068168	0.028530	0.043968	0.019032	0.024917	0.015999	0.025006	0.032103	0.022584	0.022816	0.024617	0.007963	0.004773	0.011641	0.008320	0.009705	0.006044	0.009603	0.020700	0.007681	0.009043	0.007101	0.008484	0.007620	0.025164	0.022801	0.025767	0.009697	0.023891	0.041711	0.004181	0.003703	0.004187	0.002058	0.009416	0.023384	0.005008	0.004561	0.005613	0.005095	0.007692	0.022814	0.029177	0.005830	0.024505	0.037105
4.315000	0.114095	0.028031	0.027713	0.050090	0.021806	0.067751	0.085057	0.021311	0.038353	0.021306	0.019615	0.026630	0.023550	0.045802	0.028069	0.067920	0.028014	0.043664	0.018553	0.025422	0.016472	0.025690	0.032521	0.022350	0.023075	0.024846	0.007939	0.004705	0.011394	0.008587	0.009776	0.006030	0.009685	0.020280	0.008024	0.008598	0.005994	0.008131	0.007558	0.025732	0.022977	0.026183	0.008683	0.023838	0.041863	0.003896	0.003217	0.003531	0.001778	0.008737	0.023732	0.004858	0.004696	0.005444	0.004949	0.008084	0.023415	0.030465	0.005704	0.025082	0.037132
4.320000	0.113127	0.028307	0.027918	0.050643	0.021521	0.066894	0.084460	0.021109	0.037922	0.021075	0.020087	0.026379	0.023821	0.045219	0.028180	0.067712	0.027631	0.043096	0.018326	0.025858	0.016922	0.025330	0.032860	0.022080	0.023387	0.025281	0.007869	0.004565	0.011406	0.009167	0.009974	0.006329	0.010040	0.019788	0.008405	0.008532	0.006045	0.007905	0.007452	0.026035	0.023298	0.026326	0.007953	0.024000	0.042119	0.003581	0.001985	0.002676	0.001427	0.008060	0.024132	0.004832	0.004444	0.005360	0.004979	0.008440	0.023942	0.031726	0.005374	0.024741	0.037071
4.325000	0.112869	0.028579	0.028246	0.051029	0.021187	0.066207	0.083811	0.020873	0.037598	0.020695	0.020082	0.026345	0.023874	0.045212	0.027953	0.067189	0.027557	0.042699	0.018075	0.026040	0.016872	0.025652	0.032682	0.022312	0.023661	0.025344	0.007912	0.004719	0.011183	0.009565	0.010330	0.006580	0.010100	0.019299	0.008777	0.008588	0.006018	0.007772	0.007533	0.026340	0.022981	0.027009	0.007436	0.024355	0.042844	0.003146	0.002248	0.001955	0.001233	0.007010	0.024605	0.004955	0.004683	0.005589	0.005315	0.009018	0.024364	0.032596	0.005075	0.025119	0.037502
4.330000	0.111774	0.029216	0.028379	0.051639	0.020857	0.065607	0.083432	0.020457	0.037145	0.020209	0.020224	0.025989	0.023916	0.045097	0.027987	0.067157	0.027140	0.042181	0.017713	0.026543	0.017194	0.025852	0.032484	0.022150	0.024139	0.025653	0.007886	0.004702	0.011071	0.010092	0.010644	0.006860	0.010580	0.018907	0.009035	0.008499	0.006212	0.008032	0.008052	0.026835	0.023350	0.027303	0.006898	0.024326	0.043079	0.002753	0.001709	0.001059	0.001596	0.006469	0.025036	0.005557	0.005044	0.005753	0.005773	0.009430	0.024772	0.033819	0.004995	0.024977	0.037533
4.335000	0.111131	0.029437	0.028790	0.052097	0.020330	0.064720	0.082615	0.020462	0.036977	0.020206	0.020176	0.025727	0.024396	0.044898	0.028108	0.066488	0.027192	0.042306	0.017723	0.025874	0.016361	0.026239	0.032721	0.022501	0.024156	0.025893	0.007644	0.004884	0.010838	0.010672	0.011321	0.007528	0.011013	0.018526	0.009511	0.008338	0.006542	0.007675	0.007731	0.026994	0.023537	0.027837	0.006500	0.024621	0.043550	0.002833	0.001404	0.000487	0.001494	0.005636	0.025948	0.005839	0.005441	0.006080	0.006078	0.010083	0.024904	0.034089	0.004920	0.025261	0.038255
4.340000	0.110241	0.029683	0.028864	0.052788	0.020161	0.063991	0.082326	0.020215	0.036598	0.019987	0.020299	0.025672	0.024321	0.044726	0.028047	0.066153	0.026871	0.041455	0.017243	0.026601	0.017100	0.025933	0.032709	0.022489	0.024581	0.026037	0.007320	0.004748	0.010737	0.010920	0.011427	0.007985	0.011730	0.018076	0.009651	0.008697	0.006797	0.008126	0.008396	0.027757	0.023944	0.028323	0.005871	0.024774	0.044244	0.002873	0.001836	0.000659	0.002023	0.004895	0.026525	0.006253	0.005844	0.006587	0.006509	0.010542	0.025595	0.035297	0.004613	0.025266	0.038262
4.345000	0.109847	0.029950	0.029144	0.053314	0.020029	0.063495	0.081549	0.019428	0.036255	0.019578	0.020681	0.025496	0.024450	0.044433	0.027946	0.066035	0.026456	0.041099	0.017144	0.026829	0.017256	0.026467	0.032729	0.022370	0.024573	0.026084	0.007385	0.004821	0.010458	0.011677	0.011931	0.008622	0.011670	0.017667	0.010074	0.008703	0.007309	0.008173	0.008557	0.027844	0.023873	0.028649	0.005916	0.024829	0.044574	0.002871	0.002338	0.001588	0.002549	0.004558	0.026382	0.006757	0.006398	0.006754	0.006910	0.011235	0.025954	0.035759	0.004328	0.025165	0.038590
4.350000	0.108626	0.029649	0.029484	0.053905	0.019755	0.062832	0.080973	0.019735	0.035867	0.019450	0.021081	0.025515	0.024607	0.044323	0.027773	0.065836	0.026076	0.040594	0.016909	0.027104	0.017480	0.026777	0.032613	0.022222	0.024693	0.026279	0.007211	0.004751	0.010330	0.012147	0.012389	0.008727	0.012138	0.017505	0.010636	0.008998	0.007542	0.008375	0.008455	0.028586	0.024139	0.028673	0.005350	0.024799	0.045153	0.003209	0.002813	0.002362	0.002915	0.003877	0.028132	0.007331	0.006781	0.007196	0.007464	0.011883	0.026049	0.036253	0.004490	0.025005	0.039037
4.355000	0.108330	0.030383	0.029853	0.054563	0.019622	0.062073	0.080228	0.019537	0.035532	0.019201	0.021490	0.025544	0.024725	0.044512	0.027697	0.065512	0.025791	0.040245	0.016661	0.027317	0.017786	0.026647	0.032443	0.022070	0.024735	0.026139	0.007122	0.004807	0.010062	0.012730	0.012945	0.009778	0.012728	0.016832	0.010652	0.009606	0.008020	0.008708	0.009135	0.029038	0.024462	0.029484	0.005241	0.024971	0.045461	0.003795	0.003466	0.002854	0.003442	0.003381	0.028658	0.007663	0.007164	0.007656	0.007573	0.012378	0.026185	0.036970	0.004655	0.025211	0.039192
4.360000	0.108217	0.030475	0.030298	0.055226	0.019495	0.061345	0.079778	0.019310	0.035199	0.019065	0.021310	0.025120	0.025155	0.044185	0.028404	0.065157	0.025660	0.039961	0.016701	0.026924	0.017246	0.027233	0.032205	0.022204	0.023673	0.025930	0.006917	0.004644	0.010116	0.013272	0.013437	0.009889	0.013154	0.016376	0.010956	0.009911	0.008493	0.009087	0.009392	0.029129	0.024739	0.029695	0.005204	0.025498	0.046303	0.004246	0.004001	0.003335	0.003906	0.003038	0.029244	0.007968	0.007629	0.007934	0.007802	0.013029	0.026619	0.037369	0.004813	0.025100	0.039930
4.365000	0.107435	0.030496	0.030714	0.055760	0.019437	0.061038	0.079862	0.019116	0.034912	0.018744	0.021523	0.025185	0.024997	0.043975	0.028633	0.064497	0.025233	0.039714	0.016748	0.027046	0.016985	0.027163	0.031912	0.021348	0.024072	0.025461	0.006741	0.004602	0.009725	0.013872	0.013929	0.010354	0.013493	0.016321	0.011291	0.009980	0.008749	0.009148	0.009574	0.029114	0.025016	0.030028	0.005192	0.025407	0.046306	0.004629	0.004581	0.003660	0.004270	0.002716	0.029709	0.008313	0.007903	0.008256	0.008647	0.013497	0.026745	0.037976	0.004597	0.025273	0.040148
4.370000	0.106223	0.030544	0.030584	0.056253	0.019479	0.060615	0.078786	0.019144	0.034576	0.018676	0.021488	0.025040	0.025113	0.044275	0.028320	0.064869	0.025180	0.039382	0.016514	0.027254	0.017246	0.027477	0.031424	0.021488	0.023916	0.025526	0.006717	0.004571	0.009699	0.014498	0.014459	0.010758	0.014016	0.016062	0.011445	0.010190	0.009109	0.009847	0.009824	0.029314	0.025276	0.030126	0.005051	0.025639	0.046881	0.005063	0.005049	0.004040	0.004631	0.002474	0.029946	0.008653	0.008092	0.008450	0.008831	0.014022	0.026632	0.038532	0.004819	0.025022	0.040693
4.375000	0.105570	0.030739	0.030833	0.056835	0.019437	0.060093	0.077919	0.019137	0.033881	0.018451	0.022108	0.025240	0.025124	0.043791	0.028362	0.064739	0.024834	0.039199	0.016526	0.027660	0.017537	0.027592	0.031059	0.021494	0.023873	0.025349	0.006394	0.004529	0.009619	0.015139	0.014989	0.011151	0.014414	0.015778	0.011607	0.010572	0.009185	0.009977	0.010145	0.029543	0.025514	0.030540	0.005069	0.025838	0.047328	0.005580	0.005162	0.004513	0.005095	0.002178	0.030338	0.009007	0.008273	0.008793	0.008971	0.014542	0.026846	0.038863	0.004924	0.025166	0.041159
4.380000	0.104922	0.030812	0.031128	0.057512	0.019562	0.059474	0.077575	0.019070	0.033519	0.018286	0.022442	0.025066	0.025258	0.044234	0.027801	0.064573	0.024388	0.038860	0.016300	0.028077	0.017713	0.027838	0.030824	0.021554	0.023759	0.024929	0.006294	0.004519	0.009394	0.015786	0.015622	0.011502	0.014919	0.015397	0.011205	0.011022	0.009473	0.010256	0.010463	0.029619	0.025614	0.030801	0.005094	0.026032	0.047645	0.006038	0.005991	0.004960	0.005749	0.001693	0.030381	0.009286	0.008448	0.009143	0.009163	0.014993	0.027317	0.039341	0.004999	0.024896	0.041527
4.385000	0.104373	0.030966	0.031425	0.057971	0.019676	0.059028	0.077030	0.018999	0.033231	0.018370	0.022535	0.024861	0.025322	0.043849	0.028409	0.064268	0.023969	0.038425	0.016153	0.028104	0.017675	0.027871	0.030355	0.021222	0.023466	0.024751	0.006006	0.004599	0.009224	0.016416	0.015968	0.011532	0.015356	0.014980	0.011131	0.011541	0.009584	0.010641	0.010533	0.029699	0.025838	0.030985	0.005225	0.026160	0.047989	0.006458	0.006251	0.005145	0.005990	0.001806	0.029910	0.009525	0.008711	0.009503	0.009395	0.015454	0.027410	0.039695	0.005105	0.024773	0.041713
