Inverse Dynamics Generalized Forces
version=1
nRows=114
nColumns=40
inDegrees=no
endheader
time	pelvis_tilt_moment	pelvis_list_moment	pelvis_rotation_moment	pelvis_tx_force	pelvis_ty_force	pelvis_tz_force	hip_flexion_r_moment	hip_adduction_r_moment	hip_rotation_r_moment	hip_flexion_l_moment	hip_adduction_l_moment	hip_rotation_l_moment	lumbar_extension_moment	lumbar_bending_moment	lumbar_rotation_moment	knee_angle_r_moment	knee_angle_r_beta_force	knee_angle_l_moment	knee_angle_l_beta_force	arm_flex_r_moment	arm_add_r_moment	arm_rot_r_moment	arm_flex_l_moment	arm_add_l_moment	arm_rot_l_moment	ankle_angle_r_moment	ankle_angle_l_moment	elbow_flex_r_moment	elbow_flex_l_moment	subtalar_angle_r_moment	subtalar_angle_l_moment	pro_sup_r_moment	pro_sup_l_moment	mtp_angle_r_moment	mtp_angle_l_moment	wrist_flex_r_moment	wrist_dev_r_moment	wrist_flex_l_moment	wrist_dev_l_moment
      3.13500000	 -94687.87779866	-829151.03364715	-301998.40458815	    -97.23113998	    606.18300406	    880.46816497	-192022.39659985	  45843.09157914	 841592.14545451	     20.04601128	     -6.48595748	      0.15569350	     64.62529482	    -22.32277818	     -0.20560368	-289361.81765344	     -0.01776046	      3.85373366	     -0.01889507	     -5.41015278	     -2.14756681	      2.22202638	     -5.33384393	     -0.83073530	      2.34308573	 204530.46008014	      0.78149907	      0.49758875	      0.35988237	-463593.86215013	     -0.14624418	      0.05049654	      0.05788990	     -0.02902252	     -0.02927174	      0.24040253	      0.01619352	      0.23495962	      0.03319554
      3.14000000	 -99082.42330979	-845144.50704431	-310728.77631681	    -97.27059804	    659.30078857	    903.54043853	-192976.03402865	  42243.64326562	 860106.74584073	     20.48971224	     -5.92206753	      0.03941495	     80.08753817	    -24.17373593	     -0.35323454	-291100.13128387	     -0.01809697	      3.84676283	     -0.01887928	     -5.79682459	     -2.27791251	      2.25853762	     -5.62015460	     -0.80333117	      2.34617556	 205010.95635957	      0.77757817	      0.54673767	      0.58580591	-474553.17941149	     -0.13545608	      0.04915296	      0.05364516	     -0.02977141	     -0.02940643	      0.23258562	      0.00911560	      0.23106164	      0.00262628
      3.14500000	-102913.32298633	-862665.13122005	-319933.79111861	    -97.20022408	    711.40563570	    928.46733392	-193364.76013270	  38675.28021337	 879911.03381618	     20.92693283	     -5.38941890	     -0.06080758	     95.40330139	    -25.97994404	     -0.53021640	-293933.42730607	     -0.01838090	      3.83849286	     -0.01886652	     -6.18176284	     -2.40703774	      2.29529542	     -5.89996728	     -0.76834465	      2.34872617	 206466.80914895	      0.77378219	      0.59936682	      0.81332092	-486413.82574990	     -0.12570738	      0.04779362	      0.04932728	     -0.03042337	     -0.02951023	      0.22485990	      0.00182926	      0.22733838	     -0.02821167
      3.15000000	-106071.54067967	-881907.22754846	-330054.03900831	    -96.50882481	    762.65740415	    955.48586847	-192997.57847124	  34713.88449660	 901270.15619056	     21.35290828	     -4.89903919	     -0.14695915	    110.34387790	    -27.69348407	     -0.73353978	-298074.58094560	     -0.01861951	      3.82939592	     -0.01885721	     -6.56098984	     -2.53334654	      2.33225320	     -6.17156441	     -0.72402061	      2.35176045	 209172.90406330	      0.77020811	      0.65457309	      1.04131154	-499700.91552597	     -0.11702400	      0.04642412	      0.04493580	     -0.03097294	     -0.02958366	      0.21735632	     -0.00552869	      0.22401143	     -0.05912288
      3.15500000	-108501.92130892	-902012.64838398	-341139.91266687	    -94.82230556	    813.18318362	    983.62927385	-191634.31808897	  29868.44702986	 923434.61047022	     21.76344930	     -4.45825193	     -0.22192420	    124.69205300	    -29.27410056	     -0.96016676	-303209.76722515	     -0.01882082	      3.82036006	     -0.01885280	     -6.93048957	     -2.65516214	      2.36916975	     -6.43369684	     -0.66900227	      2.35641606	 212976.93834497	      0.76696254	      0.71153441	      1.26841111	-514325.45189915	     -0.10936536	      0.04504022	      0.04048582	     -0.03141975	     -0.02962997	      0.21018190	     -0.01284976	      0.22130175	     -0.08987726
      3.16000000	-109624.87711976	-920276.93750994	-351825.05019529	    -91.83190716	    861.90621762	   1009.73905181	-188511.02461331	  24266.23146554	 943458.04303753	     22.15497622	     -4.07123302	     -0.28909727	    138.25023056	    -30.69122219	     -1.20771333	-308588.73079499	     -0.01899331	      3.81269751	     -0.01885531	     -7.28651297	     -2.77082779	      2.40564581	     -6.68564108	     -0.60256762	      2.36388793	 217364.07869045	      0.76415673	      0.76955021	      1.49289728	-528476.47772138	     -0.10264444	      0.04362630	      0.03601205	     -0.03176842	     -0.02965446	      0.20341458	     -0.02005849	      0.21941160	     -0.12019825
      3.16500000	-108901.43967162	-934608.14260779	-360864.68629892	    -87.34338945	    907.65964963	   1031.28341831	-183033.52897892	  18186.82867392	 958973.37513738	     22.52451011	     -3.73983161	     -0.35188138	    150.84644864	    -31.92467415	     -1.47469091	-313708.61907195	     -0.01914557	      3.80810846	     -0.01886703	     -7.62582627	     -2.87879634	      2.44119659	     -6.92726106	     -0.52488764	      2.37541668	 221986.14187858	      0.76190832	      0.82807500	      1.71261474	-540590.73270231	     -0.09675886	      0.04215708	      0.03156938	     -0.03202787	     -0.02966400	      0.19710710	     -0.02711352	      0.21851641	     -0.14975181
      3.17000000	-106463.90614829	-947021.32014715	-369210.12775188	    -81.55679590	    949.96158371	   1050.44499243	-175504.55677994	  11444.79851059	 972056.37918745	     22.86953042	     -3.46438316	     -0.41316704	    162.33871330	    -32.96458796	     -1.76036167	-319373.12987538	     -0.01928590	      3.80861962	     -0.01889025	     -7.94587881	     -2.97770814	      2.47534674	     -7.15907104	     -0.43728813	      2.39232358	 227493.04745869	      0.76034678	      0.88675203	      1.92490054	-552060.20910197	     -0.09162489	      0.04060234	      0.02723147	     -0.03221011	     -0.02966659	      0.19129923	     -0.03400746	      0.21876605	     -0.17813381
      3.17500000	-102489.76367284	-959499.77334619	-377844.95793230	    -74.70631179	    988.43585826	   1069.47467300	-166214.23930586	   3785.67134295	 984780.77434896	     23.18780766	     -3.24457140	     -0.47488479	    172.61762239	    -33.81072639	     -2.06441269	-326315.83210042	     -0.01942199	      3.81651038	     -0.01892731	     -8.24491535	     -3.06645550	      2.50772111	     -7.38222225	     -0.34245716	      2.41601298	 234473.92058213	      0.75961491	      0.94543887	      2.12649932	-564295.30287512	     -0.08720446	      0.03893120	      0.02309118	     -0.03232857	     -0.02967059	      0.18603155	     -0.04076666	      0.22028307	     -0.20485765
      3.18000000	 -96678.93443417	-969909.21563409	-385421.72904120	    -66.78239257	   1022.25565523	   1086.22107037	-154820.09646274	  -4419.80439575	 994789.94160879	     23.47733605	     -3.08037103	     -0.53765446	    181.60717514	    -34.47122842	     -2.38662345	-333791.23598948	     -0.01956063	      3.83420848	     -0.01898064	     -8.52207473	     -3.14424118	      2.53813695	     -7.59842612	     -0.24455767	      2.44793666	 242311.86403090	      0.75986333	      1.00421057	      2.31349243	-575584.39102294	     -0.08352420	      0.03711577	      0.01926484	     -0.03239636	     -0.02968349	      0.18135884	     -0.04744816	      0.22315662	     -0.22934546
      3.18500000	 -88976.94326449	-976185.79221750	-390575.12588329	    -57.97946183	   1050.83304163	   1098.50109961	-141286.84822650	 -12707.99356880	 999862.63885282	     23.73625367	     -2.97269977	     -0.60053327	    189.26404772	    -34.96087998	     -2.72652087	-340881.74564640	     -0.01970750	      3.86414956	     -0.01905286	     -8.77747497	     -3.21065235	      2.56670486	     -7.80991385	     -0.14923629	      2.48958732	 250187.20635397	      0.76124452	      1.06333384	      2.48129795	-584169.87175923	     -0.08068920	      0.03513570	      0.01589665	     -0.03242524	     -0.02971085	      0.17736459	     -0.05413169	      0.22744307	     -0.25092733
      3.19000000	 -80718.72907361	-980571.83947673	-394437.54834170	    -49.56748467	   1074.79870511	   1108.46629206	-127078.35073716	 -21381.28820346	1002714.96244853	     23.96269088	     -2.92350778	     -0.66094685	    195.57608575	    -35.29929936	     -3.08286200	-347365.90363242	     -0.01986693	      3.90861425	     -0.01914671	     -9.01225350	     -3.26576010	      2.59390904	     -8.01947190	     -0.06349688	      2.54252964	 257663.71887296	      0.76391222	      1.12321192	      2.62477544	-591483.92308651	     -0.07888652	      0.03298331	      0.01315677	     -0.03242536	     -0.02975632	      0.17417210	     -0.06090790	      0.23317439	     -0.26885393
      3.19500000	 -73316.98224313	-985826.22918068	-398471.15890578	    -42.85033121	   1094.99700207	   1118.75949727	-113685.75378191	 -30905.86002780	1006625.80007912	     24.15480803	     -2.93563783	     -0.71486138	    200.56027235	    -35.50907436	     -3.45289772	-353155.16986596	     -0.02004173	      3.96953840	     -0.01926501	     -9.22853756	     -3.31020450	      2.62063709	     -8.23048129	      0.00458192	      2.60840672	 264415.64970866	      0.76802154	      1.18431486	      2.73841951	-599384.74341317	     -0.07837320	      0.03066698	      0.01123150	     -0.03240515	     -0.02982248	      0.17194791	     -0.06786622	      0.24036440	     -0.28232290
      3.20000000	 -67186.74771603	-992561.76968584	-402825.02996048	    -38.20180176	   1111.74458242	   1129.69742408	-101543.76830930	 -41284.82528255	1012289.82960211	     24.31110466	     -3.01272025	     -0.75709651	    204.25987804	    -35.61342629	     -3.83165717	-358087.02791033	     -0.02023323	      4.04831399	     -0.01941044	     -9.42934214	     -3.34522296	      2.64816744	     -8.44686974	      0.04626627	      2.68888593	 270201.05435723	      0.77372524	      1.24711468	      2.81664019	-608114.38526205	     -0.07945511	      0.02821286	      0.01030987	     -0.03237081	     -0.02991135	      0.17090002	     -0.07508527	      0.24901078	     -0.29051931
      3.20500000	 -62333.07492414	-1000434.59447694	-407181.12718313	    -35.61318175	   1125.24129292	   1140.69776187	 -90646.87609250	 -52401.81482662	1019293.85002835	     24.43072771	     -3.15880298	     -0.78171409	    206.74109087	    -35.63359374	     -4.21151663	-361965.96061467	     -0.02044142	      4.14562427	     -0.01958561	     -9.61840954	     -3.37264914	      2.67813456	     -8.67295507	      0.05273866	      2.78556039	 274831.80780645	      0.78116798	      1.31202116	      2.85416331	-617305.47280760	     -0.08246207	      0.02566661	      0.01057003	     -0.03232612	     -0.03002444	      0.17127487	     -0.08262465	      0.25909873	     -0.29267366
      3.21000000	 -58121.15943411	-1007373.11786285	-410703.15594878	    -34.50120964	   1135.60580926	   1149.92283032	 -80277.29904298	 -64171.69165315	1025340.53203406	     24.51372910	     -3.37758714	     -0.78256323	    208.08970611	    -35.58687779	     -4.58202515	-364515.63311127	     -0.02066501	      4.26129593	     -0.01979315	     -9.80000046	     -3.39491211	      2.71247241	     -8.91320766	      0.01585967	      2.89982055	 278240.48152455	      0.79047547	      1.37931135	      2.84654703	-625786.42367302	     -0.08771435	      0.02309520	      0.01216582	     -0.03227260	     -0.03016272	      0.17335235	     -0.09051582	      0.27060705	     -0.28813702
      3.21500000	 -53840.70319589	-1011395.72142597	-412614.94168440	    -34.22013854	   1142.88234908	   1155.60070735	 -69690.14797097	 -76446.09406166	1028204.59596769	     24.56141393	     -3.67171968	     -0.75391687	    208.40745477	    -35.48563742	     -4.92993125	-365612.11722149	     -0.02090159	      4.39413232	     -0.02003547	     -9.97863551	     -3.41499956	      2.75332417	     -9.17192865	     -0.07092011	      3.03268452	 280501.45540827	      0.80173184	      1.44906965	      2.79076772	-632459.58942061	     -0.09547994	      0.02058737	      0.01521201	     -0.03220886	     -0.03032608	      0.17743608	     -0.09875426	      0.28351175	     -0.27646770
      3.22000000	 -49086.60508900	-1012660.30278888	-412897.82395998	    -34.46347818	   1146.80382246	   1157.43415588	 -58543.76150309	 -89058.92481761	1027873.73715700	     24.57653985	     -4.04240779	     -0.69095129	    207.80729297	    -35.33658509	     -5.23963812	-365742.84926992	     -0.02114812	      4.54179379	     -0.02031425	    -10.15879514	     -3.43638227	      2.80291140	     -9.45277826	     -0.21158134	      3.18456068	 282083.38794809	      0.81494972	      1.52113691	      2.68585885	-637403.90231711	     -0.10593644	      0.01825192	      0.01976708	     -0.03212961	     -0.03051256	      0.18383731	     -0.10729352	      0.29778388	     -0.25752761
      3.22500000	 -43690.54770350	-1012086.50838355	-411854.09510575	    -35.09033048	   1147.28782033	   1155.85383222	 -46737.66846462	-101927.99939570	1025181.17354492	     24.56303636	     -4.48909398	     -0.59000900	    206.40818066	    -35.13992226	     -5.49425241	-365483.31683587	     -0.02140032	      4.70081729	     -0.02063005	    -10.34460237	     -3.46296068	      2.86336754	     -9.75810989	     -0.40652068	      3.35493328	 283473.15395836	      0.83004277	      1.59504218	      2.53362183	-641158.36604137	     -0.11914644	      0.01621439	      0.02581326	     -0.03202523	     -0.03071751	      0.19285171	     -0.11603929	      0.31338187	     -0.23159143
      3.23000000	 -38115.86630532	-1011454.44032550	-410285.22733461	    -36.32655112	   1145.23739528	   1152.67751341	 -34762.79335937	-115260.83891527	1022049.94603320	     24.52540747	     -5.00912389	     -0.44876849	    204.33014952	    -34.88821293	     -5.67701445	-365155.34472305	     -0.02165325	      4.86675410	     -0.02098209	    -10.53949179	     -3.49904618	      2.93654103	    -10.08813776	     -0.65147901	      3.54199511	 284840.71243297	      0.84680333	      1.66991898	      2.33943720	-644869.50110663	     -0.13504481	      0.01461247	      0.03323368	     -0.03188269	     -0.03093271	      0.20473028	     -0.12484320	      0.33024131	     -0.19947158
      3.23500000	 -32879.43063235	-1012083.44071648	-408788.71094629	    -38.45976749	   1141.55604733	   1149.42097303	 -23132.69731485	-129283.78713052	1019947.30528126	     24.46818391	     -5.59767492	     -0.26635051	    201.68956208	    -34.56521871	     -5.77274060	-364811.67009957	     -0.02190114	      5.03436073	     -0.02136797	    -10.74582972	     -3.54933784	      3.02375945	    -10.44005608	     -0.93663659	      3.74229147	 286128.17144856	      0.86489046	      1.74443225	      2.11301799	-649384.56439025	     -0.15343775	      0.01358934	      0.04179039	     -0.03168662	     -0.03114571	      0.21964472	     -0.13349937	      0.34826255	     -0.16263448
      3.24000000	 -28133.55572656	-1012625.39045560	-406684.39299786	    -41.70998715	   1136.14989767	   1144.90953442	 -12043.78077978	-143720.80050336	1017523.23823626	     24.39550463	     -6.24794892	     -0.04332053	    198.59449059	    -34.14604880	     -5.76901711	-363774.54247260	     -0.02213710	      5.19783109	     -0.02178355	    -10.96449442	     -3.61886865	      3.12557339	    -10.80762482	     -1.24700572	      3.95064699	 286735.06659455	      0.88383221	      1.81674029	      1.86820439	-653699.66267630	     -0.17401238	      0.01328563	      0.05112669	     -0.03142012	     -0.03133978	      0.23765130	     -0.14174523	      0.36729548	     -0.12317239
      3.24500000	 -23927.42840940	-1011681.32924336	-403266.93049321	    -46.15214395	   1128.90635243	   1137.95493898	  -1628.64964256	-158188.88520225	1013355.71331662	     24.31071775	     -6.95141340	      0.21840857	    195.14066574	    -33.59998536	     -5.65703186	-361479.31585806	     -0.02235316	      5.35105628	     -0.02222305	    -11.19451154	     -3.71288725	      3.24154625	    -11.18194666	     -1.56532528	      4.16074519	 286170.71819361	      0.90303241	      1.88451960	      1.62073921	-656762.94539997	     -0.19634798	      0.01383194	      0.06082409	     -0.03106472	     -0.03149400	      0.25866351	     -0.14926763	      0.38712943	     -0.08346796
      3.25000000	 -20198.20660512	-1010326.06505387	-398956.45773660	    -51.40761616	   1120.66684964	   1129.93108712	   8151.94999518	-172764.37909193	1008483.73975411	     24.21598329	     -7.69807533	      0.51571409	    191.40822340	    -32.89482219	     -5.43201038	-358443.86744678	     -0.02254070	      5.48786888	     -0.02267937	    -11.43280956	     -3.83664703	      3.37012180	    -11.55314165	     -1.87620425	      4.36614595	 284867.41872971	      0.92177535	      1.94505450	      1.38487012	-659276.62987746	     -0.21992536	      0.01534236	      0.07049178	     -0.03059975	     -0.03158325	      0.28243679	     -0.15571482	      0.40749286	     -0.04567859
      3.25500000	 -16901.87615053	-1009740.34382678	-394267.75893413	    -57.08844777	   1112.30810622	   1122.26010768	  17357.50301855	-187671.06348707	1004060.34230165	     24.11194685	     -8.47688021	      0.84438577	    187.45942466	    -32.00011306	     -5.09326740	-355191.32331941	     -0.02269129	      5.60225013	     -0.02314439	    -11.67408792	     -3.99514000	      3.50855300	    -11.91159183	     -2.16857888	      4.56099116	 283272.20019137	      0.93923468	      1.99535223	      1.17113203	-662088.13558597	     -0.24414010	      0.01790729	      0.07982392	     -0.03000228	     -0.03157815	      0.30856086	     -0.16071079	      0.42805623	     -0.01139922
      3.26000000	 -14228.66957024	-1009058.61347244	-389029.64045522	    -63.23637878	   1103.95389482	   1114.01577870	  25774.74968875	-202918.74295064	 999289.54797015	     23.99745588	     -9.27619881	      1.19926428	    183.33765671	    -30.88867763	     -4.64398701	-351264.44198951	     -0.02279761	      5.68849484	     -0.02360922	    -11.91081181	     -4.19280367	      3.65290482	    -12.24815358	     -2.43566910	      4.74011852	 281013.24528441	      0.95448746	      2.03228572	      0.98614148	-664784.28476895	     -0.26832227	      0.02158614	      0.08860293	     -0.02924756	     -0.03144527	      0.33646182	     -0.16387195	      0.44843596	      0.01836912
      3.26500000	 -12235.12176515	-1007566.16008345	-383073.07178806	    -69.77248627	   1095.54048896	   1104.42392850	  33298.23716617	-218428.76340552	 993475.56093887	     23.86922504	    -10.08422266	      1.57442641	    179.06734843	    -29.53777065	     -4.09099443	-346403.39424053	     -0.02285441	      5.74135267	     -0.02406441	    -12.13337348	     -4.43312654	      3.79815224	    -12.55391684	     -2.67387153	      4.89893925	 277893.01385967	      0.96652854	      2.05285118	      0.83335109	-666995.43352114	     -0.29175981	      0.02639924	      0.09667900	     -0.02830970	     -0.03114719	      0.36542029	     -0.16483771	      0.46820572	      0.04310624
      3.27000000	 -10187.67911335	-1007189.94594537	-376850.34312362	    -75.71956741	   1087.06754460	   1095.67232727	  40676.77275572	-234311.81680934	 988245.74364588	     23.72148835	    -10.88903229	      1.96330358	    174.65433250	    -27.93105219	     -3.44467279	-342021.30912066	     -0.02285930	      5.75620285	     -0.02450018	    -12.33044583	     -4.71808041	      3.93837453	    -12.82010502	     -2.88165843	      5.03338367	 275166.38430596	      0.97428617	      2.05459178	      0.71386422	-669875.02512316	     -0.31371786	      0.03231796	      0.10394917	     -0.02716255	     -0.03064279	      0.39460646	     -0.16332289	      0.48691583	      0.06265177
      3.27500000	  -7435.43242964	-1009663.04495529	-370710.53486730	    -80.19328482	   1078.57485352	   1089.80552247	  48610.17754910	-250771.13281306	 985054.01702947	     23.54574562	    -11.67825068	      2.35860736	    170.08713294	    -26.06128365	     -2.71882688	-339351.65071540	     -0.02281346	      5.72929893	     -0.02490681	    -12.48954329	     -5.04743813	      4.06706712	    -13.03821092	     -3.05867428	      5.13994607	 273928.42172661	      0.97664151	      2.03610095	      0.62712637	-674471.91824697	     -0.33344704	      0.03925615	      0.11034033	     -0.02578098	     -0.02988789	      0.42313229	     -0.15917897	      0.50411669	      0.07710295
      3.28000000	  -4463.33119680	-1013299.50814180	-364101.04822882	    -83.57529673	   1070.26289074	   1085.32905058	  56537.18790217	-267600.75391787	 982379.09730757	     23.33063160	    -12.43837722	      2.75207080	    165.33965240	    -23.93313835	     -1.93024627	-337379.28319441	     -0.02272206	      5.65807427	     -0.02527488	    -12.59778711	     -5.41809879	      4.17759119	    -13.20028969	     -3.20505387	      5.21579699	 273277.12859025	      0.97245210	      1.99746024	      0.57148133	-679721.70105781	     -0.35018052	      0.04706706	      0.11579757	     -0.02414198	     -0.02883649	      0.45011954	     -0.15244261	      0.51938487	      0.08673280
      3.28500000	  -1772.08951772	-1016483.73406522	-356561.74101624	    -86.25279141	   1062.42053644	   1080.72362754	  63854.73219105	-284531.29478469	 978793.11307693	     23.06195518	    -13.15384161	      3.13404635	    160.37491975	    -21.56561594	     -1.09798181	-335140.73037122	     -0.02259465	      5.54148420	     -0.02559558	    -12.64283718	     -5.82353245	      4.26373242	    -13.29937621	     -3.32097938	      5.25896042	 272350.86182722	      0.96057988	      1.94051117	      0.54456085	-684607.24356557	     -0.36312177	      0.05554717	      0.12027978	     -0.02222553	     -0.02744257	      0.47477555	     -0.14335889	      0.53235280	      0.09193410
      3.29000000	   1238.92457744	-1021344.28600487	-348719.46366505	    -87.32235907	   1055.56825115	   1077.90357163	  71265.65190223	-302053.71245413	 976150.63532322	     22.72306280	    -13.80588135	      3.49300838	    155.14926371	    -18.99348398	     -0.24253452	-333973.45258008	     -0.02244536	      5.38035535	     -0.02586099	    -12.61390195	     -6.25346315	      4.32029485	    -13.32996983	     -3.40646778	      5.26851920	 272344.11656735	      0.93992881	      1.86891188	      0.54351316	-690583.87004734	     -0.37142630	      0.06444537	      0.12376109	     -0.02001563	     -0.02566252	      0.49646466	     -0.13237604	      0.54273861	      0.09318754
      3.29500000	   5109.45289027	-1030035.36250804	-341145.95038316	    -85.98413162	   1050.15235591	   1078.92219073	  79449.03834663	-320821.05522446	 976303.87457525	     22.29566532	    -14.37168854	      3.81515884	    149.61635494	    -16.26702026	      0.61477227	-335126.31282140	     -0.02229288	      5.17771973	     -0.02606445	    -12.50270955	     -6.69388969	      4.34363400	    -13.28844325	     -3.46136128	      5.24474931	 274367.52935879	      0.90950505	      1.78795442	      0.56513162	-699143.51392064	     -0.37419420	      0.07347564	      0.12623346	     -0.01750186	     -0.02345877	      0.51476097	     -0.12011271	      0.55036585	      0.09104245
      3.30000000	   8992.40409853	-1040993.05574110	-333365.98638368	    -83.08083185	   1046.10030710	   1082.94691469	  87462.98535257	-340648.95665088	 977939.74377464	     21.76107959	    -14.82418856	      4.08437725	    143.73120716	    -13.44986948	      1.45212662	-337320.47113289	     -0.02216032	      4.93912274	     -0.02620147	    -12.30433945	     -7.12750172	      4.33205145	    -13.17325829	     -3.48546611	      5.18910880	 277224.50350680	      0.86850913	      1.70413137	      0.60592803	-709255.20336136	     -0.37049074	      0.08233144	      0.12770713	     -0.01468170	     -0.02080424	      0.52947253	     -0.10729965	      0.55516546	      0.08610143
      3.30500000	  12014.79444333	-1052224.94060731	-324864.03647096	    -79.53985956	   1043.30882698	   1088.71016915	  94285.52422735	-361143.94507595	 979374.44161186	     21.10183634	    -15.13186126	      4.28223313	    137.45513309	    -10.61540100	      2.24757014	-339153.96763508	     -0.02207495	      4.67286069	     -0.02626759	    -12.01782520	     -7.53452721	      4.28600754	    -12.98498508	     -3.47875817	      5.10409794	 279616.55777691	      0.81644602	      1.62446675	      0.66215364	-719615.81467377	     -0.35936778	      0.09070258	      0.12821062	     -0.01156331	     -0.01768759	      0.54063482	     -0.09469898	      0.55716302	      0.07900851
      3.31000000	  14637.19949500	-1063905.96160599	-315797.10266345	    -74.90855771	   1042.06595910	   1096.06294389	 100381.61710841	-382504.32138957	 980590.55249746	     20.30361420	    -15.25929398	      4.38843476	    130.76177210	     -7.84160059	      2.97964892	-341200.11685587	     -0.02206791	      4.39010029	     -0.02625530	    -11.64644729	     -7.89401264	      4.20811799	    -12.72616231	     -3.44155407	      4.99303703	 282117.30689557	      0.75324780	      1.55566840	      0.72979641	-730551.11257298	     -0.33990771	      0.09829413	      0.12779140	     -0.00816860	     -0.01411817	      0.54847473	     -0.08300808	      0.55645749	      0.07043920
      3.31500000	  17688.56481195	-1076681.73677119	-306376.63996116	    -68.43692855	   1042.63158184	   1105.24197472	 106615.42757521	-405039.78497093	 981886.34036088	     19.35732714	    -15.17009506	      4.38261850	    123.64283438	     -5.20472204	      3.62818427	-344522.39867640	     -0.02217427	      4.10480504	     -0.02617669	    -11.19769405	     -8.18543719	      4.10290565	    -12.40101486	     -3.37457714	      4.85977399	 285754.19002503	      0.67942502	      1.50320295	      0.80461924	-742687.70418637	     -0.31135988	      0.10484440	      0.12651426	     -0.00453708	     -0.01012982	      0.55334527	     -0.07276146	      0.55319273	      0.06108366
      3.32000000	  22107.08054674	-1090778.06865759	-296384.53865050	    -59.46289538	   1044.72762150	   1116.89111226	 113894.39515689	-428647.95471876	 983161.73471960	     18.26184441	    -14.82736388	      4.24463261	    116.11304045	     -2.77299579	      4.17490601	-350144.97782381	     -0.02240800	      3.83345590	     -0.02605031	    -10.68291273	     -8.39041823	      3.97631403	    -12.01508248	     -3.27892694	      4.70833733	 291482.07089831	      0.59619257	      1.47043671	      0.88227795	-756106.38090523	     -0.27316517	      0.11013848	      0.12445515	     -0.00073172	     -0.00578553	      0.55563629	     -0.06424816	      0.54752299	      0.05161623
      3.32500000	  28532.96762191	-1106031.86394825	-285558.41577179	    -47.63393432	   1048.23368701	   1131.46786529	 122806.56443478	-453145.66288287	 984059.10680642	     17.02587956	    -14.19659726	      3.95657371	    108.21451757	     -0.60133746	      4.60397778	-358684.41532018	     -0.02280484	      3.59463536	     -0.02590694	    -10.11665669	     -8.49424307	      3.83503001	    -11.57484154	     -3.15603066	      4.54258279	 299868.97141222	      0.50561212	      1.45798529	      0.95850335	-770622.45732299	     -0.22509969	      0.11401626	      0.12169252	      0.00315964	     -0.00118079	      0.55567357	     -0.05745952	      0.53957857	      0.04265588
      3.33000000	  36313.34389820	-1121203.96717210	-273861.11275982	    -33.60430332	   1054.15567565	   1148.23264722	 132605.17007569	-478359.25098396	 983570.71689525	     15.66971828	    -13.24858266	      3.50477219	    100.01949541	      1.27301495	      4.90242659	-369206.09979109	     -0.02340425	      3.40827271	     -0.02579119	     -9.51574201	     -8.48707715	      3.68569912	    -11.08733616	     -3.00764444	      4.36587754	 310036.05171173	      0.41070633	      1.46336867	      1.02931372	-785539.57573266	     -0.16740309	      0.11637504	      0.11829938	      0.00701784	      0.00355299	      0.55362312	     -0.05207436	      0.52943859	      0.03472628
      3.33500000	  44655.69290012	-1135122.30679463	-261371.87375135	    -18.22301662	   1063.41157942	   1166.27224625	 142411.85058094	-504086.52726478	 980802.95599322	     14.22633400	    -11.96387850	      2.88253813	     91.62959957	      2.83345388	      5.06054870	-380654.53007541	     -0.02424119	      3.29452979	     -0.02576250	     -8.89807235	     -8.36471590	      3.53415104	    -10.55982526	     -2.83586796	      4.18085965	 320981.47463912	      0.31554416	      1.48104595	      1.09124048	-800204.40659689	     -0.10094702	      0.11716776	      0.11433686	      0.01068914	      0.00824673	      0.54942065	     -0.04748659	      0.51711608	      0.02821981
      3.34000000	  53534.72755449	-1148018.88409398	-248237.84603624	     -2.04927685	   1075.40799635	   1185.22524090	 152215.46433362	-530375.68967055	 975955.00038956	     12.74131352	    -10.33819206	      2.09330855	     83.17153483	      4.08437748	      5.07266120	-393107.76990516	     -0.02534846	      3.27238690	     -0.02589510	     -8.28129998	     -8.12869645	      3.38476191	     -9.99953724	     -2.64308480	      3.98933377	 332723.03090738	      0.22526472	      1.50288889	      1.14154774	-814768.03345643	     -0.02741722	      0.11639818	      0.10985002	      0.01398457	      0.01269495	      0.54274431	     -0.04287842	      0.50256007	      0.02336810
      3.34500000	  63044.20701252	-1160290.07801288	-234596.77501567	     14.41426223	   1089.35072777	   1204.86142573	 162149.50516641	-557326.20717117	 969337.60490685	     11.27166083	     -8.38779365	      1.15344788	     74.78956207	      5.04849645	      4.93827802	-406786.99408021	     -0.02675538	      3.35792665	     -0.02627646	     -7.68142150	     -7.78569654	      3.24006292	     -9.41357448	     -2.43182834	      3.79233992	 345411.02572554	      0.14600776	      1.51907780	      1.17841332	-829483.85121535	      0.05053923	      0.11411465	      0.10486764	      0.01668286	      0.01665996	      0.53304161	     -0.03733212	      0.48567848	      0.02022521
      3.35000000	  72927.27690336	-1171494.16782839	-220555.02166285	     30.61194804	   1105.21513372	   1225.09173759	 171952.23587849	-584782.70190436	 960605.26335763	      9.88369847	     -6.15542391	      0.09448527	     66.63472695	      5.76150777	      4.66323946	-421310.21192683	     -0.02848661	      3.56232820	     -0.02700348	     -7.11146701	     -7.34634852	      3.10065154	     -8.80886156	     -2.20466207	      3.59034553	 358662.35712064	      0.08474646	      1.51930960	      1.20104747	-844096.57550274	      0.12920977	      0.11040317	      0.09940603	      0.01853710	      0.01987838	      0.51960821	     -0.02996419	      0.46637679	      0.01866650
      3.35500000	  82869.42341481	-1181058.38646315	-206253.49797523	     46.07637681	   1123.04908851	   1245.62543068	 181311.11708303	-612502.96280155	 949329.10923057	      8.65164844	     -3.71150812	     -1.03821591	     58.85163907	      6.26511257	      4.26057879	-436181.10693913	     -0.03056130	      3.88963522	     -0.02820976	     -6.58042833	     -6.82370922	      2.96538885	     -8.19204657	     -1.96413834	      3.38347680	 372000.39968631	      0.04897318	      1.49416402	      1.20974200	-858266.82443117	      0.20397768	      0.10537926	      0.09347442	      0.01928479	      0.02206799	      0.50170526	     -0.02006572	      0.44460105	      0.01840112
      3.36000000	  92737.80078695	-1188783.53026108	-191910.12624157	     60.62590520	   1142.62208427	   1265.54023618	 190141.37582226	-640362.04226162	 935361.97336594	      7.65695504	     -1.14638981	     -2.19201569	     51.56474604	      6.59996490	      3.75130075	-451163.69629089	     -0.03311492	      4.33462863	     -0.03016778	     -6.09253694	     -6.23165463	      2.83182539	     -7.56937472	     -1.71281777	      3.17175423	 385207.92184833	      0.04618954	      1.43645334	      1.20585415	-871913.58408241	      0.26989618	      0.09917906	      0.08708040	      0.01865154	      0.02293460	      0.47869811	     -0.00723112	      0.42037835	      0.01899533
      3.36500000	 102357.02219586	-1194798.55595283	-177708.87933450	     74.12449074	   1163.59535360	   1283.94095108	 198349.60447379	-668295.73100635	 918880.96324912	      6.96530061	      1.39175811	     -3.28907566	     44.86580101	      6.80082793	      3.16500339	-466035.11985402	     -0.03629918	      4.88329046	     -0.03294298	     -5.64699740	     -5.58345159	      2.69677206	     -6.94658378	     -1.45330476	      2.95532921	 398092.47472466	      0.08361568	      1.34235292	      1.19173665	-885103.87184775	      0.32034689	      0.09195025	      0.08023485	      0.01638198	      0.02220856	      0.45019445	      0.00854468	      0.39385197	      0.01990487
      3.37000000	 111152.79948010	-1200110.51721241	-163606.65199225	     86.14047352	   1185.83778655	   1301.35633005	 205501.26504357	-696456.21665594	 901026.55325925	      6.63687633	      3.74626797	     -4.25624472	     38.80392948	      6.89572981	      2.54001207	-480480.57680469	     -0.04012271	      5.51112429	     -0.03665489	     -5.23825678	     -4.89071311	      2.55690894	     -6.32885897	     -1.18827022	      2.73470595	 410249.03632157	      0.16716728	      1.21211366	      1.17062791	-898263.07162165	      0.34928167	      0.08384359	      0.07295591	      0.01226829	      0.01964186	      0.41615643	      0.02681922	      0.36530825	      0.02051358
      3.37500000	 118653.00881375	-1205364.95267372	-149543.33055418	     96.47813993	   1209.00747912	   1317.95493148	 211244.26037693	-724937.98923629	 882578.74855618	      6.71626381	      5.75668458	     -5.02803282	     33.38090280	      6.90792245	      1.92252330	-494188.35758246	     -0.04466724	      6.18406188	     -0.04139856	     -4.85689825	     -4.16289881	      2.40934262	     -5.72088219	     -0.92044794	      2.51091576	 421331.32122381	      0.30079626	      1.05021902	      1.14649111	-911668.85710866	      0.35139846	      0.07500596	      0.06527295	      0.00615579	      0.01503318	      0.37696478	      0.04671878	      0.33518881	      0.02017504
      3.38000000	 125234.42277412	-1208925.22441530	-135861.16939678	    105.86967470	   1232.13989472	   1331.16442696	 215938.87019562	-753020.87482884	 861991.47991030	      7.22965420	      7.27675255	     -5.55576971	     28.55489290	      6.85725815	      1.36414794	-506950.94939960	     -0.05001613	      6.85948290	     -0.04720767	     -4.49117996	     -3.40740896	      2.25206156	     -5.12700950	     -0.65263178	      2.28562198	 431392.46389910	      0.48581644	      0.86496985	      1.12374614	-924463.68122539	      0.32280591	      0.06557577	      0.05723148	     -0.00202747	      0.00824638	      0.33342418	      0.06701861	      0.30408351	      0.01826033
      3.38500000	 131276.75516778	-1209203.95897175	-122955.49812869	    115.13523835	   1253.88399977	   1338.68968529	 219948.39573405	-779795.97848102	 837835.25212760	      8.19400119	      8.25366695	     -5.84175228	     24.25289710	      6.76029303	      0.91786875	-518540.50131624	     -0.05569273	      7.48978499	     -0.05325399	     -4.12894338	     -2.63012472	      2.08425365	     -4.55156290	     -0.38773119	      2.06117146	 440512.94996331	      0.71982895	      0.66761662	      1.10686877	-935693.12040272	      0.26416301	      0.05568123	      0.04890033	     -0.01229038	     -0.00080793	      0.28671498	      0.08626928	      0.27270818	      0.01421609
      3.39000000	 136294.30039131	-1207009.96282389	-110698.69261538	    124.06650737	   1272.67973959	   1341.37994648	 222898.15160950	-805156.94994064	 811184.34281839	      9.57238156	      8.51483252	     -5.84374698	     20.38755381	      6.63143708	      0.63323532	-528616.12213234	     -0.06105997	      8.02067048	     -0.05920428	     -3.75943377	     -1.83617369	      1.90646448	     -3.99913462	     -0.12890294	      1.84060727	 448447.04434581	      0.99822533	      0.47121212	      1.09991498	-945540.98432715	      0.17237382	      0.04544236	      0.04038120	     -0.02446852	     -0.01203900	      0.23830704	      0.10294487	      0.24187604	      0.00762857
      3.39500000	 139801.71623533	-1203194.95122710	 -98867.68397327	    132.39256530	   1286.94411790	   1340.40010894	 224399.45072863	-829080.44996000	 783171.81694703	     11.30731985	      7.96176945	     -5.56389665	     16.87275246	      6.48575966	      0.55150022	-536929.29484243	     -0.06591482	      8.40055240	     -0.06470713	     -3.37475927	     -1.03077698	      1.72061389	     -3.47480798	      0.12028811	      1.62761970	 455004.18690760	      1.31228379	      0.28932735	      1.10603670	-954233.77021009	      0.04833037	      0.03497603	      0.03181744	     -0.03824649	     -0.02525615	      0.18985064	      0.11559599	      0.21246226	     -0.00171579
      3.40000000	 142198.39425503	-1196440.41232038	 -87650.51836248	    140.64886399	   1295.66348251	   1334.15018442	 224807.81025944	-850521.44267109	 752827.06138501	     13.31527849	      6.56557591	     -5.03929621	     13.63443070	      6.34154348	      0.70101991	-543381.00113830	     -0.07002464	      8.58303137	     -0.06967656	     -2.97091549	     -0.22006862	      1.52991020	     -2.98427094	      0.35573928	      1.42639924	 460407.07027408	      1.64937110	      0.13475930	      1.12702469	-960750.91655063	     -0.10346814	      0.02440215	      0.02339686	     -0.05317659	     -0.04014717	      0.14305651	      0.12299537	      0.18535416	     -0.01378089
      3.40500000	 143946.73456241	-1185153.21255752	 -77269.00330571	    149.34560407	   1297.82922308	   1320.76958978	 224510.83311960	-868101.54541876	 719087.41278164	     15.49098161	      4.39363217	     -4.34215592	     10.61621109	      6.22117268	      1.09347057	-547754.39161385	     -0.07487742	      8.53391656	     -0.07544703	     -2.54833382	      0.58823656	      1.33870014	     -2.53380114	      0.57273319	      1.24137920	 464852.59222114	      1.99318820	      0.01838350	      1.16293591	-963754.37378609	     -0.27420313	      0.01384966	      0.01534664	     -0.06875765	     -0.05628671	      0.09957979	      0.12425917	      0.16138715	     -0.02825152
      3.41000000	 144872.45400352	-1168788.46872088	 -67519.57708523	    158.24913420	   1292.05483229	   1300.84714372	 223297.29383160	-880753.57036397	 682234.34033120	     17.66632435	      1.36906889	     -3.49093845	      7.78151558	      6.15052457	      1.72165722	-549553.09104124	     -0.08056452	      8.25156690	     -0.08187285	     -2.11195017	      1.38440077	      1.15228724	     -2.13012055	      0.76591567	      1.07690885	 468085.98650584	      2.32622890	     -0.05171803	      1.21186990	-962313.78939405	     -0.46027262	      0.00346277	      0.00792266	     -0.08422887	     -0.07303881	      0.06092490	      0.11892831	      0.14127785	     -0.04452958
      3.41500000	 144441.64640933	-1147082.02304307	 -58236.02585566	    166.48695641	   1276.75073823	   1274.86794494	 220603.87362747	-887678.10866113	 642898.84857783	     19.67344065	     -2.42164805	     -2.55706733	      5.11331570	      6.15737432	      2.55931882	-548087.58199384	     -0.08692289	      7.75394243	     -0.08871848	     -1.67084950	      2.15642963	      0.97671362	     -1.78017221	      0.92936726	      0.93693958	 469539.64108365	      2.62871248	     -0.07082575	      1.26991378	-955745.55091630	     -0.65242026	     -0.00659289	      0.00139688	     -0.09883216	     -0.08969856	      0.02837668	      0.10700741	      0.12556818	     -0.06175346
      3.42000000	 141307.36074177	-1119732.39303930	 -49834.54775932	    171.87697949	   1249.69651610	   1240.97439045	 215060.47281727	-888516.56520968	 601503.82744575	     21.38751642	     -6.58111970	     -1.68210925	      2.61170181	      6.26879102	      3.56271667	-541890.07946348	     -0.09051548	      7.09704989	     -0.09169242	     -1.23756762	      2.89001059	      0.81846695	     -1.49082116	      1.05682560	      0.82476787	 467891.49912839	      2.87982412	     -0.03789647	      1.33126284	-943728.62878240	     -0.83132102	     -0.01612517	     -0.00395661	     -0.11195121	     -0.10565142	      0.00295152	      0.08896853	      0.11458644	     -0.07883806
      3.42500000	 133943.27378860	-1085026.49594860	 -42637.42912407	    171.55532276	   1209.38170006	   1196.12422924	 205009.42232621	-881745.23954762	 557733.80397864	     22.60838937	    -11.07903427	     -0.87921341	      0.28953978	      6.50762687	      4.67357497	-528784.76779906	     -0.09101581	      6.33994855	     -0.09177808	     -0.82715058	      3.56863751	      0.68409350	     -1.26842040	      1.14206040	      0.74281429	 461121.04158005	      3.06208282	      0.04434797	      1.38854402	-924775.98254690	     -0.99294851	     -0.02491327	     -0.00787830	     -0.12278852	     -0.11996010	     -0.01463766	      0.06572527	      0.10842434	     -0.09453845
      3.43000000	 120996.72011437	-1036144.54232256	 -36232.87788899	    163.64252188	   1155.79491514	   1136.06211793	 188606.59009547	-861139.39468925	 509127.35108488	     23.20686033	    -15.61045946	     -0.21602401	     -1.83297816	      6.88901177	      5.82319180	-504844.89860808	     -0.08894124	      5.57283004	     -0.08912048	     -0.45604057	      4.17396544	      0.57971607	     -1.11825702	      1.17934522	      0.69242631	 445470.80897942	      3.16031875	      0.16955902	      1.43334297	-892710.68125617	     -1.12599243	     -0.03270973	     -0.01014289	     -0.13072602	     -0.13185360	     -0.02400547	      0.03857816	      0.10692886	     -0.10753665
      3.43500000	 101566.88977836	-968008.53578030	 -30254.60150052	    146.87096120	   1089.44804210	   1057.05549529	 164572.31878149	-821542.29445142	 454699.93068846	     23.16418249	    -19.64595983	      0.22576630	     -3.73382413	      7.41783459	      6.93764796	-467018.15600641	     -0.08634651	      4.89218818	     -0.08643938	     -0.14078384	      4.68643726	      0.51045215	     -1.04397618	      1.16398218	      0.67374480	 417711.82703962	      3.16298572	      0.32813002	      1.45688466	-842740.95756431	     -1.21379840	     -0.03924790	     -0.01057898	     -0.13541618	     -0.14073194	     -0.02511096	      0.00913186	      0.10971226	     -0.11654226
      3.44000000	  75854.20098485	-885601.61410178	 -24821.78806482	    120.37991452	   1010.14252544	    958.73981107	 133389.81083564	-766443.56801954	 398246.70712125	     22.40495993	    -22.95255555	      0.46194789	     -5.39387625	      8.08735500	      7.94369567	-417046.51211019	     -0.08362184	      4.40320742	     -0.08335254	      0.10343789	      5.08620653	      0.47975642	     -1.04705820	      1.09286552	      0.68568273	 378734.46361484	      3.06673241	      0.50780294	      1.45081051	-779054.19810918	     -1.25349987	     -0.04425564	     -0.00908574	     -0.13661138	     -0.14601572	     -0.01826923	     -0.02081366	      0.11618480	     -0.12039717
      3.44500000	  44128.18679798	-788623.51766289	 -20033.11750075	     84.46290351	    918.77962011	    840.10782912	  95277.46639087	-695244.07885790	 340447.52862485	     20.96131391	    -25.18508222	      0.50600167	     -6.80069586	      8.87866775	      8.77461054	-354858.98468001	     -0.08013121	      4.19015378	     -0.07953335	      0.26437118	      5.35434129	      0.48875946	     -1.12637407	      0.96504800	      0.72601349	 327763.50888198	      2.87391215	      0.69452004	      1.40800343	-701564.32137107	     -1.24033940	     -0.04747582	     -0.00564550	     -0.13430214	     -0.14738350	     -0.00415597	     -0.04939559	      0.12560751	     -0.11817876
      3.45000000	   8644.78697357	-654965.52591724	 -15708.58304286	     42.92143256	    819.97888386	    693.42377339	  51044.26912961	-587872.13119256	 272157.02891999	     18.97569340	    -25.91223408	      0.38147739	     -7.95138291	      9.76087852	      9.37534435	-273412.05900039	     -0.07520219	      4.31166382	     -0.07390237	      0.33422093	      5.47424556	      0.53569666	     -1.27783219	      0.78223292	      0.79151638	 257488.32744807	      2.59246111	      0.87349237	      1.32338411	-590480.59293300	     -1.16744367	     -0.04869320	     -0.00033301	     -0.12877323	     -0.14483328	      0.01619757	     -0.07483736	      0.13715403	     -0.10929503
      3.45500000	 -24702.03557888	-483677.38505185	 -11695.39678314	      1.29033126	    718.09439006	    515.26019842	   6531.34417009	-442084.95027571	 194463.33534621	     16.60263215	    -24.98030408	      0.16213413	     -8.85436412	     10.69185825	      9.70648816	-176900.72187591	     -0.06842926	      4.77889715	     -0.06679901	      0.31098543	      5.43319017	      0.61554004	     -1.49415361	      0.54911476	      0.87813707	 170624.99834222	      2.23751321	      1.03041025	      1.19457014	-443847.33051308	     -1.03773626	     -0.04776515	      0.00667909	     -0.12050340	     -0.13854046	      0.04142416	     -0.09560156	      0.14996992	     -0.09356000
      3.46000000	 -49674.82500022	-326369.76264279	  -8233.09444324	    -31.48024473	    611.32430423	    326.87957103	 -28674.14490342	-304007.97599738	 128590.82923634	     14.01821448	    -22.41008999	     -0.06856248	     -9.52968517	     11.61951309	      9.74674488	 -91652.78538322	     -0.06128005	      5.55818278	     -0.05937632	      0.19937986	      5.22380684	      0.71996769	     -1.76482955	      0.27350384	      0.98115233	  91713.67638854	      1.82927441	      1.15269635	      1.02230515	-307258.13953227	     -0.85916205	     -0.04465137	      0.01512040	     -0.11005650	     -0.12892897	      0.06986570	     -0.11053037	      0.16322392	     -0.07123831
      3.46500000	 -61769.67910299	-187357.72475866	  -4972.16874942	    -47.01638214	    498.65811770	    156.30021887	 -49762.43397893	-178383.68555910	  74424.62619766	     11.44471438	    -18.26756346	     -0.24318843	    -10.00748074	     12.48372649	      9.49378338	 -23739.27554893	     -0.05401049	      6.57823367	     -0.05182772	      0.01114384	      4.84538459	      0.83776213	     -2.07628947	     -0.03382367	      1.09532318	  26917.52644774	      1.39064656	      1.23068527	      0.81060532	-183979.39564324	     -0.63895167	     -0.03943710	      0.02463011	     -0.09823278	     -0.11673799	      0.09965171	     -0.11895883	      0.17614716	     -0.04305358
      3.47000000	 -45067.29791904	 -59206.57306823	  -1818.01723551	    -43.94368040	    388.41962884	     34.06358903	 -41262.85429809	 -58454.19701239	  25689.88543157	      9.09170882	    -12.78610228	     -0.30766520	    -10.32496688	     13.21924509	      8.96349354	  15245.06341713	     -0.04678753	      7.73260481	     -0.04430545	     -0.23539630	      4.30480656	      0.95563886	     -2.41228654	     -0.35957521	      1.21501156	 -12527.43070022	      0.94641739	      1.25858118	      0.56659204	 -63904.12389002	     -0.38770067	     -0.03234583	      0.03477094	     -0.08592427	     -0.10291073	      0.12880874	     -0.12078504	      0.18805480	     -0.01015797
      3.47500000	 -10493.32749024	  -5221.62647739	   -232.83401785	    -26.21253475	    289.01429482	    -19.97247245	 -10138.47655739	  -5611.31049350	   2969.59138544	      7.13351769	     -6.34039862	     -0.23217994	    -10.52271851	     13.75991137	      8.18796063	   7194.73054335	     -0.03978242	      8.89311531	     -0.03685673	     -0.51660967	      3.61695113	      1.05946207	     -2.75451841	     -0.68867822	      1.33425906	  -6569.88887525	      0.52132249	      1.23503238	      0.30001167	  -7166.83293717	     -0.11859407	     -0.02373725	      0.04504880	     -0.07403210	     -0.08851063	      0.15539590	     -0.11648103	      0.19834841	      0.02593648
      3.48000000	      5.78541758	     26.42513103	     13.84707043	    -12.19299813	    200.39376069	    -31.10996278	     12.64414841	     12.86268039	      2.47959100	      5.68678716	      0.58589107	     -0.01548599	    -10.64071858	     14.04449713	      7.21269988	     10.86564178	     -0.03303077	      9.92577963	     -0.02954849	     -0.80573008	      2.80440115	      1.13576590	     -3.08348223	     -1.00526793	      1.44685368	     -0.25010882	      0.13812171	      1.16320434	      0.02250249	      0.74313072	      0.15315816	     -0.01408687	      0.05493785	     -0.06338347	     -0.07460111	      0.17766106	     -0.10703401	      0.20650500	      0.06345772
      3.48500000	   -395.01939858	    -62.44357567	     12.55364354	    -17.38347128	    120.83324033	    -30.38217951	   -387.62605970	    -86.91747628	     76.94655236	      4.78950716	      7.43830482	      0.31701592	    -10.71443791	     14.02364817	      6.09358734	    341.74187289	     -0.02668850	     10.70725485	     -0.02257496	     -1.07574287	      1.89641472	      1.17338446	     -3.37951578	     -1.29383313	      1.54641932	   -307.17967893	     -0.18412900	      1.05029638	     -0.25329555	   -177.87314118	      0.41080916	     -0.00394806	      0.06390983	     -0.05462704	     -0.06211342	      0.19419948	     -0.09381853	      0.21206117	      0.10049395
      3.49000000	     17.40647002	     16.24265512	      9.82755260	    -31.19422790	     51.57454239	    -26.20721436	     15.22518490	     17.41258030	      3.20919148	      4.40212818	     13.66759572	      0.71996622	    -10.77127963	     13.66671930	      4.89355142	      9.12398190	     -0.02090034	     11.14017787	     -0.01611919	     -1.30258386	      0.92724213	      1.16490561	     -3.62395784	     -1.54037804	      1.62655922	     -0.49746249	     -0.43167131	      0.90653400	     -0.51469256	      0.96035259	      0.63799435	      0.00609878	      0.07146510	     -0.04816997	     -0.05174921	      0.20408654	     -0.07841278	      0.21459863	      0.13512385
      3.49500000	     -9.60688270	      3.40678493	      5.76705973	    -40.11107725	     -6.09648282	    -20.92954644	    -14.83506947	      9.22295724	      6.98608974	      4.41919951	     18.79276694	      1.13898994	    -10.82777152	     12.96677324	      3.67801722	     32.00270933	     -0.01576944	     11.16319439	     -0.01032820	     -1.46812429	     -0.06603738	      1.10769132	     -3.80035601	     -1.73345844	      1.68108081	    -22.36617513	     -0.59700677	      0.74379336	     -0.74986631	    -12.44687345	      0.82039261	      0.01550402	      0.07716111	     -0.04414487	     -0.04391470	      0.20696382	     -0.06238755	      0.21373646	      0.16554632
      3.50000000	     23.91701128	      1.52924138	      4.06094064	    -44.77814507	    -52.34237925	    -14.86021616	     15.64753603	     14.23411809	      3.50699483	      4.69289028	     22.45208613	      1.52212805	    -10.88790961	     11.94212095	      2.50800141	      6.02126069	     -0.01135315	     10.75521487	     -0.00530262	     -1.56228714	     -1.04586794	      1.00424739	     -3.89564040	     -1.86491958	      1.70433963	     -0.40119623	     -0.67920747	      0.57413304	     -0.94864758	      0.85849087	      0.94726720	      0.02380574	      0.08063437	     -0.04241683	     -0.03870070	      0.20306441	     -0.04711068	      0.20913773	      0.19019955
      3.50500000	     23.28946662	     -6.93471817	      1.38389263	    -48.51249705	    -87.93032260	     -8.01155495	     13.28210123	      9.47343600	      3.98943027	      5.06283306	     24.43515075	      1.82900056	    -10.94308907	     10.63455001	      1.43301871	      5.59267359	     -0.00766733	      9.93408077	     -0.00109758	     -1.58367282	     -1.97638180	      0.86179526	     -3.90115304	     -1.93018771	      1.69171626	     -1.73624607	     -0.68352831	      0.40854587	     -1.10309733	     -0.25729068	      1.01260609	      0.03067181	      0.08161747	     -0.04263176	     -0.03590957	      0.19316326	     -0.03361307	      0.20053808	      0.20785815
      3.51000000	     24.90472849	    -14.17802546	     -1.75016093	    -50.95775975	   -113.70180956	     -1.02459117	     13.99997457	      4.32187453	      3.19040710	      5.38544837	     24.69297904	      2.03596885	    -10.97392584	      9.10596822	      0.48799199	      1.83838502	     -0.00469429	      8.75065162	      0.00227124	     -1.53862152	     -2.82515361	      0.69113335	     -3.81338430	     -1.92817130	      1.64015131	     -0.03972902	     -0.62037162	      0.25612517	     -1.20785774	      0.47894372	      1.01565736	      0.03591577	      0.07995570	     -0.04429460	     -0.03512092	      0.17845601	     -0.02253828	      0.18779372	      0.21770033
      3.51500000	     23.56402916	    -21.12275310	     -4.25335402	    -51.15649780	   -130.64889999	      5.36656500	     12.57131613	     -2.12249866	      2.77999243	      5.55646019	     23.32646905	      2.13688617	    -10.95389974	      7.43418942	     -0.30518110	     -0.30496633	     -0.00239100	      7.27980958	      0.00482013	     -1.43923180	     -3.56457487	      0.50510173	     -3.63430638	     -1.86096983	      1.54861801	      0.06903061	     -0.50376793	      0.12364903	     -1.26031075	      0.15795917	      0.96076611	      0.03948778	      0.07562376	     -0.04685575	     -0.03578031	      0.16039410	     -0.01416295	      0.17093593	      0.21934408
      3.52000000	     22.13836046	    -26.77367837	     -6.08355842	    -49.25630065	   -139.92539606	     10.65508584	     11.71662707	     -8.67034984	      2.38287901	      5.52228438	     20.55704123	      2.14022804	    -10.85434357	      5.70713868	     -0.93428530	     -2.78632029	     -0.00069603	      5.61018334	      0.00659064	     -1.30093114	     -4.17292520	      0.31697609	     -3.37128119	     -1.73351254	      1.41844326	      0.44528531	     -0.34963838	      0.01549147	     -1.26058487	     -0.03357131	      0.85655551	      0.04145048	      0.06873700	     -0.04978458	     -0.03729004	      0.14050963	     -0.00846130	      0.15021644	      0.21285653
      3.52500000	     20.23618724	    -30.84037365	     -7.40827916	    -45.69761886	   -142.72067034	     14.48134579	     10.89494894	    -14.91684648	      1.89103875	      5.27901000	     16.68621067	      2.06413385	    -10.65015126	      4.01499675	     -1.39391381	     -5.02840687	      0.00046443	      3.83437527	      0.00764393	     -1.14006428	     -4.63512689	      0.13904249	     -3.03653107	     -1.55317806	      1.25341076	      0.68424831	     -0.17412926	     -0.06624483	     -1.21143303	     -0.28931521	      0.71462085	      0.04194908	      0.05955258	     -0.05261891	     -0.03908441	      0.12025664	     -0.00518622	      0.12613102	      0.19873904
      3.53000000	     18.36506291	    -33.05901344	     -8.20835284	    -40.76256441	   -140.17743356	     16.59367430	     10.43924175	    -20.34720230	      1.32209958	      4.86104021	     12.05194001	      1.93105127	    -10.32578593	      2.44070432	     -1.68396412	     -7.09769079	      0.00117117	      2.04096122	      0.00805600	     -0.97188249	     -4.94313523	     -0.01846850	     -2.64617423	     -1.32941656	      1.05960694	      0.90893736	      0.00776452	     -0.12146985	     -1.11798218	     -0.50682552	      0.54798518	      0.04118281	      0.04845863	     -0.05498958	     -0.04068095	      0.10088809	     -0.00394589	      0.09941490	      0.17788754
      3.53500000	     16.77002677	    -33.36389025	     -8.46443771	    -34.78325193	   -133.37283791	     16.89439409	     10.43729450	    -24.62378975	      0.75714614	      4.32388806	      6.98904258	      1.76333677	     -9.88102170	      1.05009309	     -1.80993802	     -8.92066704	      0.00150754	      0.30880401	      0.00791357	     -0.80914716	     -5.09594521	     -0.14803050	     -2.21893734	     -1.07332292	      0.84504054	      1.09598909	      0.18317458	     -0.15177243	     -0.98734347	     -0.68751260	      0.36959120	      0.03938059	      0.03595149	     -0.05662536	     -0.04170711	      0.08337612	     -0.00426810	      0.07101195	      0.15152737
      3.54000000	     15.53906611	    -31.82885471	     -8.26067747	    -28.23321983	   -123.31143426	     15.45257705	     10.85944122	    -27.56255807	      0.21121519	      3.72640178	      1.79919101	      1.58051418	     -9.33496236	     -0.11633970	     -1.78430789	    -10.44789696	      0.00155575	     -1.29631291	      0.00731046	     -0.66137711	     -5.09922633	     -0.24508870	     -1.77474307	     -0.79710252	      0.61911515	      1.24698533	      0.34190067	     -0.16003741	     -0.82809704	     -0.81888371	      0.19107382	      0.03678089	      0.02260442	     -0.05734609	     -0.04190669	      0.06837345	     -0.00565329	      0.04202600	      0.12112665
      3.54500000	     14.61397773	    -28.67672631	     -7.71311108	    -21.62355429	   -110.91856223	     12.47496375	     11.57949538	    -29.13834311	     -0.31054719	      3.11699305	     -3.26665465	      1.39819495	     -8.72674125	     -1.04800132	     -1.62729264	    -11.63081029	      0.00139394	     -2.72306984	      0.00634442	     -0.53470417	     -4.96461599	     -0.30798713	     -1.33333681	     -0.51346079	      0.39201533	      1.35222764	      0.47655603	     -0.15006575	     -0.64971068	     -0.90011816	      0.02196909	      0.03361614	      0.00903264	     -0.05705170	     -0.04113198	      0.05621256	     -0.00761282	      0.01365943	      0.08829779
      3.55000000	     13.87623458	    -24.25263070	     -6.92537388	    -15.41849295	    -97.04102233	      8.27186545	     12.45898069	    -29.45548034	     -0.78770167	      2.52656664	     -8.01368699	      1.22817544	     -8.11255483	     -1.76409514	     -1.36631005	    -12.45376258	      0.00109374	     -3.93459780	      0.00511426	     -0.43224785	     -4.70872300	     -0.33760835	     -0.91303883	     -0.23498560	      0.17402768	      1.41178479	      0.58241513	     -0.12625159	     -0.46195295	     -0.93390612	     -0.13060603	      0.03010260	     -0.00414265	     -0.05571171	     -0.03932842	      0.04693749	     -0.00968858	     -0.01286074	      0.05469616
      3.55500000	     13.16473659	    -18.98594126	     -5.99151928	    -10.00177367	    -82.45219090	      3.22567045	     13.35426501	    -28.71545095	     -1.19683386	      1.96836031	    -12.29929909	      1.07906922	     -7.55968474	     -2.30902862	     -1.03449106	    -12.92261151	      0.00071830	     -4.90767969	      0.00371720	     -0.35482525	     -4.35192027	     -0.33681887	     -0.52967389	      0.02644359	     -0.02517441	      1.42851580	      0.65708658	     -0.09332498	     -0.27432788	     -0.92693494	     -0.26187702	      0.02643553	     -0.01633099	     -0.05335704	     -0.03651750	      0.04035941	     -0.01145796	     -0.03636744	      0.02192009
      3.56000000	     12.30888384	    -13.34450900	     -4.99644518	     -5.64805432	    -67.85504108	     -2.24318645	     14.13240271	    -27.17543608	     -1.52019755	      1.44286703	    -16.02388832	      0.95696108	     -7.13839928	     -2.74431150	     -0.66849835	    -13.05901559	      0.00032097	     -5.63159644	      0.00224628	     -0.30176880	     -3.91702269	     -0.30982473	     -0.19575333	      0.26021200	     -0.19720640	      1.40644847	      0.70011666	     -0.05613611	     -0.09554939	     -0.88747947	     -0.36907821	      0.02278856	     -0.02700760	     -0.05007364	     -0.03278060	      0.03612630	     -0.01253235	     -0.05583866	     -0.00858278
      3.56500000	     11.16870322	     -7.78820698	     -4.00819504	     -2.50004179	    -53.88021578	     -7.71068537	     14.69219759	    -25.10694071	     -1.74439911	      0.94512944	    -19.12076527	      0.86582302	     -6.91296513	     -3.13825169	     -0.30569857	    -12.89843655	     -0.00005540	     -6.10685777	      0.00078769	     -0.27165677	     -3.42794156	     -0.26153683	      0.08000413	      0.45748112	     -0.33551606	      1.35081031	      0.71259902	     -0.01945382	      0.06690223	     -0.82426514	     -0.45101962	      0.01931510	     -0.03574296	     -0.04599643	     -0.02824490	      0.03379587	     -0.01255653	     -0.07047104	     -0.03559381
      3.57000000	      9.66183009	     -2.72606191	     -3.07516551	     -0.56582319	    -41.07874216	    -12.77874486	     14.97486908	    -22.76220830	     -1.86067044	      0.47180251	    -21.54847013	      0.80764774	     -6.93329962	     -3.55489323	      0.01887307	    -12.48716643	     -0.00037887	     -6.34393058	     -0.00058212	     -0.26283452	     -2.90838672	     -0.19703219	      0.29280494	      0.61162269	     -0.43575162	      1.26812256	      0.69684080	      0.01223990	      0.20710046	     -0.74553459	     -0.50769058	      0.01614915	     -0.04222521	     -0.04130154	     -0.02307172	      0.03289995	     -0.01121493	     -0.07973635	     -0.05817873
      3.57500000	      7.77288601	      1.51799998	     -2.22868357	      0.26616042	    -29.90996165	    -17.09788337	     14.96292757	    -20.35219678	     -1.86734181	      0.02595018	    -23.28706917	      0.78238183	     -7.22860840	     -4.04385322	      0.27520822	    -11.87747850	     -0.00062862	     -6.36197793	     -0.00179920	     -0.27368286	     -2.38067948	     -0.12115735	      0.44164070	      0.71851244	     -0.49594667	      1.16541989	      0.65610615	      0.03497062	      0.32085900	     -0.65838871	     -0.53998790	      0.01340393	     -0.04627416	     -0.03619586	     -0.01744692	      0.03299373	     -0.00824712	     -0.08341645	     -0.07571785
      3.58000000	      5.55022977	      4.72764065	     -1.48621978	      0.20111578	    -20.72631183	    -20.38486767	     14.67382039	    -18.03602439	     -1.77086563	     -0.38156659	    -24.33833868	      0.78781662	     -7.80393187	     -4.63285926	      0.44048201	    -11.12338096	     -0.00079455	     -6.18753550	     -0.00281460	     -0.30265417	     -1.86475628	     -0.03827943	      0.52892337	      0.77663740	     -0.51650489	      1.04966630	      0.59442431	      0.04550194	      0.40579418	     -0.56849555	     -0.54958824	      0.01116873	     -0.04784490	     -0.03090382	     -0.01157205	      0.03368890	     -0.00347065	     -0.08161027	     -0.08791255
      3.58500000	      3.09319807	      6.80371730	     -0.85401084	     -0.49575966	    -13.75716131	    -22.43740013	     14.15113796	    -15.92008237	     -1.58495625	     -0.73395650	    -24.72847399	      0.81960098	     -8.63987455	     -5.32427808	      0.50062124	    -10.27742754	     -0.00087603	     -5.85304028	     -0.00359648	     -0.34815258	     -1.37745218	      0.04782436	      0.55990797	      0.78702860	     -0.49998848	      0.92748245	      0.51642954	      0.04153888	      0.46128688	     -0.48014150	     -0.53892138	      0.00950475	     -0.04702205	     -0.02565224	     -0.00565567	      0.03467027	      0.00319614	     -0.07471194	     -0.09477240
      3.59000000	      0.53334764	      7.76135740	     -0.32970573	     -1.53566069	     -9.09389627	    -23.14528739	     13.45455807	    -14.06404401	     -1.32893676	     -1.01240488	    -24.51116563	      0.87146616	     -9.69499039	     -6.09583356	      0.45108509	     -9.38814048	     -0.00088030	     -5.39518470	     -0.00413145	     -0.40835616	     -0.93210593	      0.13396323	      0.54196778	      0.75303817	     -0.45076203	      0.80491481	      0.42720121	      0.02186884	      0.48836775	     -0.39644410	     -0.51117151	      0.00844099	     -0.04400712	     -0.02065460	      0.00009543	      0.03569694	      0.01171722	     -0.06336688	     -0.09658813
      3.59500000	     -1.98619210	      7.71600270	      0.09500920	     -2.64033843	     -6.67876979	    -22.49558914	     12.64991536	    -12.49054467	     -1.02570513	     -1.20069378	    -23.76869830	      0.93567853	    -10.90994036	     -6.90485519	      0.29667723	     -8.49793418	     -0.00082079	     -4.85307143	     -0.00442473	     -0.48105304	     -0.53845639	      0.21746254	      0.48382642	      0.67993976	     -0.37455193	      0.68719795	      0.33208129	     -0.01356160	      0.48952357	     -0.31960501	     -0.47023542	      0.00797182	     -0.03909992	     -0.01609690	      0.00548441	      0.03659436	      0.02192943	     -0.04841309	     -0.09389155
      3.60000000	     -4.33029223	      6.86072443	      0.43217164	     -3.57074569	     -6.29960220	    -20.56992496	     11.80054586	    -11.19568383	     -0.69942792	     -1.28945408	    -22.60928944	      1.00368553	    -12.21282407	     -7.69513823	      0.05042802	     -7.64161894	     -0.00071546	     -4.26612668	     -0.00449887	     -0.56353619	     -0.20277967	      0.29607074	      0.39481664	      0.57436057	     -0.27796360	      0.57858500	      0.23644935	     -0.06362846	      0.46842232	     -0.25113916	     -0.42058307	      0.00805687	     -0.03267477	     -0.01212673	      0.01033229	      0.03724350	      0.03354099	     -0.03081350	     -0.08740271
      3.60500000	     -6.38814310	      5.43763964	      0.69572057	     -4.14537629	     -7.59031454	    -17.53389479	     10.96085687	    -10.15845108	     -0.37330396	     -1.27896183	    -21.16002304	      1.06687001	    -13.52547707	     -8.40537983	     -0.26829476	     -6.84552304	     -0.00058562	     -3.67183497	     -0.00439130	     -0.65259819	      0.07178311	      0.36786945	      0.28419616	      0.44363509	     -0.16798667	      0.48226035	      0.14544785	     -0.12607496	      0.42958569	     -0.19203942	     -0.36699701	      0.00862293	     -0.02515338	     -0.00884676	      0.01448610	      0.03756917	      0.04613906	     -0.01158473	     -0.07796887
      3.61000000	     -8.08466959	      3.70699776	      0.89996325	     -4.24621184	    -10.03662263	    -13.61987220	     10.17254159	     -9.34806259	     -0.06773459	     -1.17975565	    -19.55605687	      1.11733551	    -14.77018724	     -8.97789427	     -0.63619768	     -6.12722317	     -0.00045531	     -3.10350748	     -0.00415111	     -0.74466165	      0.28477484	      0.43121706	      0.16054257	      0.29518812	     -0.05151223	      0.40031719	      0.06368110	     -0.19762026	      0.37805324	     -0.14286420	     -0.31420866	      0.00956781	     -0.01697695	     -0.00631281	      0.01782685	      0.03753046	      0.05920685	      0.00827373	     -0.06650201
      3.61500000	     -9.38638944	      1.91799446	      1.05836683	     -3.81704655	    -12.98791609	     -9.10558732	      9.46301935	     -8.72895341	      0.20098532	     -1.01113919	    -17.92790429	      1.14865938	    -15.87568777	     -9.36623613	     -1.02852309	     -5.49582031	     -0.00035106	     -2.58834352	     -0.00383544	     -0.83603082	      0.43789753	      0.48474782	      0.03125692	      0.13601292	      0.06509835	      0.33379410	     -0.00506270	     -0.27412858	      0.31905651	     -0.10376431	     -0.26648648	      0.01076697	     -0.00857945	     -0.00453619	      0.02027499	      0.03711727	      0.07214971	      0.02784278	     -0.05391874
      3.62000000	    -10.30202333	      0.28462495	      1.18284364	     -2.85807527	    -15.67661408	     -4.29094709	      8.84564202	     -8.26397584	      0.42144024	     -0.79809180	    -16.38909147	      1.15649801	    -16.78178908	     -9.54068356	     -1.42106170	     -4.95270936	     -0.00030177	     -2.14597621	     -0.00350572	     -0.92318863	      0.53442819	      0.52740184	     -0.09778710	     -0.02770948	      0.17633808	      0.28276667	     -0.05802602	     -0.35082374	      0.25769362	     -0.07448376	     -0.22724757	      0.01208187	     -0.00036510	     -0.00348902	      0.02179229	      0.03635106	      0.08432658	      0.04632856	     -0.04108366
      3.62500000	    -10.87902753	     -1.03167115	      1.28349901	     -1.41676840	    -17.24430289	      0.52538637	      8.32131184	     -7.91662384	      0.58733480	     -0.56745465	    -15.02612048	      1.13893578	    -17.44261324	     -9.49112957	     -1.79160827	     -4.49277672	     -0.00033856	     -1.78758154	     -0.00322425	     -1.00306562	      0.57862140	      0.55844644	     -0.22242625	     -0.19082974	      0.27775267	      0.24648689	     -0.09361459	     -0.42253436	      0.19864487	     -0.05437038	     -0.19875874	      0.01336817	      0.00730809	     -0.00311133	      0.02238062	      0.03528430	      0.09508295	      0.06308697	     -0.02876283
      3.63000000	    -11.19764851	     -1.93186799	      1.36848128	      0.42232736	    -16.77257932	      5.06784397	      7.88066629	     -7.65262296	      0.69727196	     -0.34455031	    -13.89184813	      1.09657150	    -17.82797197	     -9.22739940	     -2.12108708	     -4.10585123	     -0.00049441	     -1.51560392	     -0.00305122	     -1.07323978	      0.57520400	      0.57748245	     -0.34024296	     -0.34935848	      0.36604691	      0.22356609	     -0.11143090	     -0.48396549	      0.14600971	     -0.04241936	     -0.18197186	      0.01448322	      0.01414024	     -0.00332019	      0.02207773	      0.03399639	      0.10378459	      0.07763936	     -0.01759775
      3.63500000	    -11.36363533	     -2.38138013	      1.44371105	      2.54445102	    -13.31719595	      9.10203027	      7.50610588	     -7.44099856	      0.75417509	     -0.15094499	    -13.00289662	      1.03236055	    -17.92266532	     -8.77712500	     -2.39444221	     -3.77822152	     -0.00080339	     -1.32418421	     -0.00304210	     -1.13204858	      0.52903556	      0.58444585	     -0.45049251	     -0.50058145	      0.43912596	      0.21218884	     -0.11219469	     -0.52997794	      0.10325739	     -0.03735484	     -0.17651418	      0.01529332	      0.01989884	     -0.00402038	      0.02094994	      0.03258809	      0.10984996	      0.08968449	     -0.00809781
      3.64000000	    -11.50019702	     -2.40450819	      1.51277189	      4.80792449	     -5.94490189	     12.44776840	      7.17376216	     -7.25496088	      0.76444491	     -0.00338710	    -12.34148824	      0.95119151	    -17.72454829	     -8.18149476	     -2.60110210	     -3.49412368	     -0.00129947	     -1.20028901	     -0.00324579	     -1.17862861	      0.44489530	      0.57960785	     -0.55391992	     -0.64309990	      0.49605474	      0.21032732	     -0.09756518	     -0.55584464	      0.07322001	     -0.03774028	     -0.18083259	      0.01568051	      0.02442372	     -0.00511456	      0.01908284	      0.03117690	      0.11277722	      0.09909846	     -0.00064217
      3.64500000	    -11.73970382	     -2.07258188	      1.57725911	      7.04887812	      6.22839276	     14.98609418	      6.85574492	     -7.07279780	      0.73693041	      0.08622155	    -11.86147959	      0.85921992	    -17.24228992	     -7.48962616	     -2.73488542	     -3.23713015	     -0.00201527	     -1.12540007	     -0.00370362	     -1.21290657	      0.32731673	      0.56356791	     -0.65244339	     -0.77671272	      0.53691745	      0.21592712	     -0.06990055	     -0.55746876	      0.05810801	     -0.04210238	     -0.19246998	      0.01554829	      0.02762541	     -0.00651093	      0.01657284	      0.02989371	      0.11216471	      0.10591651	      0.00451151
      3.65000000	    -12.21530473	     -1.48809992	      1.63743204	      9.09312441	     24.00037163	     16.65916274	      6.52272334	     -6.87856742	      0.68179951	      0.11014366	    -11.49744861	      0.76306635	    -16.49305651	     -6.75254429	     -2.79349567	     -2.99136615	     -0.00298094	     -1.07759038	     -0.00444879	     -1.23553588	      0.18046187	      0.53722770	     -0.74874911	     -0.90219504	      0.56260321	      0.22705507	     -0.03198724	     -0.53155449	      0.05954821	     -0.04905179	     -0.20842920	      0.01482556	      0.02947750	     -0.00812799	      0.01352038	      0.02887886	      0.10772430	      0.11030149	      0.00721252
      3.65500000	    -13.05226820	     -0.76759054	      1.69293139	     10.77425758	     48.04768514	     17.46367809	      6.14660666	     -6.66225594	      0.60943271	      0.06388284	    -11.17513042	      0.66901833	    -15.49987813	     -6.01766464	     -2.77780722	     -2.74249156	     -0.00422302	     -1.03377992	     -0.00550626	     -1.24777212	      0.00806648	      0.50173622	     -0.84589913	     -1.02106860	      0.57457074	      0.24201022	      0.01323482	     -0.47572549	      0.07861952	     -0.05738226	     -0.22556517	      0.01346809	      0.03000617	     -0.00989749	      0.01002484	      0.02827494	      0.09928762	      0.11250704	      0.00740219
      3.66000000	    -14.35948136	     -0.02545109	      1.74347658	     11.95023854	     78.89407879	     17.43996299	      5.70286255	     -6.41920184	      0.52949018	     -0.05478097	    -10.82157929	      0.58236139	    -14.28860194	     -5.32446435	     -2.69107894	     -2.47838917	     -0.00576329	     -0.97188859	     -0.00689235	     -1.25130816	     -0.18655272	      0.45840896	     -0.94700310	     -1.13539102	      0.57462734	      0.25939463	      0.06292549	     -0.38859954	      0.11587647	     -0.06613029	     -0.24094762	      0.01145794	      0.02927926	     -0.01176609	      0.00618027	      0.02821595	      0.08680658	      0.11284159	      0.00510074
      3.66500000	    -16.22229703	      0.63963829	      1.78941709	     12.51374523	    116.88080538	     16.65918893	      5.17218872	     -6.14894612	      0.45022073	     -0.24664716	    -10.37384985	      0.50690918	    -12.88518873	     -4.70170387	     -2.53825152	     -2.18955184	     -0.00761727	     -0.87266279	     -0.00861437	     -1.24809869	     -0.40046125	      0.40863538	     -1.05492398	     -1.24755479	      0.56472552	      0.27813865	      0.11455353	     -0.26982610	      0.17137101	     -0.07459219	     -0.25215239	      0.00880143	      0.02739540	     -0.01369546	      0.00207203	      0.02881498	      0.07035019	      0.11163511	      0.00039448
      3.67000000	    -18.69733691	      1.15445890	      1.83203921	     12.39844534	    162.14038073	     15.21156209	      4.54163288	     -5.85394088	      0.37798773	     -0.51138015	     -9.78537238	      0.44474570	    -11.31433174	     -4.16621860	     -2.32540120	     -1.86923278	     -0.00979253	     -0.72109640	     -0.01067019	     -1.24018713	     -0.63104566	      0.35379095	     -1.17197882	     -1.36009279	      0.54677140	      0.29748646	      0.16604455	     -0.12008456	      0.24467860	     -0.08231029	     -0.25745418	      0.00552635	      0.02447317	     -0.01566085	     -0.00222522	      0.03015294	      0.05009808	      0.10920910	     -0.00657737
      3.67500000	    -21.80893710	      1.47618958	      1.87359553	     11.58313415	    214.57644268	     13.19719397	      3.80521949	     -5.53841505	      0.31701070	     -0.84699153	     -9.02951122	      0.39616765	     -9.59922595	     -3.72322824	     -2.05932799	     -1.51341965	     -0.01228737	     -0.50738357	     -0.01304818	     -1.22953031	     -0.87591395	      0.29515888	     -1.29964617	     -1.47549708	      0.52245693	      0.31695640	      0.21586191	      0.05895714	      0.33493156	     -0.08904128	     -0.25591027	      0.00167834	      0.02064133	     -0.01764853	     -0.00664806	      0.03226932	      0.02633095	      0.10585200	     -0.01563599
      3.68000000	    -25.54706330	      1.59203261	      1.91692804	     10.09285453	    273.85279410	     10.71920552	      2.96401372	     -5.20747780	      0.26932833	     -1.24894685	     -8.10013470	      0.35977768	     -7.76152006	     -3.36822828	     -1.74734790	     -1.12067042	     -0.01508981	     -0.22732938	     -0.01572708	     -1.21783424	     -1.13276654	      0.23385959	     -1.43835048	     -1.59605449	      0.49315215	      0.33629008	      0.26303276	      0.26472142	      0.44085849	     -0.09471629	     -0.24734412	     -0.00268315	      0.01603186	     -0.01965306	     -0.01114496	      0.03515416	     -0.00058188	      0.10180505	     -0.02657462
      3.68500000	    -29.86726450	      1.51396132	      1.96460386	      7.99762895	    339.39430279	      7.87816122	      2.02572254	     -4.86650131	      0.23492186	     -1.70944956	     -7.00942580	      0.33266539	     -5.82121789	     -3.09027706	     -1.39738858	     -0.69185463	     -0.01817737	      0.11775319	     -0.01867626	     -1.20644624	     -1.39927552	      0.17079977	     -1.58738202	     -1.72369321	      0.45987126	      0.35539834	      0.30713298	      0.49383227	      0.56081886	     -0.09940139	     -0.23224888	     -0.00748941	      0.01077630	     -0.02167461	     -0.01567728	      0.03874297	     -0.03019669	      0.09725832	     -0.03916599
      3.69000000	    -34.69329619	      1.27038860	      2.01777562	      5.41024145	    410.40136897	      4.76815663	      1.00400526	     -4.52076367	      0.21194759	     -2.21706160	     -5.78358742	      0.31066411	     -3.79706863	     -2.87583968	     -1.01833566	     -0.22983065	     -0.02151739	      0.52154946	     -0.02185631	     -1.19632690	     -1.67299898	      0.10665601	     -1.74492618	     -1.85985060	      0.42327299	      0.37430695	      0.34823206	      0.74224921	      0.69282970	     -0.10326194	     -0.21162971	     -0.01266694	      0.00500393	     -0.02371612	     -0.02021968	      0.04291692	     -0.06200988	      0.09234964	     -0.05316616
      3.69500000	    -39.92215486	      0.89733851	      2.07521897	      2.48119710	    485.87892297	      1.47497545	     -0.08251603	     -4.17520485	      0.19708405	     -2.75668832	     -4.45754532	      0.28869121	     -1.70735833	     -2.71211229	     -0.62036271	      0.26092858	     -0.02506823	      0.97356073	     -0.02522123	     -1.18807811	     -1.95133511	      0.04188937	     -1.90815849	     -2.00539540	      0.38366653	      0.39310708	      0.38680069	      1.00541729	      0.83460231	     -0.10652747	     -0.18681471	     -0.01814190	     -0.00115888	     -0.02578104	     -0.02475904	      0.04750833	     -0.09547246	      0.08716392	     -0.06831797
      3.70000000	    -45.43014165	      0.42984232	      2.13296031	     -0.61019135	    564.68077436	     -1.92240787	     -1.21158945	     -3.83411360	      0.18597562	     -3.30939441	     -3.06862593	      0.26105168	      0.42957865	     -2.58920343	     -0.21490602	      0.77474573	     -0.02878118	      1.46026121	     -0.02871533	     -1.18199053	     -2.23152996	     -0.02322122	     -2.07342387	     -2.16063660	      0.34105538	      0.41191961	      0.42358323	      1.27843365	      0.98360803	     -0.10945425	     -0.15922445	     -0.02384296	     -0.00758856	     -0.02787222	     -0.02929272	      0.05231096	     -0.13000558	      0.08173977	     -0.08435554
