Model Marker Errors from IK
version=1
nRows=641
nColumns=4
inDegrees=no
endheader
time	total_squared_error	marker_error_RMS	marker_error_max
      1.90000000	      0.02907287	      0.02201245	      0.06643635
      1.90500000	      0.02895977	      0.02196959	      0.06636868
      1.91000000	      0.02903613	      0.02199853	      0.06726431
      1.91500000	      0.02919075	      0.02205703	      0.06738108
      1.92000000	      0.02920816	      0.02206361	      0.06763803
      1.92500000	      0.02916608	      0.02204771	      0.06740431
      1.93000000	      0.02928349	      0.02209204	      0.06794251
      1.93500000	      0.02931731	      0.02210479	      0.06819622
      1.94000000	      0.02928785	      0.02209368	      0.06810613
      1.94500000	      0.02940040	      0.02213610	      0.06836720
      1.95000000	      0.02946605	      0.02216080	      0.06846648
      1.95500000	      0.02952966	      0.02218470	      0.06889127
      1.96000000	      0.02971506	      0.02225423	      0.06888942
      1.96500000	      0.02946262	      0.02215951	      0.06884305
      1.97000000	      0.02956250	      0.02219703	      0.06920653
      1.97500000	      0.02977675	      0.02227732	      0.06949563
      1.98000000	      0.02978668	      0.02228104	      0.06977299
      1.98500000	      0.02962752	      0.02222143	      0.06985907
      1.99000000	      0.02966099	      0.02223398	      0.07008933
      1.99500000	      0.02978360	      0.02227989	      0.07032418
      2.00000000	      0.02986289	      0.02230952	      0.07038693
      2.00500000	      0.02973889	      0.02226316	      0.07019521
      2.01000000	      0.02990482	      0.02232518	      0.07052346
      2.01500000	      0.03001195	      0.02236513	      0.07034215
      2.02000000	      0.03009533	      0.02239618	      0.07072968
      2.02500000	      0.03009490	      0.02239602	      0.07111355
      2.03000000	      0.03007129	      0.02238723	      0.07079014
      2.03500000	      0.03020979	      0.02243873	      0.07135101
      2.04000000	      0.03026153	      0.02245793	      0.07103419
      2.04500000	      0.03022785	      0.02244543	      0.07119153
      2.05000000	      0.03050230	      0.02254710	      0.07184029
      2.05500000	      0.03045752	      0.02253054	      0.07178359
      2.06000000	      0.03042607	      0.02251891	      0.07192720
      2.06500000	      0.03057154	      0.02257268	      0.07211735
      2.07000000	      0.03078951	      0.02265300	      0.07270970
      2.07500000	      0.03109388	      0.02276469	      0.07292666
      2.08000000	      0.03082508	      0.02266608	      0.07271244
      2.08500000	      0.03120788	      0.02280639	      0.07341923
      2.09000000	      0.03105180	      0.02274929	      0.07343305
      2.09500000	      0.03107273	      0.02275695	      0.07353398
      2.10000000	      0.03108302	      0.02276072	      0.07368597
      2.10500000	      0.03132357	      0.02284862	      0.07404626
      2.11000000	      0.03135857	      0.02286138	      0.07451309
      2.11500000	      0.03150637	      0.02291520	      0.07506856
      2.12000000	      0.03115986	      0.02278883	      0.07462762
      2.12500000	      0.03167186	      0.02297530	      0.07515799
      2.13000000	      0.03145418	      0.02289621	      0.07537060
      2.13500000	      0.03150832	      0.02291591	      0.07498272
      2.14000000	      0.03152570	      0.02292222	      0.07533314
      2.14500000	      0.03166550	      0.02297299	      0.07560368
      2.15000000	      0.03207286	      0.02312029	      0.07631022
      2.15500000	      0.03184116	      0.02303662	      0.07620450
      2.16000000	      0.03192638	      0.02306743	      0.07643576
      2.16500000	      0.03237656	      0.02322949	      0.07641668
      2.17000000	      0.03209719	      0.02312905	      0.07654120
      2.17500000	      0.03220953	      0.02316950	      0.07686895
      2.18000000	      0.03223951	      0.02318027	      0.07684713
      2.18500000	      0.03242756	      0.02324778	      0.07760562
      2.19000000	      0.03276250	      0.02336754	      0.07778544
      2.19500000	      0.03286399	      0.02340370	      0.07834252
      2.20000000	      0.03272048	      0.02335254	      0.07801253
      2.20500000	      0.03273931	      0.02335926	      0.07792775
      2.21000000	      0.03305152	      0.02347038	      0.07850345
      2.21500000	      0.03326040	      0.02354443	      0.07907658
      2.22000000	      0.03311782	      0.02349391	      0.07888067
      2.22500000	      0.03317464	      0.02351405	      0.07915881
      2.23000000	      0.03336656	      0.02358197	      0.07969063
      2.23500000	      0.03350665	      0.02363142	      0.07998622
      2.24000000	      0.03367051	      0.02368914	      0.08002535
      2.24500000	      0.03339531	      0.02359213	      0.07997623
      2.25000000	      0.03390839	      0.02377267	      0.08039013
      2.25500000	      0.03394057	      0.02378395	      0.08086382
      2.26000000	      0.03404963	      0.02382213	      0.08072610
      2.26500000	      0.03406533	      0.02382762	      0.08120417
      2.27000000	      0.03377537	      0.02372600	      0.08096402
      2.27500000	      0.03424911	      0.02389181	      0.08137413
      2.28000000	      0.03386251	      0.02375658	      0.08117789
      2.28500000	      0.03390290	      0.02377075	      0.08153539
      2.29000000	      0.03396099	      0.02379110	      0.08170309
      2.29500000	      0.03421834	      0.02388107	      0.08195316
      2.30000000	      0.03444669	      0.02396062	      0.08253541
      2.30500000	      0.03452925	      0.02398932	      0.08252100
      2.31000000	      0.03457143	      0.02400397	      0.08272995
      2.31500000	      0.03485917	      0.02410366	      0.08293876
      2.32000000	      0.03508547	      0.02418177	      0.08326845
      2.32500000	      0.03470782	      0.02405127	      0.08312955
      2.33000000	      0.03494296	      0.02413261	      0.08331555
      2.33500000	      0.03507706	      0.02417887	      0.08379420
      2.34000000	      0.03511533	      0.02419206	      0.08393834
      2.34500000	      0.03534457	      0.02427089	      0.08403546
      2.35000000	      0.03549540	      0.02432262	      0.08448096
      2.35500000	      0.03540041	      0.02429006	      0.08387530
      2.36000000	      0.03563200	      0.02436938	      0.08471964
      2.36500000	      0.03555189	      0.02434197	      0.08470151
      2.37000000	      0.03574630	      0.02440843	      0.08443808
      2.37500000	      0.03589860	      0.02446037	      0.08545786
      2.38000000	      0.03607472	      0.02452031	      0.08530844
      2.38500000	      0.03596829	      0.02448411	      0.08522169
      2.39000000	      0.03613671	      0.02454136	      0.08601174
      2.39500000	      0.03628315	      0.02459104	      0.08621487
      2.40000000	      0.03633406	      0.02460828	      0.08647910
      2.40500000	      0.03637826	      0.02462325	      0.08654167
      2.41000000	      0.03654448	      0.02467944	      0.08681543
      2.41500000	      0.03666608	      0.02472046	      0.08732592
      2.42000000	      0.03689088	      0.02479613	      0.08793691
      2.42500000	      0.03695120	      0.02481639	      0.08802681
      2.43000000	      0.03703176	      0.02484343	      0.08799584
      2.43500000	      0.03715569	      0.02488496	      0.08863753
      2.44000000	      0.03734617	      0.02494867	      0.08867830
      2.44500000	      0.03734625	      0.02494870	      0.08900266
      2.45000000	      0.03754777	      0.02501592	      0.08910071
      2.45500000	      0.03754426	      0.02501475	      0.08950131
      2.46000000	      0.03781022	      0.02510319	      0.08978249
      2.46500000	      0.03779480	      0.02509808	      0.09007006
      2.47000000	      0.03795745	      0.02515202	      0.09023510
      2.47500000	      0.03812549	      0.02520763	      0.09046741
      2.48000000	      0.03800266	      0.02516700	      0.09055825
      2.48500000	      0.03806464	      0.02518751	      0.09067392
      2.49000000	      0.03840299	      0.02529921	      0.09160705
      2.49500000	      0.03835331	      0.02528284	      0.09145693
      2.50000000	      0.03837548	      0.02529014	      0.09127134
      2.50500000	      0.03841595	      0.02530347	      0.09211496
      2.51000000	      0.03854132	      0.02534473	      0.09222719
      2.51500000	      0.03873181	      0.02540729	      0.09240916
      2.52000000	      0.03881358	      0.02543409	      0.09262203
      2.52500000	      0.03880785	      0.02543221	      0.09276104
      2.53000000	      0.03903902	      0.02550785	      0.09337982
      2.53500000	      0.03901172	      0.02549893	      0.09325946
      2.54000000	      0.03950042	      0.02565814	      0.09362325
      2.54500000	      0.03915964	      0.02554722	      0.09352767
      2.55000000	      0.03958320	      0.02568501	      0.09433372
      2.55500000	      0.03976100	      0.02574263	      0.09474068
      2.56000000	      0.03980294	      0.02575621	      0.09460592
      2.56500000	      0.03985388	      0.02577268	      0.09428978
      2.57000000	      0.04008378	      0.02584691	      0.09513633
      2.57500000	      0.04014869	      0.02586783	      0.09518714
      2.58000000	      0.03992441	      0.02579548	      0.09519684
      2.58500000	      0.04003458	      0.02583105	      0.09561158
      2.59000000	      0.03997753	      0.02581264	      0.09572872
      2.59500000	      0.04024188	      0.02589784	      0.09607098
      2.60000000	      0.03997819	      0.02581285	      0.09580430
      2.60500000	      0.04021384	      0.02588881	      0.09600952
      2.61000000	      0.04030508	      0.02591817	      0.09656753
      2.61500000	      0.04031440	      0.02592116	      0.09635392
      2.62000000	      0.04034855	      0.02593214	      0.09670233
      2.62500000	      0.04046824	      0.02597057	      0.09671559
      2.63000000	      0.04049085	      0.02597783	      0.09726024
      2.63500000	      0.04078572	      0.02607224	      0.09772137
      2.64000000	      0.04093241	      0.02611909	      0.09740180
      2.64500000	      0.04088162	      0.02610288	      0.09775046
      2.65000000	      0.04127987	      0.02622971	      0.09835156
      2.65500000	      0.04128008	      0.02622978	      0.09846404
      2.66000000	      0.04124649	      0.02621911	      0.09841549
      2.66500000	      0.04138100	      0.02626182	      0.09860303
      2.67000000	      0.04128876	      0.02623254	      0.09893871
      2.67500000	      0.04154510	      0.02631384	      0.09945911
      2.68000000	      0.04151348	      0.02630383	      0.09931508
      2.68500000	      0.04167538	      0.02635507	      0.09957880
      2.69000000	      0.04194801	      0.02644113	      0.09996411
      2.69500000	      0.04202399	      0.02646507	      0.10023223
      2.70000000	      0.04194629	      0.02644059	      0.09983275
      2.70500000	      0.04213166	      0.02649895	      0.10043349
      2.71000000	      0.04220467	      0.02652190	      0.10050732
      2.71500000	      0.04234870	      0.02656711	      0.10079901
      2.72000000	      0.04227065	      0.02654262	      0.10093104
      2.72500000	      0.04238826	      0.02657952	      0.10104507
      2.73000000	      0.04243525	      0.02659425	      0.10109676
      2.73500000	      0.04246419	      0.02660332	      0.10156157
      2.74000000	      0.04260007	      0.02664585	      0.10155052
      2.74500000	      0.04250775	      0.02661696	      0.10167611
      2.75000000	      0.04269989	      0.02667705	      0.10183229
      2.75500000	      0.04296794	      0.02676065	      0.10223321
      2.76000000	      0.04286935	      0.02672993	      0.10263147
      2.76500000	      0.04321867	      0.02683861	      0.10295743
      2.77000000	      0.04323310	      0.02684309	      0.10316582
      2.77500000	      0.04338541	      0.02689034	      0.10326763
      2.78000000	      0.04338014	      0.02688870	      0.10360138
      2.78500000	      0.04344876	      0.02690996	      0.10354394
      2.79000000	      0.04336539	      0.02688413	      0.10388839
      2.79500000	      0.04351097	      0.02692922	      0.10388713
      2.80000000	      0.04368793	      0.02698392	      0.10442323
      2.80500000	      0.04371418	      0.02699203	      0.10436990
      2.81000000	      0.04370582	      0.02698945	      0.10413788
      2.81500000	      0.04383706	      0.02702994	      0.10474081
      2.82000000	      0.04382892	      0.02702743	      0.10476172
      2.82500000	      0.04395556	      0.02706645	      0.10493857
      2.83000000	      0.04417934	      0.02713526	      0.10509777
      2.83500000	      0.04400567	      0.02708187	      0.10504559
      2.84000000	      0.04392219	      0.02705617	      0.10503019
      2.84500000	      0.04393332	      0.02705960	      0.10555959
      2.85000000	      0.04406760	      0.02710092	      0.10551730
      2.85500000	      0.04393733	      0.02706084	      0.10547256
      2.86000000	      0.04397911	      0.02707370	      0.10498279
      2.86500000	      0.04412594	      0.02711886	      0.10555939
      2.87000000	      0.04428445	      0.02716752	      0.10584886
      2.87500000	      0.04441236	      0.02720673	      0.10578763
      2.88000000	      0.04434973	      0.02718754	      0.10583748
      2.88500000	      0.04448970	      0.02723041	      0.10594947
      2.89000000	      0.04471386	      0.02729892	      0.10639976
      2.89500000	      0.04480753	      0.02732750	      0.10692932
      2.90000000	      0.04486315	      0.02734445	      0.10681738
      2.90500000	      0.04502563	      0.02739393	      0.10737938
      2.91000000	      0.04516851	      0.02743736	      0.10726939
      2.91500000	      0.04539914	      0.02750732	      0.10711823
      2.92000000	      0.04508401	      0.02741168	      0.10738902
      2.92500000	      0.04528920	      0.02747399	      0.10799243
      2.93000000	      0.04534907	      0.02749214	      0.10800804
      2.93500000	      0.04540554	      0.02750925	      0.10781424
      2.94000000	      0.04548405	      0.02753303	      0.10773782
      2.94500000	      0.04564245	      0.02758092	      0.10796634
      2.95000000	      0.04582631	      0.02763642	      0.10840822
      2.95500000	      0.04569011	      0.02759532	      0.10845591
      2.96000000	      0.04567205	      0.02758987	      0.10855836
      2.96500000	      0.04584370	      0.02764166	      0.10876569
      2.97000000	      0.04599521	      0.02768730	      0.10897620
      2.97500000	      0.04619380	      0.02774701	      0.10929648
      2.98000000	      0.04617861	      0.02774245	      0.10929676
      2.98500000	      0.04634830	      0.02779337	      0.10989596
      2.99000000	      0.04645697	      0.02782594	      0.11021598
      2.99500000	      0.04958472	      0.02874738	      0.10994999
      3.00000000	      0.04978733	      0.02880605	      0.11038036
      3.00500000	      0.04995716	      0.02885514	      0.11065825
      3.01000000	      0.05001400	      0.02887155	      0.11107454
      3.01500000	      0.05011069	      0.02889945	      0.11128552
      3.02000000	      0.05016131	      0.02891404	      0.11133466
      3.02500000	      0.05022751	      0.02893312	      0.11157174
      3.03000000	      0.05052230	      0.02901790	      0.11169502
      3.03500000	      0.05056876	      0.02903124	      0.11140543
      3.04000000	      0.05059045	      0.02903746	      0.11177292
      3.04500000	      0.05079621	      0.02909645	      0.11222028
      3.05000000	      0.05087351	      0.02911858	      0.11223907
      3.05500000	      0.05068245	      0.02906385	      0.11178204
      3.06000000	      0.05101320	      0.02915853	      0.11207877
      3.06500000	      0.05103495	      0.02916475	      0.11226573
      3.07000000	      0.05097290	      0.02914701	      0.11212694
      3.07500000	      0.05115637	      0.02919942	      0.11262863
      3.08000000	      0.05129723	      0.02923959	      0.11281818
      3.08500000	      0.05158283	      0.02932088	      0.11302486
      3.09000000	      0.05157236	      0.02931790	      0.11264899
      3.09500000	      0.05153625	      0.02930764	      0.11305906
      3.10000000	      0.05164622	      0.02933889	      0.11332380
      3.10500000	      0.05188211	      0.02940581	      0.11337406
      3.11000000	      0.05196026	      0.02942795	      0.11356591
      3.11500000	      0.05207688	      0.02946096	      0.11387611
      3.12000000	      0.05216126	      0.02948481	      0.11419724
      3.12500000	      0.05216988	      0.02948725	      0.11412350
      3.13000000	      0.05219833	      0.02949529	      0.11409593
      3.13500000	      0.05219998	      0.02949576	      0.11397830
      3.14000000	      0.05239767	      0.02955156	      0.11439648
      3.14500000	      0.05256557	      0.02959887	      0.11437211
      3.15000000	      0.05245716	      0.02956833	      0.11466315
      3.15500000	      0.05274493	      0.02964932	      0.11504608
      3.16000000	      0.05285136	      0.02967922	      0.11489883
      3.16500000	      0.05298021	      0.02971538	      0.11496712
      3.17000000	      0.05306663	      0.02973960	      0.11534451
      3.17500000	      0.05323969	      0.02978805	      0.11489758
      3.18000000	      0.05322019	      0.02978260	      0.11539421
      3.18500000	      0.05332350	      0.02981149	      0.11593299
      3.19000000	      0.05347392	      0.02985351	      0.11559939
      3.19500000	      0.05345396	      0.02984794	      0.11561309
      3.20000000	      0.05370929	      0.02991914	      0.11582605
      3.20500000	      0.05369851	      0.02991614	      0.11599622
      3.21000000	      0.05378628	      0.02994057	      0.11614950
      3.21500000	      0.05397605	      0.02999335	      0.11656572
      3.22000000	      0.05379561	      0.02994317	      0.11629342
      3.22500000	      0.05395956	      0.02998876	      0.11651586
      3.23000000	      0.05422407	      0.03006218	      0.11677432
      3.23500000	      0.05430731	      0.03008524	      0.11686568
      3.24000000	      0.05444822	      0.03012425	      0.11717857
      3.24500000	      0.05448564	      0.03013460	      0.11761961
      3.25000000	      0.05458943	      0.03016329	      0.11745738
      3.25500000	      0.05477983	      0.03021584	      0.11751736
      3.26000000	      0.05501652	      0.03028105	      0.11789786
      3.26500000	      0.05505950	      0.03029288	      0.11788049
      3.27000000	      0.05529102	      0.03035650	      0.11819984
      3.27500000	      0.05538486	      0.03038225	      0.11856963
      3.28000000	      0.05559077	      0.03043867	      0.11846883
      3.28500000	      0.05560092	      0.03044145	      0.11864607
      3.29000000	      0.05585471	      0.03051085	      0.11914182
      3.29500000	      0.05600990	      0.03055320	      0.11902242
      3.30000000	      0.05626136	      0.03062171	      0.11949419
      3.30500000	      0.05632498	      0.03063902	      0.11960015
      3.31000000	      0.05651072	      0.03068950	      0.12028347
      3.31500000	      0.05654666	      0.03069926	      0.12015955
      3.32000000	      0.05687186	      0.03078740	      0.12056878
      3.32500000	      0.05688034	      0.03078970	      0.12051020
      3.33000000	      0.05712368	      0.03085549	      0.12084408
      3.33500000	      0.05723231	      0.03088482	      0.12133619
      3.34000000	      0.05736303	      0.03092006	      0.12142699
      3.34500000	      0.05740172	      0.03093049	      0.12132108
      3.35000000	      0.05771506	      0.03101480	      0.12198692
      3.35500000	      0.05795514	      0.03107924	      0.12195977
      3.36000000	      0.05798302	      0.03108671	      0.12236236
      3.36500000	      0.05803888	      0.03110168	      0.12231178
      3.37000000	      0.05804922	      0.03110445	      0.12202769
      3.37500000	      0.05827148	      0.03116394	      0.12254645
      3.38000000	      0.05837281	      0.03119103	      0.12254235
      3.38500000	      0.05872264	      0.03128435	      0.12287330
      3.39000000	      0.05872953	      0.03128619	      0.12277133
      3.39500000	      0.05891055	      0.03133437	      0.12317377
      3.40000000	      0.05914789	      0.03139742	      0.12339188
      3.40500000	      0.05921548	      0.03141536	      0.12370901
      3.41000000	      0.05947993	      0.03148543	      0.12383129
      3.41500000	      0.05979063	      0.03156756	      0.12421048
      3.42000000	      0.05972492	      0.03155020	      0.12424403
      3.42500000	      0.05992708	      0.03160355	      0.12461716
      3.43000000	      0.06010527	      0.03165051	      0.12470315
      3.43500000	      0.06014867	      0.03166193	      0.12488113
      3.44000000	      0.06054072	      0.03176495	      0.12533033
      3.44500000	      0.06053497	      0.03176344	      0.12556342
      3.45000000	      0.06067042	      0.03179896	      0.12556031
      3.45500000	      0.06064365	      0.03179194	      0.12560531
      3.46000000	      0.06086745	      0.03185055	      0.12568785
      3.46500000	      0.06106653	      0.03190259	      0.12621050
      3.47000000	      0.06106276	      0.03190161	      0.12620427
      3.47500000	      0.06110886	      0.03191365	      0.12595485
      3.48000000	      0.06122389	      0.03194367	      0.12615929
      3.48500000	      0.06130447	      0.03196469	      0.12641012
      3.49000000	      0.06140437	      0.03199072	      0.12652615
      3.49500000	      0.06178122	      0.03208874	      0.12682810
      3.50000000	      0.06157980	      0.03203639	      0.12685159
      3.50500000	      0.06176268	      0.03208392	      0.12710335
      3.51000000	      0.06179178	      0.03209148	      0.12688197
      3.51500000	      0.06190874	      0.03212184	      0.12705048
      3.52000000	      0.06211259	      0.03217468	      0.12775805
      3.52500000	      0.06214086	      0.03218200	      0.12766953
      3.53000000	      0.06224795	      0.03220972	      0.12744875
      3.53500000	      0.06236060	      0.03223885	      0.12769961
      3.54000000	      0.06239606	      0.03224801	      0.12774748
      3.54500000	      0.06233638	      0.03223259	      0.12779307
      3.55000000	      0.06244380	      0.03226035	      0.12789151
      3.55500000	      0.06263473	      0.03230963	      0.12793416
      3.56000000	      0.06269323	      0.03232471	      0.12786947
      3.56500000	      0.06258676	      0.03229725	      0.12814424
      3.57000000	      0.06264171	      0.03231143	      0.12801594
      3.57500000	      0.06260603	      0.03230223	      0.12807822
      3.58000000	      0.06286266	      0.03236836	      0.12860682
      3.58500000	      0.06273145	      0.03233457	      0.12844017
      3.59000000	      0.06259777	      0.03230009	      0.12818722
      3.59500000	      0.06531626	      0.03299400	      0.12867178
      3.60000000	      0.06558414	      0.03306159	      0.12863466
      3.60500000	      0.05955557	      0.03150544	      0.12817926
      3.61000000	      0.06541578	      0.03301913	      0.12845149
      3.61500000	      0.06531459	      0.03299358	      0.12854311
      3.62000000	      0.06530229	      0.03299047	      0.12847292
      3.62500000	      0.06535173	      0.03300296	      0.12863495
      3.63000000	      0.06540095	      0.03301539	      0.12869193
      3.63500000	      0.06644167	      0.03327704	      0.12887456
      3.64000000	      0.06626937	      0.03323386	      0.12884786
      3.64500000	      0.06501285	      0.03291728	      0.12865578
      3.65000000	      0.06497335	      0.03290728	      0.12849311
      3.65500000	      0.06503367	      0.03292255	      0.12858234
      3.66000000	      0.06525824	      0.03297935	      0.12880387
      3.66500000	      0.06544432	      0.03302633	      0.12915523
      3.67000000	      0.06536416	      0.03300610	      0.12929979
      3.67500000	      0.06540299	      0.03301590	      0.12901216
      3.68000000	      0.06563308	      0.03307393	      0.12950455
      3.68500000	      0.06556566	      0.03305694	      0.12923355
      3.69000000	      0.06561964	      0.03307054	      0.12944590
      3.69500000	      0.06582791	      0.03312298	      0.12939889
      3.70000000	      0.06551658	      0.03304456	      0.12931702
      3.70500000	      0.06588591	      0.03313757	      0.12954374
      3.71000000	      0.06574914	      0.03310316	      0.12954958
      3.71500000	      0.06586013	      0.03313109	      0.12971097
      3.72000000	      0.06597658	      0.03316036	      0.12975044
      3.72500000	      0.06609558	      0.03319025	      0.12976247
      3.73000000	      0.06603512	      0.03317507	      0.12972002
      3.73500000	      0.06583411	      0.03312454	      0.12968811
      3.74000000	      0.06585093	      0.03312877	      0.12973450
      3.74500000	      0.06597331	      0.03315954	      0.12978874
      3.75000000	      0.06597840	      0.03316082	      0.12989067
      3.75500000	      0.06624295	      0.03322723	      0.13019722
      3.76000000	      0.06626521	      0.03323282	      0.13014536
      3.76500000	      0.06639740	      0.03326595	      0.12980892
      3.77000000	      0.06643030	      0.03327419	      0.12988423
      3.77500000	      0.06652436	      0.03329774	      0.12995213
      3.78000000	      0.06663283	      0.03332487	      0.13033615
      3.78500000	      0.06623786	      0.03322596	      0.13019679
      3.79000000	      0.06626363	      0.03323242	      0.13019642
      3.79500000	      0.06639582	      0.03326555	      0.13019271
      3.80000000	      0.06635936	      0.03325642	      0.13016319
      3.80500000	      0.06730806	      0.03349330	      0.13049495
      3.81000000	      0.06755282	      0.03355414	      0.13085755
      3.81500000	      0.06768518	      0.03358700	      0.13083948
      3.82000000	      0.06777866	      0.03361018	      0.13073313
      3.82500000	      0.06809916	      0.03368955	      0.13078993
      3.83000000	      0.06730627	      0.03349285	      0.13068139
      3.83500000	      0.06694156	      0.03340199	      0.13053630
      3.84000000	      0.06697927	      0.03341139	      0.13067202
      3.84500000	      0.06705835	      0.03343111	      0.13056508
      3.85000000	      0.06677960	      0.03336155	      0.13008781
      3.85500000	      0.06705210	      0.03342955	      0.13051408
      3.86000000	      0.06720082	      0.03346660	      0.13057637
      3.86500000	      0.06689580	      0.03339057	      0.13012239
      3.87000000	      0.06718365	      0.03346233	      0.13057688
      3.87500000	      0.06712277	      0.03344717	      0.13058034
      3.88000000	      0.06725337	      0.03347969	      0.13069504
      3.88500000	      0.06728924	      0.03348862	      0.13065328
      3.89000000	      0.06750230	      0.03354159	      0.13097139
      3.89500000	      0.06728790	      0.03348828	      0.13086637
      3.90000000	      0.06185955	      0.03210907	      0.13022687
      3.90500000	      0.06475052	      0.03285080	      0.13049968
      3.91000000	      0.06483098	      0.03287121	      0.13064165
      3.91500000	      0.06481843	      0.03286803	      0.13062774
      3.92000000	      0.06494378	      0.03289979	      0.13090457
      3.92500000	      0.06491801	      0.03289326	      0.13077453
      3.93000000	      0.06497537	      0.03290779	      0.13099348
      3.93500000	      0.06498326	      0.03290979	      0.13067422
      3.94000000	      0.06505031	      0.03292676	      0.13088989
      3.94500000	      0.06538291	      0.03301083	      0.13114916
      3.95000000	      0.06527333	      0.03298316	      0.13106364
      3.95500000	      0.06549036	      0.03303795	      0.13122016
      3.96000000	      0.06560547	      0.03306697	      0.13141621
      3.96500000	      0.06549716	      0.03303966	      0.13120781
      3.97000000	      0.06530185	      0.03299037	      0.13123400
      3.97500000	      0.06531470	      0.03299361	      0.13133242
      3.98000000	      0.06540626	      0.03301673	      0.13126329
      3.98500000	      0.06536001	      0.03300505	      0.13116793
      3.99000000	      0.06559999	      0.03306559	      0.13141298
      3.99500000	      0.06568189	      0.03308622	      0.13165929
      4.00000000	      0.06560698	      0.03306735	      0.13160139
      4.00500000	      0.06566073	      0.03308089	      0.13146245
      4.01000000	      0.06569839	      0.03309038	      0.13146357
      4.01500000	      0.06577348	      0.03310928	      0.13143029
      4.02000000	      0.06581799	      0.03312048	      0.13148403
      4.02500000	      0.06582564	      0.03312241	      0.13143713
      4.03000000	      0.06577750	      0.03311030	      0.13148450
      4.03500000	      0.06580743	      0.03311783	      0.13149821
      4.04000000	      0.06579718	      0.03311525	      0.13143572
      4.04500000	      0.06582830	      0.03312308	      0.13141263
      4.05000000	      0.06577016	      0.03310845	      0.13121003
      4.05500000	      0.06581038	      0.03311857	      0.13132217
      4.06000000	      0.06570319	      0.03309159	      0.13084759
      4.06500000	      0.06585657	      0.03313019	      0.13096767
      4.07000000	      0.06603253	      0.03317442	      0.13099763
      4.07500000	      0.06597369	      0.03315964	      0.13104643
      4.08000000	      0.06594491	      0.03315240	      0.13107778
      4.08500000	      0.06601762	      0.03317067	      0.13111518
      4.09000000	      0.06615911	      0.03320620	      0.13128217
      4.09500000	      0.06609594	      0.03319035	      0.13160324
      4.10000000	      0.06612884	      0.03319860	      0.13129228
      4.10500000	      0.06614659	      0.03320306	      0.13138977
      4.11000000	      0.06633300	      0.03324981	      0.13157689
      4.11500000	      0.06619224	      0.03321452	      0.13137754
      4.12000000	      0.06623230	      0.03322456	      0.13138332
      4.12500000	      0.06617316	      0.03320973	      0.13133925
      4.13000000	      0.06627865	      0.03323619	      0.13154778
      4.13500000	      0.06622228	      0.03322205	      0.13125617
      4.14000000	      0.06629947	      0.03324141	      0.13138548
      4.14500000	      0.06639937	      0.03326644	      0.13164428
      4.15000000	      0.06684106	      0.03337690	      0.13144074
      4.15500000	      0.06677040	      0.03335926	      0.13143908
      4.16000000	      0.06677339	      0.03336000	      0.13162308
      4.16500000	      0.06682818	      0.03337369	      0.13179456
      4.17000000	      0.06691866	      0.03339627	      0.13152717
      4.17500000	      0.06670524	      0.03334298	      0.13117107
      4.18000000	      0.06691654	      0.03339574	      0.13152722
      4.18500000	      0.06704146	      0.03342690	      0.13134008
      4.19000000	      0.06738866	      0.03351334	      0.13183482
      4.19500000	      0.06710702	      0.03344324	      0.13136908
      4.20000000	      0.06719900	      0.03346615	      0.13180237
      4.20500000	      0.06709776	      0.03344093	      0.13154620
      4.21000000	      0.06706762	      0.03343342	      0.13193634
      4.21500000	      0.06710928	      0.03344380	      0.13186611
      4.22000000	      0.06707718	      0.03343580	      0.13185483
      4.22500000	      0.06710012	      0.03344152	      0.13157112
      4.23000000	      0.06727611	      0.03348535	      0.13136269
      4.23500000	      0.06712052	      0.03344660	      0.13186242
      4.24000000	      0.06712193	      0.03344696	      0.13166026
      4.24500000	      0.06719020	      0.03346396	      0.13169396
      4.25000000	      0.06706120	      0.03343182	      0.13150302
      4.25500000	      0.06729694	      0.03349053	      0.13170063
      4.26000000	      0.06705446	      0.03343014	      0.13190547
      4.26500000	      0.06723283	      0.03347457	      0.13182451
      4.27000000	      0.06714961	      0.03345385	      0.13177408
      4.27500000	      0.06719467	      0.03346507	      0.13137551
      4.28000000	      0.06725404	      0.03347985	      0.13202980
      4.28500000	      0.06722430	      0.03347245	      0.13211689
      4.29000000	      0.06718415	      0.03346245	      0.13190439
      4.29500000	      0.06732634	      0.03349785	      0.13199732
      4.30000000	      0.06742286	      0.03352185	      0.13200611
      4.30500000	      0.06722403	      0.03347239	      0.13164529
      4.31000000	      0.06760269	      0.03356652	      0.13226549
      4.31500000	      0.06734898	      0.03350348	      0.13215581
      4.32000000	      0.06730593	      0.03349277	      0.13226549
      4.32500000	      0.06746879	      0.03353326	      0.13199482
      4.33000000	      0.06728739	      0.03348816	      0.13209476
      4.33500000	      0.06671141	      0.03334452	      0.13195733
      4.34000000	      0.06663858	      0.03332631	      0.13185315
      4.34500000	      0.06719873	      0.03346608	      0.13182464
      4.35000000	      0.06725684	      0.03348055	      0.13204676
      4.35500000	      0.06679544	      0.03336551	      0.13209325
      4.36000000	      0.06694146	      0.03340196	      0.13213012
      4.36500000	      0.06685343	      0.03337999	      0.13212368
      4.37000000	      0.06687254	      0.03338476	      0.13197428
      4.37500000	      0.06700778	      0.03341850	      0.13237474
      4.38000000	      0.06717494	      0.03346016	      0.13230327
      4.38500000	      0.06689027	      0.03338919	      0.13209727
      4.39000000	      0.06706985	      0.03343398	      0.13227009
      4.39500000	      0.06699833	      0.03341615	      0.13217410
      4.40000000	      0.06726248	      0.03348195	      0.13249262
      4.40500000	      0.06704463	      0.03342769	      0.13255955
      4.41000000	      0.06352006	      0.03253717	      0.13197471
      4.41500000	      0.06326255	      0.03247115	      0.13184561
      4.42000000	      0.06330692	      0.03248254	      0.13176313
      4.42500000	      0.06326697	      0.03247229	      0.13211908
      4.43000000	      0.06319027	      0.03245260	      0.13184447
      4.43500000	      0.06313151	      0.03243751	      0.13181855
      4.44000000	      0.06323860	      0.03246501	      0.13230667
      4.44500000	      0.06311884	      0.03243425	      0.13205159
      4.45000000	      0.06291436	      0.03238167	      0.13151096
      4.45500000	      0.06294192	      0.03238876	      0.13197544
      4.46000000	      0.06275507	      0.03234065	      0.13195196
      4.46500000	      0.06261013	      0.03230328	      0.13134823
      4.47000000	      0.06249510	      0.03227360	      0.13126101
      4.47500000	      0.06237397	      0.03224230	      0.13101981
      4.48000000	      0.06234236	      0.03223413	      0.13105103
      4.48500000	      0.06217061	      0.03218970	      0.13113437
      4.49000000	      0.06190064	      0.03211973	      0.13064451
      4.49500000	      0.06206791	      0.03216310	      0.13049885
      4.50000000	      0.06186191	      0.03210968	      0.13031712
      4.50500000	      0.06158310	      0.03203724	      0.13026197
      4.51000000	      0.06149852	      0.03201524	      0.13002507
      4.51500000	      0.06135900	      0.03197890	      0.12969221
      4.52000000	      0.06140672	      0.03199133	      0.12990183
      4.52500000	      0.06123494	      0.03194656	      0.12985622
      4.53000000	      0.06102434	      0.03189157	      0.12942265
      4.53500000	      0.06102783	      0.03189248	      0.12970525
      4.54000000	      0.06068329	      0.03180233	      0.12887608
      4.54500000	      0.06067040	      0.03179895	      0.12905086
      4.55000000	      0.06046556	      0.03174522	      0.12861534
      4.55500000	      0.06069006	      0.03180410	      0.12879893
      4.56000000	      0.06041897	      0.03173299	      0.12853074
      4.56500000	      0.06025223	      0.03168917	      0.12823063
      4.57000000	      0.05994217	      0.03160753	      0.12783606
      4.57500000	      0.05994579	      0.03160849	      0.12797285
      4.58000000	      0.05983579	      0.03157947	      0.12773412
      4.58500000	      0.05976777	      0.03156152	      0.12755286
      4.59000000	      0.05968035	      0.03153843	      0.12743082
      4.59500000	      0.05946894	      0.03148252	      0.12721250
      4.60000000	      0.05928721	      0.03143438	      0.12732907
      4.60500000	      0.05911099	      0.03138763	      0.12684733
      4.61000000	      0.05905778	      0.03137350	      0.12655066
      4.61500000	      0.05891577	      0.03133575	      0.12643492
      4.62000000	      0.05878151	      0.03130003	      0.12653480
      4.62500000	      0.05874834	      0.03129120	      0.12631964
      4.63000000	      0.05851185	      0.03122815	      0.12591167
      4.63500000	      0.05846893	      0.03121670	      0.12570054
      4.64000000	      0.05825983	      0.03116083	      0.12538502
      4.64500000	      0.05809333	      0.03111627	      0.12540316
      4.65000000	      0.05787949	      0.03105895	      0.12518342
      4.65500000	      0.05775693	      0.03102605	      0.12459158
      4.66000000	      0.05775674	      0.03102599	      0.12428774
      4.66500000	      0.05762326	      0.03099012	      0.12439921
      4.67000000	      0.05729307	      0.03090121	      0.12371824
      4.67500000	      0.05725444	      0.03089079	      0.12397790
      4.68000000	      0.05714404	      0.03086099	      0.12358033
      4.68500000	      0.05710103	      0.03084937	      0.12360940
      4.69000000	      0.05689259	      0.03079302	      0.12292638
      4.69500000	      0.05662931	      0.03072168	      0.12276129
      4.70000000	      0.05663657	      0.03072365	      0.12260956
      4.70500000	      0.05661427	      0.03071760	      0.12262109
      4.71000000	      0.05646500	      0.03067708	      0.12241813
      4.71500000	      0.05635968	      0.03064846	      0.12237713
      4.72000000	      0.05605809	      0.03056635	      0.12202747
      4.72500000	      0.05597950	      0.03054491	      0.12195945
      4.73000000	      0.05588794	      0.03051992	      0.12134940
      4.73500000	      0.05565443	      0.03045610	      0.12126709
      4.74000000	      0.05537282	      0.03037895	      0.12078839
      4.74500000	      0.05527252	      0.03035142	      0.12056851
      4.75000000	      0.05508116	      0.03029883	      0.12018582
      4.75500000	      0.05475047	      0.03020774	      0.11974897
      4.76000000	      0.05468782	      0.03019046	      0.11960549
      4.76500000	      0.05450931	      0.03014114	      0.11913187
      4.77000000	      0.05433725	      0.03009353	      0.11872890
      4.77500000	      0.05440675	      0.03011277	      0.11891656
      4.78000000	      0.05379982	      0.02994434	      0.11824691
      4.78500000	      0.05408687	      0.03002412	      0.11846355
      4.79000000	      0.05372995	      0.02992489	      0.11778882
      4.79500000	      0.05352564	      0.02986794	      0.11765711
      4.80000000	      0.05352395	      0.02986747	      0.11727828
      4.80500000	      0.05336660	      0.02982354	      0.11723755
      4.81000000	      0.05285829	      0.02968116	      0.11659433
      4.81500000	      0.05291525	      0.02969715	      0.11687369
      4.82000000	      0.05252674	      0.02958793	      0.11596920
      4.82500000	      0.05259807	      0.02960801	      0.11633990
      4.83000000	      0.05230429	      0.02952521	      0.11591863
      4.83500000	      0.05208033	      0.02946193	      0.11549124
      4.84000000	      0.05170282	      0.02935496	      0.11490775
      4.84500000	      0.05168008	      0.02934850	      0.11482604
      4.85000000	      0.05127815	      0.02923416	      0.11419396
      4.85500000	      0.05096211	      0.02914393	      0.11403428
      4.86000000	      0.05072676	      0.02907656	      0.11361196
      4.86500000	      0.05057909	      0.02903420	      0.11367519
      4.87000000	      0.05026889	      0.02894503	      0.11322921
      4.87500000	      0.04999679	      0.02886659	      0.11258478
      4.88000000	      0.04976706	      0.02880019	      0.11243693
      4.88500000	      0.04923269	      0.02864515	      0.11178248
      4.89000000	      0.04906163	      0.02859534	      0.11134491
      4.89500000	      0.04871839	      0.02849514	      0.11127545
      4.90000000	      0.04828581	      0.02836835	      0.11075581
      4.90500000	      0.04823272	      0.02835275	      0.11038454
      4.91000000	      0.04806032	      0.02830204	      0.10995831
      4.91500000	      0.04760659	      0.02816812	      0.10961230
      4.92000000	      0.04712549	      0.02802543	      0.10882040
      4.92500000	      0.04696957	      0.02797903	      0.10869888
      4.93000000	      0.04664688	      0.02788275	      0.10794628
      4.93500000	      0.04634786	      0.02779324	      0.10744367
      4.94000000	      0.04588817	      0.02765507	      0.10702049
      4.94500000	      0.04562889	      0.02757683	      0.10667228
      4.95000000	      0.04529526	      0.02747583	      0.10583164
      4.95500000	      0.04501956	      0.02739208	      0.10569675
      4.96000000	      0.04480599	      0.02732703	      0.10506282
      4.96500000	      0.04434847	      0.02718715	      0.10446816
      4.97000000	      0.04415999	      0.02712932	      0.10390843
      4.97500000	      0.04361096	      0.02696014	      0.10317509
      4.98000000	      0.04328670	      0.02685973	      0.10264135
      4.98500000	      0.04276568	      0.02669759	      0.10173050
      4.99000000	      0.04266188	      0.02666517	      0.10150205
      4.99500000	      0.04223991	      0.02653297	      0.10078285
      5.00000000	      0.04196787	      0.02644739	      0.10051313
      5.00500000	      0.04158067	      0.02632510	      0.09957360
      5.01000000	      0.04135420	      0.02625332	      0.09906937
      5.01500000	      0.04084306	      0.02609057	      0.09831395
      5.02000000	      0.04039280	      0.02594636	      0.09752983
      5.02500000	      0.03994208	      0.02580119	      0.09679838
      5.03000000	      0.03973029	      0.02573269	      0.09611680
      5.03500000	      0.03958324	      0.02568503	      0.09559996
      5.04000000	      0.03906626	      0.02551675	      0.09484092
      5.04500000	      0.03855587	      0.02534951	      0.09364752
      5.05000000	      0.03856838	      0.02535363	      0.09355527
      5.05500000	      0.03792020	      0.02513968	      0.09211133
      5.06000000	      0.03767000	      0.02505660	      0.09170339
      5.06500000	      0.03738210	      0.02496067	      0.09102660
      5.07000000	      0.03710073	      0.02486655	      0.09029046
      5.07500000	      0.03694776	      0.02481524	      0.08940370
      5.08000000	      0.03660529	      0.02469996	      0.08895155
      5.08500000	      0.03619661	      0.02456169	      0.08797488
      5.09000000	      0.03617666	      0.02455493	      0.08730843
      5.09500000	      0.03572659	      0.02440170	      0.08680241
      5.10000000	      0.03541451	      0.02429489	      0.08571570
