Inverse Dynamics Generalized Forces
version=1
nRows=137
nColumns=40
inDegrees=no
endheader
time	pelvis_tilt_moment	pelvis_list_moment	pelvis_rotation_moment	pelvis_tx_force	pelvis_ty_force	pelvis_tz_force	hip_flexion_r_moment	hip_adduction_r_moment	hip_rotation_r_moment	hip_flexion_l_moment	hip_adduction_l_moment	hip_rotation_l_moment	lumbar_extension_moment	lumbar_bending_moment	lumbar_rotation_moment	knee_angle_r_moment	knee_angle_r_beta_force	knee_angle_l_moment	knee_angle_l_beta_force	arm_flex_r_moment	arm_add_r_moment	arm_rot_r_moment	arm_flex_l_moment	arm_add_l_moment	arm_rot_l_moment	ankle_angle_r_moment	ankle_angle_l_moment	elbow_flex_r_moment	elbow_flex_l_moment	subtalar_angle_r_moment	subtalar_angle_l_moment	pro_sup_r_moment	pro_sup_l_moment	mtp_angle_r_moment	mtp_angle_l_moment	wrist_flex_r_moment	wrist_dev_r_moment	wrist_flex_l_moment	wrist_dev_l_moment
      4.08500000	  10024.85921495	  46176.48382924	  43094.31615200	     36.59213005	    755.81581195	    -78.42750526	  12703.41480237	  35157.85140246	  49079.03635572	     -7.78504095	    -15.90819081	     -0.04790400	     -6.14897801	      7.31288272	      0.85302029	   2176.56499080	     -0.04269319	      0.92397428	     -0.04474680	     -2.83510389	     -3.63647008	     -0.22875858	     -2.23035044	     -4.38641795	      0.49274872	    946.31460247	      0.70785858	      2.19779188	      2.16115500	  35047.66475101	     -0.38245587	     -0.04947145	     -0.03047554	     -0.03116470	     -0.03794422	      0.05655725	     -0.21274510	      0.12042895	     -0.18858342
      4.09000000	  10006.83642587	  46167.53655074	  43356.76551847	     38.40180063	    656.24255004	    -77.79592955	  12828.02226676	  35218.99777958	  49215.87039930	     -6.01561744	    -15.14101578	     -0.18158243	     -7.99725357	      5.99268360	      0.87139088	   1481.78985051	     -0.03692893	      0.51972429	     -0.03938665	     -2.55450180	     -3.47059359	     -0.20280242	     -2.09224282	     -3.80261356	      0.55672700	   1640.38885446	      0.67815977	      1.86016940	      1.89648929	  34752.06983842	     -0.37986011	     -0.04037959	     -0.02294520	     -0.03187694	     -0.03677988	      0.05514814	     -0.17348144	      0.12433169	     -0.16083173
      4.09500000	  10117.61483798	  45993.81199752	  43317.97958080	     39.99251632	    558.41957297	    -76.38207980	  13069.83661365	  35176.49597984	  49007.24543675	     -4.26057333	    -14.38517446	     -0.31089439	     -9.80078654	      4.63895353	      0.85784762	    606.19486111	     -0.03129723	      0.10052973	     -0.03411150	     -2.27138245	     -3.30518702	     -0.17578952	     -1.94458019	     -3.23038839	      0.61639870	   2475.87144475	      0.65066417	      1.52986052	      1.63779374	  34344.84591208	     -0.37739532	     -0.03135769	     -0.01566296	     -0.03265045	     -0.03569898	      0.05397678	     -0.13518259	      0.12777500	     -0.13389093
      4.10000000	  10175.45929947	  45741.78501916	  43236.74457713	     41.55794252	    463.83552756	    -74.86567610	  13252.36522748	  35068.08297766	  48751.91092701	     -2.55303239	    -13.64235424	     -0.43090890	    -11.52166437	      3.27022663	      0.80339312	   -219.71331442	     -0.02590369	     -0.32666344	     -0.02901203	     -1.99220087	     -3.14275779	     -0.14795362	     -1.79025336	     -2.67706139	      0.67020601	   3262.92899687	      0.62644148	      1.21278724	      1.39024203	  33873.79137322	     -0.37493964	     -0.02254508	     -0.00882988	     -0.03353318	     -0.03478458	      0.05309098	     -0.09851706	      0.13055682	     -0.10834138
      4.10500000	  10022.76544232	  45516.96437784	  43392.64116013	     43.28789487	    373.84980330	    -73.96362209	  13226.35280377	  34949.43752825	  48767.18054825	     -0.92169737	    -12.91296778	     -0.53732388	    -13.12607038	      1.90718459	      0.70479892	   -788.93531478	     -0.02084211	     -0.75519994	     -0.02417092	     -1.72266663	     -2.98541081	     -0.11976951	     -1.63253354	     -2.14939061	      0.71691405	   3833.27704838	      0.60634646	      0.91428960	      1.15828083	  33410.57618332	     -0.37233956	     -0.01408312	     -0.00261591	     -0.03456205	     -0.03410578	      0.05249351	     -0.06409385	      0.13251279	     -0.08467074
      4.11000000	   9874.56932514	  45349.22768194	  43637.81363026	     45.00490316	    290.20472810	    -73.37880627	  13207.47194838	  34870.75825414	  48877.36736266	      0.61057140	    -12.19688219	     -0.62663579	    -14.58539935	      0.57154019	      0.56417275	  -1329.76372144	     -0.01619106	     -1.17906653	     -0.01965980	     -1.46763391	     -2.83469361	     -0.09185927	     -1.47485807	     -1.65335666	      0.75563433	   4382.41651146	      0.59098496	      0.63895719	      0.94548676	  33002.64205659	     -0.36943498	     -0.00611044	      0.00284713	     -0.03575932	     -0.03371354	      0.05214972	     -0.03244218	      0.13352323	     -0.06325983
      4.11500000	   9950.92855076	  45247.89482221	  43777.46945070	     46.50026650	    214.35996022	    -72.64177482	  13414.24708014	  34867.57004638	  48856.27963735	      2.02741714	    -11.49432830	     -0.69625224	    -15.87704604	     -0.71508709	      0.38778701	  -2086.11004089	     -0.01201202	     -1.59309350	     -0.01553726	     -1.23104618	     -2.69151431	     -0.06489365	     -1.32065318	     -1.19406631	      0.78584171	   5118.34833644	      0.58069447	      0.39051107	      0.75448394	  32671.45185288	     -0.36608777	      0.00124292	      0.00746939	     -0.03713030	     -0.03363743	      0.05199871	     -0.00399640	      0.13351858	     -0.04437409
      4.12000000	  10111.37182888	  45208.96500497	  43874.07399970	     47.79303206	    146.84954618	    -71.58630098	  13706.82343032	  34931.81106201	  48786.39651446	      3.31922124	    -10.80677114	     -0.74456751	    -16.98472402	     -1.93188152	      0.18480827	  -2908.00163328	     -0.00834876	     -1.99310397	     -0.01184801	     -1.01589677	     -2.55614966	     -0.03951879	     -1.17318250	     -0.77573377	      0.80738812	   5907.53596493	      0.57554385	      0.17171532	      0.58691806	  32420.33081785	     -0.36220830	      0.00786117	      0.01120500	     -0.03866191	     -0.03388371	      0.05196308	      0.02091589	      0.13248485	     -0.02816011
      4.12500000	  10170.23784730	  45209.63733323	  44019.78824751	     48.94800013	     87.85682467	    -70.21703100	  13899.50656968	  35036.74085358	  48783.37444083	      4.48307606	    -10.13757568	     -0.77098949	    -17.89836347	     -3.05942414	     -0.03378660	  -3595.92875106	     -0.00522755	     -2.37607364	     -0.00862275	     -0.82426143	     -2.42829606	     -0.01626273	     -1.03539482	     -0.40169084	      0.82048915	   6572.16252665	      0.57535750	     -0.01565525	      0.44348208	  32246.92169558	     -0.35777658	      0.01364847	      0.01405188	     -0.04032178	     -0.03443543	      0.05196328	      0.04208083	      0.13046553	     -0.01464867
      4.13000000	  10117.91554960	  45184.01864490	  44169.02069875	     49.96888458	     37.69444237	    -68.89272716	  13977.48865643	  35129.93300815	  48791.76826984	      5.52244529	     -9.49235394	     -0.77589696	    -18.61385457	     -4.08048879	     -0.25589327	  -4146.85680745	     -0.00265770	     -2.74025273	     -0.00587854	     -0.65740132	     -2.30714639	      0.00457027	     -0.90978688	     -0.07438568	      0.82567131	   7105.65493095	      0.57975487	     -0.17077799	      0.32397835	  32111.07350112	     -0.35285437	      0.01853386	      0.01604837	     -0.04205892	     -0.03525441	      0.05193504	      0.05939884	      0.12755544	     -0.00376378
      4.13500000	  10001.15454391	  45058.43572100	  44247.90224473	     50.88682864	     -3.54660628	    -67.85011987	  13980.51438639	  35151.86633142	  48718.48253594	      6.44651112	     -8.87900571	     -0.76054669	    -19.13295506	     -4.98084628	     -0.46853408	  -4616.28126626	     -0.00063256	     -3.08516321	     -0.00361943	     -0.51585612	     -2.19152983	      0.02294248	     -0.79830482	      0.20463424	      0.82368652	   7554.10321678	      0.58818847	     -0.29371382	      0.22740940	  31958.31320378	     -0.34758713	      0.02247386	      0.01726701	     -0.04380592	     -0.03628394	      0.05183856	      0.07288047	      0.12388655	      0.00466320
      4.14000000	   9906.00121650	  44758.67383783	  44199.74925621	     51.88854726	    -36.26180737	    -66.45915143	  13986.84983673	  35034.68723675	  48481.13914956	      7.26929645	     -8.30746954	     -0.72697082	    -19.46324313	     -5.74988157	     -0.65804375	  -5096.39155586	      0.00086864	     -3.41145079	     -0.00183763	     -0.39948630	     -2.08009551	      0.03904693	     -0.70225724	      0.43472695	      0.81540326	   8000.31939080	      0.59996611	     -0.38533796	      0.15210041	  31717.58793854	     -0.34219472	      0.02545308	      0.01780643	     -0.04548183	     -0.03745077	      0.05165698	      0.08263983	      0.11961021	      0.01087460
      4.14500000	   9904.54290344	  44303.81920581	  44034.27042338	     53.12932904	    -61.02647507	    -64.28086985	  14068.56563615	  34789.25111206	  48080.47216208	      8.00855623	     -7.78914847	     -0.67786244	    -19.61776420	     -6.38108214	     -0.81047307	  -5653.50112437	      0.00187840	     -3.72066128	     -0.00051506	     -0.30748043	     -1.97148269	      0.05323087	     -0.62221619	      0.61614262	      0.80168898	   8507.25826714	      0.61426108	     -0.44726291	      0.09584769	  31391.07816387	     -0.33695129	      0.02748286	      0.01778266	     -0.04699502	     -0.03866634	      0.05138909	      0.08888484	      0.11488027	      0.01516423
      4.15000000	   9984.94924517	  44073.23295375	  44012.75096467	     54.46261894	    -78.25820103	    -62.48681901	  14248.10959269	  34742.08538949	  47832.35049261	      8.68429438	     -7.33602050	     -0.61640989	    -19.61434948	     -6.87238708	     -0.91207345	  -6240.20625072	      0.00243849	     -4.01498428	      0.00037519	     -0.23834433	     -1.86447254	      0.06589605	     -0.55795026	      0.75001782	      0.78331497	   9046.15854837	      0.63012248	     -0.48173542	      0.05607394	  31293.45886043	     -0.33215582	      0.02859797	      0.01732075	     -0.04824704	     -0.03982857	      0.05103965	      0.09190267	      0.10983961	      0.01785534
      4.15500000	  10110.94251604	  44336.82319176	  44339.04589996	     55.75035068	    -88.51586285	    -62.09517733	  14517.53498959	  35129.29636299	  47978.23380612	      9.31687569	     -6.95949115	     -0.54608226	    -19.47451007	     -7.22633910	     -0.94973947	  -6805.39197147	      0.00259813	     -4.29692834	      0.00086746	     -0.18991545	     -1.75812395	      0.07740274	     -0.50845721	      0.83839770	      0.76091803	   9581.67989876	      0.64649264	     -0.49149949	      0.02998084	  31658.02477553	     -0.32809738	      0.02885235	      0.01654760	     -0.04913819	     -0.04082522	      0.05061122	      0.09204022	      0.10461259	      0.01928068
      4.16000000	  10228.27564665	  44493.86556120	  44623.92543186	     57.18595386	    -92.84134067	    -61.89502865	  14768.13802502	  35436.20716086	  48053.82253317	      9.92494829	     -6.66915420	     -0.47044735	    -19.22161565	     -7.44999943	     -0.91159324	  -7335.29207521	      0.00241225	     -4.56892479	      0.00100251	     -0.15946312	     -1.65186974	      0.08802044	     -0.47210493	      0.88427254	      0.73502520	  10077.26893363	      0.66223800	     -0.47964457	      0.01470350	  32005.41959199	     -0.32502358	      0.02831664	      0.01558639	     -0.04957373	     -0.04153928	      0.05010284	      0.08968382	      0.09930455	      0.01976457
      4.16500000	  10290.53745473	  44015.82945171	  44515.09656009	     58.94497117	    -92.35750255	    -60.67101291	  14899.96331001	  35204.17582939	  47651.01956053	     10.52351244	     -6.47169044	     -0.39308347	    -18.87879473	     -7.55446853	     -0.78785334	  -7799.26204763	      0.00193976	     -4.83291994	      0.00082634	     -0.14385662	     -1.54554872	      0.09793367	     -0.44681028	      0.89157426	      0.70610468	  10482.26920128	      0.67618888	     -0.44947065	      0.00746257	  31906.45062015	     -0.32311605	      0.02707733	      0.01455168	     -0.04946870	     -0.04185545	      0.04951504	      0.08524206	      0.09400556	      0.01960661
      4.17000000	  10279.36853383	  43480.06478485	  44341.80027328	     60.83822031	    -87.92708841	    -59.43171224	  14949.46119997	  34945.34792298	  47181.09057135	     11.12253490	     -6.36999272	     -0.31752557	    -18.46768310	     -7.55403725	     -0.57188354	  -8143.14703710	      0.00124143	     -5.09000644	      0.00038890	     -0.13973268	     -1.43934862	      0.10727708	     -0.43019007	      0.86510055	      0.67459946	  10763.57457745	      0.68716727	     -0.40438928	      0.00570021	  31856.49915246	     -0.32246656	      0.02523599	      0.01354403	     -0.04875103	     -0.04166529	      0.04885587	      0.07913332	      0.08879292	      0.01906760
      4.17500000	  10198.67593711	  43483.29042712	  44480.32434814	     62.68377741	    -80.36631686	    -59.33557517	  14983.92324290	  35189.74791014	  47087.83057156	     11.72625006	     -6.36256649	     -0.24715853	    -18.00839369	     -7.46545199	     -0.26136731	  -8351.17856678	      0.00037803	     -5.34012928	     -0.00025744	     -0.14365512	     -1.33367697	      0.11617319	     -0.41968771	      0.81039165	      0.64094044	  10928.39652914	      0.69400182	     -0.34785818	      0.00718343	  32368.09460164	     -0.32305292	      0.02290748	      0.01264465	     -0.04736496	     -0.04087098	      0.04814322	      0.07177766	      0.08373034	      0.01835944
      4.18000000	  10120.13710528	  43614.62586082	  44728.83701360	     64.72946153	    -70.57426996	    -59.92990460	  15036.04589108	  35561.15167568	  47102.20281181	     12.33281270	     -6.44331152	     -0.18507590	    -17.51988440	     -7.30766669	      0.14030320	  -8512.11571806	     -0.00059096	     -5.58189946	     -0.00105917	     -0.15228937	     -1.22904045	      0.12475718	     -0.41269653	      0.73355574	      0.60555670	  11050.94161160	      0.69555375	     -0.28332315	      0.01005726	  33066.16736259	     -0.32472566	      0.02021773	      0.01191168	     -0.04527436	     -0.03938966	      0.04740458	      0.06358965	      0.07886611	      0.01764186
      4.18500000	  10104.86754024	  43400.99229555	  44833.84879524	     67.17285164	    -59.40352203	    -60.59173521	  15116.69155288	  35623.48904639	  46909.22317143	     12.93396928	     -6.60160193	     -0.13397027	    -17.01994656	     -7.10192560	      0.62245379	  -8696.18277038	     -0.00160842	     -5.81247486	     -0.00196275	     -0.16257237	     -1.12600306	      0.13317453	     -0.40669071	      0.64099056	      0.56887827	  11184.60896934	      0.69076181	     -0.21413897	      0.01284622	  33512.79157899	     -0.32720836	      0.01730097	      0.01137770	     -0.04246519	     -0.03715880	      0.04667579	      0.05496786	      0.07423030	      0.01702681
      4.19000000	  10098.30575155	  43136.99573755	  44950.06159244	     69.61493364	    -47.52329874	    -61.63735963	  15202.83228012	  35647.90271339	  46708.89174994	     13.51479097	     -6.82243248	     -0.09607503	    -16.52479875	     -6.87166364	      1.16586519	  -8837.03137797	     -0.00262052	     -6.02742233	     -0.00291555	     -0.17184665	     -1.02522797	      0.14154118	     -0.39938857	      0.53898164	      0.53132032	  11274.79084468	      0.67869267	     -0.14347026	      0.01441763	  33979.91234483	     -0.33010509	      0.01429621	      0.01104787	     -0.03894741	     -0.03414186	      0.04599760	      0.04628068	      0.06982960	      0.01658743
      4.19500000	  10043.56046414	  43142.03529629	  45236.58501376	     71.67337079	    -35.58701881	    -63.38941291	  15275.03445308	  35934.71574647	  46701.04819578	     14.05374921	     -7.08667969	     -0.07313681	    -16.04855224	     -6.64116336	      1.74349592	  -8869.54253531	     -0.00357786	     -6.22059980	     -0.00386677	     -0.17796417	     -0.92754396	      0.14989772	     -0.38893982	      0.43323144	      0.49325342	  11267.94328695	      0.65859193	     -0.07420084	      0.01391125	  34773.19838619	     -0.33291367	      0.01134150	      0.01090126	     -0.03475718	     -0.03033360	      0.04540998	      0.03785402	      0.06564195	      0.01637083
      4.20000000	   9977.94769080	  43085.08002297	  45450.98481526	     73.66613836	    -24.51487464	    -65.26392423	  15333.61162113	  36183.95907274	  46606.55098809	     14.52332320	     -7.37172327	     -0.06639831	    -15.60270121	     -6.43224826	      2.32487903	  -8837.75112305	     -0.00443643	     -6.38416351	     -0.00476837	     -0.17939056	     -0.83396148	      0.15821737	     -0.37405154	      0.32845646	      0.45497827	  11192.27604708	      0.62993251	     -0.00887485	      0.01065227	  35583.85356854	     -0.33504835	      0.00856519	      0.01089912	     -0.02995728	     -0.02576381	      0.04494803	      0.02996773	      0.06161876	      0.01641197
      4.20500000	   9953.15344425	  42651.77122850	  45366.62798895	     75.87283447	    -15.06652300	    -66.75036465	  15391.40857292	  36100.42541737	  46170.19598335	     14.89107631	     -7.65232590	     -0.07660023	    -15.19569504	     -6.26047541	      2.88230028	  -8799.81407216	     -0.00515864	     -6.50869229	     -0.00557602	     -0.17529964	     -0.74561575	      0.16646925	     -0.35399507	      0.22820543	      0.41672663	  11091.50245630	      0.59244340	      0.05034663	      0.00410959	  36094.62498975	     -0.33586545	      0.00607687	      0.01099728	     -0.02463402	     -0.02049815	      0.04464243	      0.02285706	      0.05769770	      0.01674005
      4.21000000	   9986.46184899	  42233.47352137	  45244.02945689	     77.74232724	     -7.28425646	    -68.58765514	  15512.15707943	  36032.85792512	  45683.84270065	     15.12111836	     -7.90151113	     -0.10401485	    -14.83262033	     -6.13320196	      3.39437304	  -8764.67777073	     -0.00571421	     -6.58341900	     -0.00625003	     -0.16559157	     -0.66365583	      0.17467436	     -0.32853841	      0.13491109	      0.37868872	  10990.21250767	      0.54611745	      0.10172974	     -0.00606907	  36644.65353758	     -0.33468399	      0.00396220	      0.01115452	     -0.01889134	     -0.01463601	      0.04452184	      0.01671074	      0.05381942	      0.01737397
      4.21500000	  10081.07044862	  42219.64843943	  45373.76875877	     78.70689619	     -1.12391279	    -71.46298866	  15750.41084979	  36335.19824175	  45459.24343747	     15.17595031	     -8.09151331	     -0.14848508	    -14.51506831	     -6.04988735	      3.84592504	  -8721.88853890	     -0.00608069	     -6.59664388	     -0.00675626	     -0.15079942	     -0.58910907	      0.18292243	     -0.29785240	      0.05006424	      0.34103247	  10895.33993140	      0.49121900	      0.14399094	     -0.02000444	  37597.30814486	     -0.33080822	      0.00228264	      0.01133423	     -0.01284501	     -0.00830740	      0.04461431	      0.01166672	      0.04993680	      0.01831469
      4.22000000	  10208.80248019	  42285.41499162	  45615.08786083	     78.96949291	      2.89044860	    -74.65548467	  16040.90734383	  36704.88109889	  45335.85387800	     15.01864000	     -8.19493478	     -0.20944060	    -14.24139948	     -6.00344355	      4.22659999	  -8643.09723760	     -0.00624438	     -6.53632750	     -0.00706708	     -0.13193950	     -0.52277045	      0.19137682	     -0.26239999	     -0.02557968	      0.30389625	  10772.84588118	      0.42830334	      0.17628137	     -0.03757894	  38656.93116396	     -0.32356127	      0.00107739	      0.01150307	     -0.00661798	     -0.00166985	      0.04494863	      0.00781219	      0.04601479	      0.01954284
      4.22500000	  10326.40571447	  42085.92836386	  45794.78178551	     78.78372009	      4.26163421	    -77.40836482	  16296.37846153	  36819.36422601	  45133.67446904	     14.61522618	     -8.18611118	     -0.28588456	    -14.00752690	     -5.98189106	      4.52961684	  -8493.69268877	     -0.00619848	     -6.39073646	     -0.00716241	     -0.11039104	     -0.46515207	      0.20028260	     -0.22284316	     -0.09182808	      0.26737859	  10580.94644144	      0.35824350	      0.19814423	     -0.05847493	  39497.85591958	     -0.31232989	      0.00036612	      0.01163012	     -0.00033751	      0.00509403	      0.04555634	      0.00518894	      0.04202712	      0.02102213
      4.23000000	  10339.39196931	  41902.99041872	  46040.49934942	     77.82329209	      2.96902238	    -80.26057219	  16458.95258048	  36956.45402107	  45015.53110136	     13.93711787	     -8.04257037	     -0.37634217	    -13.80798424	     -5.97009393	      4.75054603	  -8168.78088358	     -0.00594549	     -6.14900970	     -0.00702952	     -0.08781950	     -0.41647764	      0.20995983	     -0.18000284	     -0.14896064	      0.23154525	  10225.49224938	      0.28225588	      0.20946595	     -0.08222724	  40410.96882505	     -0.29660920	      0.00015218	      0.01168729	      0.00586534	      0.01177814	      0.04647142	      0.00379965	      0.03795511	      0.02270549
      4.23500000	  10185.36321456	  42002.86046206	  46455.01338792	     75.74859519	     -0.84653214	    -83.67224825	  16503.71636622	  37381.42993735	  45104.07637571	     12.96314164	     -7.74666868	     -0.47875779	    -13.63695978	     -5.95134776	      4.88619473	  -7588.48705018	     -0.00549719	     -5.80164216	     -0.00666334	     -0.06607493	     -0.37668873	      0.22077464	     -0.13485601	     -0.19767706	      0.19644852	   9634.56742695	      0.20191272	      0.21044684	     -0.10826005	  41669.48534460	     -0.27604677	      0.00042507	      0.01164979	      0.01185504	      0.01815528	      0.04772783	      0.00361073	      0.03378846	      0.02453967
      4.24000000	   9985.47985357	  41984.79794646	  46720.39595607	     72.70010781	     -7.06060128	    -86.49190313	  16494.03088432	  37702.25407965	  45049.67829855	     11.68113803	     -7.28722328	     -0.59037578	    -13.48917978	     -5.90864217	      4.93398431	  -6901.30314884	     -0.00487382	     -5.34096925	     -0.00606788	     -0.04701001	     -0.34545610	      0.23309167	     -0.08852823	     -0.23902001	      0.16214470	   8934.57928266	      0.11913104	      0.20160051	     -0.13589708	  42822.40129358	     -0.25048407	      0.00116166	      0.01149563	      0.01749236	      0.02398175	      0.04935672	      0.00455049	      0.02952633	      0.02646571
      4.24500000	   9863.61992275	  41512.89704838	  46595.82263118	     68.88085247	    -15.47021112	    -87.72490507	  16499.70968459	  37576.10177061	  44592.15481693	     10.08932111	     -6.66055742	     -0.70767700	    -13.36060650	     -5.82550882	      4.89178202	  -6272.02876820	     -0.00410347	     -4.76167842	     -0.00525595	     -0.03225679	     -0.32220690	      0.24720888	     -0.04226739	     -0.27427833	      0.12870446	   8272.82740923	      0.03614014	      0.18374877	     -0.16436412	  43468.56203720	     -0.21998262	      0.00232670	      0.01120528	      0.02263629	      0.02900364	      0.05138132	      0.00650763	      0.02517763	      0.02841819
      4.25000000	   9791.63349117	  41114.93773661	  46532.16298480	     64.19831996	    -25.70506963	    -88.57362150	  16570.52002844	  37500.37179372	  44196.04764126	      8.19749450	     -5.87114875	     -0.82638948	    -13.24886915	     -5.68653045	      4.75784230	  -5637.50532265	     -0.00322133	     -4.06130690	     -0.00424915	     -0.02306313	     -0.30616139	      0.26329991	      0.00257666	     -0.30489312	      0.09623271	   7611.41276174	     -0.04455855	      0.15797430	     -0.19280193	  44158.21186609	     -0.18484477	      0.00387414	      0.01076248	      0.02714569	      0.03296317	      0.05381046	      0.00933572	      0.02076252	      0.03032668
      4.25500000	   9730.04286042	  41279.47905578	  46947.67043809	     58.57762282	    -37.32312920	    -90.21764472	  16747.59859749	  37950.01545182	  44278.31151766	      6.02791202	     -4.93188741	     -0.94157007	    -13.15337287	     -5.47773877	      4.53075444	  -4898.74357979	     -0.00226912	     -3.24065072	     -0.00307793	     -0.02023383	     -0.29637740	      0.28139370	      0.04454898	     -0.33238783	      0.06490371	   6874.46664306	     -0.12023885	      0.12555120	     -0.22028840	  45436.29748282	     -0.14562530	      0.00574993	      0.01015605	      0.03088021	      0.03560495	      0.05663569	      0.01286258	      0.01631615	      0.03211949
      4.26000000	   9730.34274508	  41452.49430644	  47310.95712063	     52.23211369	    -49.91138399	    -91.48603114	  16993.29004126	  38391.79833097	  44299.74185082	      3.61563035	     -3.86415861	     -1.04773573	    -13.07516827	     -5.18692248	      4.20970522	  -4164.27367439	     -0.00129414	     -2.30407291	     -0.00178171	     -0.02411690	     -0.29182403	      0.30137653	      0.08207412	     -0.35835887	      0.03498807	   6140.55358557	     -0.18800804	      0.08790706	     -0.24586901	  46684.55143882	     -0.10313285	      0.00789471	      0.00938221	      0.03370070	      0.03668291	      0.05983318	      0.01689684	      0.01189194	      0.03372823
      4.26500000	   9835.98907358	  41063.46070164	  47095.28234435	     45.40173415	    -62.98304137	    -91.16082751	  17248.87174116	  38262.89250527	  43744.87767667	      1.00858277	     -2.69786400	     -1.13906624	    -13.01669620	     -4.80350917	      3.79543392	  -3573.64746575	     -0.00034819	     -1.25978012	     -0.00040909	     -0.03458491	     -0.29146669	      0.32300193	      0.11343155	     -0.38452802	      0.00686571	   5520.40206124	     -0.24487465	      0.04661719	     -0.26859931	  47235.96854413	     -0.05842483	      0.01024476	      0.00844667	      0.03546971	      0.03596831	      0.06336779	      0.02123113	      0.00756351	      0.03509379
      4.27000000	   9972.36164123	  40486.77582577	  46744.25806105	     38.07488960	    -75.87877805	    -90.10679976	  17501.34536329	  37927.26952083	  43066.55275314	     -1.73237671	     -1.47128478	     -1.20970385	    -12.98133031	     -4.31780477	      3.29178683	  -3021.23865097	      0.00051361	     -0.12010946	      0.00098182	     -0.05105606	     -0.29431833	      0.34592666	      0.13672514	     -0.41279951	     -0.01895929	   4933.40183927	     -0.28782723	      0.00337944	     -0.28758684	  47528.38653407	     -0.01279776	      0.01273193	      0.00736670	      0.03605290	      0.03325964	      0.06719800	      0.02564884	      0.00342744	      0.03617238
      4.27500000	  10052.62184995	  40182.46078231	  46765.19110169	     30.27652384	    -87.88748333	    -89.44529781	  17748.88171944	  37847.59013772	  42767.23759407	     -4.53340314	     -0.23074969	     -1.25411973	    -12.97260966	     -3.71997778	      2.70720792	  -2347.65642996	      0.00123383	      1.09819709	      0.00232315	     -0.07259688	     -0.29946520	      0.36977343	      0.14987679	     -0.44527845	     -0.04184892	   4247.98220685	     -0.31392436	     -0.04004700	     -0.30201580	  48124.55233481	      0.03222784	      0.01528472	      0.00617308	      0.03532241	      0.02839417	      0.07128166	      0.02993599	     -0.00039381	      0.03693878
      4.28000000	  10059.96650102	  40010.42188118	  46905.21573056	     22.37219216	    -98.42636309	    -89.17288301	  17946.50178225	  37896.66363317	  42600.29254943	     -7.30763801	      0.96980052	     -1.26749431	    -12.99340799	     -2.99943065	      2.05550653	  -1560.82728878	      0.00175327	      2.37377260	      0.00353718	     -0.09807155	     -0.30610752	      0.39419324	      0.15064632	     -0.48427442	     -0.06103967	   3459.35326787	     -0.32038764	     -0.08190725	     -0.31116712	  48840.74973080	      0.07492922	      0.01783148	      0.00491144	      0.03316230	      0.02126051	      0.07558221	      0.03389287	     -0.00375221	      0.03738832
      4.28500000	  10017.05342716	  39795.11206527	  46862.76593045	     14.77459621	   -106.80752301	    -89.16001143	  18076.88970655	  37900.83477303	  42269.83446597	     -9.95562114	      2.06925732	     -1.24603933	    -13.04548366	     -2.14472713	      1.35569776	   -728.28485937	      0.00201132	      3.68056714	      0.00453641	     -0.12629808	     -0.31363084	      0.41891312	      0.13663641	     -0.53232451	     -0.07565620	   2618.92518477	     -0.30469401	     -0.12050882	     -0.31444796	  49426.74527147	      0.11341174	      0.02030453	      0.00364234	      0.02947455	      0.01181103	      0.08007464	      0.03734369	     -0.00647684	      0.03754016
      4.29000000	  10039.66681646	  39814.27632580	  46932.27263413	      7.70664431	   -111.95986472	    -89.85875583	  18308.16227652	  38118.64986433	  42027.47005396	    -12.36649918	      2.99982190	     -1.18718847	    -13.12949379	     -1.14383015	      0.63105016	     90.81409810	      0.00194599	      4.98804427	      0.00522415	     -0.15621217	     -0.32170006	      0.44376726	      0.10528650	     -0.59221108	     -0.08472414	   1795.28983513	     -0.26466587	     -0.15428697	     -0.31140543	  50209.39315617	      0.14564839	      0.02264370	      0.00243954	      0.02418487	      0.00007399	      0.08474945	      0.04014592	     -0.00837750	      0.03743903
      4.29500000	  10205.50018999	  40275.99122646	  47379.17649141	      1.33799917	   -112.72957679	    -91.59031810	  18763.28738316	  38751.03077111	  42098.01369909	    -14.41990883	      3.68767377	     -1.08963179	    -13.24509927	      0.01545067	     -0.09240860	    880.18439156	      0.00149361	      6.26159139	      0.00549546	     -0.18704528	     -0.33035664	      0.46870636	      0.05392003	     -0.66692304	     -0.08720417	   1013.64311547	     -0.19853790	     -0.18187268	     -0.30169166	  51466.12259327	      0.16952251	      0.02479867	      0.00138599	      0.01724811	     -0.01383698	      0.08961302	      0.04219846	     -0.00925017	      0.03714942
      4.30000000	  10351.35522375	  40671.47269620	  47774.57170818	     -4.19961537	   -108.16843885	    -93.57196531	  19180.12644927	  39323.80368478	  42110.60011271	    -15.98846492	      4.05409464	     -0.95318257	    -13.39085162	      1.34474486	     -0.78759274	   1669.35290542	      0.00058801	      7.46315522	      0.00523848	     -0.21849872	     -0.34009836	      0.49377849	     -0.02013394	     -0.75954683	     -0.08205039	    226.89427816	     -0.10497410	     -0.20214042	     -0.28498078	  52609.64175786	      0.18287069	      0.02673040	      0.00056775	      0.00865374	     -0.02971859	      0.09468349	      0.04344517	     -0.00888410	      0.03674151
      4.30500000	  10320.71673280	  40519.14172071	  47704.67304147	     -8.74665340	    -97.27512816	    -95.13852628	  19299.96058796	  39383.74152335	  41720.72986609	    -16.94118903	      4.01755825	     -0.77845123	    -13.56397250	      2.85416431	     -1.42793273	   2447.23922752	     -0.00084069	      8.55226633	      0.00433635	     -0.25089696	     -0.35192292	      0.51909174	     -0.11938217	     -0.87310641	     -0.06826932	   -571.41990415	      0.01696458	     -0.21423007	     -0.26085919	  53056.28664058	      0.18353437	      0.02841227	      0.00006742	     -0.00156973	     -0.04728070	      0.09998383	      0.04387366	     -0.00706712	      0.03627206
      4.31000000	  10222.38414830	  40177.47717031	  47487.09754827	    -11.97035683	    -78.74812020	    -97.27359639	  19298.76653525	  39276.02344758	  41197.55630824	    -17.14809806	      3.49736572	     -0.56632303	    -13.76020734	      4.55118541	     -1.98877734	   3182.25685372	     -0.00286762	      9.48755104	      0.00266982	     -0.28533279	     -0.36731329	      0.54479067	     -0.24598982	     -1.01037173	     -0.04497379	  -1339.40544360	      0.16787491	     -0.21754639	     -0.22871428	  53230.18282313	      0.16943316	      0.02982974	     -0.00004168	     -0.01335136	     -0.06615470	      0.10553609	      0.04351112	     -0.00358965	      0.03576403
      4.31500000	  10195.92016862	  40083.92291371	  47510.71654914	    -13.56801943	    -51.29311013	   -100.93513338	  19406.02576356	  39426.37773677	  40854.87160761	    -16.48578656	      2.41894178	     -0.31728234	    -13.97359863	      6.43945869	     -2.44886178	   3869.64406816	     -0.00557456	     10.22865852	      0.00012030	     -0.32378354	     -0.38815668	      0.57105413	     -0.40159756	     -1.17364862	     -0.01142724	  -2059.55473107	      0.34804761	     -0.21173149	     -0.18764838	  53673.36330817	      0.13866340	      0.03097719	      0.00030033	     -0.02657416	     -0.08590381	      0.11135833	      0.04241662	      0.00175173	      0.03518963
      4.32000000	  10226.62962172	  40123.68939657	  47655.96199832	    -13.45710694	    -13.98035106	   -105.50778315	  19581.72301857	  39730.64417609	  40575.96294900	    -14.84364270	      0.72032836	     -0.03068404	    -14.19594761	      8.51756618	     -2.79192080	   4487.05967698	     -0.00905084	     10.73851130	     -0.00342664	     -0.36912941	     -0.41661496	      0.59808682	     -0.58718114	     -1.36456173	      0.03295125	  -2717.17637418	      0.55744611	     -0.19660799	     -0.13643044	  54251.01279680	      0.08961372	      0.03185257	      0.00113743	     -0.04107144	     -0.10603156	      0.11746207	      0.04066838	      0.00915443	      0.03445968
      4.32500000	  10264.82394930	  40098.92265469	  47733.08371078	    -11.58447031	     34.09868707	   -109.99763257	  19731.29483247	  40004.14683088	  40194.24247186	    -12.13031849	     -1.64079286	      0.29588596	    -14.41607913	     10.77766207	     -3.00814806	   5007.61527150	     -0.01339260	     10.98587013	     -0.00807745	     -0.42506727	     -0.45497021	      0.62610281	     -0.80296660	     -1.58385304	      0.08861676	  -3295.47991114	      0.79561522	     -0.17210061	     -0.07347398	  54720.16061643	      0.02108049	      0.03245352	      0.00249612	     -0.05662300	     -0.12598798	      0.12385045	      0.03834789	      0.01881322	      0.03341715
      4.33000000	  10268.06809021	  40004.04003447	  47754.88387037	     -7.68615457	     94.25099434	   -113.72353155	  19810.67933262	  40257.55976900	  39724.45999901	     -8.28029338	     -4.68006122	      0.66702249	    -14.61907870	     13.20403732	     -3.09518378	   5461.00056017	     -0.01869993	     10.94818804	     -0.01392669	     -0.49597619	     -0.50547232	      0.65531866	     -1.04834536	     -1.83123523	      0.15590565	  -3825.45900419	      1.06153440	     -0.13815390	      0.00317003	  55083.87121792	     -0.06762982	      0.03277612	      0.00438351	     -0.07295061	     -0.14517604	      0.13051868	      0.03552512	      0.03091985	      0.03183123
      4.33500000	  10214.31285973	  39856.53164497	  47774.04253496	     -1.77274057	    167.44891113	   -116.50101181	  19802.64066371	  40523.73300553	  39213.59278331	     -3.26072825	     -8.37982081	      1.08957004	    -14.78535771	     15.77186811	     -3.05865692	   5866.72858705	     -0.02507099	     10.61460890	     -0.02105287	     -0.58675416	     -0.57020510	      0.68595578	     -1.32175581	     -2.10532496	      0.23498510	  -4327.78104320	      1.35342489	     -0.09465904	      0.09579550	  55381.49366372	     -0.17661271	      0.03281501	      0.00678410	     -0.08971294	     -0.16296085	      0.13745643	      0.03224634	      0.04565358	      0.02939247
      4.34000000	  10143.99442248	  39570.59423880	  47758.76216041	      4.94319863	    253.30241747	   -120.07552857	  19728.66707759	  40717.42129211	  38627.55722717	      2.92121855	    -12.68366465	      1.57222963	    -14.88946789	     18.44648248	     -2.91237394	   6144.28039663	     -0.03259217	      9.98890895	     -0.02951381	     -0.70260876	     -0.65095215	      0.71825917	     -1.62058157	     -2.40365425	      0.32576881	  -4728.94927999	      1.66850963	     -0.04137365	      0.20697324	  55527.87919895	     -0.30528678	      0.03256361	      0.00965589	     -0.10650128	     -0.17868250	      0.14465366	      0.02852195	      0.06316394	      0.02571446
      4.34500000	  10127.51307365	  39091.55744936	  47709.84740375	     12.09738274	    351.64731232	   -124.13836142	  19647.24501756	  40779.54096549	  37957.30402332	     10.21078542	    -17.49304806	      2.12457806	    -14.89866270	     21.18329655	     -2.67795083	   6198.63499855	     -0.04132336	      9.09221437	     -0.03934058	     -0.84879420	     -0.74905297	      0.75253674	     -1.94113765	     -2.72277619	      0.42783223	  -4941.09061016	      2.00273699	      0.02218043	      0.33940906	  55484.19583512	     -0.45231616	      0.03201455	      0.01292766	     -0.12283828	     -0.19167535	      0.15211133	      0.02431209	      0.08354915	      0.02034629
      4.35000000	  10177.77049388	  38928.65041174	  47785.15692835	     24.01336123	    465.32078985	   -118.40507422	  19674.24367485	  41228.92620978	  37269.61690236	     18.49792780	    -22.66659266	      2.75541333	    -14.77098589	     23.92847915	     -2.38366036	   6230.42862283	     -0.05122948	      7.96531149	     -0.05052873	     -1.03030709	     -0.86527977	      0.78919429	     -2.27876587	     -3.05849659	      0.54033049	  -5156.57289317	      2.35050536	      0.09681741	      0.49571806	  55795.23368785	     -0.61551753	      0.03116070	      0.01649931	     -0.13818581	     -0.20129754	      0.15985252	      0.01951284	      0.10683152	      0.01279799
      4.35500000	  10480.97679284	  38829.94133257	  48245.28827022	     41.64585518	    594.21774975	   -100.05644075	  19959.28184366	  41828.23678545	  36790.46975729	     27.60968858	    -28.02235999	      3.47038039	    -14.45304059	     26.62066738	     -2.06257636	   5962.20485256	     -0.06200541	      6.67027977	     -0.06302350	     -1.25157733	     -0.99973986	      0.82875502	     -2.62802366	     -3.40621730	      0.66191467	  -5113.69890619	      2.70445371	      0.18374741	      0.67812716	  56362.74155793	     -0.79173629	      0.02999627	      0.02024446	     -0.15196676	     -0.20697512	      0.16792979	      0.01394755	      0.13292992	      0.00257759
      4.36000000	  10327.91066164	  39719.36377612	  48583.61953598	     47.81172818	    724.64954889	   -105.87674202	  19954.34988310	  43554.92979245	  36002.99706279	     37.30780453	    -33.28760313	      4.26158142	    -13.87824672	     29.19406458	     -1.75034911	   6437.24174280	     -0.07357816	      5.29310224	     -0.07624853	     -1.51619003	     -1.15177401	      0.87186472	     -2.98296426	     -3.76132595	      0.79066771	  -5807.99760274	      3.05508931	      0.28456485	      0.88814136	  57726.12623076	     -0.97490837	      0.02851784	      0.02401498	     -0.16356947	     -0.20829077	      0.17642654	      0.00736640	      0.16163331	     -0.01076331
      4.36500000	  12298.00483654	  33200.62016330	  50165.47441525	     37.70483713	    851.08517767	   -144.84964241	  20688.81942928	  38019.84362062	  37340.20905939	     47.27365478	    -38.23075533	      5.11827686	    -12.96618925	     31.58275851	     -1.48296553	   1663.13313760	     -0.08573911	      3.93790981	     -0.09005087	     -1.82665992	     -1.31986409	      0.91927392	     -3.33750401	     -4.11954754	      0.92407860	  -1610.38905647	      3.39183107	      0.40113550	      1.12621429	  53203.75789814	     -1.15991817	      0.02672580	      0.02764730	     -0.17241000	     -0.20501102	      0.18544971	     -0.00054178	      0.19257805	     -0.02758017
      4.37000000	  10040.22695963	  39077.08663348	  49048.02505748	     74.38295004	   1015.56261415	    -74.29803595	  19441.10192962	  44920.24770696	  34330.06365792	     57.11237325	    -42.58299589	      6.01303164	    -11.62296627	     33.72591280	     -1.29469643	   6090.89016225	     -0.09823505	      2.72790372	     -0.10411762	     -2.18429813	     -1.50161653	      0.97180965	     -3.68580661	     -4.47720273	      1.05904017	  -6130.68022122	      3.70293783	      0.53538543	      1.39147423	  58253.98969513	     -1.33955703	      0.02462678	      0.03096893	     -0.17798620	     -0.19721086	      0.19511828	     -0.01012463	      0.22522962	     -0.04809009
      4.37500000	  65326.35354612	-124653.45061019	  80105.67276102	    203.06538463	   1236.56880628	    223.57932839	  44923.79485902	-114306.75183146	  91395.15852878	     66.35838269	    -46.07627372	      6.90154133	     -9.74252228	     35.57359506	     -1.21638722	-115027.94907666	     -0.11076934	      1.79701414	     -0.11808765	     -2.58919336	     -1.69384530	      1.03033758	     -4.02260703	     -4.83137413	      1.19187659	 106122.90833981	      3.97613470	      0.68902940	      1.68157958	 -64693.34478829	     -1.50523230	      0.02223683	      0.03380524	     -0.17995243	     -0.18530130	      0.20554936	     -0.02173269	      0.25887578	     -0.07234030
      4.38000000	 229755.33074751	-658601.45800243	 175779.76488358	    329.97202281	   1392.19543296	    616.09787264	 113775.94069251	-625911.78120165	 295121.83103165	     74.49920758	    -48.46596646	      7.72240498	     -7.20964326	     37.09284660	     -1.27413653	-492546.39690754	     -0.12328376	      1.27612180	     -0.13154881	     -3.04025497	     -1.89269077	      1.09568182	     -4.34349234	     -5.17996723	      1.31846941	 453743.51618024	      4.19895493	      0.86327371	      1.99273778	-462332.64570644	     -1.64720457	      0.01958379	      0.03598904	     -0.17820189	     -0.16999238	      0.21683611	     -0.03568299	      0.29264444	     -0.10019301
      4.38500000	 297806.41334822	-936991.49751480	 225980.94227968	    365.14581768	   1391.64901377	    889.29887888	 134636.12191051	-876442.15109859	 427140.71544561	     81.03626269	    -49.46897958	      8.38124015	     -3.90517134	     38.27349305	     -1.48802839	-669484.49622279	     -0.13570324	      1.26969014	     -0.14489030	     -3.53526114	     -2.09373415	      1.16851329	     -4.64516369	     -5.52160646	      1.43451853	 612067.72299982	      4.35849060	      1.05853303	      2.31985162	-658564.29620541	     -1.75226528	      0.01670582	      0.03737177	     -0.17292034	     -0.15222482	      0.22901964	     -0.05222410	      0.32554813	     -0.13132180
      4.39000000	 300624.41935339	-693012.67104264	 186760.27154120	    372.68176433	   1409.84146834	    755.34227126	 181907.28554089	-643579.94320513	 331418.39156305	     85.51092233	    -48.98273576	      8.79080173	      0.28654071	     39.13289185	     -1.87076096	-567409.10993842	     -0.14606279	      1.83890600	     -0.15645635	     -4.07090761	     -2.29216012	      1.24923519	     -4.92560629	     -5.85535326	      1.53586604	 521196.51130393	      4.44348775	      1.27419812	      2.65675458	-463125.34385064	     -1.81088603	      0.01364569	      0.03783164	     -0.16451373	     -0.13299003	      0.24206288	     -0.07150461	      0.35654130	     -0.16521863
      4.39500000	 261419.95588866	-155459.82977878	  80812.36020410	    396.23878353	   1607.71063984	    264.97861959	 234425.32069545	-159731.21338389	  64884.62242991	     87.56976406	    -47.07779520	      8.88161897	      5.46764658	     39.71791889	     -2.42667750	-308551.94478248	     -0.15336201	      2.98713881	     -0.16448734	     -4.64286607	     -2.48299118	      1.33787021	     -5.18408520	     -6.18032159	      1.61879608	 295016.08614550	      4.44509079	      1.50846511	      2.99650033	 -73332.60630954	     -1.81731501	      0.01044570	      0.03727840	     -0.15358166	     -0.11322304	      0.25582889	     -0.09354451	      0.38457720	     -0.20121120
      4.40000000	  20212.13552306	-751729.13037660	 224446.44632186	    243.50641377	   1824.09566391	    898.55457232	 -96835.75597073	-607856.93108815	 493169.04540049	     87.03252652	    -43.92576611	      8.59884591	     11.71400052	     40.10228164	     -3.15145376	-324641.53541134	     -0.15623991	      4.64798854	     -0.16788883	     -5.24582844	     -2.66132128	      1.43399679	     -5.42096358	     -6.49528376	      1.68030737	 265876.21650755	      4.35750341	      1.75825657	      3.33162870	-474215.49064268	     -1.76814945	      0.00714701	      0.03565858	     -0.14081975	     -0.09372919	      0.27007146	     -0.11821033	      0.40866337	     -0.23848164
      4.40500000	-482102.85171661	-3381399.77932060	1014453.81870746	   -233.68672901	   1879.90051245	   3586.15919934	-983841.15361069	-2563304.68996682	2457050.33070739	     83.93557747	    -39.61679909	      7.86310617	     19.06033164	     40.37838515	     -4.03190172	-908126.90342469	     -0.15378911	      6.70041634	     -0.16423668	     -5.87346497	     -2.82249768	      1.53676507	     -5.63741906	     -6.79829507	      1.71840627	 629278.34411431	      4.17876294	      2.01929568	      3.65436257	-2079515.56921511	     -1.65773661	      0.00378952	      0.03296185	     -0.12697110	     -0.07523530	      0.28444529	     -0.14520169	      0.42792216	     -0.27608060
      4.41000000	-905987.00964885	-5324676.35620419	1877479.11468070	   -772.58906832	   1845.10319177	   5626.73003586	-1650855.99224852	-3758362.17510987	4282792.12897925	     78.50108116	    -34.71546483	      6.73997328	     27.48516592	     40.64427319	     -5.04547988	-1281235.23624687	     -0.14895015	      8.95285932	     -0.15689881	     -6.51825850	     -2.96230601	      1.64493036	     -5.83517438	     -7.08631142	      1.73244173	 792616.62730824	      3.91374675	      2.28637287	      3.95681800	-3001285.53122159	     -1.49746711	      0.00040729	      0.02922647	     -0.11251631	     -0.05802362	      0.29852954	     -0.17405878	      0.44166031	     -0.31294897
      4.41500000	-1000699.67798462	-4124598.96594518	1582583.49906412	  -1058.49082004	   1824.65017783	   4551.15067143	-1541763.60069054	-2692352.21135467	3602839.56490781	     71.13888219	    -29.72795450	      5.32672772	     36.89769118	     40.98704509	     -6.15976132	-701057.59919684	     -0.14223397	     11.19115939	     -0.14710824	     -7.17129682	     -3.07725822	      1.75685944	     -6.01628525	     -7.35482745	      1.72342602	 293427.13613749	      3.57275948	      2.55380495	      4.23134589	-2166732.93513381	     -1.29984447	     -0.00297955	      0.02454103	     -0.09790513	     -0.04224291	      0.31185977	     -0.20419612	      0.44944235	     -0.34796581
      4.42000000	-789684.48859664	-1920352.93912753	 858678.59912473	   -981.42784391	   1812.01495297	   2448.42673202	-1018714.14867775	-1092143.33707132	1903902.55832520	     62.40076027	    -24.97392937	      3.71048233	     47.12917903	     41.46482837	     -7.33220298	 -24106.08951387	     -0.13411447	     13.19687476	     -0.13577304	     -7.82212648	     -3.16499321	      1.87053727	     -6.18295896	     -7.59763769	      1.69423849	-188979.85203197	      3.17022757	      2.81603130	      4.47099786	-895230.77973210	     -1.07499476	     -0.00637151	      0.01904240	     -0.08350388	     -0.02796691	      0.32397087	     -0.23495710	      0.45115414	     -0.38002268
      4.42500000	-396988.30775827	-1290539.29002238	 587566.88333914	   -547.99053699	   1783.99787080	   1769.90753315	-541547.22293178	-701857.32749280	1279949.95883068	     52.90459065	    -20.79882316	      2.03629185	     57.93139836	     42.08975394	     -8.51038195	-137476.19902222	     -0.12339712	     14.78509987	     -0.12209118	     -8.45868958	     -3.22467037	      1.98358991	     -6.33741775	     -7.80676905	      1.64965198	  -9092.61958736	      2.72554368	      3.06820979	      4.67000100	-569188.90504116	     -0.83804636	     -0.00979219	      0.01291039	     -0.06952064	     -0.01517566	      0.33444461	     -0.26567360	      0.44704151	     -0.40810698
      4.43000000	  -4426.34451902	-1507324.53044862	 514586.02369627	    -26.46076412	   1759.76134863	   1855.88087263	-173592.11740843	-915990.76625272	1273563.34339343	     43.26633268	    -17.57818871	      0.51614599	     68.98365800	     42.81500311	     -9.63312527	-571014.04785564	     -0.11031876	     15.83464717	     -0.10606170	     -9.06739164	     -3.25721230	      2.09332633	     -6.48180275	     -7.97258082	      1.59615854	 427959.32516442	      2.26193621	      3.30663633	      4.82414764	-752885.57329670	     -0.60893515	     -0.01328518	      0.00635986	     -0.05610494	     -0.00381508	      0.34294991	     -0.29571147	      0.43771534	     -0.43137914
      4.43500000	 249821.72946495	-1335457.66387584	 376492.45544141	    317.85736445	   1757.26433824	   1593.58207868	 105609.07272337	-839142.33743585	1028917.71318892	     34.06420818	    -15.37958802	     -0.71545201	     79.90979727	     43.53008754	    -10.63320847	-732975.58945438	     -0.09550204	     16.27826322	     -0.08847022	     -9.63346422	     -3.26528482	      2.19685191	     -6.61806840	     -8.08412663	      1.54156803	 620583.38101153	      1.80201252	      3.52886536	      4.93104279	-701102.68520351	     -0.39990801	     -0.01690376	     -0.00036833	     -0.04342144	      0.00607013	      0.34927367	     -0.32449032	      0.42411896	     -0.44923328
      4.44000000	 378264.82241174	-962233.10696754	 247662.13587855	    493.07479374	   1746.42429457	   1167.71163150	 280928.07858212	-604132.03274291	 689329.47732521	     25.80325408	    -14.00623763	     -1.62290772	     90.30611379	     44.06858232	    -11.44195379	-710397.46486285	     -0.08037376	     16.11220069	     -0.07068719	    -10.14175315	     -3.25291449	      2.29130791	     -6.74785963	     -8.12992616	      1.49437559	 634358.98152387	      1.36602786	      3.73351420	      4.99015861	-507904.34824598	     -0.21543566	     -0.02069322	     -0.00701594	     -0.03166408	      0.01432257	      0.35334417	     -0.35147914	      0.40745703	     -0.46133036
      4.44500000	 418430.19392134	-812186.65355544	 190223.15617159	    565.49368203	   1697.48073463	    972.14067692	 342630.00699537	-501343.42398432	 556030.06637136	     18.84333321	    -13.50809170	     -2.06442240	     99.77957886	     44.23044006	    -11.99572415	-689991.40364266	     -0.06658967	     15.37909978	     -0.05484907	    -10.57791069	     -3.22468505	      2.37420973	     -6.87235767	     -8.09914600	      1.46292076	 629747.81230752	      0.97447434	      3.91980788	      5.00269139	-431396.99586429	     -0.06911293	     -0.02466918	     -0.01331631	     -0.02093497	      0.02089549	      0.35524008	     -0.37617713	      0.38908555	     -0.46759838
      4.45000000	 395479.90444858	-825995.03283900	 175988.40669811	    562.80607121	   1628.53813977	    940.19608846	 325542.85798652	-490113.42341981	 575449.74716460	     13.42134316	    -13.65365629	     -2.03675013	    107.99382441	     43.81821356	    -12.24425946	-670790.12575008	     -0.05443104	     14.17169511	     -0.04137694	    -10.92989544	     -3.18452537	      2.44382396	     -6.99205170	     -7.98299139	      1.45440694	 613459.90788178	      0.64202005	      4.08693672	      4.97126732	-442220.00154016	      0.03643561	     -0.02879581	     -0.01900567	     -0.01142606	      0.02563332	      0.35517717	     -0.39808817	      0.37036931	     -0.46820263
      4.45500000	 333246.82748476	-866473.15874167	 182047.94908046	    502.31094723	   1562.28982022	    936.26541963	 268499.25457091	-480699.71081469	 637550.10383025	      9.64373746	    -14.13898681	     -1.60895221	    114.71678119	     42.68226587	    -12.15973452	-626186.12158293	     -0.04436089	     12.61230095	     -0.03084108	    -11.18956016	     -3.13431613	      2.49951823	     -7.10648277	     -7.77601866	      1.47395847	 567464.26481183	      0.37790782	      4.23335891	      4.89955916	-457845.57999895	      0.10350364	     -0.03296736	     -0.02383649	     -0.00334759	      0.02839135	      0.35347482	     -0.41670018	      0.35253068	     -0.46349442
      4.46000000	 247054.80875634	-967883.67648490	 214029.22265850	    398.59663700	   1492.79256472	   1009.43229197	 185206.58144276	-489758.19211861	 766862.11713597	      7.45851833	    -14.73812620	     -0.85864121	    119.85388298	     40.75923273	    -11.74306308	-582989.20583716	     -0.03622272	     10.84301706	     -0.02309477	    -11.35377700	     -3.07307515	      2.54188864	     -7.21416121	     -7.47703801	      1.52402362	 516527.00725539	      0.18633241	      4.35638613	      4.79188157	-496654.27120768	      0.13487440	     -0.03700415	     -0.02759185	      0.00313562	      0.02911602	      0.35050833	     -0.43149216	      0.33653306	     -0.45395132
      4.46500000	 148875.34729736	-1172820.68215904	 278428.13524642	    266.12081142	   1411.67778185	   1209.73120778	  86813.93670921	-534004.10835234	 997226.28572878	      6.66661908	    -15.34750640	      0.15672550	    123.44826555	     38.08256887	    -11.02384388	-567905.61406496	     -0.02939075	      9.01328020	     -0.01742541	    -11.42451181	     -2.99758142	      2.57244983	     -7.31289106	     -7.08931779	      1.60441245	 485120.10582453	      0.06689425	      4.45241820	      4.65282112	-581121.97657522	      0.13249878	     -0.04067424	     -0.03009869	      0.00794159	      0.02786878	      0.34665229	     -0.44198529	      0.32303976	     -0.44012032
      4.47000000	  48685.87266039	-1372063.21182910	 345228.70655196	    122.89440979	   1331.10535737	   1406.90996809	  -9422.80324880	-561797.35608667	1228191.90377211	      7.01455878	    -15.83429184	      1.32837042	    125.64985470	     34.76255987	    -10.05448186	-550515.29411064	     -0.02384108	      7.25846096	     -0.01364927	    -11.40792194	     -2.90420133	      2.59302800	     -7.40044038	     -6.62009567	      1.71292244	 451277.57302769	      0.01426024	      4.51772647	      4.48695667	-658553.41506618	      0.10284713	     -0.04373288	     -0.03123586	      0.01102931	      0.02476337	      0.34223142	     -0.44781640	      0.31244889	     -0.42257002
      4.47500000	 -41192.13834797	-1448872.39346568	 375405.85183922	     -8.43868874	   1265.67571888	   1470.55150010	 -88458.86228193	-537825.63306198	1343269.32258739	      8.21676300	    -16.11367282	      2.54867715	    126.67343396	     30.95434581	     -8.90236393	-498195.65286075	     -0.01949458	      5.69040096	     -0.01148443	    -11.31312032	     -2.79071902	      2.60525336	     -7.47514941	     -6.07973837	      1.84614756	 392528.86396049	      0.01988007	      4.54929384	      4.29872664	-680895.52789238	      0.05317962	     -0.04595876	     -0.03093618	      0.01243249	      0.01999691	      0.33749735	     -0.44879447	      0.30496302	     -0.40185952
      4.48000000	 -98085.58740342	-1443921.60204201	 376813.68718272	    -89.69460876	   1220.42945857	   1450.59741966	-132290.58282866	-489993.65545173	1368835.93357978	      9.99929390	    -16.09389475	      3.69214266	    126.76047210	     26.83003504	     -7.64284342	-446432.03476242	     -0.01588727	      4.38902072	     -0.01021300	    -11.15107358	     -2.65734174	      2.61033826	     -7.53615763	     -5.48091228	      2.00009199	 341501.33586761	      0.07271869	      4.54539569	      4.09244786	-670545.89692030	     -0.00720129	     -0.04717816	     -0.02918716	      0.01223810	      0.01381765	      0.33262984	     -0.44492648	      0.30064954	     -0.37853022
      4.48500000	-106720.55554117	-1423125.63078826	 368148.46347751	    -94.69374223	   1196.17477570	   1421.08522423	-128668.95505401	-444845.45010795	1360960.41378108	     12.11059469	    -15.81612020	      4.71285040	    126.15033664	     22.55995815	     -6.35360004	-433919.03609969	     -0.01335603	      3.40413908	     -0.01007231	    -10.93374083	     -2.50676438	      2.60909294	     -7.58325980	     -4.83794059	      2.17048320	 331423.47724722	      0.16197288	      4.50589440	      3.87243812	-656862.25086715	     -0.07382912	     -0.04727813	     -0.02603196	      0.01062335	      0.00657076	      0.32775144	     -0.43642133	      0.29947619	     -0.35311774
      4.49000000	 -90625.35666974	-1381370.04732743	 350057.75973182	    -60.67146311	   1186.20464836	   1372.70770762	-101380.06542569	-399620.18843136	1322585.20546949	     14.34943516	    -15.28274920	      5.54895981	    125.06289697	     18.30272805	     -5.11002779	-436478.24931200	     -0.01177857	      2.75446551	     -0.01073374	    -10.67342930	     -2.34351028	      2.60210204	     -7.61656861	     -4.16633770	      2.35287401	 338258.02092587	      0.27629388	      4.43229442	      3.64317296	-636599.79645954	     -0.14058362	     -0.04620955	     -0.02156783	      0.00779021	     -0.00139695	      0.32295152	     -0.42367838	      0.30132950	     -0.32617345
      4.49500000	 -76836.18639408	-1306182.59654992	 322061.72742547	    -31.37031219	   1182.29704464	   1287.91835023	 -77794.21120463	-349874.10236898	1251283.26261463	     16.56386176	    -14.51336619	      6.16009163	    123.68974411	     14.20087846	     -3.98089640	-423934.97439085	     -0.01096843	      2.43317743	     -0.01189823	    -10.38229284	     -2.17293764	      2.58994716	     -7.63617980	     -3.48238475	      2.54265250	 332471.03035065	      0.40513841	      4.32761700	      3.40937510	-603170.25277055	     -0.20249819	     -0.04398371	     -0.01594102	      0.00396397	     -0.00973329	      0.31831058	     -0.40726328	      0.30602181	     -0.29828064
      4.50000000	 -67696.00297089	-1227211.80264157	 293777.82251403	    -13.56765479	   1177.69658956	   1199.97055773	 -60541.45292632	-303394.26977361	1176606.74725142	     18.64827394	    -13.54139428	      6.52785827	    122.19009505	     10.37896169	     -3.02369162	-405372.48875202	     -0.01075602	      2.41375802	     -0.01332235	    -10.07189503	     -2.00028922	      2.57335959	     -7.64199410	     -2.80264783	      2.73505150	 320654.55516675	      0.53928223	      4.19616525	      3.17594691	-568702.66756962	     -0.25596101	     -0.04066666	     -0.00933840	     -0.00061834	     -0.01810129	      0.31391439	     -0.38787572	      0.31328852	     -0.27005165
      4.50500000	 -59824.13622173	-1174001.24728155	 273081.66447170	     -4.66266712	   1167.20391615	   1143.29217969	 -45756.33967996	-266153.04339957	1125937.75534539	     20.53759429	    -12.40927410	      6.65347166	    120.69052085	      6.94297307	     -2.27954562	-395372.82220105	     -0.01099197	      2.65581149	     -0.01481933	     -9.75281023	     -1.82999746	      2.55328011	     -7.63377491	     -2.14348695	      2.92523839	 315159.93230199	      0.67109647	      4.04324702	      2.94775701	-545844.53482018	     -0.29870377	     -0.03637241	     -0.00197427	     -0.00572013	     -0.02619576	      0.30986000	     -0.36631365	      0.32278725	     -0.24210371
      4.51000000	 -51322.03248054	-1135245.01192869	 256625.95939918	     -1.82644044	   1150.24451379	   1106.40295531	 -31206.41319505	-234294.23756793	1088107.32808465	     22.20542224	    -11.15186132	      6.54539528	    119.28806814	      3.98050077	     -1.76775412	-391456.34552557	     -0.01163480	      3.10986182	     -0.01634526	     -9.43428239	     -1.66535406	      2.53084109	     -7.61143298	     -1.52067419	      3.10851759	 314416.02276924	      0.79453034	      3.87489341	      2.72936781	-529473.81512368	     -0.32911318	     -0.03125537	      0.00592807	     -0.01112006	     -0.03376090	      0.30625700	     -0.34343624	      0.33411054	     -0.21502322
      4.51500000	 -41033.91981179	-1094292.01132627	 240042.08167971	     -1.86358249	   1128.50027720	   1070.80698612	 -15841.33118113	-204089.57916580	1046970.52093275	     23.63857714	     -9.83785073	      6.24578335	    118.05454504	      1.56054660	     -1.48064800	-388246.04097688	     -0.01253871	      3.72372186	     -0.01773933	     -9.12399466	     -1.50860016	      2.50726844	     -7.57547477	     -0.94923097	      3.28061959	 314314.83063313	      0.90546329	      3.69755452	      2.52475030	-512089.47295728	     -0.34803596	     -0.02550388	      0.01415685	     -0.01660205	     -0.04057384	      0.30321973	     -0.32012179	      0.34681131	     -0.18932468
      4.52000000	 -29334.74445749	-1053420.80199179	 222934.02040473	     -0.23052343	   1107.76664067	   1035.98395508	     -5.71794858	-176809.78367449	1004568.08794153	     24.84851245	     -8.51966901	      5.79399208	    117.04000590	     -0.26822493	     -1.38266807	-386111.28920978	     -0.01359227	      4.44479139	     -0.01894187	     -8.82799533	     -1.36136805	      2.48371383	     -7.52752756	     -0.44347421	      3.43804199	 315338.81616367	      1.00117191	      3.51772710	      2.33699459	-495417.30117897	     -0.35644282	     -0.01933132	      0.02252767	     -0.02197793	     -0.04647372	      0.30084912	     -0.29721653	      0.36043291	     -0.16540533
      4.52500000	 -17060.75844999	-1018273.90899886	 205864.64184702	      6.30309821	   1092.98870456	   1005.53912430	  15689.49324982	-153798.16894790	 966452.68486105	     25.85815963	     -7.24892338	      5.23442644	    116.27611939	     -1.48106411	     -1.41818441	-386404.71282928	     -0.01472358	      5.22349161	     -0.01993182	     -8.55076861	     -1.22523683	      2.46106505	     -7.47071512	     -0.01697273	      3.57836338	 318658.50398762	      1.08030785	      3.34152767	      2.16812481	-482584.40682027	     -0.35597021	     -0.01295882	      0.03088592	     -0.02708900	     -0.05135464	      0.29921368	     -0.27548040	      0.37453467	     -0.14351284
      4.53000000	  -5555.48371681	-988928.27175589	 190097.63981652	     14.35958291	   1081.46622287	    981.65060826	  30156.46060978	-133440.62857951	 933693.62999164	     26.69607202	     -6.07547513	      4.61361515	    115.78094185	     -2.08066333	     -1.52531059	-388122.34221929	     -0.01587991	      6.01533552	     -0.02071302	     -8.29544133	     -1.10212366	      2.43983619	     -7.40957329	      0.31790911	      3.70039454	 322997.29622466	      1.14268892	      3.17431905	      2.01917390	-472659.31820811	     -0.34873173	     -0.00659218	      0.03909750	     -0.03180839	     -0.05516396	      0.29834273	     -0.25554381	      0.38871127	     -0.12375441
      4.53500000	   3734.22001603	-965462.79633431	 176868.43495374	     19.58416470	   1069.77538093	    966.58806152	  42165.15288031	-114129.22096497	 907288.50666373	     27.39179777	     -5.04584888	      3.97731721	    115.56384907	     -2.09809687	     -1.64712409	-390171.53505786	     -0.01702357	      6.78229146	     -0.02130492	     -8.06412949	     -0.99438129	      2.42021079	     -7.34946736	      0.55074893	      3.80409042	 326977.01220559	      1.18905847	      3.02048625	      1.89047003	-464740.86463637	     -0.33710594	     -0.00040471	      0.04703933	     -0.03604218	     -0.05789801	      0.29823419	     -0.23788279	      0.40260700	     -0.10614330
      4.54000000	   9581.59706826	-953612.95774128	 166766.40001892	     20.43189465	   1059.19587252	    964.41014141	  50820.96299495	 -96381.95789768	 892992.90054368	     27.97245490	     -4.20072995	      3.36779638	    115.62835015	     -1.59047804	     -1.73689959	-393755.72464827	     -0.01812819	      7.49361294	     -0.02173500	     -7.85830477	     -0.90462298	      2.40216221	     -7.29577184	      0.67372685	      3.89025119	 331517.27327378	      1.22083590	      2.88333358	      1.78190081	-461934.18545889	     -0.32352001	      0.00546803	      0.05459443	     -0.03972815	     -0.05959618	      0.29886129	     -0.22280870	      0.41591482	     -0.09064727
      4.54500000	  11447.79952293	-957361.76643687	 159670.75292064	     16.84675949	   1051.85070640	    977.05543602	  55890.76603429	 -80428.74732477	 894627.62780376	     28.46068390	     -3.57222843	      2.82145272	    115.97311472	     -0.63627697	     -1.76020085	-400062.54640032	     -0.01917530	      8.12612640	     -0.02203288	     -7.67901880	     -0.83533166	      2.38553899	     -7.25309047	      0.68209687	      3.96011851	 337678.37697141	      1.23987759	      2.76502481	      1.69301861	-466707.67435601	     -0.31025121	      0.01092573	      0.06164856	     -0.04283255	     -0.06033373	      0.30016704	     -0.21046714	      0.42835467	     -0.07721560
      4.55000000	  11151.72214585	-968203.30318195	 153745.67230109	     12.05496568	   1048.53826851	    996.06895374	  58934.88039090	 -65023.02375325	 903533.31795481	     28.87462507	     -3.17987881	      2.36565301	    116.59252280	      0.67055550	     -1.69594475	-407436.76970634	     -0.02016392	      8.66397439	     -0.02223443	     -7.52699745	     -0.78836902	      2.37012733	     -7.22471861	      0.57449197	      4.01503045	 344382.59725500	      1.24823639	      2.66656528	      1.62304466	-475017.70534560	     -0.29916875	      0.01589929	      0.06808835	     -0.04534632	     -0.06021458	      0.30205684	     -0.20084613	      0.43965009	     -0.06578845
      4.55500000	  10587.39374893	-976534.29211949	 147493.14396065	      9.40360641	   1049.42247040	   1012.19943351	  61420.39003792	 -49236.57478090	 910046.22162502	     29.22809463	     -3.02932651	      2.01784043	    117.47681486	      2.22673682	     -1.53659141	-413747.10013182	     -0.02108223	      9.09803371	     -0.02236915	     -7.40268688	     -0.76456607	      2.35573101	     -7.21243337	      0.35306643	      4.05624190	 350089.90596762	      1.24798598	      2.58788165	      1.57089478	-482005.55867649	     -0.29162564	      0.02034729	      0.07380196	     -0.04727827	     -0.05936271	      0.30440197	     -0.19379646	      0.44952272	     -0.05630210
      4.56000000	   9661.90779190	-981053.67270779	 141246.52686588	      9.56741555	   1053.44995553	   1023.17014412	  63177.44954082	 -32757.61232522	 913073.32534666	     29.52802472	     -3.11966810	      1.79183516	    118.61197512	      3.92552724	     -1.28750588	-418387.73060932	     -0.02188942	      9.42543649	     -0.02242675	     -7.30625168	     -0.76350048	      2.34224326	     -7.21654740	      0.02354193	      4.08488690	 354179.57246334	      1.24121003	      2.52801091	      1.53528069	-486665.98299999	     -0.28883979	      0.02425266	      0.07868071	     -0.04864880	     -0.05790998	      0.30705272	     -0.18906427	      0.45770296	     -0.04869855
      4.56500000	   7667.47514456	-983443.79755732	 135647.68645658	     11.98774328	   1059.34611032	   1029.79852663	  63565.49985585	 -15547.00977379	 914498.52296209	     29.78024525	     -3.42936143	      1.68732140	    119.98011378	      5.66221972	     -0.96559796	-421405.54522073	     -0.02257483	      9.64835450	     -0.02242195	     -7.23755599	     -0.78343728	      2.32971118	     -7.23613915	     -0.40475267	      4.10202784	 356520.47426751	      1.22968936	      2.48534259	      1.51485586	-489604.87982945	     -0.29115135	      0.02762008	      0.08262077	     -0.04949288	     -0.05599496	      0.30985738	     -0.18632772	      0.46394733	     -0.04293761
      4.57000000	   3456.16742866	-988952.63204606	 130927.26284965	     13.91194336	   1066.13528977	   1038.02274545	  61712.12892402	   1727.61896692	 919576.43632533	     29.98835925	     -3.92331119	      1.69519590	    121.56032569	      7.33916838	     -0.59709686	-423899.30799550	     -0.02312761	      9.77313087	     -0.02236446	     -7.19618950	     -0.82138481	      2.31841642	     -7.26940810	     -0.91882925	      4.10876259	 357986.48977981	      1.21492322	      2.45785963	      1.50837413	-493899.76930124	     -0.29835468	      0.03047454	      0.08552585	     -0.04985642	     -0.05375324	      0.31268571	     -0.18523034	      0.46805941	     -0.03900899
      4.57500000	  -3601.30270625	-1001834.60001636	 127148.14439573	     12.88751047	   1072.77823788	   1053.09489681	  57257.14317535	  18817.75955704	 932464.79340476	     30.15466698	     -4.55640284	      1.79936386	    123.32921311	      8.87000842	     -0.21420573	-427116.81001241	     -0.02353791	      9.80928541	     -0.02225990	     -7.18149004	     -0.87325700	      2.30892104	     -7.31406471	     -1.50202052	      4.10633187	 359630.90332114	      1.19811951	      2.44336002	      1.51486322	-502075.99580394	     -0.30979618	      0.03285834	      0.08731069	     -0.04979479	     -0.05131228	      0.31544711	     -0.18541081	      0.46990991	     -0.03694697
      4.58000000	 -11608.53752943	-1018847.63092907	 124505.42245079	      9.91471802	   1077.58202702	   1072.16148189	  51927.04343036	  36624.68812032	 949480.20874281	     30.28108614	     -5.27813262	      1.97888394	    125.26111671	     10.18277754	      0.14925542	-431535.25672359	     -0.02379845	      9.76852008	     -0.02211104	     -7.19249095	     -0.93412947	      2.30202969	     -7.36764698	     -2.13410189	      4.09615916	 361984.48414679	      1.18021482	      2.43962900	      1.53377995	-511931.23802515	     -0.32449488	      0.03482563	      0.08790528	     -0.04937018	     -0.04878774	      0.31809524	     -0.18652689	      0.46945028	     -0.03684507
      4.58500000	 -18249.44891929	-1035242.47588447	 123103.73661020	      6.83609449	   1079.31131062	   1090.60568645	  47723.86036274	  55753.23539115	 965330.25167587	     30.36991690	     -6.03713544	      2.21010566	    127.32856527	     11.22209775	      0.46271561	-437272.54647127	     -0.02390622	      9.66377498	     -0.02191904	     -7.22783357	     -0.99855786	      2.29871340	     -7.42774684	     -2.79175024	      4.07982912	 365350.56203452	      1.16190000	      2.44453134	      1.56506142	-520484.59639613	     -0.34126101	      0.03643669	      0.08726311	     -0.04864743	     -0.04628026	      0.32062453	     -0.18826757	      0.46672162	     -0.03885657
      4.59000000	 -22080.22102396	-1047717.84083821	 122026.16294135	      5.45891546	   1079.14903849	   1104.77079157	  45845.02337370	  75307.77574840	 976314.39345198	     30.42430964	     -6.78478949	      2.46861048	    129.50244615	     11.95086385	      0.70364958	-444053.41257551	     -0.02386358	      9.50839852	     -0.02168455	     -7.28572688	     -1.06096242	      2.30003245	     -7.49221546	     -3.44950166	      4.05905470	 369872.73737261	      1.14365041	      2.45606023	      1.60901493	-526532.75725480	     -0.35880622	      0.03775259	      0.08537379	     -0.04768986	     -0.04387323	      0.32306476	     -0.19035727	      0.46186157	     -0.04316961
      4.59500000	 -22199.02056728	-1053908.47748928	 120231.22191889	      7.42786157	   1078.72043789	   1112.02172654	  47020.12606220	  93980.15038005	 979863.54212526	     30.44839312	     -7.47782312	      2.73097524	    131.75161013	     12.35169429	      0.86183487	-451432.88075204	     -0.02367841	      9.31548366	     -0.02140856	     -7.36396058	     -1.11607669	      2.30702009	     -7.55934661	     -4.08120285	      4.03561651	 375541.79502162	      1.12577403	      2.47239144	      1.66606777	-529584.30977733	     -0.37585411	      0.03882816	      0.08227564	     -0.04655714	     -0.04163249	      0.32546821	     -0.19256093	      0.45510116	     -0.04996174
      4.60000000	 -18954.34674925	-1053866.18871514	 117197.09401832	     13.79247646	   1078.98719362	   1112.84808291	  50908.76414569	 110808.32544442	 976207.90286753	     30.44710586	     -8.08050561	      2.97643080	    134.04295556	     12.42790664	      0.94310417	-458921.75340747	     -0.02336356	      9.09738788	     -0.02109306	     -7.45990146	     -1.15935683	      2.32051142	     -7.62792384	     -4.66187143	      4.01121362	 382060.39106156	      1.10847570	      2.49192141	      1.73642740	-530203.05923101	     -0.39125470	      0.03970337	      0.07806544	     -0.04530549	     -0.03960795	      0.32788578	     -0.19468884	      0.44674420	     -0.05934479
      4.60500000	 -13184.05845499	-1048545.09401914	 112817.30832252	     24.69587014	   1080.52598528	   1108.53234043	  56757.97461485	 125304.78669985	 966644.59140068	     30.42584592	     -8.56659897	      3.18825538	    136.34241584	     12.20331759	      0.97234184	-466053.70107883	     -0.02293565	      8.86541000	     -0.02074117	     -7.57046506	     -1.18723063	      2.34099367	     -7.69708637	     -5.16992608	      3.98725531	 388988.23494811	      1.09191732	      2.51325683	      1.81966698	-529136.56359993	     -0.40408484	      0.04039600	      0.07290678	     -0.04398781	     -0.03783564	      0.33034235	     -0.19659437	      0.43713760	     -0.07130146
      4.61000000	  -6457.13191810	-1040055.04734907	 108363.68328053	     37.25395218	   1083.05544890	   1100.45309801	  63136.84374492	 138509.90558072	 953813.84747892	     30.38993339	     -8.92084403	      3.35497792	    138.61593147	     11.71984371	      0.99217455	-472426.90750983	     -0.02241305	      8.62958392	     -0.02035561	     -7.69215828	     -1.19718272	      2.36854639	     -7.76615029	     -5.58958410	      3.96472251	 395511.69713690	      1.07626467	      2.53518744	      1.91427501	-526678.37253819	     -0.41373708	      0.04090048	      0.06703255	     -0.04265324	     -0.03633924	      0.33282582	     -0.19816804	      0.42664258	     -0.08561555
      4.61500000	   -330.00644682	-1030567.52829330	 105084.83578634	     48.20155230	   1085.90419897	   1090.19827335	  68619.42396426	 151625.75474565	 940335.52251626	     30.34472434	     -9.13780231	      3.46982393	    140.83045365	     11.03222237	      1.05276212	-477743.46165489	     -0.02182016	      8.39854647	     -0.01994384	     -7.82122970	     -1.18775111	      2.40284738	     -7.83455371	     -5.91268359	      3.94421105	 400888.46364272	      1.06168703	      2.55669103	      2.01735447	-523132.38990707	     -0.41988725	      0.04119776	      0.06073078	     -0.04134758	     -0.03513190	      0.33529468	     -0.19933906	      0.41561198	     -0.10182330
      4.62000000	   4410.36892461	-1021366.95849984	 102726.82734135	     55.70418906	   1087.75670333	   1080.19684821	  72532.22892297	 164459.74683884	 927699.52924499	     30.29518369	     -9.22141565	      3.53108974	    142.95607478	     10.20089622	      1.19631270	-481863.87972974	     -0.02117718	      8.17951908	     -0.01951264	     -7.95386101	     -1.15848864	      2.44321715	     -7.90188813	     -6.13900058	      3.92612754	 404948.30049665	      1.04836388	      2.57696338	      2.12471723	-519452.30543793	     -0.42252260	      0.04127358	      0.05431512	     -0.04011276	     -0.03421653	      0.33769981	     -0.20008260	      0.40438168	     -0.11922700
      4.62500000	   7287.24891453	-1013146.25845570	 100755.67459935	     58.63076941	   1087.65429692	   1072.33018412	  74489.47201510	 176583.70459170	 916752.84811355	     30.24574363	     -9.18369451	      3.54172102	    144.96885559	      9.28544363	      1.44673534	-484645.88777148	     -0.02050325	      7.97836744	     -0.01906786	     -8.08633016	     -1.10987669	      2.48870769	     -7.96784906	     -6.27497955	      3.91088628	 407616.13431082	      1.03647096	      2.59541605	      2.23136557	-516454.30192364	     -0.42191153	      0.04113334	      0.04809619	     -0.03898610	     -0.03358635	      0.34000699	     -0.20041766	      0.39327816	     -0.13697202
      4.63000000	   8267.20278580	-1005268.50857246	  98846.85267336	     57.17040117	   1086.71074154	   1065.60492069	  74451.80377699	 187702.04464268	 906956.68670508	     30.20027577	     -9.04267512	      3.50820233	    146.85241702	      8.33985115	      1.80844116	-485755.78699629	     -0.01981592	      7.79965148	     -0.01861518	     -8.21512774	     -1.04316354	      2.53820532	     -8.03215242	     -6.33171662	      3.89905290	 408653.04727935	      1.02615968	      2.61160579	      2.33206753	-513993.05794624	     -0.41852787	      0.04080628	      0.04236435	     -0.03799761	     -0.03322634	      0.34220547	     -0.20038890	      0.38263466	     -0.15414120
      4.63500000	   7618.81867121	-996784.95619748	  96808.77300858	     52.11669877	   1086.28741761	   1058.51306648	  72656.69715993	 197584.55876012	 897368.85828789	     30.16187764	     -8.82018374	      3.43943518	    148.59696466	      7.40937867	      2.26998668	-484981.20712493	     -0.01913053	      7.64664027	     -0.01815960	     -8.33707047	     -0.96018120	      2.59050330	     -8.09457376	     -6.32296169	      3.89146452	 407939.09782313	      1.01754769	      2.62514020	      2.42182293	-511627.03176319	     -0.41298105	      0.04034075	      0.03738028	     -0.03716767	     -0.03311551	      0.34430042	     -0.20004383	      0.37280406	     -0.16983298
      4.64000000	   6313.35613279	-986803.43985218	  94762.59013537	     45.25728164	   1086.64838623	   1050.51315800	  70032.56250858	 206267.20982381	 886796.56716341	     30.13272468	     -8.53947688	      3.34559161	    150.19581659	      6.52867438	      2.80862638	-482766.10365522	     -0.01845967	      7.52128636	     -0.01770520	     -8.44942450	     -0.86322294	      2.64431692	     -8.15499241	     -6.26336360	      3.88920941	 405961.99599203	      1.01071458	      2.63562390	      2.49626512	-508690.37411878	     -0.40595026	      0.03979422	      0.03336251	     -0.03650743	     -0.03322901	      0.34629412	     -0.19941823	      0.36414774	     -0.18323337
      4.64500000	   5258.36728698	-975445.21445265	  92967.85255928	     38.17063522	   1087.69122369	   1042.13037208	  67505.60265791	 214010.85693456	 874975.46571482	     30.11401731	     -8.22330613	      3.23708832	    151.64120690	      5.72107429	      3.39463919	-479976.68088495	     -0.01781284	      7.42421039	     -0.01725506	     -8.54996942	     -0.75498435	      2.69825195	     -8.21324546	     -6.16697178	      3.89336910	 403547.63633195	      1.00569775	      2.64264251	      2.55206008	-505006.54996412	     -0.39812681	      0.03922196	      0.03046953	     -0.03602101	     -0.03353936	      0.34816378	     -0.19853035	      0.35699459	     -0.19369315
      4.65000000	   4354.01736286	-966787.85325926	  91846.97924357	     30.44196702	   1088.95534718	   1037.25982980	  65253.57411246	 221791.45631527	 865605.44807249	     30.10591970	     -7.89261045	      3.12375122	    152.92205558	      4.99899753	      3.99495399	-478523.35853016	     -0.01719644	      7.35475592	     -0.01681135	     -8.63699509	     -0.63852435	      2.75081873	     -8.26890814	     -6.04613405	      3.90471216	 402267.31356076	      1.00248303	      2.64576531	      2.58722260	-502628.98029048	     -0.39016189	      0.03867081	      0.02878679	     -0.03570719	     -0.03401687	      0.34985489	     -0.19737865	      0.35160210	     -0.20079051
      4.65500000	   3287.77004903	-964451.87997392	  91729.03777343	     21.40088389	   1089.97195697	   1039.09769887	  63199.34926505	 230590.56317185	 862033.64023280	     30.10751923	     -7.56554892	      3.01419485	    154.02430124	      4.36520259	      4.57606180	-479962.57179080	     -0.01661391	      7.31113220	     -0.01637543	     -8.70928083	     -0.51719585	      2.80054070	     -8.32121568	     -5.91093891	      3.92355233	 403367.70187196	      1.00099617	      2.64455471	      2.60121651	-503444.37500832	     -0.38262154	      0.03817982	      0.02832706	     -0.03555963	     -0.03463004	      0.35129650	     -0.19593976	      0.34814442	     -0.20435250
      4.66000000	   1900.12661434	-966383.85766955	  92476.92754722	     11.22555542	   1090.64447674	   1044.71449738	  61049.75413365	 240169.97574190	 862442.79769848	     30.11690274	     -7.25659597	      2.91541396	    154.93169600	      3.81457061	      5.10653389	-483216.06977922	     -0.01606612	      7.29062866	     -0.01594816	     -8.76604188	     -0.39448964	      2.84607309	     -8.36908251	     -5.76911026	      3.94970724	 405896.55741482	      1.00110936	      2.63854529	      2.59481204	-506343.49734441	     -0.37595784	      0.03778196	      0.02903890	     -0.03556753	     -0.03534698	      0.35241705	     -0.19416468	      0.34670949	     -0.20443546
      4.66500000	    221.79130199	-969457.04458232	  93721.35119934	      0.55292200	   1091.01810726	   1050.32971400	  58649.72211968	 249791.88118798	 864014.81955667	     30.13137989	     -6.97580735	      2.83255567	    155.62549505	      3.33623570	      5.55903768	-486780.26604305	     -0.01555179	      7.28987497	     -0.01553010	     -8.80684242	     -0.27378315	      2.88627906	     -8.41106813	     -5.62614621	      3.98241880	 408610.17298696	      1.00266198	      2.62719826	      2.56980559	-509742.45461092	     -0.37049839	      0.03750431	      0.03081557	     -0.03571694	     -0.03613786	      0.35315030	     -0.19197596	      0.34728534	     -0.20128652
      4.67000000	  -1097.12545450	-971874.11083750	  94649.02604152	     -9.01654807	   1091.42834162	   1054.82817285	  56593.49758806	 258388.68228979	 864965.99772610	     30.14776511	     -6.72864857	      2.76886568	    156.08327551	      2.91594413	      5.91166705	-490218.92728623	     -0.01506831	      7.30512561	     -0.01512172	     -8.83150095	     -0.15808205	      2.92028343	     -8.44529961	     -5.48559821	      4.02025403	 411411.32770533	      1.00547965	      2.60990380	      2.52871981	-513186.81252243	     -0.36645029	      0.03736818	      0.03350280	     -0.03599146	     -0.03697643	      0.35344088	     -0.18927364	      0.34974261	     -0.19530261
      4.67500000	  -1376.02693406	-972501.51088020	  94775.94351647	    -15.97989253	   1092.18727774	   1057.92824706	  55534.03611126	 265283.17037063	 864080.98101231	     30.16257935	     -6.51660942	      2.72580465	    156.27755473	      2.53838872	      6.14874452	-493459.43383369	     -0.01461280	      7.33255451	     -0.01472349	     -8.83990977	     -0.04988761	      2.94744273	     -8.46943466	     -5.34945783	      4.06107475	 414453.12172142	      1.00938256	      2.58607396	      2.47453756	-516339.72319365	     -0.36391395	      0.03738768	      0.03690792	     -0.03637221	     -0.03783986	      0.35324585	     -0.18595572	      0.35382893	     -0.18699087
      4.68000000	   -426.43784370	-971517.72197139	  95305.16011894	    -20.44654714	   1093.57066240	   1060.68492870	  55591.93768380	 271680.19964076	 861295.78732194	     30.17217354	     -6.33831293	      2.70326591	    156.17475198	      2.18934059	      6.26112842	-496698.80126376	     -0.01365209	      7.36854005	     -0.01433594	     -8.83170520	      0.04875929	      2.96716108	     -8.48069418	     -5.21860787	      4.10211781	 417820.61513744	      1.01418436	      2.55529167	      2.41047184	-518309.92094789	     -0.36289670	      0.03756401	      0.04081145	     -0.03669696	     -0.03870770	      0.35251987	     -0.18194988	      0.35918290	     -0.17692843
      4.68500000	   1692.68139845	-969838.36152037	  97414.79218488	    -22.33660676	   1094.98105712	   1061.66319286	  56677.64998334	 278908.31114819	 857284.79773027	     30.08421782	     -6.43297663	      2.93226938	    155.73465425	      1.85752443	      6.24604008	-499551.79176116	     -0.01384684	      7.40879361	     -0.01362889	     -8.80597783	      0.13616769	      2.97869472	     -8.47598667	     -5.09327716	      4.14018756	 421718.41348977	      1.02497157	      2.51744023	      2.33974840	-518693.62004258	     -0.37997767	      0.03787944	      0.04498163	     -0.03724062	     -0.03942714	      0.35119795	     -0.17724162	      0.36536554	     -0.16571925
      4.69000000	   4409.47126222	-970116.88255414	 100475.98947949	    -22.47624881	   1095.04714490	   1065.42345842	  58431.58277027	 286887.21223115	 854736.91868497	     30.08131719	     -6.28521249	      2.92075954	    154.91019814	      1.53607653	      6.10673606	-503956.34969219	     -0.01405193	      7.46232654	     -0.01386690	     -8.76128817	      0.21098091	      2.98117547	     -8.45211838	     -4.97342837	      4.17191088	 426879.85959350	      1.03045283	      2.47275963	      2.26539730	-519595.63502387	     -0.38001610	      0.03829764	      0.04918897	     -0.03782450	     -0.04026325	      0.34920303	     -0.17188328	      0.37189790	     -0.15395112
      4.69500000	   7169.49266539	-974104.09634267	 103595.29075142	    -22.08212418	   1093.02781608	   1072.74529878	  60472.32224379	 295152.72334828	 855568.98483768	     30.06237464	     -6.16036157	      2.92304735	    153.64789633	      1.22339789	      5.85217935	-510194.88857142	     -0.01426682	      7.51642301	     -0.01410218	     -8.69594556	      0.27227452	      2.97382872	     -8.40599962	     -4.85902001	      4.19396004	 433703.10438893	      1.03616527	      2.42182496	      2.19008080	-522794.69186956	     -0.38112616	      0.03877002	      0.05321782	     -0.03842662	     -0.04104642	      0.34647441	     -0.16598408	      0.37829146	     -0.14216054
      4.70000000	   9997.39105860	-978188.11634848	 106540.98188062	    -20.44748106	   1089.05941136	   1080.44116245	  62606.52429876	 302821.03082189	 856559.56622421	     30.02430511	     -6.05432450	      2.93533489	    151.88962368	      0.92337920	      5.49645800	-516451.95967300	     -0.01449113	      7.56967599	     -0.01433375	     -8.60828983	      0.31965750	      2.95617295	     -8.33477168	     -4.75012485	      4.20319803	 440623.81221482	      1.04184342	      2.36546376	      2.11597025	-526226.53410625	     -0.38303767	      0.03924319	      0.05687450	     -0.03902501	     -0.04175699	      0.34299057	     -0.15969101	      0.38406808	     -0.13080811
      4.70500000	  13014.82593967	-978918.41180083	 109273.38804513	    -16.81892423	   1083.38623257	   1085.26976321	  64741.62871157	 309165.60539783	 854574.93673594	     29.96430803	     -5.96336553	      2.95352630	    149.57585426	      0.64497325	      5.05773542	-521086.90186252	     -0.01472476	      7.62127025	     -0.01456068	     -8.49686608	      0.35330469	      2.92811772	     -8.23588274	     -4.64693139	      4.19679220	 446178.23400829	      1.04720448	      2.30463551	      2.04465649	-527734.38864734	     -0.38544505	      0.03966541	      0.05999414	     -0.03959632	     -0.04237482	      0.33877732	     -0.15316634	      0.38877767	     -0.12025926
      4.71000000	  16173.37471363	-978820.35756311	 112003.50812833	    -11.78239425	   1075.54009642	   1088.47409462	  66970.52894385	 314917.74600313	 851868.22549835	     29.87980573	     -5.88432788	      2.97356548	    146.64970248	      0.40101372	      4.55685123	-525356.17634429	     -0.01496794	      7.67091927	     -0.01478222	     -8.36056263	      0.37392231	      2.89000073	     -8.10718564	     -4.54968698	      4.17234935	 451426.45985651	      1.05196120	      2.24030937	      1.97709116	-528686.65554468	     -0.38803448	      0.03999175	      0.06244748	     -0.04011468	     -0.04287969	      0.33390750	     -0.14656515	      0.39201978	     -0.11076846
      4.71500000	  19440.06155450	-980926.67087392	 114926.82250627	     -5.97345146	   1064.84454034	   1091.90489178	  69427.46670244	 320938.78963463	 851132.91217224	     29.76841534	     -5.81473026	      2.99170926	    143.06121022	      0.20637003	      4.01587590	-530796.05749758	     -0.01522119	      7.71874837	     -0.01499772	     -8.19874066	      0.38265069	      2.84255790	     -7.94707704	     -4.45863330	      4.12805904	 457706.70677916	      1.05583090	      2.17336767	      1.91357877	-530819.71515790	     -0.39050606	      0.04018642	      0.06414608	     -0.04055288	     -0.04325157	      0.32849098	     -0.14001838	      0.39346569	     -0.10247188
      4.72000000	  22974.63525463	-984409.78858231	 117695.35650023	      1.07542078	   1050.46215379	   1095.34149122	  72245.79387427	 326756.91574924	 851615.00364865	     29.62802561	     -5.75275919	      3.00472656	    138.77189429	      0.07578320	      3.45674663	-537070.13397385	     -0.01548504	      7.76517641	     -0.01520667	     -8.01129855	      0.38088862	      2.78679758	     -7.75461737	     -4.37395385	      4.06278870	 464824.96019411	      1.05854608	      2.10455003	      1.85384033	-533879.20923932	     -0.39259025	      0.04022235	      0.06504406	     -0.04088535	     -0.04347161	      0.32265360	     -0.13362529	      0.39287393	     -0.09539375
      4.72500000	  26879.06469647	-987865.92687859	 120050.71256223	      9.74578359	   1031.75270613	   1098.26996792	  75462.75844862	 331852.54909672	 852057.44313009	     29.45695364	     -5.69723144	      3.01005060	    133.75946408	      0.02175733	      2.89991807	-543510.97251667	     -0.01576012	      7.81080225	     -0.01540851	     -7.79866446	      0.37006669	      2.72383223	     -7.52958126	     -4.29574618	      3.97610965	 472248.87346067	      1.05987509	      2.03444437	      1.79714918	-537164.64850962	     -0.39406281	      0.04007989	      0.06513675	     -0.04109003	     -0.04352431	      0.31651528	     -0.12745436	      0.39009846	     -0.08946579
      4.73000000	  30854.61130797	-991356.20205497	 122491.69695314	     18.96392424	   1008.86703341	   1101.06181402	  78740.85532801	 336760.45350215	 852545.24899190	     29.25415067	     -5.64752807	      3.00587123	    128.02181706	      0.05285259	      2.36321746	-549990.63941007	     -0.01604703	      7.85627976	     -0.01560263	     -7.56180042	      0.35147485	      2.65477007	     -7.27247025	     -4.22401208	      3.86828389	 479695.31553216	      1.05964428	      1.96350512	      1.74251130	-540318.61268917	     -0.39475592	      0.03974685	      0.06445691	     -0.04114877	     -0.04339977	      0.31017912	     -0.12154632	      0.38509224	     -0.08455375
      4.73500000	  34565.97854463	-995320.02970245	 125463.96387973	     27.59485891	    982.07079021	   1104.26458107	  81732.49419857	 342048.07864447	 853521.18902052	     29.01946814	     -5.60343947	      2.99114657	    121.57947276	      0.17267614	      1.86127833	-556540.55711436	     -0.01634602	      7.90220095	     -0.01578840	     -7.30227859	      0.32622142	      2.58070968	     -6.98452248	     -4.15862941	      3.74022240	 487038.73978828	      1.05774708	      1.89206928	      1.68886778	-543279.02593687	     -0.39456032	      0.03921972	      0.06306834	     -0.04104786	     -0.04309475	      0.30373233	     -0.11591411	      0.37790386	     -0.08048800
      4.74000000	  37938.03834847	-1000376.21690228	 128496.83942935	     35.72910253	    951.03332026	   1108.24265689	  84437.90818979	 347427.86467994	 855641.67861151	     28.75393109	     -5.56498108	      2.96558550	    114.47681635	      0.37953923	      1.40538675	-563337.46079744	     -0.01665634	      7.94903095	     -0.01596530	     -7.02237218	      0.29527276	      2.50276796	     -6.66769554	     -4.09930856	      3.59340159	 494554.28243400	      1.05414725	      1.82038061	      1.63531407	-546813.34693620	     -0.39342464	      0.03850419	      0.06105688	     -0.04078017	     -0.04261270	      0.29724966	     -0.11054380	      0.36866636	     -0.07709756
      4.74500000	  40991.98016851	-1006886.89437099	 131134.16314712	     43.70002093	    915.66603079	   1113.03725979	  86936.14540942	 352571.88952972	 859294.25772846	     28.45994399	     -5.53229529	      2.92964888	    106.78296038	      0.66638486	      1.00305820	-570507.50745220	     -0.01697603	      7.99710193	     -0.01613302	     -6.72504783	      0.25947706	      2.42204545	     -6.32462561	     -4.04559278	      3.42976997	 502482.70788885	      1.04888979	      1.74865218	      1.58129468	-551518.35668825	     -0.39135983	      0.03761338	      0.05852175	     -0.04034765	     -0.04196422	      0.29079065	     -0.10540430	      0.35758497	     -0.07424052
      4.75000000	  43866.05766625	-1013942.86520983	 133719.56812710	     51.59236857	    877.12908209	   1117.58329510	  89283.08548265	 357647.40477828	 863544.20006850	     28.14142071	     -5.50560995	      2.88452567	     98.59217918	      1.02069533	      0.65678055	-577772.76365059	     -0.01730196	      8.04664119	     -0.01629151	     -6.41385568	      0.21955506	      2.33954696	     -5.95862575	     -3.99693456	      3.25170613	 510501.27035524	      1.04211349	      1.67714427	      1.52669940	-556560.56190878	     -0.38844364	      0.03656644	      0.05556953	     -0.03976249	     -0.04116769	      0.28439538	     -0.10046261	      0.34493007	     -0.07181908
      4.75500000	  46634.90821720	-1020684.20672963	 136713.57912351	     59.35147127	    836.74602213	   1121.08946593	  91466.10447421	 362944.26142285	 867504.40874343	     27.80377821	     -5.48512092	      2.83204749	     90.02312094	      1.42454351	      0.36191808	-584851.38619631	     -0.01762999	      8.09781406	     -0.01644096	     -6.09281142	      0.17610029	      2.25614747	     -5.57375228	     -3.95281497	      3.06203859	 518241.65264591	      1.03405678	      1.60619900	      1.47182866	-561048.60422332	     -0.38481830	      0.03539017	      0.05231005	     -0.03904686	     -0.04024962	      0.27808814	     -0.09569314	      0.33103281	     -0.06977449
      4.76000000	  48973.97865666	-1027762.86564306	 140255.07540019	     66.64971444	    794.90911874	   1124.97483438	  93184.27019833	 368783.87370851	 871852.45987989	     27.45369138	     -5.47072177	      2.77456856	     81.21571828	      1.85523457	      0.10505494	-591846.31168823	     -0.01795492	      8.15074129	     -0.01658181	     -5.76628895	      0.12961297	      2.17260994	     -5.17490789	     -3.91284804	      2.86409592	 525731.19922624	      1.02506369	      1.53621814	      1.41726143	-565325.71628311	     -0.38068418	      0.03412120	      0.04885321	     -0.03823247	     -0.03924536	      0.27188546	     -0.09107799	      0.31628013	     -0.06806716
      4.76500000	  50609.40687418	-1035684.75746322	 144338.31058178	     73.22294965	    751.99141524	   1130.38615658	  94189.34001778	 375315.98265485	 877140.20206623	     27.09865155	     -5.46170482	      2.71481517	     72.32498478	      2.28672634	     -0.13514304	-598803.60272626	     -0.01827057	      8.20546946	     -0.01671464	     -5.43885526	      0.08056265	      2.08960012	     -4.76789331	     -3.87682090	      2.66172815	 532990.93445592	      1.01558392	      1.46762364	      1.36368974	-569759.18132904	     -0.37629003	      0.03280425	      0.04530818	     -0.03735992	     -0.03819944	      0.26579898	     -0.08660459	      0.30110803	     -0.06665332
