Model Marker Errors from IK
version=1
nRows=521
nColumns=4
inDegrees=no
endheader
time	total_squared_error	marker_error_RMS	marker_error_max
      1.40000000	      0.03329006	      0.02336105	      0.10121475
      1.40500000	      0.03329906	      0.02336421	      0.10149326
      1.41000000	      0.03331928	      0.02337130	      0.10177894
      1.41500000	      0.03335700	      0.02338452	      0.10184428
      1.42000000	      0.03349232	      0.02343191	      0.10206109
      1.42500000	      0.03345076	      0.02341737	      0.10215503
      1.43000000	      0.03347301	      0.02342515	      0.10215580
      1.43500000	      0.03351767	      0.02344077	      0.10242101
      1.44000000	      0.03366918	      0.02349370	      0.10263324
      1.44500000	      0.03360931	      0.02347280	      0.10274885
      1.45000000	      0.03371297	      0.02350897	      0.10301954
      1.45500000	      0.03370880	      0.02350752	      0.10323308
      1.46000000	      0.03374938	      0.02352166	      0.10348656
      1.46500000	      0.03380068	      0.02353953	      0.10340883
      1.47000000	      0.03389397	      0.02357199	      0.10366510
      1.47500000	      0.03400602	      0.02361092	      0.10398128
      1.48000000	      0.03405926	      0.02362940	      0.10416025
      1.48500000	      0.03409810	      0.02364287	      0.10436624
      1.49000000	      0.03414870	      0.02366040	      0.10472219
      1.49500000	      0.03429626	      0.02371147	      0.10497824
      1.50000000	      0.03448942	      0.02377815	      0.10531022
      1.50500000	      0.03448253	      0.02377577	      0.10556860
      1.51000000	      0.03455162	      0.02379958	      0.10553169
      1.51500000	      0.03449446	      0.02377989	      0.10601497
      1.52000000	      0.03459934	      0.02381601	      0.10619141
      1.52500000	      0.03458013	      0.02380940	      0.10648084
      1.53000000	      0.03484641	      0.02390089	      0.10722722
      1.53500000	      0.03476333	      0.02387238	      0.10704782
      1.54000000	      0.03493207	      0.02393025	      0.10731850
      1.54500000	      0.03505716	      0.02397306	      0.10762804
      1.55000000	      0.03509850	      0.02398719	      0.10785601
      1.55500000	      0.03512781	      0.02399720	      0.10804526
      1.56000000	      0.03516986	      0.02401156	      0.10840200
      1.56500000	      0.03542879	      0.02409979	      0.10919182
      1.57000000	      0.03531470	      0.02406095	      0.10882305
      1.57500000	      0.03537743	      0.02408232	      0.10909751
      1.58000000	      0.03561506	      0.02416306	      0.10958011
      1.58500000	      0.03566199	      0.02417897	      0.10965047
      1.59000000	      0.03563378	      0.02416941	      0.10969487
      1.59500000	      0.03574324	      0.02420650	      0.10974219
      1.60000000	      0.03579278	      0.02422327	      0.11013416
      1.60500000	      0.03604712	      0.02430918	      0.11061516
      1.61000000	      0.03600947	      0.02429648	      0.11048021
      1.61500000	      0.03609272	      0.02432455	      0.11078023
      1.62000000	      0.03614991	      0.02434382	      0.11095888
      1.62500000	      0.03631312	      0.02439871	      0.11117148
      1.63000000	      0.03627942	      0.02438738	      0.11119255
      1.63500000	      0.03639366	      0.02442575	      0.11132660
      1.64000000	      0.03653238	      0.02447226	      0.11157781
      1.64500000	      0.03642088	      0.02443488	      0.11153422
      1.65000000	      0.03653001	      0.02447147	      0.11164722
      1.65500000	      0.03660932	      0.02449801	      0.11188582
      1.66000000	      0.03663659	      0.02450714	      0.11193604
      1.66500000	      0.03660173	      0.02449548	      0.11179874
      1.67000000	      0.03683431	      0.02457318	      0.11232589
      1.67500000	      0.03684258	      0.02457594	      0.11227562
      1.68000000	      0.03685733	      0.02458086	      0.11232513
      1.68500000	      0.03690114	      0.02459546	      0.11230578
      1.69000000	      0.03695390	      0.02461304	      0.11244308
      1.69500000	      0.03696898	      0.02461806	      0.11244733
      1.70000000	      0.03695406	      0.02461309	      0.11227222
      1.70500000	      0.03688642	      0.02459055	      0.11222635
      1.71000000	      0.03707792	      0.02465431	      0.11254811
      1.71500000	      0.03707748	      0.02465416	      0.11250627
      1.72000000	      0.03708139	      0.02465546	      0.11233696
      1.72500000	      0.03706090	      0.02464865	      0.11230277
      1.73000000	      0.03717985	      0.02468817	      0.11267779
      1.73500000	      0.03718134	      0.02468866	      0.11255032
      1.74000000	      0.03729694	      0.02472702	      0.11261766
      1.74500000	      0.03721861	      0.02470103	      0.11255511
      1.75000000	      0.03717081	      0.02468517	      0.11260001
      1.75500000	      0.03711173	      0.02466554	      0.11252602
      1.76000000	      0.03728939	      0.02472451	      0.11282492
      1.76500000	      0.03724018	      0.02470819	      0.11268079
      1.77000000	      0.03725675	      0.02471369	      0.11253922
      1.77500000	      0.03715640	      0.02468038	      0.11248508
      1.78000000	      0.03721757	      0.02470069	      0.11266852
      1.78500000	      0.03755170	      0.02481132	      0.11263006
      1.79000000	      0.03760097	      0.02482759	      0.11285044
      1.79500000	      0.03726381	      0.02471603	      0.11280906
      1.80000000	      0.03724503	      0.02470980	      0.11277534
      1.80500000	      0.03761899	      0.02483354	      0.11291455
      1.81000000	      0.03753718	      0.02480652	      0.11261040
      1.81500000	      0.03727315	      0.02471913	      0.11282969
      1.82000000	      0.03725546	      0.02471326	      0.11266351
      1.82500000	      0.03758247	      0.02482148	      0.11290693
      1.83000000	      0.03760223	      0.02482801	      0.11271735
      1.83500000	      0.03762401	      0.02483520	      0.11269393
      1.84000000	      0.03735006	      0.02474462	      0.11269194
      1.84500000	      0.03774010	      0.02487348	      0.11250903
      1.85000000	      0.03774885	      0.02487637	      0.11261227
      1.85500000	      0.03780743	      0.02489566	      0.11260597
      1.86000000	      0.03786342	      0.02491409	      0.11265774
      1.86500000	      0.03796018	      0.02494590	      0.11273632
      1.87000000	      0.03828792	      0.02505336	      0.11251695
      1.87500000	      0.03804752	      0.02497459	      0.11281301
      1.88000000	      0.03813731	      0.02500404	      0.11272904
      1.88500000	      0.03822279	      0.02503204	      0.11265455
      1.89000000	      0.03845678	      0.02510855	      0.11259862
      1.89500000	      0.03837117	      0.02508058	      0.11270632
      1.90000000	      0.03874205	      0.02520150	      0.11270710
      1.90500000	      0.03899012	      0.02528206	      0.11289763
      1.91000000	      0.03855903	      0.02514190	      0.11302520
      1.91500000	      0.03885959	      0.02523970	      0.11316562
      1.92000000	      0.03891806	      0.02525868	      0.11318096
      1.92500000	      0.03900108	      0.02528561	      0.11314783
      1.93000000	      0.03912646	      0.02532622	      0.11313304
      1.93500000	      0.03912389	      0.02532539	      0.11293890
      1.94000000	      0.03932470	      0.02539030	      0.11338461
      1.94500000	      0.03938673	      0.02541032	      0.11321321
      1.95000000	      0.03962401	      0.02548674	      0.11350221
      1.95500000	      0.03972309	      0.02551858	      0.11335297
      1.96000000	      0.03979351	      0.02554120	      0.11329660
      1.96500000	      0.04003633	      0.02561900	      0.11338354
      1.97000000	      0.04019654	      0.02567021	      0.11328134
      1.97500000	      0.04042216	      0.02574215	      0.11313836
      1.98000000	      0.04059077	      0.02579578	      0.11327399
      1.98500000	      0.04068654	      0.02582620	      0.11308660
      1.99000000	      0.04081876	      0.02586813	      0.11305545
      1.99500000	      0.04113684	      0.02596872	      0.11313056
      2.00000000	      0.04126897	      0.02601039	      0.11309228
      2.00500000	      0.04159934	      0.02611429	      0.11341019
      2.01000000	      0.04161850	      0.02612031	      0.11280609
      2.01500000	      0.04183553	      0.02618833	      0.11269509
      2.02000000	      0.04209818	      0.02627040	      0.11256240
      2.02500000	      0.04221111	      0.02630561	      0.11248230
      2.03000000	      0.04243994	      0.02637682	      0.11245372
      2.03500000	      0.04264539	      0.02644059	      0.11219299
      2.04000000	      0.04284745	      0.02650315	      0.11218885
      2.04500000	      0.04303824	      0.02656209	      0.11211695
      2.05000000	      0.04324650	      0.02662628	      0.11184522
      2.05500000	      0.04381991	      0.02680222	      0.11160524
      2.06000000	      0.04374123	      0.02677815	      0.11150920
      2.06500000	      0.04421954	      0.02692416	      0.11107977
      2.07000000	      0.04430515	      0.02695021	      0.11121757
      2.07500000	      0.04464314	      0.02705282	      0.11124068
      2.08000000	      0.04478210	      0.02709488	      0.11084926
      2.08500000	      0.04528623	      0.02724697	      0.11070759
      2.09000000	      0.04527489	      0.02724356	      0.11063470
      2.09500000	      0.04547019	      0.02730225	      0.11033313
      2.10000000	      0.04605356	      0.02747683	      0.11024950
      2.10500000	      0.04604505	      0.02747429	      0.11023755
      2.11000000	      0.04600066	      0.02746105	      0.10973724
      2.11500000	      0.04664849	      0.02765374	      0.10961559
      2.12000000	      0.04674194	      0.02768142	      0.10956069
      2.12500000	      0.04691944	      0.02773393	      0.10953219
      2.13000000	      0.04721984	      0.02782258	      0.10942507
      2.13500000	      0.04765464	      0.02795038	      0.10934035
      2.14000000	      0.04769926	      0.02796346	      0.10880343
      2.14500000	      0.04806248	      0.02806973	      0.10887811
      2.15000000	      0.04861234	      0.02822984	      0.10865665
      2.15500000	      0.04875130	      0.02827016	      0.10864906
      2.16000000	      0.04903208	      0.02835145	      0.10857237
      2.16500000	      0.04920436	      0.02840121	      0.10824748
      2.17000000	      0.04947238	      0.02847846	      0.10840371
      2.17500000	      0.04982138	      0.02857873	      0.10829807
      2.18000000	      0.05014603	      0.02867170	      0.10837510
      2.18500000	      0.05030090	      0.02871594	      0.10810254
      2.19000000	      0.05066113	      0.02881857	      0.10801061
      2.19500000	      0.05092764	      0.02889428	      0.10795066
      2.20000000	      0.05141136	      0.02903118	      0.10812408
      2.20500000	      0.05164856	      0.02909807	      0.10780541
      2.21000000	      0.05191564	      0.02917321	      0.10781181
      2.21500000	      0.05233755	      0.02929151	      0.10776962
      2.22000000	      0.05270020	      0.02939282	      0.10774154
      2.22500000	      0.05288458	      0.02944419	      0.10769295
      2.23000000	      0.05314688	      0.02951712	      0.10750997
      2.23500000	      0.05345964	      0.02960384	      0.10745900
      2.24000000	      0.05393893	      0.02973625	      0.10739424
      2.24500000	      0.05380612	      0.02969962	      0.10742206
      2.25000000	      0.05420488	      0.02980947	      0.10795428
      2.25500000	      0.05453780	      0.02990087	      0.10784799
      2.26000000	      0.05462865	      0.02992577	      0.10734627
      2.26500000	      0.05495814	      0.03001588	      0.10726135
      2.27000000	      3.06146436	      0.22402665	      1.62940144
      2.27500000	      3.06231311	      0.22405770	      1.62940736
      2.28000000	      3.06136594	      0.22402305	      1.62929993
      2.28500000	      3.05882248	      0.22392997	      1.62827577
      2.29000000	      3.06233218	      0.22405840	      1.62949092
      2.29500000	      3.06208630	      0.22404941	      1.62942317
      2.30000000	      3.06152482	      0.22402886	      1.62959901
      2.30500000	      3.05874824	      0.22392725	      1.62771689
      2.31000000	      3.06161162	      0.22403204	      1.62961547
      2.31500000	      3.06256839	      0.22406704	      1.62977613
      2.32000000	      3.06270654	      0.22407210	      1.62973036
      2.32500000	      3.06348698	      0.22410064	      1.62998833
      2.33000000	      3.06363077	      0.22410590	      1.62984350
      2.33500000	      3.06417175	      0.22412569	      1.63001340
      2.34000000	      3.06430468	      0.22413055	      1.63000110
      2.34500000	      3.06247192	      0.22406351	      1.62938665
      2.35000000	      3.06490982	      0.22415268	      1.63017766
      2.35500000	      3.06294392	      0.22408078	      1.62952642
      2.36000000	      3.06079102	      0.22400201	      1.62822993
      2.36500000	      3.06288236	      0.22407853	      1.62952340
      2.37000000	      3.06478447	      0.22414809	      1.63026302
      2.37500000	      3.06255996	      0.22406673	      1.62908627
      2.38000000	      3.06440569	      0.22413424	      1.62995231
      2.38500000	      3.05909752	      0.22394004	      1.62724215
      2.39000000	      3.06510513	      0.22415982	      1.63001062
      2.39500000	      3.06556695	      0.22417671	      1.63004456
      2.40000000	      3.06591646	      0.22418949	      1.63015193
      2.40500000	      3.06543372	      0.22417184	      1.63001973
      2.41000000	      3.06596329	      0.22419120	      1.63010355
      2.41500000	      3.06247641	      0.22406368	      1.62844560
      2.42000000	      3.06513823	      0.22416103	      1.62955383
      2.42500000	      3.06666085	      0.22421670	      1.63025278
      2.43000000	      3.06626548	      0.22420225	      1.63017012
      2.43500000	      3.06514639	      0.22416133	      1.62939151
      2.44000000	      3.06430100	      0.22413041	      1.62884091
      2.44500000	      3.06495484	      0.22415432	      1.62936128
      2.45000000	      3.06472871	      0.22414606	      1.62917538
      2.45500000	      3.06753047	      0.22424849	      1.63035422
      2.46000000	      3.05950664	      0.22395501	      1.62712790
      2.46500000	      3.06822173	      0.22427375	      1.63040773
      2.47000000	      3.06453848	      0.22413910	      1.62894091
      2.47500000	      3.06641942	      0.22420787	      1.63016920
      2.48000000	      3.06850218	      0.22428400	      1.63050098
      2.48500000	      3.06737947	      0.22424297	      1.63064342
      2.49000000	      3.06644769	      0.22420891	      1.62928622
      2.49500000	      3.06913266	      0.22430704	      1.63079131
      2.50000000	      3.06668748	      0.22421767	      1.62936467
      2.50500000	      3.06990852	      0.22433539	      1.63082399
      2.51000000	      3.06798555	      0.22426512	      1.62973736
      2.51500000	      3.07054001	      0.22435847	      1.63088356
      2.52000000	      3.06802592	      0.22426660	      1.62969645
      2.52500000	      3.06991526	      0.22433564	      1.63070650
      2.53000000	      3.07102783	      0.22437629	      1.63092792
      2.53500000	      3.06849179	      0.22428362	      1.62972727
      2.54000000	      3.06821556	      0.22427353	      1.62950779
      2.54500000	      3.06838307	      0.22427965	      1.62951970
      2.55000000	      3.07142717	      0.22439088	      1.63108101
      2.55500000	      3.06947681	      0.22431962	      1.62993488
      2.56000000	      3.07152509	      0.22439445	      1.63093717
      2.56500000	      3.06963601	      0.22432544	      1.62990147
      2.57000000	      3.07245809	      0.22442853	      1.63107015
      2.57500000	      3.07287932	      0.22444391	      1.63114828
      2.58000000	      3.07123910	      0.22438401	      1.63017805
      2.58500000	      3.07312593	      0.22445292	      1.63113705
      2.59000000	      3.07142661	      0.22439086	      1.63000571
      2.59500000	      3.07465071	      0.22450860	      1.63120205
      2.60000000	      3.07250834	      0.22443037	      1.63026187
      2.60500000	      3.07240875	      0.22442673	      1.63012396
      2.61000000	      3.07612240	      0.22456232	      1.63154353
      2.61500000	      3.07448878	      0.22450268	      1.63049741
      2.62000000	      3.07632439	      0.22456969	      1.63162317
      2.62500000	      3.07448285	      0.22450247	      1.63048870
      2.63000000	      3.07454083	      0.22450459	      1.63029724
      2.63500000	      3.07527506	      0.22453139	      1.63137350
      2.64000000	      3.07792356	      0.22462806	      1.63165789
      2.64500000	      3.07488118	      0.22451701	      1.63056964
      2.65000000	      3.07671597	      0.22458399	      1.63153258
      2.65500000	      3.07571188	      0.22454734	      1.63071794
      2.66000000	      3.07709047	      0.22459765	      1.63070421
      2.66500000	      3.07906796	      0.22466981	      1.63176619
      2.67000000	      3.07700302	      0.22459446	      1.63080302
      2.67500000	      3.07726600	      0.22460406	      1.63081042
      2.68000000	      3.08077436	      0.22473206	      1.63185346
      2.68500000	      3.07882594	      0.22466098	      1.63088208
      2.69000000	      3.07839983	      0.22464543	      1.63055205
      2.69500000	      3.07946512	      0.22468430	      1.63085384
      2.70000000	      3.08083668	      0.22473433	      1.63116383
      2.70500000	      3.08094529	      0.22473829	      1.63118755
      2.71000000	      3.08328221	      0.22482351	      1.63223006
      2.71500000	      3.08045922	      0.22472056	      1.63084339
      2.72000000	      3.08123190	      0.22474875	      1.63107024
      2.72500000	      3.08402509	      0.22485059	      1.63229020
      2.73000000	      3.08242706	      0.22479233	      1.63135885
      2.73500000	      3.08224209	      0.22478558	      1.63115402
      2.74000000	      3.08474426	      0.22487681	      1.63218528
      2.74500000	      3.08318777	      0.22482007	      1.63126468
      2.75000000	      3.08335764	      0.22482626	      1.63140267
      2.75500000	      3.08555884	      0.22490650	      1.63233002
      2.76000000	      3.08258556	      0.22479811	      1.63139209
      2.76500000	      3.08202317	      0.22477760	      1.63116262
      2.77000000	      3.08306142	      0.22481546	      1.63114970
      2.77500000	      3.08349683	      0.22483133	      1.63128794
      2.78000000	      3.08318697	      0.22482004	      1.63143712
      2.78500000	      3.08375062	      0.22484059	      1.63118716
      2.79000000	      3.08387139	      0.22484499	      1.63117337
      2.79500000	      3.08333172	      0.22482531	      1.63100979
      2.80000000	      3.08396789	      0.22484851	      1.63120610
      2.80500000	      3.08420097	      0.22485700	      1.63125253
      2.81000000	      3.08514654	      0.22489147	      1.63139389
      2.81500000	      3.08517551	      0.22489252	      1.63132087
      2.82000000	      3.08501735	      0.22488676	      1.63118789
      2.82500000	      3.08409923	      0.22485329	      1.63079091
      2.83000000	      3.08460653	      0.22487179	      1.63107865
      2.83500000	      3.08463574	      0.22487285	      1.63140714
      2.84000000	      3.08477432	      0.22487790	      1.63136764
      2.84500000	      3.08543726	      0.22490206	      1.63121053
      2.85000000	      3.08544035	      0.22490218	      1.63134150
      2.85500000	      3.08491092	      0.22488288	      1.63130856
      2.86000000	      3.08488478	      0.22488193	      1.63131838
      2.86500000	      3.08449397	      0.22486768	      1.63064881
      2.87000000	      3.08513392	      0.22489101	      1.63100841
      2.87500000	      3.08535037	      0.22489890	      1.63128407
      2.88000000	      3.08504916	      0.22488792	      1.63103895
      2.88500000	      3.08516223	      0.22489204	      1.63107117
      2.89000000	      3.08755219	      0.22497913	      1.63218455
      2.89500000	      3.08513477	      0.22489104	      1.63102200
      2.90000000	      3.08487426	      0.22488154	      1.63091276
      2.90500000	      3.08454888	      0.22486968	      1.63073959
      2.91000000	      3.08451471	      0.22486844	      1.63082550
      2.91500000	      3.08372616	      0.22483969	      1.63048607
      2.92000000	      3.08383439	      0.22484364	      1.63103058
      2.92500000	      3.08404623	      0.22485136	      1.63104120
      2.93000000	      3.08382450	      0.22484328	      1.63077196
      2.93500000	      3.08405921	      0.22485183	      1.63091350
      2.94000000	      3.08418582	      0.22485645	      1.63097348
      2.94500000	      3.08373778	      0.22484012	      1.63087544
      2.95000000	      3.08371156	      0.22483916	      1.63089846
      2.95500000	      3.08348146	      0.22483077	      1.63085759
      2.96000000	      3.08291797	      0.22481023	      1.63066800
      2.96500000	      3.08227953	      0.22478695	      1.63038275
      2.97000000	      3.08264940	      0.22480044	      1.63065464
      2.97500000	      3.08263505	      0.22479991	      1.63060041
      2.98000000	      3.08204776	      0.22477850	      1.63060573
      2.98500000	      3.08204705	      0.22477847	      1.63079005
      2.99000000	      3.08144148	      0.22475639	      1.63052197
      2.99500000	      3.08132187	      0.22475203	      1.63049044
      3.00000000	      3.08108907	      0.22474354	      1.63085251
      3.00500000	      3.08082460	      0.22473389	      1.63076801
      3.01000000	      3.08097822	      0.22473949	      1.63104606
      3.01500000	      3.08058836	      0.22472527	      1.63105200
      3.02000000	      3.08085722	      0.22473508	      1.63078319
      3.02500000	      3.08080851	      0.22473330	      1.63075523
      3.03000000	      3.08008302	      0.22470684	      1.63078426
      3.03500000	      3.08035984	      0.22471694	      1.63086923
      3.04000000	      3.08025100	      0.22471297	      1.63087983
      3.04500000	      3.08009087	      0.22470713	      1.63088041
      3.05000000	      3.08027022	      0.22471367	      1.63089710
      3.05500000	      3.07954823	      0.22468733	      1.63069242
      3.06000000	      3.07915889	      0.22467313	      1.63065796
      3.06500000	      3.07936081	      0.22468049	      1.63081042
      3.07000000	      3.07918394	      0.22467404	      1.63065962
      3.07500000	      3.07826594	      0.22464055	      1.63041956
      3.08000000	      3.07853837	      0.22465049	      1.63033588
      3.08500000	      3.07776522	      0.22462228	      1.63023494
      3.09000000	      3.07738240	      0.22460831	      1.63053168
      3.09500000	      3.07729157	      0.22460499	      1.63045062
      3.10000000	      3.07722094	      0.22460242	      1.63016112
      3.10500000	      3.07744607	      0.22461063	      1.63024633
      3.11000000	      3.07644069	      0.22457394	      1.62998695
      3.11500000	      3.07649898	      0.22457607	      1.62993612
      3.12000000	      3.07611542	      0.22456207	      1.62974140
      3.12500000	      3.07576508	      0.22454928	      1.62986118
      3.13000000	      3.07526598	      0.22453106	      1.62955916
      3.13500000	      3.07547650	      0.22453874	      1.62988627
      3.14000000	      3.07502470	      0.22452225	      1.62954157
      3.14500000	      3.07532519	      0.22453322	      1.62968239
      3.15000000	      3.07388969	      0.22448081	      1.62909176
      3.15500000	      3.07401909	      0.22448554	      1.62940624
      3.16000000	      3.07458686	      0.22450627	      1.62943866
      3.16500000	      3.07385227	      0.22447944	      1.62924983
      3.17000000	      3.07315331	      0.22445392	      1.62941210
      3.17500000	      3.07341624	      0.22446352	      1.62920534
      3.18000000	      3.07284030	      0.22444249	      1.62931077
      3.18500000	      3.07307158	      0.22445094	      1.62918621
      3.19000000	      3.07264798	      0.22443547	      1.62897241
      3.19500000	      3.07476365	      0.22451272	      1.63027855
      3.20000000	      3.07318605	      0.22445512	      1.62906173
      3.20500000	      3.07262127	      0.22443449	      1.62917197
      3.21000000	      3.07526047	      0.22453086	      1.63035578
      3.21500000	      3.07340685	      0.22446318	      1.62926880
      3.22000000	      3.07281146	      0.22444144	      1.62923701
      3.22500000	      3.07275666	      0.22443943	      1.62921463
      3.23000000	      3.07263580	      0.22443502	      1.62914369
      3.23500000	      3.07227974	      0.22442202	      1.62890060
      3.24000000	      3.07218781	      0.22441866	      1.62891953
      3.24500000	      3.07623549	      0.22456645	      1.63082408
      3.25000000	      3.07504710	      0.22452307	      1.63036056
      3.25500000	      3.07192740	      0.22440915	      1.62932681
      3.26000000	      3.07226030	      0.22442131	      1.62917073
      3.26500000	      3.07194261	      0.22440970	      1.62942155
      3.27000000	      3.07496747	      0.22452016	      1.63057447
      3.27500000	      3.07167568	      0.22439995	      1.62930532
      3.28000000	      3.07152669	      0.22439451	      1.62932899
      3.28500000	      3.07127813	      0.22438543	      1.62909668
      3.29000000	      3.07068072	      0.22436361	      1.62900267
      3.29500000	      3.07076077	      0.22436653	      1.62898590
      3.30000000	      3.07009646	      0.22434226	      1.62870316
      3.30500000	      3.07389989	      0.22448118	      1.63035213
      3.31000000	      3.06977481	      0.22433051	      1.62858941
      3.31500000	      3.07305359	      0.22445028	      1.63037255
      3.32000000	      3.07328273	      0.22445865	      1.63028541
      3.32500000	      3.07214980	      0.22441727	      1.63009596
      3.33000000	      3.07244919	      0.22442821	      1.63008207
      3.33500000	      3.06935283	      0.22431509	      1.62862993
      3.34000000	      3.06916438	      0.22430820	      1.62871414
      3.34500000	      3.06930097	      0.22431319	      1.62877938
      3.35000000	      3.07238527	      0.22442587	      1.63020274
      3.35500000	      3.07052099	      0.22435777	      1.62982739
      3.36000000	      3.07186470	      0.22440686	      1.62990432
      3.36500000	      3.07069853	      0.22436426	      1.62992098
      3.37000000	      3.06959053	      0.22432378	      1.62956352
      3.37500000	      3.07010768	      0.22434267	      1.62971830
      3.38000000	      3.07054820	      0.22435877	      1.62992632
      3.38500000	      3.06896198	      0.22430081	      1.62960287
      3.39000000	      3.06574304	      0.22418315	      1.62826883
      3.39500000	      3.06615041	      0.22419804	      1.62829038
      3.40000000	      3.06879423	      0.22429468	      1.62963290
      3.40500000	      3.06798878	      0.22426524	      1.62943490
      3.41000000	      3.06643910	      0.22420859	      1.62849514
      3.41500000	      3.06950675	      0.22432071	      1.62970813
      3.42000000	      3.06766172	      0.22425329	      1.62908601
      3.42500000	      3.06709414	      0.22423254	      1.62896355
      3.43000000	      3.06762063	      0.22425178	      1.62909521
      3.43500000	      3.06664835	      0.22421624	      1.62889879
      3.44000000	      3.06531828	      0.22416761	      1.62829831
      3.44500000	      3.06693564	      0.22422675	      1.62896480
      3.45000000	      3.06945628	      0.22431887	      1.62963874
      3.45500000	      3.06915407	      0.22430783	      1.62966616
      3.46000000	      3.06964555	      0.22432579	      1.62991112
      3.46500000	      3.06952438	      0.22432136	      1.62984881
      3.47000000	      3.06939117	      0.22431649	      1.62994893
      3.47500000	      3.06849176	      0.22428362	      1.62950590
      3.48000000	      3.06819613	      0.22427282	      1.62948671
      3.48500000	      3.06752228	      0.22424819	      1.62940835
      3.49000000	      3.06671379	      0.22421864	      1.62898740
      3.49500000	      3.06733873	      0.22424148	      1.62914387
      3.50000000	      3.06753946	      0.22424882	      1.62931996
      3.50500000	      3.06711500	      0.22423330	      1.62926593
      3.51000000	      3.06757176	      0.22425000	      1.62939934
      3.51500000	      3.06721838	      0.22423708	      1.62936400
      3.52000000	      3.06721288	      0.22423688	      1.62901460
      3.52500000	      3.06747556	      0.22424648	      1.62957031
      3.53000000	      3.06719333	      0.22423617	      1.62956473
      3.53500000	      3.06731570	      0.22424064	      1.62958072
      3.54000000	      3.06734264	      0.22424162	      1.62957950
      3.54500000	      3.06751099	      0.22424778	      1.62964170
      3.55000000	      3.06753621	      0.22424870	      1.62965299
      3.55500000	      3.06780449	      0.22425850	      1.62987532
      3.56000000	      3.06716170	      0.22423501	      1.62969032
      3.56500000	      3.06763726	      0.22425239	      1.62987016
      3.57000000	      3.06781200	      0.22425878	      1.62996758
      3.57500000	      3.06779504	      0.22425816	      1.62972237
      3.58000000	      3.06760108	      0.22425107	      1.62994505
      3.58500000	      3.06681378	      0.22422229	      1.62958000
      3.59000000	      3.06832397	      0.22427749	      1.63009534
      3.59500000	      3.06879142	      0.22429457	      1.63018354
      3.60000000	      3.06733793	      0.22424145	      1.62983338
      3.60500000	      3.06763985	      0.22425249	      1.62981317
      3.61000000	      3.06826354	      0.22427528	      1.63007451
      3.61500000	      3.06710183	      0.22423282	      1.62971538
      3.62000000	      3.06690751	      0.22422572	      1.62946074
      3.62500000	      3.06756930	      0.22424991	      1.62979454
      3.63000000	      3.06743180	      0.22424488	      1.62995055
      3.63500000	      3.06842922	      0.22428134	      1.63018568
      3.64000000	      3.06847869	      0.22428315	      1.63037262
      3.64500000	      3.06723371	      0.22423764	      1.63002063
      3.65000000	      3.06951696	      0.22432109	      1.63076661
      3.65500000	      3.06851105	      0.22428433	      1.63038122
      3.66000000	      3.06875358	      0.22429319	      1.63048920
      3.66500000	      3.06807566	      0.22426842	      1.63019878
      3.67000000	      3.06777013	      0.22425725	      1.63033117
      3.67500000	      3.06736659	      0.22424250	      1.62996500
      3.68000000	      3.06841747	      0.22428091	      1.63041613
      3.68500000	      3.06787679	      0.22426115	      1.63022313
      3.69000000	      3.06889525	      0.22429837	      1.63081850
      3.69500000	      3.06838336	      0.22427966	      1.63058485
      3.70000000	      3.06866176	      0.22428984	      1.63063625
      3.70500000	      3.07016257	      0.22434468	      1.63119655
      3.71000000	      3.06866218	      0.22428985	      1.63068313
      3.71500000	      3.06858563	      0.22428705	      1.63070452
      3.72000000	      3.06871880	      0.22429192	      1.63070804
      3.72500000	      3.06927068	      0.22431209	      1.63088394
      3.73000000	      3.07008900	      0.22434199	      1.63114744
      3.73500000	      3.06930625	      0.22431339	      1.63092915
      3.74000000	      3.07022897	      0.22434710	      1.63133451
      3.74500000	      3.07049478	      0.22435681	      1.63134227
      3.75000000	      3.07055074	      0.22435886	      1.63154387
      3.75500000	      3.07044759	      0.22435509	      1.63141206
      3.76000000	      3.07123195	      0.22438374	      1.63169839
      3.76500000	      3.07227384	      0.22442180	      1.63206830
      3.77000000	      3.07049045	      0.22435666	      1.63137058
      3.77500000	      3.07092548	      0.22437255	      1.63171224
      3.78000000	      3.07040451	      0.22435352	      1.63134302
      3.78500000	      3.07051258	      0.22435746	      1.63137248
      3.79000000	      3.07039485	      0.22435316	      1.63130270
      3.79500000	      3.07093242	      0.22437280	      1.63156965
      3.80000000	      3.07107261	      0.22437792	      1.63164387
      3.80500000	      3.07185810	      0.22440662	      1.63204929
      3.81000000	      3.07306645	      0.22445075	      1.63249792
      3.81500000	      3.07144002	      0.22439135	      1.63185959
      3.82000000	      3.07201379	      0.22441230	      1.63203912
      3.82500000	      3.07114071	      0.22438041	      1.63182130
      3.83000000	      3.07113746	      0.22438029	      1.63165093
      3.83500000	      3.07152144	      0.22439432	      1.63199814
      3.84000000	      3.07082270	      0.22436879	      1.63161953
      3.84500000	      3.07170343	      0.22440097	      1.63187241
      3.85000000	      3.07132554	      0.22438716	      1.63203365
      3.85500000	      3.07167431	      0.22439990	      1.63222002
      3.86000000	      3.07194757	      0.22440988	      1.63255766
      3.86500000	      3.07108322	      0.22437831	      1.63209386
      3.87000000	      3.07103707	      0.22437663	      1.63219474
      3.87500000	      3.06956853	      0.22432297	      1.63167899
      3.88000000	      3.07064919	      0.22436246	      1.63215981
      3.88500000	      3.06865903	      0.22428974	      1.63148307
      3.89000000	      3.07014301	      0.22434396	      1.63217616
      3.89500000	      3.06907551	      0.22430496	      1.63174665
      3.90000000	      3.06964649	      0.22432582	      1.63227854
      3.90500000	      3.07028932	      0.22434931	      1.63226933
      3.91000000	      3.06916445	      0.22430821	      1.63181039
      3.91500000	      3.06859068	      0.22428724	      1.63170752
      3.92000000	      3.06822750	      0.22427397	      1.63146605
      3.92500000	      3.06715589	      0.22423480	      1.63126659
      3.93000000	      3.06784946	      0.22426015	      1.63155366
      3.93500000	      3.06806588	      0.22426806	      1.63176126
      3.94000000	      3.06825582	      0.22427500	      1.63178840
      3.94500000	      3.06710024	      0.22423276	      1.63149743
      3.95000000	      3.06607030	      0.22419511	      1.63119579
      3.95500000	      3.06603080	      0.22419367	      1.63101676
      3.96000000	      3.06581321	      0.22418571	      1.63098937
      3.96500000	      3.06600440	      0.22419270	      1.63113557
      3.97000000	      3.06574480	      0.22418321	      1.63123023
      3.97500000	      3.06722835	      0.22423745	      1.63144774
      3.98000000	      3.06576398	      0.22418391	      1.63078368
      3.98500000	      3.06455685	      0.22413977	      1.63053841
      3.99000000	      3.06418370	      0.22412612	      1.63043297
      3.99500000	      3.06480400	      0.22414881	      1.63048902
      4.00000000	      3.06492555	      0.22415325	      1.63055080
