Model Marker Errors from IK
version=1
nRows=651
nColumns=4
inDegrees=no
endheader
time	total_squared_error	marker_error_RMS	marker_error_max
      2.00000000	      0.08241121	      0.03675600	      0.15952583
      2.00500000	      0.08240222	      0.03675399	      0.15943006
      2.01000000	      0.08248211	      0.03677181	      0.15985093
      2.01500000	      0.08243717	      0.03676179	      0.15952585
      2.02000000	      0.08257701	      0.03679295	      0.15982132
      2.02500000	      0.08263894	      0.03680675	      0.15979624
      2.03000000	      0.08254122	      0.03678498	      0.15978868
      2.03500000	      0.08271381	      0.03682342	      0.15976571
      2.04000000	      0.08138437	      0.03652629	      0.15531529
      2.04500000	      0.08280393	      0.03684347	      0.15973204
      2.05000000	      0.08275284	      0.03683210	      0.15966133
      2.05500000	      0.08276933	      0.03683578	      0.15965610
      2.06000000	      0.08274438	      0.03683022	      0.15954698
      2.06500000	      0.08265868	      0.03681114	      0.15961595
      2.07000000	      0.08285521	      0.03685488	      0.15985845
      2.07500000	      0.08292384	      0.03687014	      0.15966141
      2.08000000	      0.08292817	      0.03687110	      0.15968843
      2.08500000	      0.08278640	      0.03683957	      0.15965310
      2.09000000	      0.08295421	      0.03687689	      0.15986444
      2.09500000	      0.08283152	      0.03684961	      0.15961431
      2.10000000	      0.08284788	      0.03685325	      0.15942766
      2.10500000	      0.08270262	      0.03682093	      0.15914949
      2.11000000	      0.08259922	      0.03679790	      0.15934477
      2.11500000	      0.08270218	      0.03682083	      0.15914414
      2.12000000	      0.08274829	      0.03683109	      0.15905098
      2.12500000	      0.08282864	      0.03684897	      0.15889944
      2.13000000	      0.08275146	      0.03683180	      0.15868862
      2.13500000	      0.08289787	      0.03686437	      0.15909908
      2.14000000	      0.08284227	      0.03685200	      0.15874066
      2.14500000	      0.08285594	      0.03685504	      0.15882214
      2.15000000	      0.08303576	      0.03689501	      0.15890867
      2.15500000	      0.08291016	      0.03686710	      0.15874664
      2.16000000	      0.08309282	      0.03690769	      0.15867605
      2.16500000	      0.08337964	      0.03697133	      0.15900579
      2.17000000	      0.08344639	      0.03698613	      0.15955370
      2.17500000	      0.08330663	      0.03695514	      0.15919900
      2.18000000	      0.08345204	      0.03698738	      0.15892228
      2.18500000	      0.08334113	      0.03696279	      0.15889122
      2.19000000	      0.08335515	      0.03696590	      0.15887204
      2.19500000	      0.08331051	      0.03695600	      0.15872741
      2.20000000	      0.08342108	      0.03698052	      0.15885120
      2.20500000	      0.08328973	      0.03695139	      0.15873038
      2.21000000	      0.08328720	      0.03695083	      0.15828964
      2.21500000	      0.08333731	      0.03696194	      0.15875277
      2.22000000	      0.08332648	      0.03695954	      0.15872802
      2.22500000	      0.08343866	      0.03698441	      0.15875471
      2.23000000	      0.08345845	      0.03698880	      0.15868206
      2.23500000	      0.08354044	      0.03700696	      0.15887407
      2.24000000	      0.08337882	      0.03697115	      0.15846665
      2.24500000	      0.08348015	      0.03699361	      0.15856218
      2.25000000	      0.08356734	      0.03701292	      0.15860972
      2.25500000	      0.08345226	      0.03698743	      0.15833492
      2.26000000	      0.08365441	      0.03703220	      0.15866492
      2.26500000	      0.08367686	      0.03703717	      0.15818555
      2.27000000	      0.08355089	      0.03700928	      0.15801937
      2.27500000	      0.08379350	      0.03706297	      0.15874074
      2.28000000	      0.08372790	      0.03704846	      0.15850869
      2.28500000	      0.08325610	      0.03694393	      0.15737008
      2.29000000	      0.08358390	      0.03701659	      0.15782033
      2.29500000	      0.08328644	      0.03695066	      0.15772916
      2.30000000	      0.08327413	      0.03694793	      0.15708770
      2.30500000	      0.08313223	      0.03691644	      0.15724335
      2.31000000	      0.08323488	      0.03693922	      0.15737175
      2.31500000	      0.08340601	      0.03697718	      0.15737282
      2.32000000	      0.08321923	      0.03693575	      0.15688296
      2.32500000	      0.08318838	      0.03692890	      0.15699701
      2.33000000	      0.08329269	      0.03695205	      0.15702309
      2.33500000	      0.08332964	      0.03696024	      0.15707439
      2.34000000	      0.08336743	      0.03696862	      0.15720296
      2.34500000	      0.08342147	      0.03698060	      0.15705860
      2.35000000	      0.08343558	      0.03698373	      0.15712007
      2.35500000	      0.08339290	      0.03697427	      0.15696945
      2.36000000	      0.08336570	      0.03696824	      0.15702047
      2.36500000	      0.08348739	      0.03699521	      0.15702631
      2.37000000	      0.08371964	      0.03704663	      0.15726909
      2.37500000	      0.08351951	      0.03700233	      0.15697664
      2.38000000	      0.08356199	      0.03701174	      0.15672644
      2.38500000	      0.08348240	      0.03699411	      0.15690062
      2.39000000	      0.08357285	      0.03701414	      0.15689833
      2.39500000	      0.08350785	      0.03699974	      0.15682326
      2.40000000	      0.08365533	      0.03703240	      0.15685671
      2.40500000	      0.08359275	      0.03701855	      0.15664142
      2.41000000	      0.08356095	      0.03701151	      0.15663615
      2.41500000	      0.08367397	      0.03703653	      0.15684756
      2.42000000	      0.08368835	      0.03703971	      0.15666419
      2.42500000	      0.08380389	      0.03706527	      0.15627512
      2.43000000	      0.08384453	      0.03707426	      0.15653075
      2.43500000	      0.08374977	      0.03705330	      0.15641672
      2.44000000	      0.08370138	      0.03704259	      0.15623687
      2.44500000	      0.08382300	      0.03706950	      0.15666580
      2.45000000	      0.08378804	      0.03706177	      0.15637647
      2.45500000	      0.08383026	      0.03707110	      0.15641952
      2.46000000	      0.08380484	      0.03706548	      0.15615390
      2.46500000	      0.08370454	      0.03704329	      0.15630188
      2.47000000	      0.08368224	      0.03703836	      0.15652227
      2.47500000	      0.08376033	      0.03705564	      0.15658568
      2.48000000	      0.08375804	      0.03705513	      0.15658484
      2.48500000	      0.08371163	      0.03704486	      0.15624083
      2.49000000	      0.08376774	      0.03705728	      0.15641614
      2.49500000	      0.08405546	      0.03712086	      0.15672132
      2.50000000	      0.08382892	      0.03707081	      0.15682471
      2.50500000	      0.08387639	      0.03708130	      0.15672608
      2.51000000	      0.08388705	      0.03708366	      0.15648979
      2.51500000	      0.08402821	      0.03711484	      0.15674863
      2.52000000	      0.08400181	      0.03710901	      0.15641765
      2.52500000	      0.08408006	      0.03712629	      0.15654107
      2.53000000	      0.08411984	      0.03713508	      0.15654564
      2.53500000	      0.08402154	      0.03711337	      0.15707161
      2.54000000	      0.08386457	      0.03707869	      0.15601698
      2.54500000	      0.08400719	      0.03711020	      0.15661175
      2.55000000	      0.08410760	      0.03713237	      0.15624351
      2.55500000	      0.08423191	      0.03715980	      0.15657334
      2.56000000	      0.08408318	      0.03712698	      0.15609311
      2.56500000	      0.08422516	      0.03715831	      0.15641312
      2.57000000	      0.08425006	      0.03716381	      0.15626322
      2.57500000	      0.08423736	      0.03716101	      0.15615473
      2.58000000	      0.08417448	      0.03714713	      0.15630287
      2.58500000	      0.08445249	      0.03720843	      0.15637778
      2.59000000	      0.08438981	      0.03719462	      0.15642303
      2.59500000	      0.08431415	      0.03717794	      0.15646099
      2.60000000	      0.08435751	      0.03718750	      0.15607208
      2.60500000	      0.08445933	      0.03720993	      0.15601136
      2.61000000	      0.08417607	      0.03714748	      0.15623811
      2.61500000	      0.08447769	      0.03721398	      0.15622233
      2.62000000	      0.08455403	      0.03723079	      0.15663476
      2.62500000	      0.08461485	      0.03724418	      0.15616220
      2.63000000	      0.08449747	      0.03721833	      0.15633342
      2.63500000	      0.08451901	      0.03722308	      0.15629600
      2.64000000	      0.08466553	      0.03725533	      0.15592680
      2.64500000	      0.08447693	      0.03721381	      0.15584181
      2.65000000	      0.08453876	      0.03722743	      0.15621529
      2.65500000	      0.08459746	      0.03724035	      0.15598678
      2.66000000	      0.08440746	      0.03719851	      0.15612545
      2.66500000	      0.08440299	      0.03719752	      0.15599104
      2.67000000	      0.08451188	      0.03722151	      0.15566201
      2.67500000	      0.08462951	      0.03724740	      0.15575708
      2.68000000	      0.08477330	      0.03727903	      0.15534093
      2.68500000	      0.08444335	      0.03720641	      0.15591181
      2.69000000	      0.08481241	      0.03728763	      0.15584604
      2.69500000	      0.08451734	      0.03722271	      0.15610149
      2.70000000	      0.08457008	      0.03723432	      0.15618264
      2.70500000	      0.08463858	      0.03724940	      0.15653295
      2.71000000	      0.08467024	      0.03725636	      0.15602373
      2.71500000	      0.08480987	      0.03728707	      0.15651061
      2.72000000	      0.08487312	      0.03730097	      0.15677440
      2.72500000	      0.08477983	      0.03728047	      0.15659497
      2.73000000	      0.08475187	      0.03727432	      0.15658521
      2.73500000	      0.08477773	      0.03728001	      0.15656498
      2.74000000	      0.08488782	      0.03730420	      0.15666495
      2.74500000	      0.08466517	      0.03725525	      0.15655970
      2.75000000	      0.08470274	      0.03726351	      0.15656486
      2.75500000	      0.08486013	      0.03729812	      0.15636518
      2.76000000	      0.08472384	      0.03726816	      0.15662745
      2.76500000	      0.08475043	      0.03727400	      0.15646077
      2.77000000	      0.08468315	      0.03725920	      0.15649434
      2.77500000	      0.08464193	      0.03725014	      0.15645917
      2.78000000	      0.08457346	      0.03723507	      0.15662419
      2.78500000	      0.08465285	      0.03725254	      0.15681234
      2.79000000	      0.08469077	      0.03726088	      0.15669038
      2.79500000	      0.08460836	      0.03724275	      0.15659140
      2.80000000	      0.08464275	      0.03725032	      0.15675526
      2.80500000	      0.08502290	      0.03733387	      0.15685964
      2.81000000	      0.08460912	      0.03724291	      0.15659990
      2.81500000	      0.08467283	      0.03725693	      0.15699796
      2.82000000	      0.08458803	      0.03723827	      0.15705349
      2.82500000	      0.08471446	      0.03726609	      0.15708378
      2.83000000	      0.08468232	      0.03725902	      0.15698032
      2.83500000	      0.08463632	      0.03724890	      0.15720616
      2.84000000	      0.08463681	      0.03724901	      0.15725790
      2.84500000	      0.08475181	      0.03727431	      0.15739290
      2.85000000	      0.08472868	      0.03726922	      0.15731389
      2.85500000	      0.08474293	      0.03727235	      0.15727120
      2.86000000	      0.08467639	      0.03725772	      0.15721042
      2.86500000	      0.08481592	      0.03728840	      0.15716685
      2.87000000	      0.08486105	      0.03729832	      0.15741150
      2.87500000	      0.08476744	      0.03727774	      0.15737264
      2.88000000	      0.08480517	      0.03728604	      0.15760792
      2.88500000	      0.08494929	      0.03731771	      0.15771186
      2.89000000	      0.08483784	      0.03729322	      0.15764048
      2.89500000	      0.08490732	      0.03730849	      0.15789529
      2.90000000	      0.08494000	      0.03731567	      0.15786780
      2.90500000	      0.08500411	      0.03732975	      0.15789725
      2.91000000	      0.08492424	      0.03731221	      0.15808259
      2.91500000	      0.08498928	      0.03732649	      0.15815890
      2.92000000	      0.08481878	      0.03728903	      0.15811055
      2.92500000	      0.08487583	      0.03730157	      0.15819104
      2.93000000	      0.08523218	      0.03737979	      0.15781554
      2.93500000	      0.08511214	      0.03735346	      0.15844722
      2.94000000	      0.08510643	      0.03735221	      0.15831551
      2.94500000	      0.08518802	      0.03737011	      0.15831462
      2.95000000	      0.08551224	      0.03744115	      0.15762587
      2.95500000	      0.08525924	      0.03738572	      0.15838626
      2.96000000	      0.08529928	      0.03739450	      0.15850542
      2.96500000	      0.08538761	      0.03741386	      0.15831030
      2.97000000	      0.08539380	      0.03741521	      0.15848472
      2.97500000	      0.08539855	      0.03741626	      0.15861978
      2.98000000	      0.08549433	      0.03743723	      0.15874668
      2.98500000	      0.08547511	      0.03743302	      0.15886021
      2.99000000	      0.08544705	      0.03742688	      0.15876614
      2.99500000	      0.08535329	      0.03740634	      0.15867431
      3.00000000	      0.08562508	      0.03746585	      0.15896352
      3.00500000	      0.08556871	      0.03745352	      0.15916131
      3.01000000	      0.08554222	      0.03744772	      0.15903629
      3.01500000	      0.08559071	      0.03745833	      0.15911904
      3.02000000	      0.08594374	      0.03753550	      0.15847020
      3.02500000	      0.08560370	      0.03746117	      0.15917089
      3.03000000	      0.08566347	      0.03747425	      0.15940882
      3.03500000	      0.08582586	      0.03750975	      0.15950100
      3.04000000	      0.08576854	      0.03749722	      0.15957317
      3.04500000	      0.08577691	      0.03749905	      0.15956208
      3.05000000	      0.08583723	      0.03751223	      0.15955366
      3.05500000	      0.08580111	      0.03750434	      0.15949364
      3.06000000	      0.08593479	      0.03753354	      0.15978956
      3.06500000	      0.08617918	      0.03758688	      0.15928034
      3.07000000	      0.08600167	      0.03754815	      0.15993822
      3.07500000	      0.08626462	      0.03760551	      0.15944380
      3.08000000	      0.08606900	      0.03756284	      0.15992188
      3.08500000	      0.08612102	      0.03757419	      0.16012657
      3.09000000	      0.08606819	      0.03756267	      0.16013025
      3.09500000	      0.08631183	      0.03761579	      0.16034580
      3.10000000	      0.08639042	      0.03763292	      0.16043171
      3.10500000	      0.08653362	      0.03766409	      0.16059321
      3.11000000	      0.08645846	      0.03764773	      0.16049006
      3.11500000	      0.08650796	      0.03765851	      0.16058047
      3.12000000	      0.08660773	      0.03768022	      0.16060328
      3.12500000	      0.08676952	      0.03771540	      0.16080397
      3.13000000	      0.08683542	      0.03772972	      0.16081089
      3.13500000	      0.08673369	      0.03770761	      0.16069157
      3.14000000	      0.08736734	      0.03784510	      0.16018702
      3.14500000	      0.08702436	      0.03777074	      0.16070667
      3.15000000	      0.08701746	      0.03776924	      0.16065950
      3.15500000	      0.08705645	      0.03777770	      0.16068072
      3.16000000	      0.08735916	      0.03784333	      0.16071514
      3.16500000	      0.08743962	      0.03786075	      0.16084119
      3.17000000	      0.08752348	      0.03787890	      0.16066063
      3.17500000	      0.08761235	      0.03789813	      0.16073614
      3.18000000	      0.08778246	      0.03793490	      0.16083742
      3.18500000	      0.08792072	      0.03796476	      0.16098165
      3.19000000	      0.08789015	      0.03795816	      0.16085500
      3.19500000	      0.08798665	      0.03797900	      0.16086512
      3.20000000	      0.08795046	      0.03797118	      0.16067196
      3.20500000	      0.08838103	      0.03806402	      0.16013042
      3.21000000	      0.08827196	      0.03804052	      0.16081220
      3.21500000	      0.08890748	      0.03817721	      0.16017800
      3.22000000	      0.08844820	      0.03807848	      0.16080519
      3.22500000	      0.08892952	      0.03818195	      0.16038606
      3.23000000	      0.08878587	      0.03815109	      0.16094798
      3.23500000	      0.08877463	      0.03814868	      0.16092900
      3.24000000	      0.08889147	      0.03817378	      0.16107109
      3.24500000	      0.08907123	      0.03821236	      0.16087808
      3.25000000	      0.08910462	      0.03821952	      0.16093736
      3.25500000	      0.08940247	      0.03828334	      0.16140016
      3.26000000	      0.08967625	      0.03834192	      0.16106908
      3.26500000	      0.08962207	      0.03833033	      0.16138099
      3.27000000	      0.08961348	      0.03832849	      0.16129453
      3.27500000	      0.08977995	      0.03836408	      0.16151357
      3.28000000	      0.09000510	      0.03841215	      0.16147503
      3.28500000	      0.09011724	      0.03843608	      0.16139675
      3.29000000	      0.09019627	      0.03845292	      0.16143668
      3.29500000	      0.09082905	      0.03858757	      0.16208211
      3.30000000	      0.09054104	      0.03852635	      0.16156926
      3.30500000	      0.09062164	      0.03854349	      0.16155261
      3.31000000	      0.09075492	      0.03857182	      0.16159139
      3.31500000	      0.09105106	      0.03863470	      0.16168765
      3.32000000	      0.09127007	      0.03868114	      0.16162490
      3.32500000	      0.09106672	      0.03863803	      0.16145261
      3.33000000	      0.09129841	      0.03868715	      0.16152551
      3.33500000	      0.09145299	      0.03871988	      0.16134733
      3.34000000	      0.09141098	      0.03871099	      0.16127955
      3.34500000	      0.09188431	      0.03881108	      0.16140899
      3.35000000	      0.09210664	      0.03885801	      0.16152896
      3.35500000	      0.09224592	      0.03888738	      0.16149871
      3.36000000	      0.09261021	      0.03896409	      0.16145370
      3.36500000	      0.09275195	      0.03899389	      0.16177190
      3.37000000	      0.09289942	      0.03902488	      0.16179350
      3.37500000	      0.09312085	      0.03907136	      0.16169089
      3.38000000	      0.09313923	      0.03907522	      0.16172772
      3.38500000	      0.09359723	      0.03917117	      0.16176605
      3.39000000	      0.09376239	      0.03920572	      0.16165926
      3.39500000	      0.09354718	      0.03916070	      0.16178315
      3.40000000	      0.09391413	      0.03923743	      0.16165843
      3.40500000	      0.09397174	      0.03924946	      0.16162667
      3.41000000	      0.09431780	      0.03932167	      0.16109759
      3.41500000	      0.09451676	      0.03936312	      0.16151978
      3.42000000	      0.09479217	      0.03942043	      0.16176294
      3.42500000	      0.09491873	      0.03944673	      0.16166432
      3.43000000	      0.09526016	      0.03951762	      0.16181586
      3.43500000	      0.09550256	      0.03956786	      0.16195734
      3.44000000	      0.09556643	      0.03958109	      0.16199202
      3.44500000	      0.09583765	      0.03963722	      0.16177031
      3.45000000	      0.09615549	      0.03970289	      0.16198318
      3.45500000	      0.09626109	      0.03972469	      0.16181858
      3.46000000	      0.09642283	      0.03975805	      0.16165694
      3.46500000	      0.09690756	      0.03985785	      0.16180496
      3.47000000	      0.09713661	      0.03990493	      0.16184473
      3.47500000	      0.09763094	      0.04000634	      0.16143112
      3.48000000	      0.09718585	      0.03991504	      0.16157963
      3.48500000	      0.09774111	      0.04002891	      0.16168288
      3.49000000	      0.09779586	      0.04004012	      0.16160658
      3.49500000	      0.09809098	      0.04010048	      0.16172536
      3.50000000	      0.09858448	      0.04020123	      0.16169209
      3.50500000	      0.09870517	      0.04022583	      0.16183586
      3.51000000	      0.09921716	      0.04033002	      0.16144010
      3.51500000	      0.09939865	      0.04036689	      0.16187647
      3.52000000	      0.09970538	      0.04042913	      0.16190555
      3.52500000	      0.09996425	      0.04048158	      0.16177945
      3.53000000	      0.10029138	      0.04054776	      0.16195487
      3.53500000	      0.10064669	      0.04061952	      0.16175931
      3.54000000	      0.10101399	      0.04069357	      0.16161511
      3.54500000	      0.10140574	      0.04077241	      0.16167985
      3.55000000	      0.10187855	      0.04086735	      0.16198094
      3.55500000	      0.10227277	      0.04094634	      0.16208728
      3.56000000	      0.10276290	      0.04104434	      0.16204065
      3.56500000	      0.10301465	      0.04109458	      0.16237881
      3.57000000	      0.10346637	      0.04118458	      0.16245150
      3.57500000	      0.10382614	      0.04125613	      0.16232947
      3.58000000	      0.10420788	      0.04133190	      0.16232528
      3.58500000	      0.10472002	      0.04143334	      0.16245606
      3.59000000	      0.10532836	      0.04155351	      0.16220574
      3.59500000	      0.10559287	      0.04160566	      0.16239614
      3.60000000	      0.10591465	      0.04166900	      0.16245208
      3.60500000	      0.10627327	      0.04173949	      0.16233539
      3.61000000	      0.10677366	      0.04183764	      0.16238002
      3.61500000	      0.10686873	      0.04185626	      0.16226442
      3.62000000	      0.10712795	      0.04190699	      0.16230219
      3.62500000	      0.10736401	      0.04195314	      0.16222585
      3.63000000	      0.10758982	      0.04199723	      0.16230096
      3.63500000	      0.10768510	      0.04201582	      0.16246577
      3.64000000	      0.10764976	      0.04200893	      0.16215532
      3.64500000	      0.10794779	      0.04206704	      0.16245254
      3.65000000	      0.10826410	      0.04212863	      0.16238758
      3.65500000	      0.10838076	      0.04215132	      0.16223958
      3.66000000	      0.10846249	      0.04216721	      0.16208088
      3.66500000	      0.10863922	      0.04220155	      0.16221352
      3.67000000	      0.10849787	      0.04217409	      0.16192191
      3.67500000	      0.10871951	      0.04221714	      0.16195969
      3.68000000	      0.10897046	      0.04226584	      0.16190492
      3.68500000	      0.10911320	      0.04229351	      0.16206834
      3.69000000	      0.10924797	      0.04231962	      0.16206223
      3.69500000	      0.10935484	      0.04234032	      0.16208971
      3.70000000	      0.10962588	      0.04239275	      0.16184348
      3.70500000	      0.10964296	      0.04239606	      0.16173640
      3.71000000	      0.10987753	      0.04244138	      0.16177346
      3.71500000	      0.10999760	      0.04246457	      0.16168692
      3.72000000	      0.11030254	      0.04252339	      0.16170088
      3.72500000	      0.11063943	      0.04258827	      0.16161621
      3.73000000	      0.11094380	      0.04264682	      0.16170039
      3.73500000	      0.11098864	      0.04265543	      0.16165905
      3.74000000	      0.11131014	      0.04271717	      0.16187473
      3.74500000	      0.11181096	      0.04281316	      0.16177812
      3.75000000	      0.11256094	      0.04295650	      0.16233308
      3.75500000	      0.11221001	      0.04288949	      0.16162833
      3.76000000	      0.11214864	      0.04287776	      0.16166763
      3.76500000	      0.11225733	      0.04289853	      0.16160857
      3.77000000	      0.11249650	      0.04294421	      0.16134386
      3.77500000	      0.11261597	      0.04296701	      0.16154620
      3.78000000	      0.11281642	      0.04300523	      0.16149722
      3.78500000	      0.11299388	      0.04303904	      0.16170404
      3.79000000	      0.11312934	      0.04306483	      0.16180917
      3.79500000	      0.11323288	      0.04308453	      0.16176637
      3.80000000	      0.11360464	      0.04315520	      0.16146714
      3.80500000	      0.11361871	      0.04315787	      0.16176058
      3.81000000	      0.11405319	      0.04324031	      0.16210806
      3.81500000	      0.11385741	      0.04320318	      0.16166152
      3.82000000	      0.11381944	      0.04319598	      0.16168148
      3.82500000	      0.11402005	      0.04323403	      0.16182233
      3.83000000	      0.11405616	      0.04324087	      0.16166292
      3.83500000	      0.11414709	      0.04325811	      0.16182124
      3.84000000	      0.11398743	      0.04322784	      0.16180237
      3.84500000	      0.11424104	      0.04327590	      0.16177101
      3.85000000	      0.11432824	      0.04329242	      0.16179629
      3.85500000	      0.11461055	      0.04334584	      0.16192007
      3.86000000	      0.11476397	      0.04337484	      0.16173955
      3.86500000	      0.11472388	      0.04336726	      0.16171199
      3.87000000	      0.11495106	      0.04341018	      0.16181132
      3.87500000	      0.11527012	      0.04347038	      0.16174182
      3.88000000	      0.11557852	      0.04352849	      0.16185537
      3.88500000	      0.11570292	      0.04355191	      0.16180042
      3.89000000	      0.11588045	      0.04358531	      0.16192423
      3.89500000	      0.11603737	      0.04361481	      0.16194815
      3.90000000	      0.11598027	      0.04360408	      0.16197254
      3.90500000	      0.11617272	      0.04364024	      0.16197496
      3.91000000	      0.11628145	      0.04366066	      0.16207265
      3.91500000	      0.11669240	      0.04373774	      0.16252613
      3.92000000	      0.11652156	      0.04370572	      0.16212757
      3.92500000	      0.11739183	      0.04386862	      0.16265047
      3.93000000	      0.11709062	      0.04381231	      0.16223074
      3.93500000	      0.11693663	      0.04378349	      0.16222138
      3.94000000	      0.11702890	      0.04380076	      0.16225919
      3.94500000	      0.11703117	      0.04380119	      0.16213012
      3.95000000	      0.11700722	      0.04379670	      0.16215696
      3.95500000	      0.11713342	      0.04382031	      0.16219512
      3.96000000	      0.11726100	      0.04384417	      0.16218597
      3.96500000	      0.11725512	      0.04384307	      0.16207198
      3.97000000	      0.11714698	      0.04382285	      0.16210099
      3.97500000	      0.11737245	      0.04386500	      0.16208876
      3.98000000	      0.11763503	      0.04391404	      0.16260303
      3.98500000	      0.11730296	      0.04385202	      0.16202934
      3.99000000	      0.11752618	      0.04389372	      0.16206106
      3.99500000	      0.11773924	      0.04393349	      0.16232311
      4.00000000	      0.11752584	      0.04389366	      0.16210061
      4.00500000	      0.11753353	      0.04389509	      0.16232212
      4.01000000	      0.11758096	      0.04390395	      0.16235853
      4.01500000	      0.11784744	      0.04395367	      0.16246587
      4.02000000	      0.11765813	      0.04391835	      0.16242841
      4.02500000	      0.11773066	      0.04393189	      0.16243898
      4.03000000	      0.11796611	      0.04397580	      0.16254215
      4.03500000	      0.11817144	      0.04401405	      0.16258988
      4.04000000	      0.11838728	      0.04405423	      0.16265864
      4.04500000	      0.11843972	      0.04406398	      0.16255381
      4.05000000	      0.11847121	      0.04406984	      0.16257416
      4.05500000	      0.11819153	      0.04401779	      0.16260448
      4.06000000	      0.11813178	      0.04400666	      0.16256247
      4.06500000	      0.11824176	      0.04402715	      0.16278088
      4.07000000	      0.11826627	      0.04403171	      0.16277372
      4.07500000	      0.11826838	      0.04403210	      0.16274227
      4.08000000	      0.11832976	      0.04404353	      0.16270421
      4.08500000	      0.11869159	      0.04411081	      0.16247662
      4.09000000	      0.11858786	      0.04409153	      0.16272509
      4.09500000	      0.11895808	      0.04416031	      0.16271737
      4.10000000	      0.11969975	      0.04429775	      0.16346847
      4.10500000	      0.11912731	      0.04419171	      0.16282109
      4.11000000	      0.11915398	      0.04419665	      0.16283315
      4.11500000	      0.11911146	      0.04418876	      0.16291614
      4.12000000	      0.11918266	      0.04420197	      0.16275839
      4.12500000	      0.11889528	      0.04414865	      0.16291993
      4.13000000	      0.11890514	      0.04415048	      0.16286863
      4.13500000	      0.11907038	      0.04418114	      0.16301749
      4.14000000	      0.11914042	      0.04419414	      0.16311624
      4.14500000	      0.11912743	      0.04419173	      0.16313439
      4.15000000	      0.11920439	      0.04420600	      0.16293281
      4.15500000	      0.11895806	      0.04416030	      0.16280314
      4.16000000	      0.11886392	      0.04414282	      0.16278543
      4.16500000	      0.11887582	      0.04414503	      0.16289900
      4.17000000	      0.11876473	      0.04412440	      0.16290086
      4.17500000	      0.11866323	      0.04410554	      0.16282180
      4.18000000	      0.11886682	      0.04414336	      0.16288051
      4.18500000	      0.11897324	      0.04416312	      0.16295143
      4.19000000	      0.11897396	      0.04416325	      0.16298895
      4.19500000	      0.11872256	      0.04411657	      0.16301904
      4.20000000	      0.11875162	      0.04412197	      0.16318061
      4.20500000	      0.11883624	      0.04413768	      0.16327723
      4.21000000	      0.11881083	      0.04413296	      0.16340321
      4.21500000	      0.11863328	      0.04409997	      0.16324167
      4.22000000	      0.11882005	      0.04413468	      0.16324152
      4.22500000	      0.11861397	      0.04409639	      0.16319712
      4.23000000	      0.11861679	      0.04409691	      0.16327372
      4.23500000	      0.11870689	      0.04411366	      0.16339999
      4.24000000	      0.11853244	      0.04408123	      0.16317766
      4.24500000	      0.11853654	      0.04408199	      0.16345566
      4.25000000	      0.11836910	      0.04405085	      0.16345113
      4.25500000	      0.11837197	      0.04405138	      0.16343307
      4.26000000	      0.11816253	      0.04401239	      0.16316809
      4.26500000	      0.11805799	      0.04399292	      0.16330312
      4.27000000	      0.11822021	      0.04402313	      0.16336602
      4.27500000	      0.11799850	      0.04398183	      0.16350496
      4.28000000	      0.11791233	      0.04396577	      0.16333779
      4.28500000	      0.11799382	      0.04398096	      0.16343176
      4.29000000	      0.11779559	      0.04394400	      0.16325098
      4.29500000	      0.11783784	      0.04395188	      0.16348124
      4.30000000	      0.11777277	      0.04393974	      0.16307806
      4.30500000	      0.11795409	      0.04397356	      0.16352800
      4.31000000	      0.11771066	      0.04392816	      0.16331348
      4.31500000	      0.11775719	      0.04393684	      0.16304531
      4.32000000	      0.11784447	      0.04395312	      0.16319861
      4.32500000	      0.11761467	      0.04391024	      0.16325971
      4.33000000	      0.11783255	      0.04395090	      0.16329812
      4.33500000	      0.11777805	      0.04394073	      0.16315746
      4.34000000	      0.11783882	      0.04395206	      0.16325253
      4.34500000	      0.11769980	      0.04392613	      0.16318151
      4.35000000	      0.11767770	      0.04392201	      0.16319472
      4.35500000	      0.11782222	      0.04394897	      0.16331433
      4.36000000	      0.11804472	      0.04399045	      0.16314929
      4.36500000	      0.11755562	      0.04389922	      0.16314298
      4.37000000	      0.11760783	      0.04390896	      0.16323699
      4.37500000	      0.11725785	      0.04384358	      0.16274313
      4.38000000	      0.11727602	      0.04384698	      0.16275702
      4.38500000	      0.11715243	      0.04382387	      0.16305866
      4.39000000	      0.11704512	      0.04380380	      0.16285225
      4.39500000	      0.11705118	      0.04380493	      0.16289170
      4.40000000	      0.11666095	      0.04373185	      0.16298002
      4.40500000	      0.11653308	      0.04370788	      0.16305312
      4.41000000	      0.11632187	      0.04366825	      0.16287190
      4.41500000	      0.11607420	      0.04362173	      0.16315188
      4.42000000	      0.11608019	      0.04362286	      0.16314726
      4.42500000	      0.11577702	      0.04356586	      0.16327638
      4.43000000	      0.11548488	      0.04351086	      0.16316454
      4.43500000	      0.11518327	      0.04345400	      0.16318628
      4.44000000	      0.11478852	      0.04337948	      0.16333837
      4.44500000	      0.11457309	      0.04333875	      0.16325283
      4.45000000	      0.11445048	      0.04331556	      0.16313477
      4.45500000	      0.11389483	      0.04321028	      0.16300555
      4.46000000	      0.11396311	      0.04322323	      0.16316699
      4.46500000	      0.11347209	      0.04313002	      0.16306056
      4.47000000	      0.11326691	      0.04309100	      0.16331580
      4.47500000	      0.11278346	      0.04299894	      0.16319654
      4.48000000	      0.11283715	      0.04300918	      0.16334062
      4.48500000	      0.11272689	      0.04298816	      0.16322311
      4.49000000	      0.11217075	      0.04288199	      0.16351257
      4.49500000	      0.11202514	      0.04285414	      0.16350628
      4.50000000	      0.11167470	      0.04278706	      0.16350672
      4.50500000	      0.11109347	      0.04267557	      0.16362842
      4.51000000	      0.11083148	      0.04262522	      0.16318372
      4.51500000	      0.11024349	      0.04251200	      0.16345998
      4.52000000	      0.11022211	      0.04250788	      0.16320782
      4.52500000	      0.10999583	      0.04246422	      0.16343612
      4.53000000	      0.10970393	      0.04240784	      0.16371296
      4.53500000	      0.10944683	      0.04235812	      0.16358361
      4.54000000	      0.10893870	      0.04225968	      0.16347387
      4.54500000	      0.10874007	      0.04222113	      0.16353744
      4.55000000	      0.10839288	      0.04215368	      0.16381019
      4.55500000	      0.10781548	      0.04204125	      0.16374476
      4.56000000	      0.10762540	      0.04200418	      0.16389455
      4.56500000	      0.10725635	      0.04193210	      0.16366006
      4.57000000	      0.10720620	      0.04192229	      0.16357215
      4.57500000	      0.10652875	      0.04178963	      0.16346446
      4.58000000	      0.10631411	      0.04174751	      0.16391423
      4.58500000	      0.10595789	      0.04167751	      0.16378435
      4.59000000	      0.10591788	      0.04166964	      0.16376242
      4.59500000	      0.10549768	      0.04158690	      0.16404071
      4.60000000	      0.10534190	      0.04155618	      0.16384239
      4.60500000	      0.10506925	      0.04150237	      0.16418035
      4.61000000	      0.10461535	      0.04141263	      0.16401855
      4.61500000	      0.10438711	      0.04136743	      0.16421286
      4.62000000	      0.10400654	      0.04129195	      0.16434749
      4.62500000	      0.10388797	      0.04126841	      0.16421163
      4.63000000	      0.10344304	      0.04117994	      0.16405794
      4.63500000	      0.10333698	      0.04115883	      0.16424189
      4.64000000	      0.10273798	      0.04103936	      0.16355686
      4.64500000	      0.10261436	      0.04101466	      0.16383093
      4.65000000	      0.10232492	      0.04095678	      0.16429512
      4.65500000	      0.10213411	      0.04091857	      0.16430995
      4.66000000	      0.10175587	      0.04084273	      0.16452190
      4.66500000	      0.10156476	      0.04080436	      0.16441796
      4.67000000	      0.10126900	      0.04074491	      0.16434299
      4.67500000	      0.10078670	      0.04064777	      0.16448322
      4.68000000	      0.10056445	      0.04060293	      0.16459153
      4.68500000	      0.10043507	      0.04057680	      0.16459052
      4.69000000	      0.09984102	      0.04045662	      0.16461501
      4.69500000	      0.09927049	      0.04034086	      0.16406110
      4.70000000	      0.09904997	      0.04029603	      0.16433095
      4.70500000	      0.09866773	      0.04021820	      0.16448959
      4.71000000	      0.09821491	      0.04012581	      0.16419420
      4.71500000	      0.09807033	      0.04009626	      0.16432346
      4.72000000	      0.09769629	      0.04001973	      0.16420040
      4.72500000	      0.09743022	      0.03996519	      0.16449439
      4.73000000	      0.09736536	      0.03995189	      0.16433095
      4.73500000	      0.09709804	      0.03989701	      0.16440826
      4.74000000	      0.09666849	      0.03980866	      0.16461114
      4.74500000	      0.09630597	      0.03973394	      0.16445901
      4.75000000	      0.09597796	      0.03966622	      0.16439796
      4.75500000	      0.09565728	      0.03959990	      0.16428037
      4.76000000	      0.09567106	      0.03960275	      0.16460106
      4.76500000	      0.09520912	      0.03950703	      0.16423886
      4.77000000	      0.09497351	      0.03945812	      0.16440191
      4.77500000	      0.09464725	      0.03939028	      0.16406266
      4.78000000	      0.09444099	      0.03934734	      0.16392987
      4.78500000	      0.09414784	      0.03928622	      0.16392981
      4.79000000	      0.09381452	      0.03921662	      0.16407403
      4.79500000	      0.09351077	      0.03915308	      0.16369073
      4.80000000	      0.09320515	      0.03908904	      0.16356393
      4.80500000	      0.09310947	      0.03906897	      0.16375571
      4.81000000	      0.09289694	      0.03902436	      0.16367803
      4.81500000	      0.09265817	      0.03897418	      0.16366946
      4.82000000	      0.09255853	      0.03895322	      0.16361833
      4.82500000	      0.09230768	      0.03890039	      0.16342447
      4.83000000	      0.09185103	      0.03880405	      0.16327526
      4.83500000	      0.09175781	      0.03878436	      0.16324567
      4.84000000	      0.09170385	      0.03877295	      0.16351382
      4.84500000	      0.09131934	      0.03869158	      0.16321840
      4.85000000	      0.09129079	      0.03868553	      0.16347238
      4.85500000	      0.09104030	      0.03863242	      0.16357662
      4.86000000	      0.09087497	      0.03859733	      0.16349016
      4.86500000	      0.09065468	      0.03855052	      0.16343897
      4.87000000	      0.09083375	      0.03858857	      0.16329307
      4.87500000	      0.09040067	      0.03849647	      0.16332225
      4.88000000	      0.09037704	      0.03849144	      0.16340390
      4.88500000	      0.08994311	      0.03839892	      0.16309504
      4.89000000	      0.08997056	      0.03840478	      0.16312754
      4.89500000	      0.08979715	      0.03836775	      0.16310848
      4.90000000	      0.08946314	      0.03829633	      0.16288190
      4.90500000	      0.08934268	      0.03827054	      0.16306217
      4.91000000	      0.08961795	      0.03832945	      0.16314929
      4.91500000	      0.08927512	      0.03825607	      0.16306254
      4.92000000	      0.08890055	      0.03817573	      0.16296119
      4.92500000	      0.08890904	      0.03817755	      0.16286431
      4.93000000	      0.08902029	      0.03820143	      0.16279630
      4.93500000	      0.08861415	      0.03811418	      0.16274140
      4.94000000	      0.08855546	      0.03810156	      0.16267584
      4.94500000	      0.08826387	      0.03803878	      0.16260723
      4.95000000	      0.08824720	      0.03803519	      0.16236634
      4.95500000	      0.08800877	      0.03798377	      0.16190758
      4.96000000	      0.08800055	      0.03798199	      0.16215280
      4.96500000	      0.08781148	      0.03794117	      0.16246541
      4.97000000	      0.08759620	      0.03789463	      0.16185634
      4.97500000	      0.08752229	      0.03787864	      0.16188695
      4.98000000	      0.08738399	      0.03784870	      0.16181610
      4.98500000	      0.08722593	      0.03781446	      0.16159643
      4.99000000	      0.08696032	      0.03775684	      0.16158144
      4.99500000	      0.08708174	      0.03778319	      0.16170289
      5.00000000	      0.08674695	      0.03771049	      0.16175800
      5.00500000	      0.08658072	      0.03767434	      0.16119941
      5.01000000	      0.08653177	      0.03766369	      0.16178820
      5.01500000	      0.08649523	      0.03765574	      0.16126044
      5.02000000	      0.08637496	      0.03762955	      0.16157346
      5.02500000	      0.08615031	      0.03758058	      0.16105724
      5.03000000	      0.08598876	      0.03754533	      0.16092759
      5.03500000	      0.08587336	      0.03752013	      0.16069681
      5.04000000	      0.08582125	      0.03750874	      0.16067433
      5.04500000	      0.08556592	      0.03745290	      0.16023271
      5.05000000	      0.08550942	      0.03744054	      0.16047644
      5.05500000	      0.08533888	      0.03740318	      0.16014210
      5.06000000	      0.08506379	      0.03734285	      0.16007511
      5.06500000	      0.08501519	      0.03733218	      0.16001139
      5.07000000	      0.08491079	      0.03730925	      0.15965726
      5.07500000	      0.08482929	      0.03729134	      0.15932428
      5.08000000	      0.08459440	      0.03723967	      0.15912236
      5.08500000	      0.08454068	      0.03722785	      0.15885478
      5.09000000	      0.08464334	      0.03725045	      0.15816812
      5.09500000	      0.08439449	      0.03719565	      0.15880485
      5.10000000	      0.08422443	      0.03715815	      0.15877548
      5.10500000	      0.08429495	      0.03717371	      0.15882845
      5.11000000	      0.08430102	      0.03717504	      0.15886694
      5.11500000	      0.08429301	      0.03717328	      0.15865134
      5.12000000	      0.08399860	      0.03710830	      0.15832366
      5.12500000	      0.08394584	      0.03709665	      0.15829053
      5.13000000	      0.08388900	      0.03708409	      0.15823542
      5.13500000	      0.08379078	      0.03706237	      0.15797640
      5.14000000	      0.08377210	      0.03705824	      0.15816163
      5.14500000	      0.08383367	      0.03707185	      0.15826935
      5.15000000	      0.08399259	      0.03710698	      0.15726976
      5.15500000	      0.08343212	      0.03698296	      0.15736602
      5.16000000	      0.08317336	      0.03692557	      0.15706974
      5.16500000	      0.08328056	      0.03694936	      0.15729205
      5.17000000	      0.08348256	      0.03699414	      0.15778529
      5.17500000	      0.08341951	      0.03698017	      0.15724585
      5.18000000	      0.08324398	      0.03694124	      0.15758874
      5.18500000	      0.08323599	      0.03693947	      0.15753386
      5.19000000	      0.08313244	      0.03691649	      0.15712787
      5.19500000	      0.08291984	      0.03686925	      0.15714312
      5.20000000	      0.08289128	      0.03686290	      0.15718478
      5.20500000	      0.08297603	      0.03688174	      0.15682918
      5.21000000	      0.08276080	      0.03683388	      0.15719399
      5.21500000	      0.08248962	      0.03677348	      0.15693782
      5.22000000	      0.08261894	      0.03680229	      0.15742600
      5.22500000	      0.08260927	      0.03680014	      0.15705989
      5.23000000	      0.08246061	      0.03676701	      0.15738038
      5.23500000	      0.08241200	      0.03675618	      0.15717431
      5.24000000	      0.08243873	      0.03676214	      0.15740727
      5.24500000	      0.08239342	      0.03675203	      0.15734154
      5.25000000	      0.08232742	      0.03673731	      0.15703466
