_ik_marker_errors_all.sto
version=1
nRows=111
nColumns=62
in_degrees=yes
endheader
time	FHD	LBHD	RBHD	C7	T10	CLAV	LSHO	LUUPA	LMUPA	LDUPA	LLEP	LMEP	LRAD	LUL	LRFIN	RSHO	RUPA1	RMUPA	RDUPA	RLEP	RMEP	RRAD	RUL	RUFIN	LASI	RASI	USACR	LSACR	RSACR	LTHI1	LTHI2	LTHI3	LTHI4	LLFC	LMFC	LTIB1	LTIB2	LTIB3	LTIB4	LLMAL	LMMAL	LHEE	LMT1	LMT2	LMT5	RTHI	RTHI2	RTHI3	RTHI4	RLFC	RMFC	RTIB1	RTIB2	RTIB3	RTIB4	RLMAL	RMMAL	RHEE	RMT1	RMT2	RMT5
3.850000	0.125833	0.059521	0.061861	0.032210	0.012539	0.066331	0.050135	0.028294	0.041089	0.028195	0.048560	0.042722	0.057345	0.043912	0.085625	0.070468	0.026944	0.035439	0.030700	0.057415	0.046419	0.051418	0.078385	0.080819	0.022847	0.022298	0.008319	0.008966	0.011463	0.037334	0.031679	0.020398	0.037039	0.039911	0.031008	0.009264	0.019548	0.011313	0.004754	0.018169	0.017977	0.014566	0.021410	0.019139	0.030323	0.030618	0.028879	0.025946	0.023518	0.028655	0.022883	0.025619	0.027615	0.019968	0.008150	0.011353	0.029204	0.018774	0.036386	0.020460	0.030962
3.855000	0.126445	0.060058	0.062818	0.031803	0.011956	0.065907	0.050161	0.028394	0.041352	0.027773	0.048594	0.042791	0.057420	0.043248	0.086252	0.070218	0.027470	0.035702	0.031237	0.058308	0.047492	0.051346	0.079493	0.079442	0.022150	0.021818	0.008408	0.008960	0.011391	0.036369	0.031190	0.019984	0.036437	0.040261	0.032331	0.008206	0.019183	0.010865	0.005178	0.018329	0.018197	0.014769	0.021553	0.019267	0.030419	0.030618	0.028900	0.025699	0.023184	0.028814	0.022735	0.025150	0.027345	0.019697	0.008041	0.011490	0.029418	0.019107	0.036839	0.020701	0.031025
3.860000	0.126574	0.058938	0.063067	0.031521	0.011887	0.065537	0.049779	0.028223	0.041231	0.027680	0.048839	0.043256	0.057413	0.043643	0.085955	0.070221	0.027746	0.035620	0.031259	0.058601	0.047912	0.051342	0.079426	0.078981	0.020819	0.022335	0.008417	0.009123	0.011426	0.036373	0.031272	0.019951	0.036725	0.040257	0.032510	0.007984	0.018999	0.010720	0.005208	0.018175	0.018151	0.014855	0.021468	0.019161	0.030576	0.030757	0.028957	0.025988	0.023281	0.028936	0.022729	0.025237	0.027260	0.019885	0.008008	0.011374	0.029165	0.019057	0.036611	0.020532	0.031121
3.865000	0.127194	0.060235	0.063382	0.031057	0.012207	0.065274	0.049348	0.028023	0.041107	0.028142	0.048800	0.043262	0.057267	0.044054	0.085670	0.069616	0.027424	0.035210	0.030878	0.058484	0.047837	0.051239	0.078659	0.078957	0.021193	0.021534	0.008915	0.008934	0.011703	0.036234	0.031336	0.020072	0.036371	0.040280	0.032085	0.008327	0.020096	0.011041	0.004898	0.018221	0.018017	0.014668	0.021313	0.018960	0.030449	0.030904	0.029095	0.026267	0.023360	0.028783	0.022387	0.025679	0.027582	0.020130	0.008275	0.011259	0.029152	0.019000	0.036540	0.020494	0.031039
3.870000	0.127230	0.059730	0.063282	0.030864	0.012577	0.064961	0.049039	0.027697	0.040562	0.027744	0.049070	0.043990	0.056767	0.043638	0.085909	0.069366	0.026768	0.034775	0.030156	0.058127	0.047715	0.052187	0.077610	0.079991	0.022807	0.022750	0.008977	0.009025	0.011733	0.037018	0.031870	0.020570	0.036890	0.039547	0.031192	0.009148	0.020811	0.011507	0.004736	0.018302	0.018162	0.014743	0.021378	0.018890	0.030239	0.030284	0.028873	0.026062	0.023235	0.028600	0.023083	0.025634	0.027355	0.020087	0.008334	0.011063	0.028847	0.018710	0.036189	0.020311	0.030778
3.875000	0.127996	0.060714	0.064437	0.030207	0.012002	0.064273	0.048643	0.028037	0.040911	0.027864	0.048834	0.043526	0.056896	0.043318	0.086326	0.069137	0.026629	0.034814	0.029879	0.057766	0.047149	0.052145	0.076461	0.081111	0.021607	0.022230	0.008991	0.009020	0.011700	0.035765	0.031176	0.019800	0.036347	0.040400	0.032272	0.008373	0.019385	0.010997	0.005080	0.018434	0.018252	0.014680	0.021501	0.019065	0.030149	0.030494	0.028763	0.025842	0.023049	0.028590	0.022676	0.025128	0.027071	0.019733	0.008267	0.011115	0.029112	0.018903	0.036593	0.020558	0.030774
3.880000	0.128785	0.060574	0.065167	0.029734	0.012070	0.063847	0.048405	0.027735	0.040967	0.027709	0.049042	0.043614	0.056747	0.043796	0.086216	0.068242	0.025844	0.034521	0.029648	0.057399	0.046248	0.051638	0.075719	0.082156	0.021309	0.022340	0.009296	0.009154	0.011860	0.035399	0.031556	0.020056	0.036269	0.039976	0.032110	0.008222	0.019778	0.011052	0.004930	0.018110	0.018118	0.014724	0.021276	0.018942	0.030478	0.030462	0.028866	0.026068	0.022912	0.028635	0.022805	0.025118	0.027087	0.019924	0.008314	0.011047	0.028775	0.018795	0.036328	0.020334	0.030874
3.885000	0.129153	0.059641	0.065485	0.029382	0.012223	0.063435	0.047445	0.027630	0.040595	0.027714	0.049345	0.044271	0.056603	0.043674	0.086030	0.068038	0.025419	0.034353	0.028962	0.056700	0.045511	0.051545	0.075484	0.083797	0.022397	0.020594	0.009642	0.009201	0.012164	0.034941	0.031280	0.020008	0.035795	0.039764	0.031979	0.007971	0.019676	0.011002	0.004804	0.018108	0.017968	0.014560	0.021089	0.018804	0.030260	0.030700	0.029200	0.026421	0.022888	0.028610	0.022643	0.025524	0.027118	0.020079	0.008568	0.010946	0.028581	0.018617	0.036197	0.020290	0.030831
3.890000	0.129517	0.060841	0.065450	0.029171	0.012393	0.063015	0.047493	0.027460	0.040717	0.027435	0.048655	0.043889	0.056577	0.043389	0.086053	0.067654	0.024911	0.033971	0.028530	0.056313	0.045042	0.051478	0.075447	0.084890	0.022054	0.022917	0.009685	0.009291	0.012079	0.035874	0.031724	0.020520	0.036215	0.039401	0.031766	0.008191	0.020104	0.011327	0.004695	0.018235	0.018158	0.014711	0.021297	0.018795	0.030233	0.030087	0.028792	0.026251	0.022824	0.028478	0.022239	0.025536	0.026804	0.020007	0.008619	0.010824	0.028147	0.018153	0.035696	0.019828	0.030433
3.895000	0.130403	0.061564	0.066421	0.028538	0.011979	0.062588	0.047094	0.027705	0.040630	0.027769	0.049293	0.044106	0.056522	0.043555	0.086235	0.067239	0.024374	0.033607	0.028019	0.055846	0.044372	0.051493	0.075106	0.085893	0.022234	0.022546	0.009929	0.009284	0.012147	0.034720	0.031302	0.019956	0.035680	0.039610	0.032128	0.007657	0.019766	0.011434	0.004931	0.018162	0.018070	0.014316	0.021289	0.018874	0.030080	0.030140	0.028966	0.026137	0.022509	0.028440	0.023546	0.025159	0.026417	0.019729	0.008574	0.010807	0.028108	0.018105	0.035901	0.020080	0.030282
3.900000	0.131040	0.062109	0.067166	0.028124	0.011998	0.062129	0.046667	0.027589	0.040543	0.028911	0.049599	0.043978	0.055978	0.043440	0.086339	0.066731	0.024173	0.033414	0.027804	0.055812	0.044289	0.051487	0.074633	0.086442	0.020808	0.021115	0.010002	0.009459	0.012358	0.034360	0.031062	0.020049	0.035544	0.039915	0.032424	0.007491	0.019709	0.010994	0.005001	0.018174	0.018092	0.014372	0.021151	0.018698	0.029985	0.030134	0.028696	0.026172	0.022344	0.028591	0.022921	0.024934	0.026242	0.019491	0.008544	0.010752	0.028155	0.017962	0.035610	0.019857	0.030213
3.905000	0.131207	0.061725	0.066908	0.028082	0.012524	0.062086	0.046446	0.026767	0.040171	0.028512	0.049102	0.043498	0.055851	0.043166	0.086952	0.066196	0.023631	0.032919	0.027465	0.055323	0.044041	0.051623	0.074355	0.086325	0.023472	0.023175	0.010720	0.009748	0.012626	0.034819	0.031425	0.020882	0.035660	0.038999	0.031149	0.008404	0.020430	0.011576	0.004490	0.018188	0.017850	0.014079	0.020906	0.018373	0.029949	0.030384	0.029434	0.026906	0.022759	0.028160	0.021594	0.025887	0.026485	0.020055	0.009025	0.010488	0.027624	0.017374	0.034936	0.019363	0.030091
3.910000	0.132066	0.062714	0.068182	0.027663	0.011649	0.061729	0.045990	0.026824	0.040216	0.028720	0.049233	0.043778	0.055231	0.043353	0.086901	0.065975	0.023805	0.033150	0.027567	0.055863	0.044230	0.051225	0.074271	0.086371	0.021423	0.021397	0.010899	0.009652	0.012709	0.033713	0.030342	0.020142	0.034939	0.039592	0.032753	0.007172	0.019699	0.010777	0.004949	0.018127	0.017937	0.014813	0.020936	0.018503	0.030217	0.030041	0.028670	0.026280	0.022256	0.028324	0.022786	0.024759	0.025865	0.019368	0.008776	0.010557	0.027744	0.017438	0.034962	0.019496	0.030204
3.915000	0.132175	0.062898	0.068349	0.027536	0.012191	0.061736	0.045777	0.026411	0.039785	0.028146	0.048765	0.043848	0.055588	0.043184	0.086861	0.065855	0.023584	0.032830	0.027268	0.055456	0.044032	0.051076	0.074227	0.086279	0.022253	0.022098	0.011386	0.009915	0.013046	0.034245	0.030645	0.020597	0.035209	0.039210	0.031920	0.007695	0.020158	0.011325	0.004480	0.017912	0.017681	0.013949	0.020776	0.018453	0.030319	0.029752	0.028793	0.026336	0.022281	0.028129	0.023120	0.025019	0.025792	0.019507	0.008773	0.010473	0.027213	0.016865	0.034593	0.018998	0.029747
3.920000	0.132609	0.063392	0.068992	0.027291	0.011874	0.061267	0.045293	0.026552	0.039899	0.028282	0.049122	0.043973	0.055002	0.043338	0.086868	0.065563	0.023645	0.032880	0.026988	0.055642	0.044180	0.051030	0.074140	0.086138	0.023241	0.022542	0.011713	0.009706	0.013135	0.033672	0.030887	0.020415	0.035002	0.039198	0.032171	0.007646	0.019133	0.011162	0.004682	0.018074	0.017855	0.014348	0.020772	0.018163	0.030000	0.029621	0.028706	0.026441	0.022247	0.028002	0.022297	0.024947	0.025557	0.019514	0.008687	0.010385	0.026969	0.016509	0.034018	0.018909	0.029763
3.925000	0.133018	0.064523	0.070054	0.027152	0.011361	0.061281	0.045093	0.026640	0.040083	0.028381	0.049176	0.044041	0.054655	0.043300	0.087159	0.065398	0.023765	0.032885	0.027021	0.055532	0.044437	0.051037	0.074040	0.086217	0.022017	0.022973	0.011902	0.010099	0.013157	0.033455	0.030717	0.020199	0.034984	0.039268	0.032985	0.006903	0.019656	0.010833	0.004787	0.018001	0.017823	0.014708	0.020749	0.018362	0.030233	0.029053	0.028335	0.025861	0.021195	0.028351	0.023151	0.024204	0.024913	0.018938	0.008670	0.010339	0.026472	0.016022	0.033717	0.018867	0.029689
3.930000	0.133426	0.064661	0.070670	0.026837	0.011491	0.060840	0.044829	0.026590	0.040106	0.028508	0.049369	0.044570	0.054377	0.043873	0.086918	0.065028	0.023713	0.032688	0.026888	0.055650	0.044623	0.050393	0.073830	0.086131	0.022445	0.022165	0.011987	0.010074	0.013458	0.032763	0.029710	0.019993	0.034330	0.039627	0.032720	0.006825	0.019614	0.010860	0.004734	0.018037	0.017701	0.014415	0.020698	0.018253	0.030051	0.029149	0.028304	0.026178	0.021713	0.028300	0.023167	0.024183	0.024706	0.018852	0.008633	0.010377	0.026233	0.015715	0.033598	0.018673	0.029259
3.935000	0.133614	0.065467	0.071130	0.026903	0.011249	0.060881	0.044654	0.026326	0.039654	0.028304	0.049056	0.044849	0.054172	0.044065	0.086872	0.064995	0.023850	0.032546	0.026785	0.055550	0.044608	0.050205	0.073397	0.086100	0.022148	0.023445	0.012296	0.010338	0.013597	0.032286	0.029627	0.019816	0.033917	0.039402	0.032486	0.006998	0.018604	0.010998	0.004690	0.018203	0.017683	0.014368	0.020643	0.018108	0.029716	0.029144	0.028473	0.026119	0.021547	0.028180	0.022982	0.023995	0.024680	0.018937	0.008750	0.010318	0.025904	0.015263	0.033079	0.018341	0.029162
3.940000	0.133857	0.065544	0.071754	0.027020	0.011086	0.060458	0.044653	0.026328	0.039629	0.027953	0.049298	0.044707	0.053468	0.044235	0.086665	0.064725	0.023932	0.032293	0.026618	0.055516	0.044761	0.050041	0.073609	0.086018	0.023521	0.022836	0.012582	0.010204	0.013750	0.031368	0.029565	0.019546	0.033595	0.039122	0.032328	0.006996	0.018494	0.011096	0.004568	0.018203	0.017525	0.014189	0.020459	0.017913	0.029693	0.029306	0.028459	0.026244	0.021617	0.028007	0.023071	0.023616	0.024260	0.018583	0.008964	0.010284	0.027456	0.015057	0.033273	0.018352	0.028747
3.945000	0.134014	0.065125	0.072361	0.027064	0.010928	0.060419	0.044348	0.026057	0.039765	0.027974	0.049087	0.045138	0.053270	0.043817	0.087368	0.064596	0.023526	0.032103	0.026338	0.055006	0.044293	0.050205	0.074496	0.086046	0.019500	0.023910	0.013089	0.009933	0.014028	0.030964	0.028541	0.018767	0.033291	0.039257	0.033264	0.006441	0.018323	0.010874	0.004685	0.018025	0.017404	0.014180	0.020174	0.017949	0.030175	0.028593	0.028044	0.025801	0.021217	0.028292	0.024650	0.023176	0.023745	0.018227	0.009088	0.010168	0.026889	0.014483	0.032498	0.017970	0.029174
3.950000	0.134231	0.064997	0.072464	0.027337	0.011308	0.060512	0.044452	0.025177	0.039688	0.026904	0.048538	0.044426	0.053260	0.043903	0.088180	0.064460	0.022908	0.031467	0.025742	0.054442	0.043909	0.050138	0.074508	0.086072	0.025763	0.021678	0.013285	0.010598	0.014154	0.030684	0.028658	0.019483	0.033214	0.038206	0.031476	0.007699	0.018912	0.011390	0.004095	0.017898	0.017143	0.013885	0.019992	0.017586	0.029770	0.028683	0.028193	0.025864	0.021327	0.028337	0.023646	0.023047	0.023584	0.018130	0.009095	0.010138	0.026546	0.014217	0.032101	0.017685	0.029177
3.955000	0.134160	0.067014	0.073491	0.027435	0.010575	0.060483	0.044596	0.025231	0.039433	0.026249	0.048610	0.044970	0.053830	0.043670	0.088231	0.064294	0.022562	0.031083	0.025237	0.053994	0.043829	0.049953	0.074489	0.086197	0.022175	0.023911	0.013420	0.010718	0.014197	0.030224	0.028120	0.018692	0.032430	0.038771	0.033273	0.006166	0.018823	0.010698	0.004598	0.017699	0.017227	0.014051	0.020129	0.018074	0.030335	0.028181	0.027699	0.025380	0.020977	0.028437	0.024167	0.022508	0.022991	0.017689	0.008964	0.010145	0.025202	0.013788	0.031771	0.017384	0.029063
3.960000	0.133718	0.066242	0.073833	0.027926	0.010392	0.060735	0.045104	0.024624	0.038270	0.026060	0.048695	0.045080	0.053240	0.043707	0.087166	0.064202	0.022119	0.030188	0.024467	0.053395	0.043857	0.049555	0.074644	0.086359	0.019684	0.024192	0.013422	0.010205	0.014414	0.028983	0.027496	0.017954	0.031702	0.038745	0.032695	0.006511	0.017933	0.010740	0.004676	0.017929	0.017279	0.013910	0.020132	0.017699	0.029700	0.028314	0.028006	0.025717	0.021203	0.028298	0.024159	0.022465	0.022760	0.017539	0.008858	0.010136	0.025207	0.013550	0.031694	0.017486	0.028727
3.965000	0.133544	0.067212	0.073781	0.028212	0.010793	0.061038	0.045360	0.023605	0.037444	0.024917	0.047288	0.044242	0.052285	0.043575	0.088002	0.063660	0.020733	0.029020	0.023245	0.052209	0.042533	0.049769	0.075054	0.086546	0.026512	0.021237	0.013957	0.011038	0.014577	0.028369	0.026944	0.018432	0.031345	0.037745	0.031061	0.007437	0.018446	0.011262	0.004045	0.017923	0.016845	0.013452	0.019454	0.017184	0.029694	0.028472	0.027859	0.025592	0.020950	0.028430	0.024468	0.022344	0.022653	0.017531	0.008679	0.010162	0.024871	0.013260	0.031321	0.017217	0.028975
3.970000	0.132948	0.067511	0.074495	0.028574	0.009929	0.061078	0.045619	0.023027	0.036562	0.024376	0.046667	0.043872	0.052521	0.042937	0.087965	0.063511	0.020276	0.028158	0.022347	0.051390	0.042354	0.049103	0.075284	0.087045	0.022869	0.023781	0.013707	0.010769	0.014683	0.027841	0.026639	0.017339	0.030777	0.038629	0.032975	0.006030	0.017668	0.010582	0.004650	0.017728	0.016996	0.013551	0.019567	0.017607	0.030120	0.027816	0.027364	0.025215	0.020724	0.028468	0.024567	0.022073	0.022186	0.017201	0.008446	0.010107	0.024493	0.012855	0.030907	0.016919	0.028682
3.975000	0.132672	0.066436	0.074865	0.028809	0.009736	0.061248	0.045571	0.022120	0.035170	0.023636	0.045584	0.043180	0.052198	0.042840	0.087730	0.063018	0.018898	0.026791	0.021278	0.050275	0.041336	0.048103	0.075440	0.086914	0.019484	0.024714	0.014049	0.010481	0.014881	0.027049	0.026242	0.017155	0.030069	0.038303	0.032921	0.005909	0.017326	0.010425	0.004692	0.017640	0.016855	0.013506	0.019349	0.017354	0.030084	0.027253	0.027316	0.024963	0.020562	0.028563	0.025014	0.021447	0.021806	0.016873	0.008357	0.009975	0.024228	0.012532	0.030625	0.016868	0.028721
3.980000	0.131938	0.066295	0.074609	0.029223	0.010000	0.061625	0.045778	0.020808	0.033425	0.021908	0.043257	0.042392	0.051793	0.042639	0.087773	0.062435	0.017288	0.025193	0.019551	0.048583	0.040221	0.048270	0.075272	0.087627	0.027160	0.021739	0.014066	0.010797	0.014667	0.026453	0.025894	0.017300	0.029716	0.037140	0.030873	0.007247	0.017981	0.011245	0.003974	0.017637	0.016498	0.013089	0.018945	0.016897	0.029575	0.027201	0.027040	0.024803	0.020420	0.028573	0.024945	0.021282	0.021458	0.016619	0.008490	0.009996	0.023944	0.012213	0.030410	0.016642	0.028615
3.985000	0.130769	0.066582	0.074759	0.029689	0.009092	0.061681	0.045925	0.020274	0.031477	0.021300	0.042728	0.042474	0.051617	0.042046	0.087462	0.062376	0.016613	0.023923	0.018403	0.047526	0.039769	0.047911	0.075537	0.088243	0.019259	0.024359	0.013708	0.010256	0.015034	0.025668	0.025274	0.016477	0.029189	0.038235	0.032775	0.005688	0.017977	0.010522	0.004442	0.017461	0.016719	0.012988	0.019019	0.017083	0.029999	0.026475	0.026656	0.024270	0.020297	0.028679	0.024974	0.020956	0.020933	0.016183	0.008075	0.010034	0.023862	0.011988	0.030146	0.016558	0.028336
3.990000	0.130045	0.066517	0.074375	0.030015	0.009719	0.062078	0.045496	0.018663	0.029877	0.019596	0.042288	0.041198	0.052071	0.041604	0.086376	0.061472	0.014351	0.021637	0.016370	0.045370	0.037863	0.047971	0.075983	0.088535	0.022326	0.023131	0.014138	0.010601	0.014791	0.025221	0.025296	0.017372	0.029304	0.036712	0.030471	0.007117	0.018638	0.011203	0.003860	0.017687	0.016539	0.012888	0.018778	0.016481	0.029313	0.026037	0.026378	0.024345	0.019957	0.028405	0.024815	0.020889	0.020761	0.016252	0.007964	0.009875	0.023521	0.011809	0.029861	0.016359	0.028377
3.995000	0.128885	0.065696	0.073819	0.030543	0.009627	0.062431	0.045179	0.017219	0.027643	0.017991	0.039488	0.040193	0.051705	0.040924	0.086292	0.061110	0.013083	0.019911	0.014648	0.043832	0.036568	0.047626	0.076405	0.089513	0.022149	0.021661	0.014016	0.010426	0.015328	0.024084	0.024647	0.016867	0.028325	0.036219	0.029966	0.007245	0.017565	0.011439	0.003727	0.017722	0.016379	0.012712	0.018389	0.015984	0.029191	0.026132	0.026422	0.024412	0.020240	0.028280	0.024556	0.020831	0.020733	0.016221	0.007916	0.009777	0.023494	0.012001	0.029648	0.016221	0.028341
4.000000	0.127798	0.063509	0.073251	0.030732	0.009658	0.062686	0.044798	0.015675	0.025468	0.016381	0.037842	0.039111	0.051673	0.040359	0.085035	0.060396	0.011221	0.017789	0.012808	0.042037	0.035115	0.048172	0.077058	0.090411	0.025623	0.023408	0.014018	0.010871	0.014930	0.024477	0.025020	0.017599	0.028297	0.035357	0.029162	0.007641	0.017582	0.011747	0.003584	0.017773	0.016303	0.012973	0.018347	0.015966	0.029119	0.025423	0.026083	0.024226	0.020104	0.028282	0.023617	0.021157	0.020576	0.016283	0.008283	0.009851	0.023033	0.011307	0.029194	0.015947	0.028025
4.005000	0.126079	0.064586	0.073108	0.031066	0.008696	0.062883	0.043927	0.015051	0.023965	0.015620	0.037173	0.038566	0.051788	0.039625	0.084647	0.060159	0.010425	0.016631	0.011455	0.040851	0.032999	0.048078	0.077662	0.091481	0.020201	0.023406	0.013781	0.010477	0.015262	0.022359	0.023695	0.016153	0.027181	0.035961	0.030417	0.006830	0.016601	0.011140	0.003850	0.017561	0.015885	0.012529	0.017885	0.015857	0.029334	0.025087	0.025824	0.023933	0.019988	0.028650	0.024148	0.020384	0.020108	0.015905	0.008044	0.009462	0.022943	0.011623	0.029288	0.016047	0.028321
4.010000	0.123893	0.062419	0.071369	0.031831	0.009042	0.063620	0.044240	0.013868	0.021968	0.014505	0.036398	0.037881	0.050620	0.039257	0.083479	0.060311	0.009474	0.015325	0.009469	0.039491	0.031744	0.047807	0.078267	0.093339	0.021205	0.021643	0.013218	0.010364	0.015208	0.022415	0.023622	0.016494	0.027057	0.034808	0.028469	0.007925	0.016947	0.011486	0.003427	0.017839	0.015869	0.012933	0.017975	0.015336	0.028577	0.024510	0.025519	0.023853	0.020006	0.028541	0.024906	0.020575	0.020170	0.016038	0.007770	0.009524	0.022722	0.011229	0.029124	0.015842	0.027914
4.015000	0.123204	0.060627	0.070432	0.031263	0.009186	0.063488	0.043173	0.011863	0.020080	0.012032	0.034969	0.035995	0.050633	0.037822	0.081627	0.059086	0.007939	0.013400	0.007363	0.037038	0.029571	0.048061	0.078759	0.093990	0.022214	0.025018	0.013764	0.010728	0.015271	0.023024	0.023973	0.017115	0.027149	0.034825	0.027758	0.008285	0.018230	0.011904	0.003059	0.017595	0.015484	0.012438	0.017777	0.015337	0.028637	0.023875	0.025277	0.023539	0.019882	0.028363	0.023107	0.020956	0.020211	0.016268	0.008136	0.009591	0.022109	0.010871	0.028830	0.015527	0.027565
4.020000	0.121752	0.060610	0.070382	0.030999	0.008988	0.063306	0.042300	0.010649	0.019566	0.010512	0.032248	0.033813	0.050720	0.036868	0.080965	0.058224	0.006694	0.012508	0.006436	0.035206	0.027467	0.048333	0.079276	0.095229	0.020825	0.022410	0.013612	0.010490	0.015118	0.020983	0.022789	0.015874	0.025715	0.034954	0.027608	0.008317	0.016528	0.011552	0.003234	0.017750	0.015363	0.012132	0.017497	0.014857	0.028446	0.023257	0.024828	0.023344	0.019730	0.028690	0.024250	0.020362	0.019977	0.015798	0.007781	0.009351	0.021878	0.011039	0.028967	0.015563	0.027903
4.025000	0.119610	0.057692	0.068592	0.031256	0.009351	0.063610	0.041327	0.010065	0.018351	0.008935	0.031288	0.033414	0.050767	0.036120	0.079151	0.057943	0.006557	0.011478	0.005424	0.033312	0.025910	0.048131	0.079143	0.096727	0.021689	0.021467	0.013182	0.010429	0.015120	0.020670	0.022680	0.016095	0.024989	0.033804	0.026637	0.008713	0.016732	0.011943	0.002949	0.017496	0.015465	0.012666	0.017518	0.014651	0.028014	0.022984	0.024699	0.023315	0.019629	0.028485	0.023500	0.020437	0.020082	0.015945	0.007944	0.009408	0.022261	0.010980	0.028853	0.015427	0.027772
4.030000	0.117619	0.056641	0.067090	0.031147	0.009255	0.063806	0.041594	0.009594	0.017942	0.007204	0.029829	0.032561	0.050843	0.035327	0.077016	0.057216	0.007374	0.010584	0.005212	0.031172	0.024244	0.048079	0.039541	0.085171	0.021667	0.022623	0.013490	0.010628	0.015122	0.020891	0.022864	0.016422	0.025091	0.034381	0.026322	0.008797	0.016628	0.012078	0.002924	0.017347	0.015209	0.012054	0.017591	0.014268	0.027939	0.021863	0.024251	0.022980	0.019464	0.028897	0.023531	0.020516	0.019987	0.016008	0.007830	0.009555	0.021743	0.010534	0.028439	0.015270	0.027446
4.035000	0.114207	0.055115	0.063787	0.031631	0.009728	0.064712	0.040260	0.010361	0.018174	0.006651	0.029423	0.031020	0.050334	0.035017	0.076437	0.059104	0.010714	0.009785	0.007164	0.030116	0.025589	0.047772	0.041243	0.075918	0.021116	0.022183	0.013510	0.010938	0.015189	0.020110	0.022342	0.016167	0.024250	0.033457	0.025604	0.009153	0.016510	0.011976	0.003134	0.017185	0.015217	0.012443	0.017537	0.013994	0.027845	0.021636	0.024265	0.023095	0.019517	0.028604	0.022262	0.020193	0.019814	0.016129	0.007842	0.009430	0.021512	0.010741	0.028491	0.014901	0.027551
4.040000	0.112408	0.052319	0.062284	0.031434	0.009798	0.064498	0.040126	0.010896	0.017898	0.005718	0.027375	0.030261	0.050385	0.034327	0.075079	0.058474	0.012122	0.010562	0.008989	0.028240	0.024439	0.047315	0.041367	0.073307	0.020841	0.022735	0.013315	0.010911	0.015241	0.019354	0.021872	0.016007	0.023724	0.033700	0.024392	0.009502	0.016533	0.012161	0.002978	0.017231	0.014981	0.012045	0.017476	0.013668	0.027538	0.021649	0.023970	0.023241	0.019700	0.028503	0.021733	0.020559	0.019967	0.016162	0.008138	0.009476	0.021880	0.010811	0.028584	0.014678	0.027442
4.045000	0.110548	0.050160	0.060437	0.031514	0.010030	0.065069	0.040765	0.013059	0.018796	0.005847	0.026199	0.030262	0.049569	0.034471	0.073979	0.058299	0.014377	0.011952	0.011335	0.026515	0.024044	0.046481	0.041483	0.070860	0.021489	0.022740	0.013001	0.010971	0.014593	0.018450	0.021293	0.015932	0.023114	0.032504	0.022411	0.010340	0.016766	0.012367	0.003034	0.017399	0.014877	0.012719	0.017605	0.013307	0.026910	0.020971	0.024117	0.023309	0.019712	0.028517	0.020840	0.020702	0.020070	0.016361	0.008125	0.009603	0.021323	0.010532	0.028700	0.014778	0.027339
4.050000	0.109870	0.048483	0.059813	0.030647	0.009968	0.064592	0.039946	0.013963	0.020347	0.004988	0.023997	0.028608	0.050172	0.033454	0.072320	0.057177	0.015527	0.013347	0.012387	0.023805	0.022317	0.046301	0.040902	0.068570	0.021635	0.022743	0.012627	0.011017	0.014294	0.017371	0.020374	0.015395	0.021997	0.032330	0.021113	0.010862	0.017129	0.012659	0.002749	0.017172	0.014362	0.011836	0.017319	0.012960	0.026951	0.020991	0.024030	0.023630	0.019813	0.028931	0.020605	0.020566	0.019979	0.016250	0.008043	0.009596	0.021510	0.010490	0.028974	0.014678	0.027323
4.055000	0.108642	0.047240	0.058378	0.030460	0.010207	0.064876	0.040983	0.015875	0.022092	0.006102	0.022107	0.028224	0.049227	0.033416	0.070910	0.057056	0.017663	0.015837	0.014765	0.021468	0.021467	0.045393	0.041527	0.065538	0.021501	0.022920	0.012281	0.011089	0.014159	0.016068	0.019634	0.015000	0.021107	0.032310	0.019947	0.011260	0.016846	0.012612	0.003098	0.017101	0.014418	0.012350	0.017426	0.012568	0.026666	0.020698	0.024021	0.023841	0.019801	0.029066	0.020233	0.020377	0.019958	0.016270	0.007949	0.009575	0.021494	0.010668	0.029273	0.014716	0.027457
4.060000	0.106974	0.044912	0.056727	0.030353	0.010538	0.064992	0.041750	0.018171	0.023711	0.008005	0.022148	0.028670	0.048091	0.033198	0.069970	0.057344	0.020001	0.018542	0.016937	0.019923	0.021793	0.044108	0.041683	0.062626	0.021637	0.022341	0.012019	0.010916	0.014090	0.015165	0.018898	0.014657	0.020106	0.031872	0.018822	0.011641	0.016651	0.012606	0.003244	0.017329	0.014222	0.012296	0.017570	0.012772	0.026463	0.020417	0.023701	0.023581	0.019778	0.029199	0.019652	0.020092	0.019754	0.016110	0.007378	0.009625	0.021985	0.010710	0.029643	0.014886	0.027373
4.065000	0.105728	0.041124	0.055193	0.030217	0.010763	0.064904	0.043004	0.020234	0.025628	0.009475	0.020193	0.028879	0.048133	0.032398	0.068705	0.057426	0.022481	0.021202	0.019397	0.018245	0.022426	0.042686	0.041816	0.059677	0.020404	0.022945	0.011538	0.010941	0.014135	0.014378	0.018295	0.014440	0.019328	0.031629	0.017913	0.011877	0.016444	0.012555	0.003291	0.017229	0.013937	0.012072	0.017756	0.012689	0.026180	0.020293	0.023626	0.023858	0.019741	0.029442	0.019018	0.019894	0.019547	0.016040	0.007064	0.009653	0.021922	0.010534	0.029830	0.015088	0.027473
4.070000	0.105237	0.039060	0.054076	0.029732	0.011503	0.064621	0.043925	0.022238	0.027759	0.010928	0.018416	0.028103	0.047966	0.031533	0.067338	0.057677	0.024361	0.023863	0.021224	0.015845	0.021973	0.042838	0.041732	0.056471	0.020903	0.021490	0.011233	0.010951	0.014610	0.013268	0.017569	0.014119	0.018283	0.031691	0.017017	0.012062	0.016026	0.012660	0.003823	0.017067	0.013733	0.012098	0.017948	0.012363	0.026272	0.020027	0.023879	0.024151	0.019846	0.029951	0.018807	0.019412	0.019413	0.015778	0.006731	0.009516	0.021878	0.010828	0.030130	0.014995	0.027651
4.075000	0.104436	0.036965	0.051802	0.030148	0.012552	0.065015	0.044690	0.024754	0.030525	0.012451	0.016566	0.027337	0.047676	0.031232	0.066185	0.059679	0.026112	0.026291	0.023359	0.014563	0.023227	0.040417	0.041376	0.053064	0.020810	0.021800	0.011279	0.010933	0.014656	0.013252	0.017538	0.014370	0.017718	0.031566	0.016087	0.012229	0.016858	0.012453	0.004153	0.017059	0.013663	0.012231	0.018226	0.012692	0.026082	0.019683	0.023713	0.024509	0.019750	0.030194	0.017776	0.019258	0.018973	0.015736	0.006762	0.009749	0.022144	0.010448	0.030253	0.014943	0.027595
4.080000	0.103461	0.033534	0.050394	0.030773	0.013101	0.065325	0.046586	0.027130	0.032213	0.014021	0.015768	0.027868	0.048164	0.031060	0.064337	0.060537	0.028377	0.028794	0.025262	0.013031	0.024201	0.039932	0.040935	0.049761	0.020373	0.021064	0.011617	0.011086	0.014824	0.013338	0.017509	0.014795	0.017143	0.032148	0.015397	0.012206	0.016339	0.012067	0.004101	0.017379	0.013819	0.012456	0.018494	0.012455	0.025850	0.019193	0.023341	0.024403	0.019474	0.030654	0.017077	0.018977	0.018678	0.015365	0.006448	0.009947	0.023463	0.010304	0.030398	0.014831	0.027533
4.085000	0.102082	0.031217	0.048848	0.030874	0.013493	0.065573	0.048031	0.029084	0.034365	0.015850	0.016254	0.028674	0.047138	0.031063	0.063355	0.061316	0.030361	0.030872	0.026891	0.012410	0.025419	0.039158	0.040817	0.047084	0.019774	0.019975	0.012045	0.010793	0.014864	0.013064	0.017175	0.014856	0.016265	0.031803	0.014186	0.012596	0.015705	0.012114	0.004336	0.017593	0.013852	0.012089	0.018879	0.012839	0.024518	0.018353	0.022916	0.024439	0.019415	0.030960	0.015950	0.019041	0.018513	0.015275	0.006179	0.010248	0.023282	0.010036	0.030353	0.014863	0.027466
4.090000	0.100333	0.028782	0.047570	0.031284	0.013822	0.065445	0.050801	0.030804	0.036338	0.017042	0.015433	0.028601	0.046619	0.031200	0.062036	0.062138	0.031853	0.032635	0.028040	0.011709	0.026582	0.039177	0.040243	0.044879	0.018449	0.019559	0.012043	0.010861	0.015007	0.013249	0.016732	0.015296	0.015641	0.031364	0.013312	0.012802	0.015882	0.012363	0.004746	0.017212	0.013664	0.011984	0.019055	0.013036	0.024731	0.017540	0.022633	0.024579	0.019203	0.031290	0.014700	0.019161	0.018278	0.015282	0.006007	0.010571	0.022283	0.009862	0.030182	0.014748	0.027401
4.095000	0.099209	0.028137	0.046678	0.031294	0.014521	0.064990	0.052128	0.032081	0.037761	0.018004	0.014853	0.028313	0.046330	0.031242	0.060546	0.062741	0.033096	0.034343	0.028917	0.009986	0.026674	0.038638	0.039977	0.043036	0.017635	0.018684	0.012335	0.010823	0.015224	0.012443	0.016336	0.015599	0.014655	0.030930	0.012534	0.013314	0.015898	0.012530	0.004688	0.017437	0.013497	0.012014	0.019100	0.013141	0.024905	0.017168	0.022388	0.024982	0.019079	0.031471	0.013988	0.018998	0.018165	0.015272	0.006112	0.010854	0.022534	0.009984	0.030260	0.014465	0.027482
4.100000	0.097017	0.025791	0.044806	0.032278	0.015008	0.065092	0.053732	0.033427	0.039013	0.019187	0.014653	0.028877	0.046395	0.031429	0.059199	0.063193	0.034406	0.035748	0.029808	0.009898	0.028273	0.037795	0.039725	0.041569	0.017799	0.018761	0.012351	0.010891	0.015185	0.012837	0.016419	0.016298	0.014169	0.031043	0.011883	0.013185	0.015834	0.012422	0.004792	0.017921	0.013810	0.012231	0.019515	0.013204	0.024768	0.016266	0.021828	0.024911	0.018918	0.032018	0.013983	0.018923	0.017724	0.014916	0.005894	0.011413	0.022321	0.009648	0.030111	0.014464	0.027453
4.105000	0.095086	0.023843	0.043144	0.033236	0.015982	0.065257	0.055478	0.034842	0.040382	0.019936	0.014943	0.028926	0.045956	0.031484	0.058397	0.064742	0.035530	0.037015	0.030555	0.009610	0.029049	0.036322	0.039421	0.040616	0.017823	0.018961	0.012840	0.010967	0.015091	0.012835	0.016091	0.016731	0.013356	0.030900	0.011816	0.013482	0.015617	0.012437	0.005400	0.018237	0.013802	0.012147	0.019501	0.013193	0.024882	0.015825	0.021615	0.025203	0.018768	0.032529	0.013610	0.018780	0.017429	0.014724	0.005688	0.011915	0.022830	0.009531	0.030135	0.014673	0.027491
4.110000	0.093064	0.022049	0.041568	0.034222	0.017064	0.065254	0.056657	0.035858	0.041552	0.020967	0.014898	0.028670	0.046148	0.031723	0.057435	0.065608	0.036627	0.038255	0.031231	0.009342	0.029663	0.036015	0.039196	0.038845	0.018636	0.018958	0.013193	0.011076	0.015097	0.011749	0.015269	0.017060	0.012673	0.030660	0.011900	0.013624	0.016038	0.012331	0.005441	0.019030	0.014097	0.012755	0.019439	0.012962	0.025103	0.015411	0.021146	0.025436	0.018847	0.032921	0.013900	0.018406	0.016742	0.014287	0.005180	0.012564	0.022969	0.009670	0.029892	0.014560	0.027753
4.115000	0.091098	0.020304	0.040223	0.035276	0.018261	0.065302	0.058050	0.036889	0.042581	0.021834	0.014829	0.028375	0.045480	0.031809	0.057367	0.066113	0.037490	0.039183	0.031623	0.008833	0.030477	0.035324	0.038537	0.039024	0.018255	0.018771	0.013830	0.011471	0.015382	0.011435	0.015089	0.017419	0.012380	0.030821	0.012631	0.013428	0.015737	0.011941	0.005797	0.019267	0.014145	0.013020	0.019331	0.013150	0.025389	0.015074	0.021139	0.025380	0.018598	0.033532	0.014355	0.017585	0.015714	0.013721	0.004720	0.013192	0.022207	0.009823	0.029709	0.014977	0.027962
4.120000	0.088745	0.018871	0.038872	0.036365	0.019693	0.065226	0.058912	0.037609	0.043703	0.022619	0.014508	0.027712	0.045297	0.031725	0.057059	0.066692	0.038157	0.040060	0.031901	0.008463	0.030993	0.035601	0.038150	0.038859	0.018622	0.018594	0.013990	0.011251	0.015623	0.011203	0.014616	0.017731	0.011928	0.030772	0.013484	0.013131	0.015486	0.011479	0.005882	0.020016	0.014222	0.013591	0.018959	0.013181	0.026687	0.014914	0.020730	0.025371	0.018366	0.033906	0.015367	0.016956	0.014560	0.013021	0.004236	0.014041	0.021972	0.009831	0.029403	0.015125	0.028324
4.125000	0.086658	0.017601	0.037440	0.037865	0.021172	0.065352	0.059855	0.038277	0.044280	0.023399	0.015009	0.027861	0.044872	0.032053	0.056552	0.067304	0.038756	0.040892	0.032266	0.008011	0.031108	0.034580	0.038163	0.038785	0.018702	0.019065	0.014575	0.011523	0.015896	0.011600	0.014314	0.017644	0.011880	0.030497	0.014495	0.013033	0.014707	0.011490	0.006496	0.020527	0.014298	0.014088	0.018484	0.012932	0.027066	0.014855	0.020519	0.026403	0.018327	0.034122	0.016247	0.015909	0.013415	0.012019	0.003449	0.014505	0.021990	0.009971	0.028998	0.015386	0.028951
4.130000	0.083921	0.016657	0.035964	0.038814	0.022395	0.065305	0.060524	0.038620	0.044718	0.023865	0.015605	0.027347	0.044916	0.032529	0.056255	0.067256	0.038869	0.041270	0.032148	0.007733	0.031047	0.034995	0.037202	0.039132	0.019033	0.019069	0.014694	0.011446	0.015789	0.012567	0.014592	0.017704	0.012482	0.031356	0.015243	0.012531	0.014632	0.011375	0.007211	0.020728	0.013836	0.014271	0.017529	0.013372	0.027843	0.014424	0.019914	0.026165	0.018549	0.034217	0.017887	0.015081	0.011812	0.011049	0.003092	0.014509	0.021871	0.010084	0.028225	0.015507	0.029578
4.135000	0.081113	0.016303	0.034577	0.039720	0.023672	0.065135	0.060722	0.038948	0.044964	0.024136	0.015975	0.027067	0.044550	0.033597	0.056341	0.067380	0.038915	0.041542	0.031996	0.007201	0.030893	0.035391	0.036497	0.039489	0.019862	0.019654	0.014615	0.012123	0.015697	0.013911	0.015210	0.018399	0.013362	0.032387	0.015398	0.011669	0.013567	0.011032	0.007958	0.020575	0.013329	0.014538	0.016235	0.014508	0.028952	0.014213	0.019323	0.025749	0.018800	0.034538	0.018956	0.013910	0.010061	0.010083	0.003165	0.014855	0.019872	0.010568	0.027041	0.015758	0.030234
4.140000	0.078148	0.015305	0.032993	0.040466	0.024877	0.064794	0.060246	0.039025	0.045036	0.024471	0.016288	0.026445	0.044286	0.034250	0.056399	0.066685	0.038745	0.041644	0.031633	0.006768	0.030292	0.035232	0.035972	0.039934	0.019917	0.019248	0.015094	0.012153	0.015539	0.015210	0.016003	0.018582	0.014585	0.033833	0.015476	0.011152	0.013221	0.011077	0.009080	0.018978	0.012296	0.013911	0.014733	0.015001	0.029515	0.014359	0.018708	0.025049	0.018879	0.034630	0.019826	0.013294	0.008433	0.009427	0.003769	0.014943	0.018677	0.011624	0.025463	0.016456	0.031153
4.145000	0.075140	0.015389	0.031867	0.040971	0.025940	0.064441	0.059730	0.038955	0.044817	0.024293	0.016653	0.025976	0.043529	0.035379	0.056549	0.064900	0.038630	0.041544	0.031188	0.006518	0.029945	0.034681	0.036169	0.040106	0.019848	0.019843	0.015004	0.012285	0.015154	0.016263	0.017220	0.018295	0.015834	0.035709	0.016282	0.010343	0.012993	0.011149	0.010637	0.017303	0.011851	0.012856	0.013012	0.015882	0.029634	0.014837	0.018135	0.022842	0.019150	0.034911	0.019375	0.012237	0.006506	0.008685	0.005117	0.015097	0.016820	0.013123	0.023566	0.016821	0.032480
4.150000	0.071772	0.014322	0.030704	0.040997	0.026320	0.064236	0.058909	0.038492	0.044299	0.024631	0.017350	0.027387	0.043789	0.034407	0.056783	0.063414	0.038785	0.041764	0.030793	0.006397	0.028945	0.035048	0.036171	0.040747	0.019111	0.020530	0.015515	0.012404	0.014928	0.017258	0.018269	0.018558	0.016812	0.037975	0.017619	0.010828	0.013522	0.012169	0.012606	0.014580	0.011912	0.010587	0.012035	0.016489	0.030075	0.015922	0.018416	0.022710	0.019168	0.035065	0.018895	0.011772	0.005814	0.009142	0.006770	0.014442	0.013285	0.014266	0.021491	0.017765	0.034236
4.155000	0.068568	0.014473	0.029776	0.040917	0.027403	0.063218	0.056941	0.037901	0.043255	0.023642	0.016714	0.025868	0.042824	0.035432	0.057727	0.061202	0.037718	0.040653	0.029488	0.005886	0.027676	0.035319	0.035829	0.041545	0.019405	0.020650	0.015434	0.012286	0.014878	0.017765	0.018620	0.017686	0.017317	0.041440	0.021304	0.011193	0.014171	0.013086	0.014223	0.012549	0.011756	0.008609	0.013953	0.016112	0.030328	0.016136	0.017801	0.020322	0.018275	0.035118	0.017054	0.010940	0.005194	0.009658	0.007895	0.014883	0.011322	0.016302	0.019294	0.018869	0.036111
4.160000	0.065067	0.014067	0.028613	0.040474	0.027805	0.062485	0.055072	0.036665	0.042159	0.023240	0.016937	0.026004	0.042080	0.035912	0.058040	0.058710	0.037305	0.039976	0.028394	0.006337	0.026676	0.035075	0.036390	0.041752	0.019257	0.022522	0.016028	0.012760	0.014860	0.017479	0.018366	0.016983	0.017463	0.044451	0.025397	0.012686	0.015174	0.014613	0.016452	0.012947	0.011664	0.009055	0.017570	0.016333	0.029499	0.016209	0.017153	0.018911	0.016946	0.035392	0.016380	0.011260	0.005716	0.010942	0.009923	0.015126	0.009080	0.017435	0.017983	0.019642	0.038348
4.165000	0.061241	0.014359	0.028372	0.038488	0.027711	0.060769	0.051906	0.034905	0.040196	0.022087	0.016577	0.026259	0.041216	0.035730	0.058941	0.054780	0.036013	0.039360	0.026978	0.006653	0.024267	0.035713	0.036887	0.042244	0.018807	0.022811	0.016293	0.013605	0.014501	0.016966	0.017976	0.016548	0.016924	0.048386	0.030337	0.014172	0.016850	0.016153	0.017411	0.014573	0.011167	0.011207	0.019128	0.018901	0.029440	0.015013	0.015604	0.016704	0.014595	0.036316	0.015725	0.011095	0.006539	0.012267	0.011283	0.016136	0.010032	0.018725	0.017698	0.020290	0.040420
4.170000	0.057609	0.013665	0.026725	0.037389	0.027934	0.059267	0.049175	0.033148	0.038029	0.020680	0.015815	0.025431	0.041527	0.035798	0.059849	0.051621	0.034595	0.037788	0.025317	0.007530	0.023012	0.035883	0.036996	0.042955	0.019382	0.022638	0.016905	0.014406	0.014270	0.016408	0.016752	0.016369	0.016222	0.049623	0.034693	0.015263	0.017488	0.017142	0.017743	0.017933	0.009716	0.014740	0.020319	0.014145	0.028519	0.013760	0.014411	0.014321	0.012901	0.037794	0.017824	0.011404	0.007102	0.013032	0.012608	0.016481	0.010985	0.018491	0.018021	0.021162	0.042273
4.175000	0.054096	0.012588	0.024418	0.036012	0.028152	0.057681	0.045829	0.030890	0.035381	0.018784	0.015159	0.024087	0.040771	0.036245	0.061289	0.048293	0.032749	0.035566	0.023280	0.009417	0.021822	0.036105	0.036714	0.043539	0.019990	0.023343	0.017596	0.015078	0.014068	0.016566	0.016303	0.017509	0.015483	0.047487	0.036310	0.015907	0.017503	0.017322	0.017367	0.020356	0.008697	0.018765	0.020317	0.014122	0.028736	0.012910	0.012908	0.012659	0.012054	0.038441	0.021499	0.011672	0.007736	0.013264	0.012722	0.016626	0.010505	0.018560	0.017930	0.021630	0.042882
4.180000	0.051170	0.012510	0.022375	0.034424	0.028228	0.055942	0.042388	0.028446	0.032222	0.016567	0.014809	0.023185	0.041081	0.035485	0.062496	0.044882	0.031203	0.033405	0.021153	0.011256	0.020901	0.035993	0.037173	0.043809	0.020623	0.023242	0.018532	0.015876	0.014848	0.018076	0.017109	0.019416	0.015716	0.044091	0.036199	0.015693	0.016986	0.016484	0.016393	0.021810	0.007506	0.022242	0.018602	0.011627	0.029871	0.013008	0.012544	0.012385	0.011241	0.036780	0.023750	0.011079	0.008166	0.012552	0.011789	0.017792	0.008978	0.020671	0.018383	0.019719	0.041600
4.185000	0.048895	0.012506	0.020226	0.033070	0.028365	0.054370	0.038826	0.025609	0.029095	0.014010	0.015594	0.022947	0.041404	0.035598	0.063574	0.041773	0.029274	0.031036	0.018964	0.013006	0.020051	0.035986	0.037013	0.045063	0.021746	0.023546	0.019793	0.016570	0.015537	0.019717	0.019028	0.020996	0.016976	0.040899	0.034490	0.014619	0.015577	0.015248	0.015076	0.023529	0.006420	0.025869	0.016735	0.007831	0.032001	0.014136	0.013850	0.013757	0.011266	0.033923	0.023977	0.010335	0.008048	0.011830	0.010689	0.019809	0.008193	0.024440	0.017103	0.019196	0.041354
4.190000	0.047264	0.011989	0.018537	0.032038	0.028393	0.053001	0.035809	0.023167	0.025952	0.011306	0.016148	0.022843	0.040913	0.035932	0.065127	0.039102	0.027383	0.028681	0.016586	0.015295	0.019285	0.035856	0.037339	0.045739	0.022572	0.023626	0.021170	0.017222	0.017223	0.021708	0.020851	0.022528	0.019028	0.038878	0.032243	0.013304	0.013879	0.013536	0.013409	0.024244	0.005812	0.026159	0.015056	0.006572	0.033455	0.016412	0.015828	0.015954	0.012351	0.031107	0.024482	0.009377	0.007712	0.010737	0.009061	0.021124	0.009273	0.026663	0.016639	0.018476	0.041192
4.195000	0.046870	0.014498	0.017875	0.029865	0.027741	0.051949	0.032749	0.020936	0.023152	0.008580	0.017511	0.023609	0.041199	0.035624	0.066687	0.036168	0.025906	0.026420	0.014242	0.017748	0.019176	0.035767	0.038507	0.046483	0.023519	0.023487	0.022359	0.018149	0.017981	0.023415	0.021933	0.023280	0.020849	0.037310	0.029565	0.012236	0.013843	0.013058	0.012241	0.024168	0.005173	0.025745	0.013975	0.005321	0.034309	0.018441	0.017633	0.017840	0.014154	0.028807	0.023838	0.008496	0.007378	0.009803	0.007803	0.021767	0.009412	0.027727	0.014940	0.017813	0.042007
4.200000	0.046275	0.014499	0.016772	0.029127	0.027703	0.050980	0.030248	0.018871	0.020430	0.006100	0.019353	0.024199	0.042594	0.035064	0.068605	0.034172	0.024009	0.024192	0.012349	0.020227	0.018993	0.035944	0.039353	0.047167	0.023630	0.024238	0.023766	0.018687	0.018911	0.022303	0.021182	0.022179	0.020198	0.036368	0.027712	0.011501	0.011722	0.011885	0.011435	0.024017	0.004466	0.025846	0.013809	0.004978	0.034349	0.019364	0.018562	0.018930	0.015469	0.027404	0.022323	0.007527	0.007164	0.008754	0.006885	0.022117	0.010469	0.027428	0.015248	0.016677	0.042379
4.205000	0.045691	0.015277	0.015702	0.028041	0.027645	0.049944	0.028061	0.017199	0.017763	0.003519	0.021414	0.025265	0.042212	0.035786	0.070517	0.032648	0.022092	0.021976	0.010631	0.022856	0.019758	0.035415	0.040332	0.048056	0.025783	0.024911	0.024206	0.018665	0.019419	0.022243	0.021058	0.022050	0.020257	0.035845	0.025887	0.010822	0.011870	0.011751	0.010728	0.022583	0.004694	0.023226	0.014328	0.005116	0.033598	0.020627	0.019340	0.019530	0.016487	0.026726	0.021013	0.006834	0.006882	0.008005	0.006000	0.020987	0.011763	0.024987	0.016111	0.015642	0.042125
4.210000	0.045129	0.015078	0.015100	0.027432	0.027743	0.048957	0.026503	0.015685	0.015713	0.003293	0.024044	0.027107	0.042755	0.036380	0.071985	0.031598	0.020289	0.019824	0.009295	0.025490	0.020781	0.035988	0.041129	0.048114	0.027007	0.025061	0.024507	0.018675	0.019446	0.019911	0.018878	0.019926	0.018397	0.034141	0.024195	0.010354	0.011650	0.011534	0.010496	0.020656	0.004585	0.020834	0.013742	0.007235	0.033224	0.019338	0.018485	0.018718	0.016409	0.026289	0.019740	0.006696	0.006635	0.007746	0.005440	0.019760	0.011477	0.022975	0.016608	0.014935	0.041877
4.215000	0.044809	0.016070	0.014326	0.027217	0.027650	0.048080	0.025240	0.015166	0.014741	0.004957	0.026337	0.028227	0.044115	0.036689	0.073383	0.031367	0.018738	0.018531	0.009400	0.027924	0.021469	0.036504	0.042018	0.049575	0.027393	0.023560	0.023848	0.018211	0.019106	0.018044	0.017092	0.017973	0.016486	0.034088	0.022427	0.009372	0.011648	0.010800	0.009335	0.018525	0.005809	0.016800	0.014565	0.009196	0.033514	0.018548	0.017600	0.017854	0.016539	0.026083	0.019167	0.007074	0.006821	0.008131	0.005576	0.017891	0.011494	0.020301	0.016994	0.013976	0.041246
4.220000	0.044842	0.016028	0.014327	0.027333	0.027269	0.047543	0.024048	0.015659	0.014239	0.006600	0.028121	0.029661	0.045345	0.036756	0.073775	0.031367	0.017614	0.017456	0.009701	0.029845	0.022689	0.037153	0.042443	0.050334	0.026605	0.024749	0.023238	0.017653	0.018280	0.015924	0.015118	0.015450	0.014836	0.033630	0.020838	0.008474	0.011434	0.010402	0.008538	0.017026	0.007031	0.013579	0.015410	0.011901	0.034425	0.017989	0.017365	0.017650	0.016949	0.026390	0.019156	0.007741	0.007812	0.009015	0.006445	0.016173	0.010894	0.017617	0.019059	0.013061	0.040252
4.225000	0.044729	0.018519	0.015103	0.026741	0.027020	0.046848	0.022906	0.016036	0.014775	0.008521	0.029884	0.030772	0.046170	0.037051	0.074092	0.031029	0.017207	0.016603	0.010450	0.032258	0.024039	0.037588	0.042961	0.050994	0.025556	0.025419	0.022203	0.016693	0.017997	0.014523	0.014046	0.014296	0.013724	0.033580	0.019683	0.008206	0.012692	0.010908	0.009137	0.015286	0.007660	0.010786	0.016539	0.013558	0.035096	0.016783	0.016440	0.017026	0.016487	0.026892	0.018975	0.008324	0.008320	0.009527	0.007167	0.014480	0.010236	0.015493	0.019761	0.013175	0.039825
4.230000	0.044651	0.018647	0.015770	0.026945	0.027082	0.046164	0.022480	0.016675	0.015847	0.010317	0.031358	0.031891	0.046318	0.037014	0.074252	0.031322	0.015959	0.015931	0.011298	0.033943	0.025057	0.037786	0.043343	0.051787	0.024638	0.023618	0.021292	0.015989	0.017071	0.014236	0.013690	0.013587	0.013433	0.034162	0.018563	0.007949	0.012987	0.010773	0.009287	0.013962	0.008298	0.008376	0.017378	0.015080	0.034802	0.016053	0.015726	0.016563	0.016352	0.027580	0.018799	0.008894	0.008580	0.010674	0.007869	0.012911	0.011421	0.013559	0.020760	0.013621	0.039608
4.235000	0.044514	0.018697	0.016626	0.027059	0.026849	0.045500	0.022272	0.017778	0.016537	0.011763	0.032536	0.033389	0.046028	0.037274	0.074088	0.031678	0.015494	0.015440	0.011972	0.035655	0.025841	0.039447	0.042984	0.052499	0.023736	0.022896	0.019864	0.015245	0.015881	0.014387	0.013911	0.013690	0.013701	0.035132	0.018319	0.008338	0.013370	0.011201	0.010014	0.013139	0.008624	0.006998	0.017675	0.015831	0.035464	0.015643	0.015526	0.016532	0.016097	0.028559	0.018627	0.009434	0.009187	0.011251	0.008482	0.011589	0.010980	0.011819	0.021355	0.014277	0.039793
4.240000	0.044491	0.019606	0.017285	0.027005	0.026750	0.044919	0.021919	0.018285	0.017144	0.012892	0.033081	0.034261	0.045897	0.037219	0.074105	0.031829	0.015306	0.015095	0.012640	0.036662	0.027167	0.038530	0.043242	0.053315	0.022357	0.022898	0.018826	0.014546	0.015190	0.014680	0.014263	0.014115	0.013850	0.036261	0.018881	0.008922	0.014101	0.011604	0.010842	0.012759	0.009052	0.005828	0.017903	0.016011	0.035831	0.015573	0.015506	0.016805	0.016144	0.029782	0.018275	0.009932	0.009789	0.012157	0.009217	0.010529	0.011083	0.010216	0.021503	0.014998	0.040168
4.245000	0.044606	0.020256	0.018332	0.026931	0.026272	0.044411	0.021605	0.018689	0.018233	0.013757	0.033930	0.035368	0.045442	0.037505	0.073771	0.031874	0.015201	0.015116	0.013443	0.037555	0.028276	0.039151	0.042961	0.054276	0.020829	0.021474	0.017349	0.013826	0.014206	0.015102	0.014697	0.014522	0.014352	0.037630	0.019497	0.009492	0.015695	0.012202	0.011479	0.012672	0.009264	0.005581	0.017698	0.015472	0.035464	0.015238	0.015422	0.016931	0.015846	0.030722	0.017654	0.010338	0.010418	0.012801	0.009673	0.010045	0.011097	0.009054	0.021765	0.015352	0.040427
4.250000	0.044592	0.021041	0.019305	0.027071	0.025770	0.044012	0.021338	0.019011	0.018726	0.014349	0.034564	0.035976	0.045628	0.037797	0.073594	0.031863	0.015349	0.014876	0.014095	0.038420	0.029037	0.039547	0.042654	0.054797	0.020447	0.020513	0.016260	0.013200	0.013409	0.015268	0.014883	0.014266	0.014622	0.038429	0.020588	0.009897	0.016559	0.012502	0.011976	0.012617	0.009413	0.005708	0.017057	0.014672	0.034782	0.015429	0.015648	0.017426	0.015861	0.031949	0.017510	0.010880	0.011140	0.013473	0.010389	0.009673	0.011466	0.008239	0.021768	0.015601	0.040395
4.255000	0.044619	0.020922	0.020160	0.027105	0.025443	0.043553	0.021171	0.018860	0.019078	0.014750	0.034866	0.036439	0.045115	0.037935	0.073518	0.031514	0.015610	0.014897	0.014779	0.039184	0.030212	0.039745	0.042706	0.055838	0.019115	0.019679	0.015540	0.012423	0.013404	0.015443	0.015109	0.014338	0.014749	0.038662	0.021795	0.010135	0.016468	0.012774	0.012214	0.012794	0.009455	0.006555	0.016415	0.013324	0.034290	0.015525	0.015860	0.017704	0.015925	0.032987	0.017749	0.011044	0.011740	0.013989	0.010916	0.009342	0.010851	0.007718	0.022312	0.015732	0.040140
4.260000	0.044626	0.020833	0.021223	0.027124	0.024909	0.043616	0.021123	0.019073	0.019023	0.014875	0.035413	0.036647	0.044555	0.038128	0.073625	0.031270	0.015655	0.014763	0.015365	0.039800	0.031114	0.040130	0.042733	0.056693	0.018299	0.018831	0.014657	0.012134	0.013047	0.015407	0.015133	0.014147	0.014787	0.038400	0.022795	0.010536	0.016908	0.013079	0.012502	0.013374	0.009222	0.007748	0.015361	0.012722	0.033611	0.015451	0.016219	0.018185	0.015791	0.033751	0.018533	0.011679	0.012111	0.014492	0.011412	0.009250	0.009786	0.007886	0.021443	0.015831	0.039483
4.265000	0.044449	0.021497	0.022048	0.026989	0.024195	0.043589	0.020998	0.018858	0.018987	0.015071	0.035586	0.036828	0.044179	0.038568	0.073406	0.030891	0.016013	0.014721	0.015773	0.040243	0.031989	0.040088	0.042503	0.057464	0.017878	0.017994	0.013911	0.011885	0.013409	0.015672	0.015044	0.014132	0.014763	0.038489	0.023777	0.010587	0.015769	0.012791	0.012506	0.013819	0.009002	0.009449	0.014413	0.010578	0.032732	0.015462	0.016064	0.017911	0.015576	0.034186	0.019225	0.011803	0.012100	0.014128	0.011553	0.009424	0.009693	0.008453	0.019894	0.015812	0.038892
4.270000	0.044310	0.022477	0.022708	0.026702	0.023673	0.043639	0.021042	0.018538	0.018849	0.015029	0.035625	0.036560	0.043339	0.038949	0.073540	0.030475	0.016058	0.014955	0.016429	0.040863	0.032479	0.040082	0.042574	0.058523	0.016833	0.017654	0.013476	0.011566	0.012659	0.015917	0.015097	0.014185	0.014879	0.037796	0.024806	0.010696	0.015176	0.013051	0.012380	0.014676	0.008581	0.011450	0.013690	0.009907	0.032126	0.015264	0.016079	0.017552	0.015336	0.034190	0.020057	0.011662	0.011819	0.014036	0.011472	0.009934	0.009085	0.009506	0.019045	0.015742	0.038322
4.275000	0.043762	0.023653	0.023154	0.026775	0.023416	0.043516	0.021433	0.018396	0.018445	0.014865	0.035793	0.036680	0.043721	0.038816	0.073566	0.030286	0.016514	0.014864	0.016745	0.041311	0.033680	0.040182	0.042666	0.058990	0.016349	0.017087	0.013400	0.011331	0.012819	0.016370	0.015236	0.014424	0.015057	0.037828	0.025675	0.010798	0.015471	0.013009	0.012456	0.014987	0.008123	0.013233	0.013114	0.009367	0.031815	0.015189	0.016006	0.017199	0.015314	0.033906	0.021003	0.011693	0.011439	0.013989	0.011407	0.010482	0.008200	0.010908	0.018033	0.016030	0.037639
4.280000	0.043616	0.023282	0.023566	0.025931	0.023195	0.043612	0.021223	0.017804	0.017996	0.014498	0.035593	0.036218	0.043428	0.039371	0.073404	0.030371	0.016655	0.015074	0.017189	0.041467	0.034240	0.040540	0.042971	0.059481	0.016352	0.016923	0.012939	0.011128	0.012825	0.017154	0.015855	0.015275	0.015323	0.037570	0.026302	0.010904	0.014124	0.012935	0.012504	0.016142	0.007738	0.015532	0.012831	0.009292	0.031855	0.015366	0.015758	0.015978	0.015178	0.033452	0.021715	0.011621	0.011050	0.013615	0.011065	0.011227	0.007690	0.012539	0.017299	0.016163	0.037297
4.285000	0.043644	0.024396	0.024231	0.026189	0.022634	0.043871	0.021389	0.017392	0.017501	0.014201	0.035281	0.036056	0.042967	0.039696	0.073388	0.030515	0.016673	0.014925	0.017188	0.041476	0.034313	0.040213	0.043105	0.059995	0.016041	0.017213	0.013182	0.011447	0.012748	0.018031	0.016433	0.016133	0.015864	0.036920	0.026673	0.010941	0.013597	0.012638	0.012313	0.016880	0.007546	0.017214	0.012534	0.009036	0.031589	0.015825	0.016072	0.016058	0.015602	0.032993	0.022053	0.011282	0.010556	0.013210	0.010916	0.011934	0.007314	0.013952	0.017177	0.016373	0.036860
4.290000	0.043462	0.024564	0.024294	0.025717	0.022385	0.043903	0.021254	0.016815	0.017139	0.013771	0.034969	0.036178	0.042586	0.039804	0.073204	0.030741	0.016767	0.015163	0.017143	0.041684	0.034233	0.040507	0.042931	0.060161	0.016782	0.017149	0.013546	0.011783	0.012755	0.019267	0.017191	0.017453	0.016388	0.036649	0.026707	0.010638	0.013112	0.012434	0.012015	0.017689	0.007339	0.018883	0.012323	0.008959	0.031604	0.016259	0.016086	0.015884	0.015506	0.032390	0.021946	0.011052	0.009922	0.012577	0.010486	0.012563	0.006358	0.015502	0.016306	0.017216	0.036549
4.295000	0.042980	0.024307	0.024338	0.025016	0.022368	0.043513	0.020797	0.016665	0.016696	0.013648	0.035001	0.036017	0.042309	0.040012	0.073339	0.030788	0.017073	0.015348	0.017205	0.041848	0.034637	0.039666	0.043179	0.060433	0.016800	0.017533	0.013827	0.012216	0.012736	0.020249	0.017912	0.018162	0.017086	0.036290	0.026618	0.010366	0.012713	0.012127	0.011524	0.018432	0.007196	0.020212	0.012301	0.008854	0.031574	0.017181	0.016609	0.016262	0.015878	0.031807	0.021820	0.010474	0.009304	0.011952	0.010197	0.013140	0.005307	0.016584	0.015522	0.017476	0.036435
4.300000	0.042377	0.024404	0.024038	0.024825	0.022612	0.043085	0.020445	0.016301	0.016194	0.013425	0.034734	0.036033	0.042065	0.040436	0.072863	0.030865	0.017259	0.015766	0.017180	0.041972	0.034639	0.039684	0.043448	0.060347	0.016848	0.017766	0.014014	0.012353	0.013078	0.019966	0.018586	0.018707	0.017448	0.035538	0.026398	0.009901	0.011518	0.011248	0.010906	0.018766	0.007462	0.021016	0.012144	0.009498	0.031926	0.018149	0.017178	0.016603	0.016105	0.031166	0.021669	0.009941	0.008776	0.011398	0.009614	0.013785	0.005487	0.017422	0.015433	0.017739	0.036662
4.305000	0.041871	0.023633	0.023775	0.024528	0.022504	0.042769	0.020125	0.015946	0.015894	0.013240	0.034668	0.035874	0.042842	0.040165	0.072749	0.031208	0.017520	0.015860	0.017015	0.042185	0.034547	0.040213	0.043148	0.060430	0.017705	0.018062	0.014423	0.012691	0.013145	0.020846	0.019422	0.020257	0.018448	0.034539	0.026429	0.009319	0.011662	0.010943	0.010399	0.018990	0.007232	0.021590	0.012151	0.009748	0.032169	0.019093	0.017760	0.017491	0.016372	0.030616	0.021102	0.009375	0.008175	0.010734	0.008878	0.014530	0.006093	0.018327	0.014486	0.018242	0.036993
4.310000	0.041187	0.024303	0.023392	0.024392	0.022398	0.041856	0.019575	0.015452	0.015937	0.013277	0.034625	0.035620	0.041970	0.040332	0.072483	0.031370	0.017805	0.016351	0.016907	0.042560	0.034560	0.040757	0.043470	0.060433	0.017660	0.018689	0.014415	0.012533	0.013437	0.020524	0.019075	0.019353	0.017808	0.033862	0.025631	0.008642	0.012274	0.011099	0.009582	0.019776	0.007637	0.022124	0.012188	0.010201	0.032550	0.019938	0.018564	0.018014	0.016849	0.029612	0.020638	0.008682	0.007562	0.010147	0.008122	0.015095	0.006585	0.019103	0.014666	0.018228	0.037157
4.315000	0.040659	0.024389	0.022904	0.024273	0.022304	0.041743	0.019114	0.015640	0.015690	0.013113	0.034462	0.035446	0.041968	0.040218	0.072258	0.031465	0.017702	0.016724	0.016768	0.042519	0.034513	0.040237	0.043585	0.060907	0.018200	0.019080	0.014748	0.012928	0.013188	0.020088	0.019311	0.020328	0.018146	0.032527	0.024963	0.008190	0.012294	0.010789	0.009016	0.019456	0.007948	0.021553	0.012134	0.010369	0.033074	0.020424	0.018942	0.018495	0.017186	0.028744	0.020205	0.008272	0.007512	0.009794	0.007565	0.015618	0.006616	0.019798	0.014259	0.018584	0.037507
4.320000	0.040185	0.023478	0.023142	0.024179	0.022403	0.041109	0.018945	0.015455	0.015639	0.013326	0.034577	0.035586	0.042732	0.040072	0.071385	0.031262	0.018210	0.016810	0.016605	0.042763	0.035123	0.040963	0.043828	0.060276	0.017945	0.019403	0.015154	0.012913	0.013493	0.020638	0.019569	0.020612	0.018099	0.032151	0.024967	0.007526	0.012524	0.010393	0.008264	0.018657	0.008439	0.019031	0.011786	0.010213	0.033394	0.020908	0.018993	0.018710	0.017044	0.028346	0.020183	0.007305	0.007070	0.009326	0.006657	0.015137	0.007970	0.019141	0.013651	0.018703	0.038077
4.325000	0.039593	0.024139	0.022563	0.023887	0.022291	0.040573	0.018615	0.015494	0.016049	0.013543	0.034696	0.035951	0.043078	0.040075	0.071016	0.031337	0.018385	0.017165	0.016450	0.043037	0.035192	0.040330	0.043976	0.060494	0.018504	0.019482	0.015079	0.013079	0.013612	0.020365	0.019733	0.020727	0.018461	0.031181	0.024313	0.006955	0.012697	0.010263	0.007690	0.017926	0.008730	0.017300	0.011410	0.010028	0.033853	0.021220	0.019291	0.018715	0.017558	0.027309	0.019654	0.007001	0.007233	0.009078	0.006286	0.015123	0.008187	0.018864	0.013618	0.018546	0.038424
4.330000	0.038852	0.023316	0.022247	0.023592	0.022409	0.040004	0.018347	0.015394	0.015755	0.013728	0.034924	0.036048	0.043078	0.040091	0.070489	0.031319	0.018945	0.017417	0.016575	0.043477	0.035599	0.040490	0.043725	0.060235	0.018448	0.019740	0.015650	0.013515	0.013582	0.019725	0.018493	0.019584	0.017594	0.031482	0.023851	0.006616	0.012156	0.009815	0.007338	0.017875	0.009056	0.016739	0.011003	0.010132	0.033816	0.020165	0.018050	0.017727	0.016740	0.027246	0.019069	0.006008	0.006541	0.008397	0.005354	0.015073	0.008732	0.019068	0.012291	0.019122	0.038861
4.335000	0.037968	0.023237	0.021823	0.023056	0.022803	0.039111	0.018201	0.015405	0.016777	0.014348	0.035666	0.036809	0.042565	0.072356	0.080802	0.031314	0.019160	0.017598	0.016833	0.044211	0.036183	0.041910	0.043917	0.060223	0.019048	0.019904	0.015146	0.012705	0.013583	0.018155	0.017486	0.018171	0.016640	0.031378	0.022867	0.006252	0.011840	0.009310	0.006970	0.017773	0.009491	0.016056	0.010736	0.010560	0.034346	0.019708	0.017778	0.017134	0.016658	0.026453	0.017929	0.005674	0.006543	0.008171	0.004847	0.014696	0.009402	0.018474	0.012900	0.018941	0.039386
4.340000	0.036706	0.023833	0.023430	0.021455	0.022589	0.038190	0.019761	0.016329	0.018328	0.016190	0.036720	0.038015	0.039443	0.079703	0.075691	0.029810	0.019051	0.016875	0.016058	0.043616	0.036063	0.042076	0.044018	0.060437	0.018994	0.020445	0.015073	0.012518	0.013477	0.017129	0.016554	0.017205	0.015656	0.030891	0.022094	0.005522	0.011489	0.008799	0.006396	0.017422	0.009947	0.014940	0.010452	0.010842	0.034870	0.018343	0.016321	0.015746	0.015789	0.026467	0.016829	0.005032	0.006344	0.008088	0.004171	0.014438	0.010100	0.018145	0.011726	0.019422	0.039793
4.345000	0.035879	0.022919	0.022649	0.021469	0.023030	0.037504	0.021073	0.016567	0.018913	0.017447	0.037826	0.039157	0.041505	0.078505	0.074979	0.030467	0.018758	0.017151	0.016342	0.044156	0.036455	0.042053	0.044081	0.060213	0.019322	0.020022	0.014867	0.012511	0.013317	0.016543	0.015727	0.016215	0.014882	0.031131	0.021317	0.005364	0.011586	0.008709	0.006458	0.017036	0.010306	0.014220	0.010094	0.010900	0.035226	0.017028	0.015583	0.014808	0.015330	0.025711	0.015474	0.005020	0.006599	0.008174	0.003977	0.014100	0.011191	0.017414	0.011734	0.019304	0.040329
4.350000	0.035371	0.022704	0.022284	0.020892	0.023108	0.036928	0.021433	0.016688	0.019602	0.018053	0.038468	0.040045	0.040454	0.079305	0.074085	0.030682	0.018653	0.017376	0.016771	0.045008	0.037064	0.042341	0.044456	0.060177	0.019557	0.020281	0.014881	0.012137	0.013396	0.015667	0.014967	0.015357	0.014445	0.030772	0.020659	0.005007	0.011872	0.008633	0.006034	0.016819	0.010795	0.013209	0.009875	0.011180	0.035547	0.016034	0.014387	0.013962	0.014397	0.025853	0.014834	0.004942	0.006952	0.008255	0.003668	0.013639	0.011626	0.016777	0.012503	0.019449	0.040615
4.355000	0.034916	0.022453	0.021844	0.020333	0.023342	0.036364	0.021674	0.017347	0.020296	0.018800	0.039170	0.040735	0.041293	0.079094	0.074385	0.030516	0.018974	0.017605	0.017257	0.045713	0.037869	0.042676	0.044347	0.060392	0.019326	0.020063	0.014641	0.012014	0.013172	0.014832	0.013762	0.014115	0.013437	0.030511	0.019955	0.004753	0.011782	0.008403	0.005802	0.016564	0.011132	0.012623	0.009790	0.011147	0.035164	0.014460	0.012922	0.012712	0.013415	0.026269	0.013558	0.004786	0.006842	0.008518	0.003946	0.013496	0.012056	0.016565	0.012130	0.019770	0.041035
4.360000	0.034349	0.022381	0.021641	0.019785	0.023265	0.035978	0.021878	0.018007	0.020857	0.019265	0.039799	0.041149	0.041595	0.078762	0.074283	0.030806	0.019221	0.017862	0.017748	0.046204	0.038647	0.042242	0.044629	0.060504	0.019640	0.020073	0.014216	0.011557	0.012914	0.013428	0.012513	0.012960	0.012452	0.030252	0.019145	0.004560	0.012685	0.008114	0.005598	0.016898	0.011614	0.012604	0.009612	0.011401	0.035509	0.013369	0.012092	0.012040	0.012548	0.026239	0.012807	0.005047	0.007103	0.008796	0.003974	0.013507	0.012758	0.016258	0.012179	0.019978	0.041386
4.365000	0.034151	0.022192	0.021166	0.019246	0.023494	0.036328	0.022195	0.018314	0.021644	0.019955	0.040322	0.041474	0.041783	0.077930	0.074374	0.030803	0.019406	0.018074	0.018456	0.046745	0.039328	0.043265	0.044743	0.060071	0.019570	0.019944	0.013963	0.011348	0.012956	0.013051	0.012382	0.012908	0.012148	0.030150	0.018821	0.004507	0.013620	0.008405	0.005548	0.016474	0.011991	0.010995	0.010660	0.011312	0.035826	0.012614	0.011699	0.011675	0.011992	0.026372	0.012300	0.005285	0.007595	0.008685	0.004110	0.013248	0.012468	0.015550	0.012536	0.019977	0.041611
4.370000	0.033935	0.022265	0.020926	0.018840	0.023645	0.035876	0.022865	0.018885	0.022295	0.020618	0.041125	0.042366	0.041101	0.078764	0.073689	0.031025	0.019816	0.018559	0.018937	0.047194	0.039531	0.043297	0.044992	0.060758	0.019040	0.019991	0.013594	0.011306	0.012600	0.011906	0.011343	0.011422	0.011171	0.030244	0.018568	0.004559	0.013284	0.008414	0.005486	0.016568	0.012007	0.011587	0.009980	0.011878	0.035681	0.011043	0.011141	0.011809	0.011162	0.026190	0.011758	0.005503	0.007711	0.009063	0.004341	0.013486	0.012915	0.015877	0.012085	0.020349	0.041915
4.375000	0.033639	0.022314	0.020517	0.018321	0.023563	0.035830	0.022549	0.019311	0.022755	0.021233	0.041639	0.042856	0.041521	0.078764	0.073430	0.031102	0.019954	0.018740	0.019476	0.047777	0.039795	0.045281	0.045191	0.060948	0.019401	0.019674	0.013465	0.010970	0.012385	0.011681	0.010875	0.010971	0.010341	0.030080	0.018661	0.004306	0.013746	0.008406	0.005280	0.016429	0.012381	0.011654	0.010191	0.012000	0.035930	0.010423	0.010335	0.011321	0.010602	0.026395	0.011725	0.005700	0.007784	0.008719	0.004435	0.013615	0.012922	0.015831	0.012166	0.020381	0.041939
4.380000	0.033393	0.021975	0.020130	0.018105	0.023680	0.035369	0.023329	0.019863	0.023149	0.021744	0.042092	0.043194	0.041596	0.078591	0.073389	0.031121	0.020258	0.018994	0.020096	0.048040	0.040490	0.045198	0.045666	0.061001	0.019395	0.019480	0.013146	0.010933	0.012262	0.010968	0.010364	0.010980	0.010118	0.029898	0.018595	0.004353	0.013589	0.008649	0.005039	0.016812	0.012728	0.011833	0.009877	0.012223	0.036014	0.009853	0.009803	0.010411	0.010094	0.026173	0.011581	0.005862	0.007862	0.009207	0.004483	0.013546	0.013063	0.015922	0.011180	0.020589	0.042002
4.385000	0.033363	0.022127	0.020010	0.017917	0.023871	0.035242	0.023167	0.020235	0.023557	0.022266	0.042727	0.043639	0.041539	0.078296	0.073053	0.030981	0.020577	0.019151	0.020445	0.048375	0.040871	0.045358	0.046040	0.061012	0.019333	0.019424	0.012975	0.010935	0.012180	0.010900	0.010148	0.010725	0.010038	0.029328	0.018622	0.004351	0.014232	0.008765	0.004815	0.016780	0.012870	0.012234	0.009887	0.012402	0.036006	0.009529	0.009703	0.010227	0.010128	0.025903	0.011623	0.006061	0.008164	0.009126	0.004340	0.013505	0.014040	0.016096	0.011418	0.020375	0.041661
4.390000	0.033173	0.021900	0.019602	0.017696	0.023834	0.034930	0.023490	0.020719	0.023813	0.022544	0.043192	0.044159	0.042108	0.078757	0.072748	0.031160	0.020762	0.019225	0.020731	0.048532	0.040901	0.045761	0.046021	0.061140	0.019025	0.019233	0.012618	0.010803	0.012001	0.010637	0.009937	0.010559	0.009861	0.028720	0.018452	0.004709	0.014372	0.008943	0.004726	0.017029	0.013206	0.012964	0.010561	0.012805	0.036141	0.009298	0.009623	0.010077	0.010025	0.025597	0.012035	0.006276	0.008151	0.009160	0.004540	0.013642	0.013944	0.016594	0.011072	0.020627	0.041562
4.395000	0.032960	0.021763	0.019472	0.017477	0.023820	0.034641	0.023761	0.020919	0.024166	0.023022	0.043626	0.044551	0.043351	0.078275	0.072603	0.031152	0.020725	0.019131	0.020987	0.048717	0.041174	0.046128	0.046823	0.060754	0.019546	0.019116	0.012301	0.010533	0.011843	0.011140	0.010327	0.010869	0.009972	0.028338	0.018831	0.004712	0.013901	0.009045	0.004703	0.017081	0.013501	0.013851	0.010738	0.013160	0.036069	0.009653	0.009971	0.010542	0.010406	0.025225	0.012351	0.005939	0.008317	0.008814	0.004285	0.013588	0.014124	0.016957	0.011195	0.020501	0.041046
4.400000	0.032878	0.022375	0.019125	0.017381	0.023830	0.034413	0.023788	0.021018	0.024398	0.023201	0.043761	0.044765	0.042537	0.078465	0.072416	0.031231	0.020868	0.019206	0.021060	0.048785	0.041155	0.046515	0.046553	0.061346	0.019302	0.018716	0.012236	0.010702	0.011936	0.010578	0.010501	0.011218	0.010141	0.027437	0.018578	0.005049	0.014076	0.009285	0.004345	0.017445	0.013687	0.014798	0.010892	0.013620	0.036158	0.009938	0.010024	0.010529	0.010697	0.024755	0.012717	0.006156	0.008624	0.008852	0.004257	0.013773	0.014567	0.017319	0.010918	0.020747	0.040783
