Coordinates
version=1
nRows=111
nColumns=40
inDegrees=yes

Units are S.I. units (second, meters, Newtons, ...)
If the header above contains a line with 'inDegrees', this indicates whether rotational values are in degrees (yes) or radians (no).

endheader
time	pelvis_tilt	pelvis_list	pelvis_rotation	pelvis_tx	pelvis_ty	pelvis_tz	hip_flexion_r	hip_adduction_r	hip_rotation_r	knee_angle_r	knee_angle_r_beta	ankle_angle_r	subtalar_angle_r	mtp_angle_r	hip_flexion_l	hip_adduction_l	hip_rotation_l	knee_angle_l	knee_angle_l_beta	ankle_angle_l	subtalar_angle_l	mtp_angle_l	lumbar_extension	lumbar_bending	lumbar_rotation	arm_flex_r	arm_add_r	arm_rot_r	elbow_flex_r	pro_sup_r	wrist_flex_r	wrist_dev_r	arm_flex_l	arm_add_l	arm_rot_l	elbow_flex_l	pro_sup_l	wrist_flex_l	wrist_dev_l
      3.85000000	    -44.88023995	      5.44060699	      0.04170497	     -0.45940829	      0.59544878	     -0.93515744	    111.81865006	    -17.81028235	      4.05568727	     90.47924871	      1.57916079	     25.41890007	      0.00000000	      0.00000000	    106.03869408	    -11.75464515	     -1.67839033	     90.04344959	      1.57155467	     32.43643592	      0.00000000	      0.00000000	    -21.32878385	     -2.89071418	     -5.89191665	      6.09830763	    -49.79000213	     71.82423391	     89.44203360	     85.55492140	      0.00000000	      0.00000000	      2.22247751	    -55.16776983	     73.85885906	     96.95327050	     87.82432876	      0.00000000	      0.00000000
      3.85500000	    -44.07548530	      5.81444341	     -0.02703194	     -0.45687976	      0.59659978	     -0.93488486	    111.07111235	    -17.87896784	      4.34595803	     90.70794712	      1.58315233	     25.53596291	      0.00000000	      0.00000000	    104.92501555	    -11.88958628	     -2.15629126	     90.20272162	      1.57433449	     32.56938333	      0.00000000	      0.00000000	    -22.20366188	     -3.30331850	     -5.95362194	      6.35479678	    -49.83111000	     71.89321109	     89.25990064	     85.68193332	      0.00000000	      0.00000000	      2.49516948	    -55.08523270	     73.91445221	     96.69639441	     87.76507910	      0.00000000	      0.00000000
      3.86000000	    -43.91595964	      5.86524989	     -0.08241073	     -0.45560695	      0.59679016	     -0.93444033	    110.83743635	    -17.79425346	      4.39270258	     90.80410644	      1.58483063	     25.78247447	      0.00000000	      0.00000000	    104.64107760	    -11.95669037	     -2.17707099	     90.25976930	      1.57533016	     32.91213187	      0.00000000	      0.00000000	    -22.26153604	     -3.40938708	     -5.92800967	      6.89567368	    -49.85497925	     72.48019707	     89.18347023	     85.97106045	      0.00000000	      0.00000000	      2.70981070	    -55.11732402	     74.23531484	     96.71923177	     87.74095173	      0.00000000	      0.00000000
      3.86500000	    -44.01063576	      5.85368775	      0.12620587	     -0.45488273	      0.59675684	     -0.93464741	    110.91115187	    -17.97704149	      4.48928428	     90.86692604	      1.58592704	     25.82512280	      0.00000000	      0.00000000	    104.66415863	    -11.67615231	     -2.13756005	     90.22812987	      1.57477794	     32.95694696	      0.00000000	      0.00000000	    -22.03405694	     -3.33414732	     -6.02824997	      7.03782304	    -49.87301150	     72.64394950	     89.17741991	     86.07907782	      0.00000000	      0.00000000	      2.89484023	    -55.07114016	     74.42984876	     96.66773144	     87.73229675	      0.00000000	      0.00000000
      3.87000000	    -44.25884109	      5.38545718	      0.21480361	     -0.45427908	      0.59647625	     -0.93410481	    110.87453643	    -18.02601187	      4.05505330	     90.87417024	      1.58605348	     25.99902877	      0.00000000	      0.00000000	    105.03403880	    -11.56346231	     -1.59346168	     90.21998411	      1.57463577	     32.91913950	      0.00000000	      0.00000000	    -21.51185007	     -2.86162967	     -5.88989122	      7.44054709	    -49.82395785	     73.52315559	     89.23854939	     83.42068847	      0.00000000	      0.00000000	      3.14484702	    -55.02689135	     74.80924785	     96.55487367	     87.96754655	      0.00000000	      0.00000000
      3.87500000	    -43.43166399	      5.73678160	      0.22907321	     -0.45142944	      0.59831568	     -0.93403169	    109.98636622	    -18.16577242	      4.37575917	     90.99894426	      1.58823119	     26.09649945	      0.00000000	      0.00000000	    103.79825090	    -11.49127302	     -1.95652635	     90.24056115	      1.57499491	     32.95929141	      0.00000000	      0.00000000	    -22.28728592	     -3.20891820	     -6.02863612	      7.49172809	    -49.38277565	     73.33528122	     88.85569966	     83.74764222	      0.00000000	      0.00000000	      3.32074821	    -54.83809666	     74.67852174	     96.22505920	     87.81869278	      0.00000000	      0.00000000
      3.88000000	    -43.20151334	      5.78951866	      0.32442304	     -0.44997895	      0.59908894	     -0.93389361	    109.65516424	    -18.20601331	      4.52292727	     91.07967306	      1.58964018	     26.35855077	      0.00000000	      0.00000000	    103.35385008	    -11.39798024	     -2.08607848	     90.20649163	      1.57440029	     33.30409670	      0.00000000	      0.00000000	    -22.30840821	     -3.26230056	     -5.92363041	      7.00785828	    -49.14187881	     72.52433401	     88.70320719	     85.85207261	      0.00000000	      0.00000000	      4.06535732	    -54.85484438	     75.48650423	     96.24685768	     87.73626710	      0.00000000	      0.00000000
      3.88500000	    -43.14136674	      6.00192727	      0.48388164	     -0.44853664	      0.59978591	     -0.93397729	    109.56529806	    -18.28181750	      4.85350020	     91.12339991	      1.59040335	     26.46673640	      0.00000000	      0.00000000	    103.02337133	    -11.15701208	     -2.26525102	     90.09803631	      1.57250738	     33.42960049	      0.00000000	      0.00000000	    -22.07202157	     -3.43752883	     -6.21076391	      7.30054518	    -48.78167489	     72.91742529	     88.45761283	     85.64574633	      0.00000000	      0.00000000	      3.94926442	    -54.83225936	     75.33133670	     96.13679353	     87.73670249	      0.00000000	      0.00000000
      3.89000000	    -43.24940222	      5.58107585	      0.19630785	     -0.44749277	      0.60026669	     -0.93256307	    109.23706402	    -17.82822007	      4.37327508	     90.99863901	      1.58822587	     26.62873850	      0.00000000	      0.00000000	    103.16787602	    -11.46281164	     -1.66542549	     90.09896788	      1.57252364	     33.45262946	      0.00000000	      0.00000000	    -21.55889258	     -3.21533704	     -5.66339102	      7.15340826	    -48.52189923	     72.86741047	     88.26895511	     85.44325914	      0.00000000	      0.00000000	      4.14449984	    -54.77081058	     75.50317018	     96.03142377	     87.73932187	      0.00000000	      0.00000000
      3.89500000	    -42.58824999	      5.79578253	      0.32317505	     -0.44486580	      0.60241035	     -0.93262723	    108.38916221	    -18.01833923	      4.64100649	     90.99400270	      1.58814495	     26.70779444	      0.00000000	      0.00000000	    102.07206267	    -11.19516728	     -1.85840195	     89.95763553	      1.57005693	     33.50148138	      0.00000000	      0.00000000	    -21.98999122	     -3.33923992	     -5.90563463	      7.24466534	    -48.21447563	     72.80000985	     88.00463833	     85.45065849	      0.00000000	      0.00000000	      4.29749790	    -54.66954331	     75.47013010	     95.74764417	     87.72525894	      0.00000000	      0.00000000
      3.90000000	    -42.16811548	      5.85544738	      0.37122272	     -0.44260266	      0.60425337	     -0.93230612	    107.69923926	    -18.02234317	      4.73681171	     90.96618399	      1.58765942	     26.87644135	      0.00000000	      0.00000000	    101.28473854	    -11.05034688	     -1.92265221	     89.78503843	      1.56704454	     33.67902269	      0.00000000	      0.00000000	    -22.06828811	     -3.40859639	     -5.95513423	      7.29724338	    -47.98405551	     72.79419772	     87.73502863	     85.44569089	      0.00000000	      0.00000000	      4.41602202	    -54.57544712	     75.45277365	     95.54554291	     87.71963172	      0.00000000	      0.00000000
      3.90500000	    -42.75336830	      5.73994059	      0.37583270	     -0.44239224	      0.60436795	     -0.93185686	    108.07531908	    -17.75379892	      4.73575244	     90.79701316	      1.58470683	     27.01967259	      0.00000000	      0.00000000	    101.80188468	    -10.99438335	     -1.64894919	     89.61594726	      1.56409334	     33.76319098	      0.00000000	      0.00000000	    -20.89091838	     -3.39451918	     -5.74733610	      6.95123354	    -47.96516347	     72.46974030	     87.63154066	     85.28131526	      0.00000000	      0.00000000	      4.75086647	    -54.49031828	     75.96761492	     95.42152334	     87.71010548	      0.00000000	      0.00000000
      3.91000000	    -41.52373271	      5.93412921	      0.28564048	     -0.43834790	      0.60799207	     -0.93130550	    106.42560320	    -17.81468221	      4.83521895	     90.77614084	      1.58434254	     27.31911478	      0.00000000	      0.00000000	     99.95349624	    -11.00684888	     -1.96516448	     89.47698926	      1.56166807	     34.08216222	      0.00000000	      0.00000000	    -21.83769418	     -3.62143447	     -5.85899507	      7.20557994	    -47.62640561	     72.48574301	     87.02054998	     85.31627888	      0.00000000	      0.00000000	      4.93280700	    -54.37955380	     75.91236861	     95.05386498	     87.69599445	      0.00000000	      0.00000000
      3.91500000	    -41.75719601	      5.60216477	      0.23533640	     -0.43719446	      0.60918601	     -0.93057780	    106.20070473	    -17.55923421	      4.56463529	     90.51232589	      1.57973810	     27.45533518	      0.00000000	      0.00000000	    100.03023221	    -11.01249301	     -1.50970937	     89.26214720	      1.55791837	     34.12960862	      0.00000000	      0.00000000	    -20.99732923	     -3.35995229	     -5.66721532	      7.23047310	    -47.57550217	     72.51825084	     86.81277223	     85.34501343	      0.00000000	      0.00000000	      4.88499272	    -54.33766449	     75.86131556	     94.99822785	     87.68756943	      0.00000000	      0.00000000
      3.92000000	    -41.33395579	      5.60352804	      0.15948744	     -0.43460417	      0.61189810	     -0.92994579	    105.30030696	    -17.41161116	      4.53606175	     90.30523534	      1.57612369	     27.59403692	      0.00000000	      0.00000000	     99.16631088	    -11.01243455	     -1.51479488	     88.97028382	      1.55282439	     34.22003860	      0.00000000	      0.00000000	    -20.93470370	     -3.41994757	     -5.65194025	      7.33991807	    -47.36794471	     72.46754833	     86.41793465	     85.35997038	      0.00000000	      0.00000000	      4.92681283	    -54.22588074	     75.81969958	     94.67460358	     87.68353725	      0.00000000	      0.00000000
      3.92500000	    -40.59859458	      5.44078356	      0.01198827	     -0.43126236	      0.61509847	     -0.92892894	    103.96236501	    -17.25307289	      4.31133928	     90.13461098	      1.57314573	     27.80870534	      0.00000000	      0.00000000	     97.95804668	    -11.15152305	     -1.41315556	     88.76552827	      1.54925073	     34.40049852	      0.00000000	      0.00000000	    -21.15589007	     -3.36195538	     -5.49303264	      7.40456710	    -47.09121732	     72.36105942	     85.90788847	     85.36359547	      0.00000000	      0.00000000	      4.94869412	    -54.10944683	     75.68688872	     94.31393231	     87.67100716	      0.00000000	      0.00000000
      3.93000000	    -40.33548351	      5.42512541	      0.07360726	     -0.42884403	      0.61794675	     -0.92877275	    103.21487812	    -17.23407246	      4.33406235	     89.80576511	      1.56740629	     27.82004588	      0.00000000	      0.00000000	     97.22038472	    -10.93856868	     -1.35643127	     88.37230718	      1.54238773	     34.34343804	      0.00000000	      0.00000000	    -20.83664315	     -3.31498158	     -5.57352102	      7.38465448	    -47.04848823	     72.28392864	     85.73034931	     85.36319459	      0.00000000	      0.00000000	      4.94695469	    -53.99034315	     75.63797985	     94.15011252	     87.66488140	      0.00000000	      0.00000000
      3.93500000	    -40.12274317	      5.39251742	      0.01985768	     -0.42656216	      0.62072844	     -0.92811685	    102.52096716	    -17.07335301	      4.27211170	     89.51653981	      1.56235835	     27.85931619	      0.00000000	      0.00000000	     96.54034637	    -10.88773627	     -1.27118051	     87.96039087	      1.53519843	     34.34082111	      0.00000000	      0.00000000	    -20.39659542	     -3.37262463	     -5.54603323	      7.39197239	    -46.87698195	     72.15485819	     85.48104922	     85.35586594	      0.00000000	      0.00000000	      4.91489399	    -53.96186603	     75.55571265	     93.96518802	     87.65714566	      0.00000000	      0.00000000
      3.94000000	    -39.69225867	      5.42335096	      0.15086667	     -0.42370561	      0.62423536	     -0.92810577	    101.53244745	    -17.19215291	      4.30538864	     89.12132858	      1.55546062	     27.89368537	      0.00000000	      0.00000000	     95.51910767	    -10.60751036	     -1.35328796	     87.49115630	      1.52700874	     34.35196005	      0.00000000	      0.00000000	    -20.19942341	     -3.37240960	     -5.70007062	      7.34654968	    -46.72780593	     71.96052279	     85.05757026	     85.34218865	      0.00000000	      0.00000000	      4.89345306	    -53.77157590	     75.42554785	     93.65250299	     87.64482606	      0.00000000	      0.00000000
      3.94500000	    -38.84691791	      5.22090387	     -0.07257330	     -0.42014654	      0.62825525	     -0.92700819	     99.95923227	    -16.97116905	      3.96612881	     88.86654819	      1.55101386	     28.27760991	      0.00000000	      0.00000000	     94.12439435	    -10.83401260	     -1.25103180	     87.20660852	      1.52204245	     34.68371415	      0.00000000	      0.00000000	    -20.38961443	     -3.29088478	     -5.50166990	      7.29136496	    -46.37135757	     71.47753762	     84.28711704	     85.33864802	      0.00000000	      0.00000000	      4.77952912	    -53.60981445	     74.97806013	     93.09926186	     87.61182186	      0.00000000	      0.00000000
      3.95000000	    -38.81042422	      4.77272384	      0.58273208	     -0.41815552	      0.63140193	     -0.92771840	     99.24373023	    -17.60402395	      3.55748186	     88.49444087	      1.54451936	     28.45610227	      0.00000000	      0.00000000	     93.69666752	     -9.93221105	     -0.68486851	     86.54471650	      1.51049025	     34.64732587	      0.00000000	      0.00000000	    -19.69093653	     -2.64236244	     -5.94842938	      7.01208087	    -46.37167673	     70.91014338	     84.11782624	     85.36899615	      0.00000000	      0.00000000	      4.52066723	    -53.39972152	     74.55244268	     92.80062804	     87.61383961	      0.00000000	      0.00000000
      3.95500000	    -37.86438980	      4.89848446	     -0.22279438	     -0.41396274	      0.63591697	     -0.92555977	     97.56862017	    -16.70510268	      3.46983846	     88.04345157	      1.53664811	     28.61462909	      0.00000000	      0.00000000	     91.97082354	    -10.86109770	     -0.98815258	     86.22874128	      1.50497545	     34.79227668	      0.00000000	      0.00000000	    -19.89646520	     -3.09495372	     -5.31069322	      6.70784318	    -45.98655617	     70.26441572	     83.56364671	     85.38689602	      0.00000000	      0.00000000	      4.12938045	    -53.31765946	     73.71058855	     92.43121842	     87.62072694	      0.00000000	      0.00000000
      3.96000000	    -37.47914702	      4.95264837	     -0.08663324	     -0.41095084	      0.64010402	     -0.92570987	     96.54112853	    -16.87056316	      3.45067225	     87.50706149	      1.52728634	     28.48194013	      0.00000000	      0.00000000	     90.89939428	    -10.48978811	     -1.00299862	     85.53916964	      1.49294015	     34.64363728	      0.00000000	      0.00000000	    -19.46518382	     -3.09553043	     -5.40323064	      6.53930813	    -45.96551491	     69.98731513	     83.37475992	     85.38447061	      0.00000000	      0.00000000	      4.05862227	    -53.19659447	     73.36807792	     92.20900725	     87.61511653	      0.00000000	      0.00000000
      3.96500000	    -37.19267916	      4.59306526	      0.61867408	     -0.40849229	      0.64399719	     -0.92658660	     95.56296158	    -17.64192987	      3.00874420	     87.14920293	      1.52104053	     28.58270838	      0.00000000	      0.00000000	     90.11401766	     -9.55721421	     -0.57432260	     84.85367943	      1.48097609	     34.68290890	      0.00000000	      0.00000000	    -18.95374526	     -2.50920685	     -5.94016891	      5.90708634	    -45.85995771	     68.75952208	     83.05554650	     85.37390925	      0.00000000	      0.00000000	      3.37824276	    -52.92367448	     72.28053106	     91.71276828	     87.58556253	      0.00000000	      0.00000000
      3.97000000	    -36.23733083	      4.82800712	     -0.44508037	     -0.40413594	      0.64906747	     -0.92394724	     93.84803549	    -16.45085696	      3.03022127	     86.52294936	      1.51011034	     28.58003673	      0.00000000	      0.00000000	     88.25247655	    -10.74867531	     -1.07937784	     84.43436769	      1.47365772	     34.85566772	      0.00000000	      0.00000000	    -19.03521489	     -3.18545465	     -5.07537471	      5.42833636	    -45.44164166	     67.89659034	     82.51071705	     85.37091302	      0.00000000	      0.00000000	      2.71305854	    -52.83419087	     71.14433013	     91.32525644	     87.56866164	      0.00000000	      0.00000000
      3.97500000	    -35.42372808	      4.71968659	     -0.38250548	     -0.40031354	      0.65414684	     -0.92358924	     92.21004076	    -16.57677329	      2.74335592	     85.99802738	      1.50094873	     28.67383298	      0.00000000	      0.00000000	     86.66612611	    -10.56356518	     -1.05699589	     83.73806906	      1.46150501	     34.97451861	      0.00000000	      0.00000000	    -19.02335830	     -3.07450296	     -5.15663923	      4.66005109	    -45.25635356	     66.44183326	     82.30915165	     85.36407843	      0.00000000	      0.00000000	      1.71322464	    -52.63575285	     69.60810179	     91.03620609	     87.57155709	      0.00000000	      0.00000000
      3.98000000	    -35.21231307	      4.19802285	      0.39587326	     -0.39766084	      0.65861738	     -0.92458392	     91.08791851	    -17.36296993	      2.04655316	     85.41507698	      1.49077432	     28.59279194	      0.00000000	      0.00000000	     85.97664327	     -9.60165205	     -0.36239967	     82.92880405	      1.44738068	     34.66520525	      0.00000000	      0.00000000	    -18.32870689	     -2.27804895	     -5.71072954	      3.90251720	    -45.28495210	     65.12691103	     82.39463107	     85.32133169	      0.00000000	      0.00000000	      0.78098693	    -52.28959327	     68.24731913	     90.77878814	     87.55695514	      0.00000000	      0.00000000
      3.98500000	    -33.97356329	      4.58107606	     -0.65430030	     -0.39274335	      0.66465819	     -0.92201761	     89.09148227	    -16.28007112	      2.27641212	     84.72142234	      1.47866777	     28.45073622	      0.00000000	      0.00000000	     83.64938488	    -10.69915619	     -1.15716221	     82.35110281	      1.43729789	     34.81149829	      0.00000000	      0.00000000	    -18.61029864	     -3.10987777	     -4.95796822	      3.38159241	    -44.86427732	     64.22832431	     81.98445736	     85.27358222	      0.00000000	      0.00000000	      0.05408189	    -52.30111154	     67.08943375	     90.65192554	     87.53810547	      0.00000000	      0.00000000
      3.99000000	    -33.88784362	      3.97654790	      0.13287105	     -0.39037496	      0.66904354	     -0.92282886	     88.06765812	    -16.99323893	      1.46643672	     84.10582510	      1.46792357	     28.35565586	      0.00000000	      0.00000000	     83.11752952	     -9.82004541	     -0.35036181	     81.44720167	      1.42152184	     34.57297316	      0.00000000	      0.00000000	    -17.74333701	     -2.25435768	     -5.48349894	      2.06933973	    -44.87672988	     62.09036256	     82.26893295	     85.24097729	      0.00000000	      0.00000000	     -1.53038908	    -52.15774287	     64.87188395	     90.91556729	     87.54385404	      0.00000000	      0.00000000
      3.99500000	    -33.18571072	      4.24015474	      0.09888778	     -0.38666165	      0.67464253	     -0.92257076	     86.65564862	    -17.02736048	      1.57431471	     83.41902591	      1.45593666	     28.14844193	      0.00000000	      0.00000000	     81.49061117	     -9.62675840	     -0.72162442	     80.58835707	      1.40653217	     34.44972406	      0.00000000	      0.00000000	    -17.45863849	     -2.59474648	     -5.60398879	      1.22377765	    -44.67662227	     60.77426631	     82.37469430	     85.20168994	      0.00000000	      0.00000000	     -2.64252462	    -51.95961607	     63.40495930	     90.99558125	     87.54680470	      0.00000000	      0.00000000
      4.00000000	    -32.86456709	      3.97467218	     -0.17760107	     -0.38367693	      0.67960914	     -0.92110389	     85.48138434	    -16.48485520	      1.27280995	     82.65222294	      1.44255342	     27.82550057	      0.00000000	      0.00000000	     80.49275419	     -9.99505945	     -0.56585870	     79.81553758	      1.39304392	     34.17043913	      0.00000000	      0.00000000	    -16.73766756	     -2.50554828	     -5.28444716	     -0.04358303	    -44.49542545	     58.79818104	     82.64399940	     85.13190170	      0.00000000	      0.00000000	     -4.30748249	    -52.07465004	     61.26331292	     91.57599649	     87.52866509	      0.00000000	      0.00000000
      4.00500000	    -31.34857978	      4.70653934	     -0.61010822	     -0.37789780	      0.68691072	     -0.92010190	     83.23608594	    -16.40843869	      1.79029426	     81.94988540	      1.43029532	     27.82082558	      0.00000000	      0.00000000	     77.54921437	    -10.06887012	     -1.63778399	     78.81750425	      1.37562496	     34.37027941	      0.00000000	      0.00000000	    -17.24982615	     -3.44677143	     -5.24637241	     -0.95842497	    -44.06896797	     57.38416405	     82.64711732	     85.10131681	      0.00000000	      0.00000000	     -5.54900460	    -51.96362075	     59.70135881	     91.72551069	     87.52996432	      0.00000000	      0.00000000
      4.01000000	    -31.06222296	      4.32231843	     -0.30961293	     -0.37514490	      0.69248789	     -0.91993811	     81.98649658	    -16.50279873	      1.28230541	     81.06737951	      1.41489269	     27.30810879	      0.00000000	      0.00000000	     76.61961284	     -9.73064396	     -1.15586023	     77.77108570	      1.35736151	     33.76744348	      0.00000000	      0.00000000	    -16.42312687	     -3.04633787	     -5.40107575	     -1.66701798	    -44.14553426	     56.50268280	     83.16518211	     85.08933723	      0.00000000	      0.00000000	     -6.31774520	    -52.00435391	     58.95327719	     92.27246936	     87.52009289	      0.00000000	      0.00000000
      4.01500000	    -30.69443500	      3.96615266	     -0.51378682	     -0.37227000	      0.69775034	     -0.91869877	     80.72994049	    -16.03844922	      0.84390494	     80.23429899	      1.40035269	     26.77269710	      0.00000000	      0.00000000	     75.64966353	    -10.05910883	     -0.90298631	     77.05613790	      1.34488332	     33.23180065	      0.00000000	      0.00000000	    -15.76606791	     -2.81198843	     -5.07723011	     -3.51147280	    -44.30994194	     54.08872242	     84.34042568	     85.04139541	      0.00000000	      0.00000000	     -8.18669045	    -52.06657631	     56.62172400	     93.34165292	     87.46599410	      0.00000000	      0.00000000
      4.02000000	    -29.30789584	      4.23599668	     -0.23680765	     -0.36690604	      0.70571009	     -0.91905395	     78.29245273	    -16.64870388	      0.70524706	     79.34091549	      1.38476021	     26.65739289	      0.00000000	      0.00000000	     73.02983483	     -9.44474532	     -1.25957041	     75.80598361	      1.32306401	     33.02110298	      0.00000000	      0.00000000	    -16.22712782	     -3.00895631	     -5.49702472	     -5.08570894	    -44.06306716	     51.74753354	     84.81063936	     85.04473832	      0.00000000	      0.00000000	    -10.02558599	    -51.80314763	     54.27175744	     93.75227642	     87.46944519	      0.00000000	      0.00000000
      4.02500000	    -28.88731803	      4.18690723	     -0.20303290	     -0.36349527	      0.71176521	     -0.91853731	     77.00257114	    -16.64992190	      0.42143458	     78.44345117	      1.36909650	     26.00178684	      0.00000000	      0.00000000	     71.77043016	     -9.41398909	     -1.40094472	     74.75278136	      1.30468216	     32.42473078	      0.00000000	      0.00000000	    -15.50451268	     -3.02690196	     -5.59677738	     -6.25716910	    -44.23929872	     50.55347139	     85.92260209	     85.03575298	      0.00000000	      0.00000000	    -11.24920243	    -51.95148910	     53.23333721	     94.77681451	     87.44692084	      0.00000000	      0.00000000
      4.03000000	    -28.24420008	      3.97016625	     -0.59787533	     -0.35987076	      0.71820671	     -0.91702866	     75.39395811	    -16.04326316	      0.18089138	     77.42019189	      1.35123726	     25.38079747	      0.00000000	      0.00000000	     70.27244034	     -9.89400366	     -1.46266784	     73.79827271	      1.28802284	     31.71632064	      0.00000000	      0.00000000	    -15.02413317	     -2.98034314	     -5.14107704	     -7.62117293	    -44.47954309	     49.10713256	     86.98063746	     85.00957363	      0.00000000	      0.00000000	    -12.63918179	    -52.20150192	     51.90896738	     95.84286885	     87.41557166	      0.00000000	      0.00000000
      4.03500000	    -27.31851425	      4.19110068	     -0.68535323	     -0.35578416	      0.72561306	     -0.91653802	     73.54781647	    -16.14642228	      0.09967745	     76.35843837	      1.33270616	     25.04496192	      0.00000000	      0.00000000	     68.22214742	     -9.78555538	     -1.93644907	     72.51169321	      1.26556779	     31.17526260	      0.00000000	      0.00000000	    -14.79929074	     -3.11471417	     -6.11951643	     -6.01594515	    -45.52059915	     51.77947740	     89.84241223	     87.32416109	      0.00000000	      0.00000000	    -16.42613562	    -51.84381896	     47.97721571	     96.67899656	     87.46438688	      0.00000000	      0.00000000
      4.04000000	    -26.64047488	      4.42669621	     -0.80615354	     -0.35195766	      0.73290143	     -0.91608402	     71.99377558	    -16.18599239	      0.09005547	     75.25240808	      1.31340229	     24.35511798	      0.00000000	      0.00000000	     66.46758456	     -9.64647705	     -2.34718497	     71.22396130	      1.24309263	     30.43911589	      0.00000000	      0.00000000	    -14.40865221	     -3.42890537	     -6.08708389	     -7.44257355	    -45.87030338	     50.34062278	     91.01368474	     87.21809157	      0.00000000	      0.00000000	    -17.96700263	    -52.05892639	     46.58221105	     97.74555439	     87.40718926	      0.00000000	      0.00000000
      4.04500000	    -25.81524716	      4.60813252	     -0.56881075	     -0.34847968	      0.74109030	     -0.91609341	     70.15922396	    -16.57421932	     -0.13870304	     74.01406666	      1.29178916	     23.46455801	      0.00000000	      0.00000000	     64.54567523	     -9.13652485	     -2.51073028	     69.63833542	      1.21541824	     29.39326153	      0.00000000	      0.00000000	    -14.23962107	     -3.60309992	     -6.41552687	     -8.36567845	    -46.35257785	     49.55392247	     92.13078209	     87.19859698	      0.00000000	      0.00000000	    -18.95320101	    -52.43556794	     45.89212403	     98.81704448	     87.39125611	      0.00000000	      0.00000000
      4.05000000	    -24.84731786	      4.95794527	     -0.46466454	     -0.34440363	      0.74946549	     -0.91613975	     68.19187597	    -16.98267589	     -0.20881256	     72.75285467	      1.26977685	     22.76072685	      0.00000000	      0.00000000	     62.38527320	     -8.68166903	     -2.98013670	     68.13401009	      1.18916281	     28.56794087	      0.00000000	      0.00000000	    -14.32569267	     -3.98134266	     -6.69808156	    -10.18357277	    -46.78781718	     47.43327820	     93.36288343	     87.19673083	      0.00000000	      0.00000000	    -21.21330899	    -52.63415042	     43.45443125	    100.07078871	     87.38253014	      0.00000000	      0.00000000
      4.05500000	    -23.67993129	      5.31756866	     -0.42239848	     -0.34026746	      0.75834852	     -0.91602406	     65.97950193	    -17.44303379	     -0.46020767	     71.44223358	      1.24690220	     21.94091226	      0.00000000	      0.00000000	     59.93054123	     -8.24311273	     -3.47810617	     66.43291742	      1.15947314	     27.69992345	      0.00000000	      0.00000000	    -14.55086451	     -4.39153737	     -6.96935290	    -11.32555220	    -47.27479168	     46.42516021	     94.65864584	     87.20651031	      0.00000000	      0.00000000	    -22.87608038	    -53.01490800	     42.08931773	    101.26239687	     87.38284756	      0.00000000	      0.00000000
      4.06000000	    -22.55107441	      5.50659385	     -0.33715003	     -0.33611277	      0.76752512	     -0.91596044	     63.66868340	    -17.84825738	     -0.92239485	     69.98479446	      1.22146509	     20.91382097	      0.00000000	      0.00000000	     57.54542323	     -7.89717998	     -3.86523738	     64.71648362	      1.12951572	     26.52864608	      0.00000000	      0.00000000	    -14.71765976	     -4.60361845	     -7.22282472	    -12.23886046	    -48.01942612	     45.79174043	     95.95087185	     87.19748765	      0.00000000	      0.00000000	    -24.10556306	    -53.52460843	     41.33399002	    102.33989920	     87.35983776	      0.00000000	      0.00000000
      4.06500000	    -21.46552267	      5.75181424	     -0.40306134	     -0.33209785	      0.77672742	     -0.91562025	     61.42772792	    -18.10591767	     -1.24383226	     68.47090900	      1.19504280	     19.89997761	      0.00000000	      0.00000000	     55.15489773	     -7.62023181	     -4.32425847	     62.92034804	      1.09816724	     25.30691452	      0.00000000	      0.00000000	    -14.85518477	     -4.90591681	     -7.28016353	    -13.35795528	    -48.77532428	     44.92923863	     97.33861512	     87.17295300	      0.00000000	      0.00000000	    -25.52398942	    -54.09242496	     40.15661033	    103.59301970	     87.32828612	      0.00000000	      0.00000000
      4.07000000	    -20.41970322	      6.12305577	     -0.36831758	     -0.32784342	      0.78597163	     -0.91585891	     59.20971552	    -18.62495276	     -1.62604940	     66.90316626	      1.16768053	     19.02328408	      0.00000000	      0.00000000	     52.71578382	     -7.10668596	     -4.86336801	     60.97265947	      1.06417366	     24.32252866	      0.00000000	      0.00000000	    -15.02716557	     -5.29941482	     -7.58384732	    -14.84698342	    -49.48644615	     43.47481705	     98.80246265	     87.15422686	      0.00000000	      0.00000000	    -27.68084132	    -54.37781007	     38.12946987	    104.86165186	     87.33138106	      0.00000000	      0.00000000
      4.07500000	    -19.62817834	      6.32733591	     -0.60935499	     -0.32446864	      0.79502638	     -0.91489673	     57.30149258	    -18.60352607	     -1.88637677	     65.22519379	      1.13839439	     17.82823992	      0.00000000	      0.00000000	     50.61353470	     -7.04540320	     -5.43788922	     59.02034540	      1.03009935	     22.72198706	      0.00000000	      0.00000000	    -14.92659909	     -5.69413910	     -8.20766313	    -14.38664992	    -50.55495357	     44.24583012	    100.09467297	     87.21221802	      0.00000000	      0.00000000	    -31.39333420	    -54.37335125	     34.54211473	    106.22624442	     87.37449000	      0.00000000	      0.00000000
      4.08000000	    -18.76098024	      6.37398663	     -0.81429199	     -0.32070858	      0.80468186	     -0.91399488	     55.09478066	    -18.52381695	     -2.38745787	     63.32132983	      1.10516569	     16.62979996	      0.00000000	      0.00000000	     48.37787639	     -7.01798860	     -5.87497934	     56.93904475	      0.99377380	     21.42356758	      0.00000000	      0.00000000	    -14.89421213	     -5.85278547	     -8.12517309	    -15.50148065	    -51.35879597	     43.25494516	    101.51570964	     87.13784170	      0.00000000	      0.00000000	    -32.90653515	    -54.88302200	     33.35945711	    107.40069726	     87.35498042	      0.00000000	      0.00000000
      4.08500000	    -17.98732683	      6.44359842	     -1.02730533	     -0.31705696	      0.81507405	     -0.91301390	     52.89146035	    -18.39519958	     -2.84399326	     61.18432171	      1.06786786	     15.11515247	      0.00000000	      0.00000000	     46.08213703	     -6.96542213	     -6.40608304	     54.52819275	      0.95169650	     19.45875959	      0.00000000	      0.00000000	    -14.78644057	     -6.06259457	     -8.03754159	    -16.23009400	    -52.09771955	     42.72503876	    102.64582235	     87.12752086	      0.00000000	      0.00000000	    -33.99847990	    -55.39059615	     32.68636215	    108.14941155	     87.35551497	      0.00000000	      0.00000000
      4.09000000	    -17.39984204	      6.55105228	     -1.41427769	     -0.31321226	      0.82551549	     -0.91166582	     50.86227052	    -18.10527364	     -3.18822658	     58.87831572	      1.02762047	     13.56146333	      0.00000000	      0.00000000	     43.83508594	     -7.01678786	     -7.17035083	     51.94348161	      0.90658478	     17.67681220	      0.00000000	      0.00000000	    -14.45714081	     -6.37251036	     -7.77132795	    -17.09928167	    -52.75594858	     41.98236585	    103.65632745	     87.11127986	      0.00000000	      0.00000000	    -35.25565461	    -55.73526897	     31.70972643	    108.82143003	     87.33825843	      0.00000000	      0.00000000
      4.09500000	    -16.83759118	      6.86542683	     -1.70413854	     -0.30935215	      0.83619168	     -0.91074720	     48.86693170	    -18.13698891	     -3.54844190	     56.47605642	      0.98569313	     12.00777333	      0.00000000	      0.00000000	     41.53054457	     -6.70627759	     -7.96269036	     49.12555207	      0.85740263	     15.68871104	      0.00000000	      0.00000000	    -14.20511452	     -6.84332811	     -7.79188496	    -18.12513577	    -53.28009338	     40.90123524	    104.63495775	     87.13316908	      0.00000000	      0.00000000	    -37.08056802	    -55.87406344	     30.03636587	    109.46584109	     87.35092339	      0.00000000	      0.00000000
      4.10000000	    -16.43034783	      6.70452977	     -1.74226567	     -0.30565232	      0.84706356	     -0.90967375	     46.70403119	    -17.83579689	     -4.30388475	     53.82978704	      0.93950702	     10.13568278	      0.00000000	      0.00000000	     39.50982143	     -6.65036204	     -8.21278713	     46.26741959	      0.80751881	     13.31649196	      0.00000000	      0.00000000	    -13.73250121	     -6.77859523	     -7.84664317	    -18.59905751	    -53.97411976	     40.61199161	    105.45154631	     87.13086184	      0.00000000	      0.00000000	    -37.82513114	    -56.14758435	     29.61581672	    109.82706669	     87.34541270	      0.00000000	      0.00000000
      4.10500000	    -16.03128978	      6.73063297	     -1.73445129	     -0.30193103	      0.85812998	     -0.90899311	     44.55579039	    -17.75034682	     -5.07188698	     51.07639641	      0.89145129	      8.13974009	      0.00000000	      0.00000000	     37.39811846	     -6.31991126	     -8.50495183	     43.20855518	      0.75413155	     10.79122769	      0.00000000	      0.00000000	    -13.31293097	     -6.87034825	     -8.03063405	    -19.14223588	    -54.60408408	     40.10936791	    106.20117243	     87.11470234	      0.00000000	      0.00000000	    -38.68565438	    -56.29394077	     29.08303799	    109.97264911	     87.33610538	      0.00000000	      0.00000000
      4.11000000	    -15.91687638	      6.70774732	     -1.52430371	     -0.29841673	      0.86904949	     -0.90865639	     42.60961233	    -17.70932124	     -6.02415574	     48.19533738	      0.84116732	      6.07369692	      0.00000000	      0.00000000	     35.64154898	     -5.93168836	     -8.69300841	     40.09479922	      0.69978626	      8.20070824	      0.00000000	      0.00000000	    -12.63026824	     -6.85946119	     -8.37437581	    -19.62389811	    -55.15675602	     39.64410743	    107.03095807	     87.09183136	      0.00000000	      0.00000000	    -39.40253978	    -56.29014083	     28.66193522	    110.04893357	     87.33065047	      0.00000000	      0.00000000
      4.11500000	    -15.37127739	      6.70679170	     -1.51300724	     -0.29434855	      0.88077229	     -0.90795232	     40.15320357	    -17.57044612	     -6.95035928	     45.15633257	      0.78812668	      3.55017213	      0.00000000	      0.00000000	     33.23953505	     -5.54800916	     -8.89355517	     36.71409342	      0.64078181	      5.06874555	      0.00000000	      0.00000000	    -12.43705145	     -6.92768205	     -8.65697998	    -20.12190005	    -55.64555740	     39.04254655	    107.41003160	     87.06581243	      0.00000000	      0.00000000	    -40.21140109	    -56.20004423	     28.17669932	    109.80949447	     87.33682701	      0.00000000	      0.00000000
      4.12000000	    -15.27658723	      6.59958313	     -1.46342594	     -0.29049327	      0.89218824	     -0.90743028	     38.09589061	    -17.23309977	     -7.82691170	     41.89679709	      0.73123706	      0.87268323	      0.00000000	      0.00000000	     31.35113933	     -5.24718724	     -8.95111816	     33.29192487	      0.58105370	      1.71541549	      0.00000000	      0.00000000	    -11.75586651	     -6.85945741	     -8.88729879	    -20.52245959	    -56.07710775	     38.60783901	    107.79177305	     87.05350410	      0.00000000	      0.00000000	    -40.75254331	    -55.90917890	     27.92993523	    109.48144880	     87.35075835	      0.00000000	      0.00000000
      4.12500000	    -15.09974348	      6.69015955	     -1.41876055	     -0.28674971	      0.90378717	     -0.90689328	     36.02230559	    -17.08246981	     -8.72755282	     38.61766515	      0.67400541	     -2.00212090	      0.00000000	      0.00000000	     29.26806988	     -4.70375287	     -9.07338526	     29.56642750	      0.51603151	     -1.97216765	      0.00000000	      0.00000000	    -11.20313943	     -7.01976929	     -9.21517809	    -20.79676953	    -56.40451077	     38.28849551	    108.09719203	     87.07859622	      0.00000000	      0.00000000	    -41.08074883	    -55.73859984	     28.05690721	    109.08517672	     87.36363240	      0.00000000	      0.00000000
      4.13000000	    -14.85047517	      6.31903384	     -1.34290410	     -0.28279744	      0.91595282	     -0.90606230	     33.57574607	    -16.35546859	     -9.72720407	     34.92225061	      0.60950826	     -5.33894634	      0.00000000	      0.00000000	     27.16831998	     -4.63164514	     -8.91930301	     25.91407920	      0.45228600	     -6.05030876	      0.00000000	      0.00000000	    -10.73683324	     -6.68161717	     -9.43623727	    -20.99750249	    -56.67546247	     37.89268924	    108.23590143	     87.06769160	      0.00000000	      0.00000000	    -41.03046311	    -55.35636788	     28.38790073	    108.41640007	     87.36791793	      0.00000000	      0.00000000
      4.13500000	    -14.68157264	      5.81058649	     -1.21882666	     -0.27891300	      0.92814990	     -0.90517664	     31.16925951	    -15.40900260	    -10.62213520	     31.06561786	      0.54219732	     -9.19249668	      0.00000000	      0.00000000	     25.27186429	     -4.70521231	     -8.69616932	     22.33451386	      0.38981080	    -10.74018972	      0.00000000	      0.00000000	    -10.22185178	     -6.18562671	     -9.72116783	    -21.13795705	    -56.84310338	     37.54539702	    108.32017825	     87.06734716	      0.00000000	      0.00000000	    -40.91834862	    -54.79975265	     28.83859011	    107.52493249	     87.36535965	      0.00000000	      0.00000000
      4.14000000	    -14.42393604	      5.33488206	     -1.19692004	     -0.27487841	      0.94067589	     -0.90432757	     28.70406896	    -14.43493692	    -11.54287595	     27.06871983	      0.47243829	    -13.58742584	      0.00000000	      0.00000000	     23.22097829	     -4.75118539	     -8.54729022	     18.53392289	      0.32347798	    -16.01965021	      0.00000000	      0.00000000	     -9.79383788	     -5.73371898	     -9.89510767	    -21.26499468	    -56.94207869	     37.32423061	    108.26348408	     87.07604897	      0.00000000	      0.00000000	    -40.46992776	    -54.11134660	     29.49085638	    106.44091787	     87.38308174	      0.00000000	      0.00000000
      4.14500000	    -14.35784663	      4.94173884	     -1.33103972	     -0.27133888	      0.95298054	     -0.90331236	     26.69149478	    -13.41915393	    -12.14962225	     23.16691642	      0.40433897	    -18.29374180	      0.00000000	      0.00000000	     21.48558179	     -4.81023240	     -8.60983868	     14.76738616	      0.25773951	    -21.77552099	      0.00000000	      0.00000000	     -9.22831227	     -5.36547706	     -9.86945417	    -21.39562522	    -56.89488880	     37.20135860	    108.11066329	     87.07418779	      0.00000000	      0.00000000	    -39.94189809	    -53.40638653	     30.23641258	    105.27983596	     87.38273702	      0.00000000	      0.00000000
      4.15000000	    -13.98838024	      4.58066759	     -1.46554801	     -0.26740814	      0.96570417	     -0.90230975	     24.24747845	    -12.40443378	    -12.71422085	     19.03412430	      0.33220814	    -23.03324367	      0.00000000	      0.00000000	     19.27822223	     -4.78264138	     -8.64872161	     10.63728666	      0.18565568	    -27.59033454	      0.00000000	      0.00000000	     -8.87262643	     -5.01811890	     -9.07776113	    -23.11680141	    -56.34287736	     35.48813366	    107.91155298	     87.07974028	      0.00000000	      0.00000000	    -37.10079090	    -53.64514760	     33.10585595	    104.04647495	     87.35029789	      0.00000000	      0.00000000
      4.15500000	    -14.14193983	      3.97412494	     -1.47678744	     -0.26369338	      0.97773362	     -0.90157958	     22.52328285	    -11.22364609	    -13.66711757	     15.11202932	      0.26375467	    -28.33583234	      0.00000000	      0.00000000	     18.07828161	     -5.10656756	     -9.06302980	      7.30277639	      0.12745749	    -32.76791836	      0.00000000	      0.00000000	     -8.14428875	     -4.35398638	     -9.19680964	    -23.45761531	    -56.03748686	     34.97440535	    107.55471023	     87.08638209	      0.00000000	      0.00000000	    -36.88214702	    -52.35584989	     33.30126772	    102.50700915	     87.34774903	      0.00000000	      0.00000000
      4.16000000	    -13.81348277	      3.65347297	     -1.51272124	     -0.26001680	      0.99035358	     -0.90077343	     20.28518674	    -10.28843133	    -14.25341854	     11.12406008	      0.19415147	    -32.72497222	      0.00000000	      0.00000000	     16.16990912	     -5.07690234	     -9.36788304	      3.74244221	      0.06531794	    -36.24148125	      0.00000000	      0.00000000	     -7.90743769	     -4.04904986	     -8.98008905	    -23.94164335	    -55.49237851	     34.56489045	    107.13115319	     87.11089430	      0.00000000	      0.00000000	    -35.75176850	    -51.80307571	     34.33228684	    101.34591080	     87.33103319	      0.00000000	      0.00000000
      4.16500000	    -13.55952872	      3.04894765	     -1.46251241	     -0.25584718	      1.00304197	     -0.89988104	     18.29099389	     -9.14591102	    -15.83079756	      7.67193557	      0.13390054	    -36.39199706	      0.00000000	      0.00000000	     14.84594982	     -5.40236387	    -10.62093751	      1.55694551	      0.02717383	    -37.19814961	      0.00000000	      0.00000000	     -7.56117931	     -3.37535275	     -7.99666473	    -26.79178724	    -54.09566274	     31.53878005	    106.69843867	     87.13879476	      0.00000000	      0.00000000	    -32.69985144	    -51.72791799	     37.38762518	     99.85250849	     87.28998748	      0.00000000	      0.00000000
      4.17000000	    -13.52518892	      2.62494472	     -1.25821808	     -0.25273682	      1.01526252	     -0.89942421	     16.91878189	     -8.30153647	    -17.99945139	      5.10045120	      0.08901967	    -38.00897728	      0.00000000	      0.00000000	     14.42251745	     -5.58340487	    -12.59509561	      0.74449076	      0.01299381	    -36.54313104	      0.00000000	      0.00000000	     -7.12852799	     -2.92576368	     -8.23207342	    -26.69117332	    -53.39294423	     31.45106611	    106.01904278	     87.15840739	      0.00000000	      0.00000000	    -32.28521070	    -50.68899980	     37.35851616	     98.67853170	     87.27625313	      0.00000000	      0.00000000
      4.17500000	    -13.81711446	      2.39270581	     -1.32054679	     -0.25014608	      1.02695316	     -0.89864277	     16.31524102	     -7.62246351	    -20.24758991	      3.30652927	      0.05770982	    -38.21260576	      0.00000000	      0.00000000	     14.47400322	     -5.63511365	    -15.24536922	      0.59320280	      0.01035334	    -35.30421060	      0.00000000	      0.00000000	     -6.32725164	     -2.72372885	     -8.21633673	    -26.53096151	    -52.54125562	     31.37997706	    105.14868918	     87.14578263	      0.00000000	      0.00000000	    -31.90087880	    -49.67382314	     37.42442937	     97.46152728	     87.25885167	      0.00000000	      0.00000000
      4.18000000	    -13.71403314	      1.98903264	     -1.55641745	     -0.24739131	      1.03896365	     -0.89771673	     15.48478948	     -6.77733344	    -23.13224413	      1.99691957	      0.03485282	    -38.32446245	      0.00000000	      0.00000000	     14.07956339	     -5.86112535	    -18.28369335	      0.59372974	      0.01036254	    -33.98007659	      0.00000000	      0.00000000	     -6.00195198	     -2.30869489	     -7.95089983	    -26.41197098	    -51.67915709	     31.30461871	    104.33427467	     87.14528924	      0.00000000	      0.00000000	    -31.23769999	    -48.68556027	     37.60054134	     96.37593567	     87.25326696	      0.00000000	      0.00000000
      4.18500000	    -13.87042479	      1.66356720	     -1.71169870	     -0.24548755	      1.05037034	     -0.89679617	     15.18822791	     -6.04576640	    -25.21189725	      1.38727990	      0.02421260	    -37.63222469	      0.00000000	      0.00000000	     14.03569256	     -5.99962826	    -20.52706760	      0.67144167	      0.01171887	    -33.23406856	      0.00000000	      0.00000000	     -5.45226534	     -2.01378037	     -7.76473179	    -26.18077241	    -50.67070410	     31.15100258	    103.29364126	     87.11837250	      0.00000000	      0.00000000	    -30.80032216	    -47.90500532	     37.56122330	     95.52995457	     87.22563670	      0.00000000	      0.00000000
      4.19000000	    -13.75933100	      1.39175892	     -1.96198903	     -0.24361559	      1.06181843	     -0.89592718	     15.03397610	     -5.55918299	    -27.98012595	      1.69028044	      0.02950096	    -37.29817076	      0.00000000	      0.00000000	     13.77849681	     -6.08693258	    -23.26559889	      0.98377572	      0.01717013	    -33.58242380	      0.00000000	      0.00000000	     -5.27720951	     -1.74538277	     -7.46341866	    -26.03057127	    -49.68902533	     30.89052510	    102.45722928	     87.11173582	      0.00000000	      0.00000000	    -30.11881678	    -47.08579942	     37.78748128	     94.66848096	     87.22998112	      0.00000000	      0.00000000
      4.19500000	    -13.72436236	      1.35269757	     -2.05179725	     -0.24264242	      1.07283400	     -0.89521606	     15.02397010	     -5.35844510	    -29.61801599	      2.16803815	      0.03783940	    -36.57708994	      0.00000000	      0.00000000	     13.74796180	     -5.94912375	    -25.26320832	      1.39692907	      0.02438101	    -34.74750566	      0.00000000	      0.00000000	     -5.06076218	     -1.71152849	     -6.53363568	    -27.39752247	    -48.12747158	     28.99942863	    101.70687408	     87.10719423	      0.00000000	      0.00000000	    -27.72076847	    -47.21646656	     39.92812828	     94.00915090	     87.19513999	      0.00000000	      0.00000000
      4.20000000	    -13.60024437	      1.47687405	     -2.27042741	     -0.24184426	      1.08375040	     -0.89448558	     14.97625258	     -5.33249242	    -30.39755248	      2.71408119	      0.04736965	    -36.66856238	      0.00000000	      0.00000000	     13.76456877	     -5.77558442	    -26.49187965	      2.24005187	      0.03909628	    -36.25761577	      0.00000000	      0.00000000	     -5.03351226	     -1.90224254	     -6.28623604	    -26.98006610	    -47.06974485	     28.88909250	    100.70721210	     87.08175490	      0.00000000	      0.00000000	    -27.28111293	    -46.70354761	     39.75313005	     93.44304223	     87.16919756	      0.00000000	      0.00000000
      4.20500000	    -13.67425269	      1.68892871	     -2.30029826	     -0.24160811	      1.09419804	     -0.89441718	     15.31533622	     -5.61190064	    -31.49313447	      3.79325520	      0.06620479	    -37.11362490	      0.00000000	      0.00000000	     14.09573261	     -5.41123644	    -28.15726845	      3.17963506	      0.05549510	    -37.67521900	      0.00000000	      0.00000000	     -4.82071283	     -2.12628438	     -6.22786055	    -26.55557701	    -46.19017745	     28.84287456	     99.59697552	     87.07769485	      0.00000000	      0.00000000	    -26.71791993	    -46.26071845	     39.99961896	     92.85643672	     87.17939356	      0.00000000	      0.00000000
      4.21000000	    -13.31844468	      1.89949265	     -2.42719613	     -0.24124563	      1.10494071	     -0.89407809	     15.12218464	     -5.83616250	    -31.31763175	      4.78259879	      0.08347210	    -37.72246861	      0.00000000	      0.00000000	     13.92688443	     -5.08131946	    -28.36989853	      4.30546639	      0.07514456	    -38.44896951	      0.00000000	      0.00000000	     -5.14108502	     -2.37103934	     -6.07865984	    -26.09898844	    -45.44620841	     28.75041066	     98.73836448	     87.05710126	      0.00000000	      0.00000000	    -26.29389379	    -46.04509891	     40.08495533	     92.39645855	     87.15842373	      0.00000000	      0.00000000
      4.21500000	    -13.13426561	      2.28753489	     -2.62401712	     -0.24113467	      1.11506911	     -0.89365025	     15.26901393	     -6.27147668	    -31.09177448	      6.03679149	      0.10536189	    -38.00043848	      0.00000000	      0.00000000	     14.10932158	     -4.61458208	    -28.81418016	      5.62617241	      0.09819523	    -38.63313720	      0.00000000	      0.00000000	     -5.21331330	     -2.83837187	     -5.81125566	    -25.58485099	    -44.54744874	     28.78714156	     97.45069872	     87.05350600	      0.00000000	      0.00000000	    -25.57481392	    -45.91654617	     40.58994478	     91.96045155	     87.17651745	      0.00000000	      0.00000000
      4.22000000	    -13.08682769	      2.98372111	     -2.97163324	     -0.24173966	      1.12433424	     -0.89293728	     15.76157914	     -6.96965226	    -29.99878229	      7.41328132	      0.12938617	    -38.17366968	      0.00000000	      0.00000000	     14.37029836	     -3.79743917	    -28.57263204	      6.62024647	      0.11554510	    -38.75564135	      0.00000000	      0.00000000	     -5.19948691	     -3.66629142	     -5.36615508	    -25.14466064	    -43.79524450	     28.79304010	     96.48433463	     87.06719965	      0.00000000	      0.00000000	    -24.92877440	    -46.14474931	     41.21633704	     91.82165480	     87.20716800	      0.00000000	      0.00000000
      4.22500000	    -12.86136968	      3.26617424	     -3.19139352	     -0.24176235	      1.13353015	     -0.89257836	     15.90648994	     -7.21728433	    -28.79363907	      8.63277248	      0.15067030	    -38.32605773	      0.00000000	      0.00000000	     14.33519354	     -3.27050321	    -27.86108416	      7.32541243	      0.12785257	    -38.86029555	      0.00000000	      0.00000000	     -5.34161799	     -3.97568960	     -4.52795079	    -25.63876613	    -42.97323241	     27.89748261	     95.65770795	     87.07638900	      0.00000000	      0.00000000	    -23.10286198	    -46.57446539	     43.40141876	     91.48676594	     87.21573900	      0.00000000	      0.00000000
      4.23000000	    -12.55177771	      3.36759629	     -2.96424839	     -0.24182298	      1.14249119	     -0.89261908	     15.78536332	     -7.31638611	    -27.91936056	      9.54977614	      0.16667504	    -38.48062263	      0.00000000	      0.00000000	     14.28905757	     -2.82788595	    -26.53072972	      7.97874991	      0.13925546	    -38.89206586	      0.00000000	      0.00000000	     -5.69591319	     -4.11164405	     -4.76040412	    -25.21452649	    -42.51816172	     27.99464201	     94.74773480	     87.07149334	      0.00000000	      0.00000000	    -22.86023612	    -46.62339311	     43.66390470	     91.25942551	     87.24605250	      0.00000000	      0.00000000
      4.23500000	    -12.53442949	      3.51187706	     -2.93315800	     -0.24210317	      1.15066362	     -0.89231419	     16.06373439	     -7.35505884	    -26.57057514	     10.42673931	      0.18198093	    -38.52243296	      0.00000000	      0.00000000	     14.39259474	     -2.31669339	    -24.96513199	      8.21586154	      0.14339383	    -38.92008157	      0.00000000	      0.00000000	     -5.68238386	     -4.29993672	     -4.79083465	    -24.57750924	    -42.30694734	     28.51624327	     93.86141685	     87.08300185	      0.00000000	      0.00000000	    -22.45639464	    -46.83631887	     44.35362253	     91.10172642	     87.27177692	      0.00000000	      0.00000000
      4.24000000	    -12.34045830	      3.60031867	     -3.02262706	     -0.24193247	      1.15869579	     -0.89177907	     16.03788469	     -7.24702634	    -25.22112894	     10.98345913	      0.19169753	    -38.56728432	      0.00000000	      0.00000000	     14.15812593	     -1.85187877	    -23.64353355	      8.14375332	      0.14213531	    -38.94417401	      0.00000000	      0.00000000	     -5.77894653	     -4.45567649	     -4.65354112	    -24.07449122	    -42.16496940	     29.14740483	     92.98972215	     87.09763030	      0.00000000	      0.00000000	    -22.04669939	    -47.03022673	     45.02054565	     90.95562224	     87.26607889	      0.00000000	      0.00000000
      4.24500000	    -11.95966581	      3.50212334	     -2.94410472	     -0.24145736	      1.16688988	     -0.89136338	     15.57978927	     -6.93195872	    -24.15573244	     11.11824217	      0.19404993	    -38.60323421	      0.00000000	      0.00000000	     13.66832831	     -1.54983828	    -22.11779985	      7.95253632	      0.13879794	    -38.95225692	      0.00000000	      0.00000000	     -6.09603305	     -4.40875497	     -4.71387881	    -23.47490002	    -42.10448605	     29.79249253	     92.19746266	     87.08401203	      0.00000000	      0.00000000	    -21.66912460	    -47.23339153	     45.76355171	     90.78848700	     87.25806358	      0.00000000	      0.00000000
      4.25000000	    -11.72230127	      3.49919320	     -2.79054322	     -0.24099786	      1.17453497	     -0.89112180	     15.20210620	     -6.71816523	    -23.12665841	     11.06345628	      0.19309374	    -38.61527918	      0.00000000	      0.00000000	     13.32750585	     -1.17306119	    -20.85167919	      7.71929310	      0.13472708	    -38.93291896	      0.00000000	      0.00000000	     -6.22548194	     -4.43659704	     -4.84643704	    -22.95220793	    -42.14962394	     30.54784541	     91.53300185	     87.07566789	      0.00000000	      0.00000000	    -21.32433290	    -47.39597949	     46.35909269	     90.64197843	     87.25365728	      0.00000000	      0.00000000
      4.25500000	    -11.27923889	      3.53248448	     -2.86349707	     -0.23979882	      1.18221691	     -0.89050383	     14.48642068	     -6.48935523	    -22.15576456	     10.75869201	      0.18777460	    -38.59175472	      0.00000000	      0.00000000	     12.55348850	     -0.79029887	    -20.06874502	      7.15133692	      0.12481438	    -38.88399217	      0.00000000	      0.00000000	     -6.47374662	     -4.53699289	     -4.78281044	    -22.47265014	    -42.21531680	     31.40129809	     90.86142161	     87.06360458	      0.00000000	      0.00000000	    -21.11116622	    -47.50919143	     46.88828465	     90.47870802	     87.26553933	      0.00000000	      0.00000000
      4.26000000	    -10.83381257	      3.51594834	     -2.79170166	     -0.23881504	      1.18970180	     -0.88994637	     13.68053077	     -6.23072617	    -21.39145363	     10.28588748	      0.17952260	    -38.58819385	      0.00000000	      0.00000000	     11.86256549	     -0.51104145	    -19.51584556	      6.74610645	      0.11774177	    -38.82869763	      0.00000000	      0.00000000	     -6.75406999	     -4.56524635	     -4.90052516	    -21.93329844	    -42.34749630	     32.26948277	     90.31477714	     87.05428591	      0.00000000	      0.00000000	    -20.87780713	    -47.62822339	     47.34101578	     90.35378016	     87.25147497	      0.00000000	      0.00000000
      4.26500000	    -10.32328716	      3.50639423	     -2.74554135	     -0.23777394	      1.19713079	     -0.88937409	     12.81498712	     -6.05611643	    -21.15443065	      9.81318165	      0.17127233	    -38.55603813	      0.00000000	      0.00000000	     11.08569968	     -0.25899077	    -19.25264138	      6.27458708	      0.10951220	    -38.74550313	      0.00000000	      0.00000000	     -7.08923355	     -4.59759602	     -4.95649221	    -21.48394552	    -42.49729476	     33.06117614	     89.84835934	     87.05927789	      0.00000000	      0.00000000	    -20.70989901	    -47.72988955	     47.68089898	     90.27952295	     87.23753534	      0.00000000	      0.00000000
      4.27000000	     -9.84449228	      3.46039818	     -2.91184973	     -0.23643894	      1.20427108	     -0.88833874	     11.99186110	     -5.82420092	    -21.11899843	      9.32463759	      0.16274563	    -38.45119260	      0.00000000	      0.00000000	     10.28541489	     -0.15061071	    -19.66122528	      5.82141526	      0.10160286	    -38.62342623	      0.00000000	      0.00000000	     -7.33469431	     -4.62582819	     -4.81591160	    -21.13653680	    -42.56211405	     33.70250341	     89.38327760	     87.05134006	      0.00000000	      0.00000000	    -20.62307933	    -47.75281316	     47.88283640	     90.17942019	     87.24266660	      0.00000000	      0.00000000
      4.27500000	     -9.37093806	      3.40962721	     -2.99291028	     -0.23491274	      1.21106342	     -0.88756384	     11.11927471	     -5.65670682	    -21.40309512	      8.82191482	      0.15397146	    -38.35865519	      0.00000000	      0.00000000	      9.52921687	     -0.06320591	    -20.26466225	      5.50671828	      0.09611037	    -38.51616868	      0.00000000	      0.00000000	     -7.54444362	     -4.62596275	     -4.75538893	    -20.86708094	    -42.77013912	     34.35347607	     89.17724449	     87.04591016	      0.00000000	      0.00000000	    -20.59413298	    -47.74364431	     47.86137878	     90.21110310	     87.23262316	      0.00000000	      0.00000000
      4.28000000	     -9.01576808	      3.35625690	     -3.08085771	     -0.23360392	      1.21748377	     -0.88675251	     10.45708093	     -5.53043640	    -22.00546025	      8.46808659	      0.14779599	    -38.17467250	      0.00000000	      0.00000000	      8.95017591	     -0.02599174	    -21.01140995	      5.25547068	      0.09172527	    -38.37960205	      0.00000000	      0.00000000	     -7.62697937	     -4.63776080	     -4.66884864	    -20.73039858	    -42.90384688	     34.76121174	     88.99184667	     87.04035916	      0.00000000	      0.00000000	    -20.64504383	    -47.73732124	     47.76991585	     90.26962945	     87.23264360	      0.00000000	      0.00000000
      4.28500000	     -8.48127003	      3.39098860	     -3.20240591	     -0.23247959	      1.22384932	     -0.88585136	      9.66132502	     -5.54656938	    -22.81688815	      8.23190851	      0.14367391	    -37.98603530	      0.00000000	      0.00000000	      8.21183397	      0.08798497	    -22.07860081	      5.05630911	      0.08824924	    -38.21487506	      0.00000000	      0.00000000	     -7.94612275	     -4.73453754	     -4.57546375	    -20.56532424	    -43.04563179	     35.08984822	     88.94315194	     87.04911401	      0.00000000	      0.00000000	    -20.63835964	    -47.80731521	     47.63829468	     90.43268798	     87.23747872	      0.00000000	      0.00000000
      4.29000000	     -8.09933552	      3.38507175	     -3.26404761	     -0.23118626	      1.22992028	     -0.88528616	      9.04407355	     -5.57604655	    -23.77486561	      8.13485075	      0.14197993	    -37.85195364	      0.00000000	      0.00000000	      7.65035168	      0.14205183	    -23.19090418	      4.96648573	      0.08668153	    -38.14233740	      0.00000000	      0.00000000	     -8.06623397	     -4.75881300	     -4.57203375	    -20.42849521	    -43.21296487	     35.32745760	     88.95349556	     87.04859004	      0.00000000	      0.00000000	    -20.69209841	    -47.74492955	     47.45588456	     90.52958113	     87.23312375	      0.00000000	      0.00000000
      4.29500000	     -7.84947828	      3.41631846	     -3.58800420	     -0.22987387	      1.23555428	     -0.88441785	      8.68438982	     -5.63846846	    -24.65574947	      8.17666410	      0.14270971	    -37.67397519	      0.00000000	      0.00000000	      7.21670595	      0.19427168	    -24.46616995	      4.85958421	      0.08481574	    -38.02618500	      0.00000000	      0.00000000	     -8.02082907	     -4.84272839	     -4.32345634	    -20.34658945	    -43.38729553	     35.58906430	     88.99342747	     87.04921050	      0.00000000	      0.00000000	    -20.86733248	    -47.63909092	     47.17641745	     90.56631511	     87.20996801	      0.00000000	      0.00000000
      4.30000000	     -7.69389155	      3.38366983	     -3.85391355	     -0.22843576	      1.24094542	     -0.88371811	      8.41152193	     -5.65285151	    -25.58826185	      8.24112660	      0.14383479	    -37.47486036	      0.00000000	      0.00000000	      6.88240474	      0.17866510	    -25.64729055	      4.82252324	      0.08416891	    -37.94042465	      0.00000000	      0.00000000	     -7.85246501	     -4.83924711	     -4.11041506	    -20.35196825	    -43.53780039	     35.63732387	     89.08583732	     87.03688765	      0.00000000	      0.00000000	    -21.07103374	    -47.49946375	     46.86815816	     90.60819177	     87.19794166	      0.00000000	      0.00000000
      4.30500000	     -7.57498798	      3.28958791	     -3.98990233	     -0.22757217	      1.24607419	     -0.88309029	      8.21097769	     -5.61080015	    -26.32658831	      8.39442421	      0.14651034	    -37.34483279	      0.00000000	      0.00000000	      6.68795104	      0.06885874	    -26.60245135	      4.89697994	      0.08546842	    -37.88954103	      0.00000000	      0.00000000	     -7.74142961	     -4.76541025	     -4.00418087	    -20.34429528	    -43.69160103	     35.62667439	     89.24263586	     87.03745625	      0.00000000	      0.00000000	    -21.11813869	    -47.40259418	     46.53865741	     90.70206694	     87.19630995	      0.00000000	      0.00000000
      4.31000000	     -7.51133543	      3.26005233	     -4.29883790	     -0.22657601	      1.25096499	     -0.88222092	      8.07519608	     -5.58699055	    -26.61294184	      8.46981779	      0.14782621	    -37.23262497	      0.00000000	      0.00000000	      6.52515017	      0.00745861	    -26.86895777	      4.96002797	      0.08656882	    -37.85228593	      0.00000000	      0.00000000	     -7.49768383	     -4.78513299	     -3.69355176	    -20.37619703	    -43.75081436	     35.64322286	     89.29172746	     87.04245863	      0.00000000	      0.00000000	    -21.16258374	    -47.34239090	     46.41028910	     90.77032824	     87.19707100	      0.00000000	      0.00000000
      4.31500000	     -7.48489162	      3.23784796	     -4.34636100	     -0.22600003	      1.25556870	     -0.88162420	      7.95951666	     -5.56161652	    -26.63694086	      8.52717805	      0.14882733	    -37.23428035	      0.00000000	      0.00000000	      6.43791463	     -0.00954161	    -26.90423388	      4.99682511	      0.08721105	    -37.86008230	      0.00000000	      0.00000000	     -7.31050474	     -4.80406293	     -3.72663497	    -20.34913735	    -43.75737288	     35.60795727	     89.31508152	     87.04178549	      0.00000000	      0.00000000	    -21.12249767	    -47.35521845	     46.36784554	     90.79407823	     87.19398478	      0.00000000	      0.00000000
      4.32000000	     -7.22988036	      3.04996812	     -4.54331018	     -0.22518817	      1.26020054	     -0.88081964	      7.79843754	     -5.51142193	    -27.28394240	      9.13179013	      0.15937980	    -36.97020574	      0.00000000	      0.00000000	      6.22819101	     -0.33127649	    -27.58587919	      5.47142067	      0.09549431	    -37.76708995	      0.00000000	      0.00000000	     -7.43000131	     -4.65921494	     -3.52756502	    -20.51023276	    -43.86944250	     35.36205922	     89.70312283	     87.07119572	      0.00000000	      0.00000000	    -21.25362954	    -47.37958239	     45.94360883	     91.08793831	     87.18114668	      0.00000000	      0.00000000
      4.32500000	     -7.21400703	      3.02982717	     -4.57877152	     -0.22441775	      1.26436281	     -0.88030421	      7.68980216	     -5.49492270	    -27.26491772	      9.18770530	      0.16035571	    -36.98790644	      0.00000000	      0.00000000	      6.12577197	     -0.36245516	    -27.53909816	      5.51816519	      0.09631015	    -37.79605471	      0.00000000	      0.00000000	     -7.19946175	     -4.67372368	     -3.55573008	    -20.49873328	    -43.85985453	     35.33902047	     89.71973803	     87.07112898	      0.00000000	      0.00000000	    -21.25067934	    -47.37987598	     45.93795757	     91.09854101	     87.18109206	      0.00000000	      0.00000000
      4.33000000	     -7.14336235	      2.80259009	     -4.64892433	     -0.22375400	      1.26833142	     -0.87950095	      7.68482238	     -5.30082445	    -26.85261266	      9.62775405	      0.16803601	    -37.12822356	      0.00000000	      0.00000000	      6.08787236	     -0.71194419	    -26.67973340	      5.88084789	      0.10264016	    -37.95145183	      0.00000000	      0.00000000	     -7.10470751	     -4.50940936	     -3.47966247	    -20.49553480	    -43.89119054	     35.22795505	     89.86886562	     87.08131954	      0.00000000	      0.00000000	    -21.22937349	    -47.41375265	     45.87393423	     91.24699819	     87.18963049	      0.00000000	      0.00000000
      4.33500000	     -7.45031701	      2.66924771	     -4.62838650	     -0.22302886	      1.27173305	     -0.87900545	      7.94774339	     -5.12449825	    -26.50605828	      9.72292649	      0.16969708	    -37.17591708	      0.00000000	      0.00000000	      6.41546759	     -0.92569682	    -25.53338322	      6.11924973	      0.10680106	    -37.88081764	      0.00000000	      0.00000000	     -6.53541378	     -4.37901697	     -3.53031191	    -20.58948790	    -43.79809880	     35.03099120	     89.88710746	     87.08637757	      0.00000000	      0.00000000	    -21.27244674	    -47.41198873	     46.05245146	     91.18033505	     87.18236894	      0.00000000	      0.00000000
      4.34000000	     -7.26884734	      2.54003861	     -4.62843423	     -0.22244599	      1.27552893	     -0.87815040	      7.76157638	     -5.00661820	    -26.05265892	      9.99252272	      0.17440242	    -37.42909756	      0.00000000	      0.00000000	      6.25049402	     -1.15839723	    -24.82813531	      6.40775290	      0.11183639	    -37.95197076	      0.00000000	      0.00000000	     -6.70257585	     -4.15757296	     -3.61291452	    -20.68146176	    -43.72444556	     34.76292300	     90.02262775	     87.09636180	      0.00000000	      0.00000000	    -21.60872079	    -46.99268558	     45.27417327	     89.07845511	     86.55464064	      0.00000000	      0.00000000
      4.34500000	     -7.31384435	      2.30728226	     -4.41795205	     -0.22184744	      1.27867462	     -0.87748098	      7.60140706	     -4.67874609	    -25.73116296	      9.79451321	      0.17094650	    -37.61204027	      0.00000000	      0.00000000	      6.30052246	     -1.47743939	    -23.60236309	      6.61197212	      0.11540068	    -37.89813681	      0.00000000	      0.00000000	     -6.53421764	     -3.99992579	     -4.42020772	    -19.73736049	    -43.90529449	     35.73823660	     89.96226994	     87.15997118	      0.00000000	      0.00000000	    -23.23857374	    -46.60841716	     43.23294109	     89.34040068	     85.19037282	      0.00000000	      0.00000000
      4.35000000	     -7.26496550	      2.27935216	     -4.44322378	     -0.22126868	      1.28161774	     -0.87665322	      7.54425861	     -4.65455837	    -25.37578156	      9.95383978	      0.17372728	    -37.77746647	      0.00000000	      0.00000000	      6.22610976	     -1.60461665	    -23.12027568	      6.77304052	      0.11821186	    -38.00898888	      0.00000000	      0.00000000	     -6.39308128	     -4.07220005	     -4.49394571	    -19.64813987	    -43.80603150	     35.75835488	     89.93466843	     87.15138070	      0.00000000	      0.00000000	    -23.30245853	    -46.72092041	     43.36975346	     89.32409275	     85.20226406	      0.00000000	      0.00000000
      4.35500000	     -7.25372967	      2.22841699	     -4.44886526	     -0.22069026	      1.28429197	     -0.87573332	      7.47843560	     -4.55570650	    -24.68057951	     10.01234937	      0.17474846	    -37.94327477	      0.00000000	      0.00000000	      6.21755495	     -1.77725302	    -22.22788504	      6.98803150	      0.12196416	    -38.05582960	      0.00000000	      0.00000000	     -6.21187828	     -4.12766949	     -4.52260080	    -19.51638788	    -43.70679387	     35.85068560	     89.74951993	     87.14373076	      0.00000000	      0.00000000	    -23.15429878	    -46.82506131	     43.48798212	     89.40424658	     85.21307048	      0.00000000	      0.00000000
      4.36000000	     -7.28979271	      2.23731059	     -4.39506952	     -0.22035819	      1.28661490	     -0.87495062	      7.42606099	     -4.50930036	    -24.08675505	      9.92138808	      0.17316089	    -38.03237913	      0.00000000	      0.00000000	      6.30378494	     -1.89012729	    -21.29117355	      7.21825648	      0.12598234	    -38.07944550	      0.00000000	      0.00000000	     -6.00476421	     -4.22933924	     -4.67253653	    -19.35966365	    -43.64646073	     35.99778457	     89.58171661	     87.14038474	      0.00000000	      0.00000000	    -22.95801665	    -46.94547519	     43.75188025	     89.44975375	     85.24989380	      0.00000000	      0.00000000
      4.36500000	     -7.27293858	      2.22591991	     -4.41576876	     -0.21967208	      1.28861564	     -0.87404327	      7.33227832	     -4.50084018	    -24.05871500	      9.94543680	      0.17358062	    -38.04621505	      0.00000000	      0.00000000	      6.20429603	     -2.01763106	    -21.25227667	      7.24790542	      0.12649981	    -38.09516490	      0.00000000	      0.00000000	     -5.80039960	     -4.33528009	     -4.69302346	    -19.34963689	    -43.62823816	     35.99092944	     89.58608091	     87.13920673	      0.00000000	      0.00000000	    -22.95135942	    -46.97050683	     43.75021729	     89.44102905	     85.25009385	      0.00000000	      0.00000000
      4.37000000	     -7.20296637	      2.05485890	     -4.43682638	     -0.21924149	      1.29057754	     -0.87289748	      7.07094972	     -4.20601254	    -23.28112246	      9.66766651	      0.16873261	    -38.12221669	      0.00000000	      0.00000000	      6.17791536	     -2.40159403	    -20.40576404	      7.60652080	      0.13275883	    -38.19170609	      0.00000000	      0.00000000	     -5.70634058	     -4.28148180	     -4.69247008	    -19.09476631	    -43.46771612	     36.24055954	     89.20708637	     87.13210258	      0.00000000	      0.00000000	    -22.73276076	    -47.23388687	     44.22172369	     89.45691252	     85.26624000	      0.00000000	      0.00000000
      4.37500000	     -7.11322319	      1.99435251	     -4.34878205	     -0.21882696	      1.29219345	     -0.87213488	      6.86970980	     -4.16006991	    -23.13449287	      9.60559335	      0.16764923	    -38.15649978	      0.00000000	      0.00000000	      6.13755011	     -2.63993935	    -20.16958354	      7.89454631	      0.13778583	    -38.21985885	      0.00000000	      0.00000000	     -5.63349360	     -4.32769449	     -4.79736446	    -18.98224537	    -43.38937964	     36.31339751	     88.99032695	     87.12665427	      0.00000000	      0.00000000	    -22.52160297	    -47.39471447	     44.45540995	     89.49281512	     85.29082827	      0.00000000	      0.00000000
      4.38000000	     -7.01165712	      1.92145720	     -4.36812006	     -0.21824778	      1.29360590	     -0.87111748	      6.66499749	     -4.08372757	    -22.98390705	      9.56193978	      0.16688733	    -38.14835623	      0.00000000	      0.00000000	      5.99970776	     -2.89531388	    -20.05301721	      8.05227388	      0.14053869	    -38.29694849	      0.00000000	      0.00000000	     -5.59489750	     -4.38204229	     -4.83918492	    -18.90947589	    -43.32559704	     36.42354933	     88.72981793	     87.14960839	      0.00000000	      0.00000000	    -22.39673742	    -47.47035174	     44.63416099	     89.46556403	     85.30960621	      0.00000000	      0.00000000
      4.38500000	     -6.91115184	      1.84347462	     -4.44041806	     -0.21759489	      1.29464747	     -0.87006771	      6.44470861	     -4.01255735	    -22.91045070	      9.45541159	      0.16502806	    -38.14607358	      0.00000000	      0.00000000	      5.86044533	     -3.20366502	    -20.29716776	      8.26780533	      0.14430042	    -38.26810647	      0.00000000	      0.00000000	     -5.49467674	     -4.40890713	     -4.80345264	    -18.79638292	    -43.31270696	     36.61746526	     88.52223001	     86.99568223	      0.00000000	      0.00000000	    -22.26782865	    -47.60708567	     44.91800564	     89.49752292	     84.75057083	      0.00000000	      0.00000000
      4.39000000	     -6.70158448	      1.79037287	     -4.49023850	     -0.21704620	      1.29567137	     -0.86914270	      6.08543265	     -3.95847901	    -22.43959155	      9.32546099	      0.16276000	    -38.07078921	      0.00000000	      0.00000000	      5.56919407	     -3.42451870	    -20.35997996	      8.34196690	      0.14559479	    -38.28409808	      0.00000000	      0.00000000	     -5.55614193	     -4.46825415	     -4.82799351	    -18.60666395	    -43.26471152	     36.77442871	     88.26175944	     87.09491795	      0.00000000	      0.00000000	    -22.05918585	    -47.70631805	     45.24908813	     89.46608670	     84.13096977	      0.00000000	      0.00000000
      4.39500000	     -6.75726427	      1.73827903	     -4.45730114	     -0.21672565	      1.29602431	     -0.86835378	      6.13634352	     -3.98595858	    -22.63143793	      9.45095336	      0.16495025	    -37.98939277	      0.00000000	      0.00000000	      5.72930893	     -3.74881623	    -20.62908871	      8.75301283	      0.15276889	    -38.26252858	      0.00000000	      0.00000000	     -5.35299525	     -4.49418384	     -4.90906721	    -18.61511148	    -43.22218596	     36.79575764	     88.18700855	     86.56955318	      0.00000000	      0.00000000	    -22.04540309	    -47.77084915	     45.31088456	     89.58462239	     83.26548837	      0.00000000	      0.00000000
      4.40000000	     -6.39613535	      1.57538831	     -4.53516754	     -0.21587102	      1.29670792	     -0.86723316	      5.64301098	     -3.86784356	    -22.66253313	      9.46466443	      0.16518956	    -37.91316064	      0.00000000	      0.00000000	      5.25309242	     -4.14218531	    -21.12874707	      8.88569776	      0.15508468	    -38.16409830	      0.00000000	      0.00000000	     -5.55482291	     -4.46838174	     -4.86656979	    -18.39593495	    -43.14703496	     36.95036102	     87.80986707	     86.64379947	      0.00000000	      0.00000000	    -21.84036881	    -47.79450304	     45.63420423	     89.46133878	     83.10107042	      0.00000000	      0.00000000
