_ik_marker_errors_all.sto
version=1
nRows=128
nColumns=62
in_degrees=yes
endheader
time	FHD	LBHD	RBHD	C7	T10	CLAV	LSHO	LUUPA	LMUPA	LDUPA	LLEP	LMEP	LRAD	LUL	LRFIN	RSHO	RUPA1	RMUPA	RDUPA	RLEP	RMEP	RRAD	RUL	RUFIN	LASI	RASI	USACR	LSACR	RSACR	LTHI1	LTHI2	LTHI3	LTHI4	LLFC	LMFC	LTIB1	LTIB2	LTIB3	LTIB4	LLMAL	LMMAL	LHEE	LMT1	LMT2	LMT5	RTHI	RTHI2	RTHI3	RTHI4	RLFC	RMFC	RTIB1	RTIB2	RTIB3	RTIB4	RLMAL	RMMAL	RHEE	RMT1	RMT2	RMT5
5.830000	0.039915	0.011037	0.010647	0.023629	0.006506	0.029646	0.026371	0.158306	0.030914	0.053837	0.045295	0.053603	0.050691	0.057385	0.072480	0.030672	0.150104	0.028265	0.048191	0.047615	0.054814	0.059770	0.056448	0.077662	0.017677	0.014744	0.009878	0.005498	0.009650	0.004448	0.005312	0.006212	0.005115	0.027162	0.018520	0.011881	0.010899	0.012646	0.015699	0.021546	0.022610	0.014751	0.014708	0.025881	0.035799	0.006291	0.006122	0.005193	0.004620	0.029432	0.029497	0.010992	0.014532	0.014406	0.013289	0.015112	0.021047	0.010782	0.008179	0.025498	0.033576
5.835000	0.039162	0.010844	0.010513	0.023822	0.006288	0.029163	0.026117	0.157702	0.030770	0.055093	0.045728	0.053833	0.051090	0.057543	0.072139	0.030346	0.149934	0.028591	0.048126	0.047963	0.055033	0.059971	0.056601	0.077224	0.017723	0.014898	0.009747	0.005633	0.009522	0.004338	0.004994	0.006459	0.004937	0.027197	0.018181	0.011983	0.013187	0.013066	0.015611	0.021347	0.022733	0.015245	0.014910	0.025842	0.036287	0.005898	0.005358	0.004147	0.004350	0.029126	0.028939	0.011381	0.015033	0.014981	0.013399	0.015574	0.021580	0.011198	0.009143	0.025823	0.034383
5.840000	0.038431	0.010997	0.010310	0.023947	0.006043	0.028438	0.025549	0.157661	0.030681	0.055028	0.045624	0.053616	0.052728	0.058017	0.071543	0.029839	0.149577	0.028705	0.048341	0.048389	0.055373	0.060157	0.056781	0.077015	0.017751	0.015169	0.009451	0.005779	0.009589	0.004521	0.004990	0.006845	0.004876	0.027379	0.017508	0.011132	0.013302	0.013525	0.015426	0.022208	0.022825	0.016602	0.015142	0.025833	0.036495	0.005754	0.004928	0.003457	0.003825	0.028786	0.028347	0.011470	0.015433	0.015108	0.013563	0.016143	0.022122	0.011636	0.008670	0.025858	0.035148
5.845000	0.037586	0.010922	0.010145	0.024190	0.006380	0.028045	0.025017	0.157361	0.030587	0.055128	0.045762	0.054048	0.052256	0.058151	0.071370	0.029397	0.149486	0.029231	0.048080	0.048728	0.055513	0.060704	0.056563	0.076751	0.017402	0.015076	0.009615	0.006108	0.009572	0.004993	0.005196	0.007321	0.004962	0.026973	0.017029	0.011106	0.013633	0.013776	0.015038	0.022793	0.022994	0.017065	0.015653	0.026445	0.037036	0.005380	0.004433	0.002637	0.003517	0.028555	0.027816	0.011463	0.015406	0.014837	0.013454	0.016139	0.022428	0.012288	0.009568	0.025935	0.035778
5.850000	0.037239	0.010627	0.010036	0.024621	0.006321	0.027467	0.024632	0.157355	0.030313	0.055229	0.045744	0.053843	0.052942	0.058386	0.070608	0.028919	0.149272	0.029715	0.048246	0.049211	0.055715	0.061067	0.056881	0.076629	0.017838	0.014823	0.009147	0.005779	0.009604	0.005419	0.005061	0.007792	0.005112	0.026790	0.016949	0.010855	0.013631	0.014276	0.014960	0.023909	0.023137	0.017503	0.015793	0.026038	0.037695	0.005108	0.003698	0.002321	0.003346	0.028267	0.027230	0.011078	0.014986	0.014610	0.013359	0.016466	0.022820	0.012789	0.009217	0.026223	0.036531
5.855000	0.036674	0.010588	0.009876	0.024823	0.006782	0.027035	0.024914	0.157222	0.030048	0.054600	0.046089	0.054195	0.052539	0.058498	0.070481	0.028536	0.149326	0.030411	0.047949	0.049423	0.055835	0.061312	0.056793	0.076285	0.017193	0.014758	0.009414	0.006593	0.009790	0.005989	0.005786	0.008576	0.005475	0.026868	0.016464	0.010950	0.013534	0.014582	0.015032	0.024269	0.023418	0.017544	0.015933	0.026383	0.038347	0.004643	0.003772	0.001978	0.003111	0.028191	0.026502	0.010814	0.014651	0.014243	0.013245	0.016404	0.022887	0.013418	0.009666	0.026252	0.037098
5.860000	0.036356	0.010482	0.009833	0.025106	0.006601	0.026658	0.024409	0.157179	0.029647	0.055012	0.046453	0.054342	0.052690	0.057531	0.070084	0.028105	0.149423	0.031200	0.047808	0.049834	0.056146	0.061607	0.056761	0.075981	0.017073	0.014729	0.009003	0.006024	0.009706	0.006265	0.005923	0.008878	0.005672	0.026679	0.016093	0.011015	0.013669	0.014269	0.014943	0.024886	0.023409	0.018185	0.015886	0.026231	0.038932	0.004603	0.004051	0.002176	0.003297	0.028195	0.026510	0.010511	0.013919	0.013780	0.013051	0.016444	0.023044	0.014134	0.009544	0.026588	0.037672
5.865000	0.036000	0.010297	0.009673	0.025207	0.007061	0.026196	0.023868	0.157099	0.029290	0.055659	0.046589	0.054680	0.052286	0.057986	0.069967	0.027708	0.149097	0.031967	0.047690	0.050264	0.056385	0.061816	0.056772	0.076062	0.017293	0.014191	0.009355	0.006501	0.009997	0.006467	0.006203	0.009357	0.006016	0.026286	0.016160	0.011489	0.013769	0.014579	0.015189	0.025470	0.023699	0.018166	0.015640	0.025517	0.039716	0.004801	0.004631	0.003015	0.003872	0.027878	0.026229	0.010216	0.013495	0.013527	0.012948	0.016602	0.023008	0.014669	0.008996	0.026698	0.038028
5.870000	0.035664	0.010206	0.009669	0.025419	0.007115	0.026028	0.023787	0.157211	0.028992	0.055133	0.046847	0.054816	0.052095	0.058336	0.069720	0.027541	0.149259	0.032560	0.047541	0.050623	0.056608	0.062156	0.056852	0.075833	0.016890	0.014034	0.009134	0.006301	0.010190	0.007088	0.006684	0.009827	0.006373	0.026435	0.016004	0.011247	0.013582	0.014703	0.015318	0.025848	0.023904	0.018850	0.015582	0.025715	0.040105	0.004978	0.004807	0.003272	0.004423	0.027953	0.026145	0.009763	0.012548	0.012757	0.012781	0.016271	0.022961	0.015735	0.008629	0.027081	0.037998
5.875000	0.035439	0.010494	0.009420	0.025384	0.007349	0.025666	0.023762	0.157275	0.028634	0.055808	0.047265	0.055028	0.052442	0.058531	0.069082	0.027122	0.148901	0.033100	0.047017	0.050939	0.056776	0.061982	0.057194	0.076050	0.016259	0.013957	0.009231	0.006608	0.010352	0.006889	0.006977	0.010064	0.006777	0.025657	0.016014	0.012198	0.013718	0.014778	0.015543	0.026485	0.023987	0.019067	0.015545	0.025865	0.040679	0.005862	0.005749	0.004379	0.005389	0.027336	0.026048	0.009724	0.012078	0.012548	0.013215	0.016087	0.022700	0.016075	0.008115	0.027218	0.038103
5.880000	0.035219	0.010301	0.009337	0.025524	0.007362	0.025540	0.023588	0.157365	0.028294	0.055873	0.047613	0.055221	0.052421	0.058848	0.068722	0.026850	0.148950	0.033965	0.046758	0.051316	0.057248	0.062440	0.057268	0.075693	0.016420	0.014032	0.008991	0.006600	0.010313	0.007134	0.007446	0.010481	0.007311	0.025732	0.016557	0.012855	0.013690	0.014794	0.015976	0.027325	0.024250	0.019616	0.015263	0.026075	0.040952	0.006230	0.006262	0.004973	0.006022	0.027290	0.026181	0.009345	0.011045	0.011997	0.013062	0.015484	0.022431	0.017251	0.008244	0.027493	0.038008
5.885000	0.034827	0.010477	0.009280	0.025397	0.007547	0.025123	0.023274	0.157434	0.027932	0.055415	0.047999	0.055497	0.052766	0.058996	0.068448	0.026487	0.148683	0.034124	0.047022	0.051741	0.057335	0.062211	0.057066	0.076297	0.016669	0.013858	0.009063	0.006921	0.010388	0.007354	0.007907	0.010680	0.007758	0.024660	0.017152	0.013160	0.013785	0.014736	0.016049	0.027340	0.024231	0.019822	0.014933	0.025670	0.041493	0.007807	0.008014	0.006471	0.007014	0.026912	0.026285	0.009531	0.011016	0.011691	0.012840	0.015863	0.022110	0.017767	0.007369	0.027688	0.037937
5.890000	0.034729	0.010516	0.009219	0.025391	0.007692	0.024996	0.023361	0.157101	0.027423	0.055745	0.048455	0.056014	0.052950	0.059285	0.068277	0.026211	0.148675	0.034454	0.046926	0.051930	0.057750	0.062573	0.057332	0.076248	0.016240	0.013812	0.009071	0.006951	0.010681	0.008008	0.008426	0.011021	0.008320	0.024427	0.018040	0.013729	0.013482	0.014837	0.016503	0.027728	0.024336	0.020398	0.014455	0.025938	0.041689	0.008104	0.008308	0.007136	0.007521	0.026839	0.026501	0.009455	0.009954	0.011044	0.012596	0.015292	0.021711	0.018961	0.006676	0.027802	0.037707
5.895000	0.034493	0.010541	0.009325	0.025191	0.007736	0.024721	0.023214	0.157223	0.027094	0.055888	0.048929	0.056175	0.053111	0.059429	0.067956	0.025849	0.148455	0.034866	0.046953	0.052086	0.057840	0.062606	0.057522	0.076387	0.016729	0.013502	0.008994	0.007051	0.010486	0.008284	0.008822	0.011227	0.008514	0.024214	0.017914	0.014204	0.013665	0.014491	0.016804	0.027881	0.024278	0.020710	0.014102	0.026328	0.041814	0.009531	0.009654	0.008222	0.008386	0.026317	0.026291	0.009350	0.010191	0.010929	0.012648	0.015405	0.021497	0.019507	0.006216	0.028634	0.037641
5.900000	0.034663	0.010623	0.009320	0.025229	0.007819	0.024631	0.023172	0.156997	0.026718	0.056174	0.049370	0.056650	0.053240	0.059376	0.067763	0.025784	0.148173	0.035253	0.046830	0.052478	0.058527	0.062692	0.058026	0.075990	0.016782	0.013321	0.009226	0.007144	0.010745	0.008894	0.009435	0.011749	0.009324	0.023617	0.018408	0.014981	0.013920	0.014265	0.016945	0.028239	0.024677	0.021342	0.013356	0.026260	0.042071	0.009704	0.009873	0.008490	0.008870	0.026281	0.026684	0.009219	0.009523	0.010428	0.012360	0.014881	0.021295	0.020671	0.005933	0.028934	0.037461
5.905000	0.034248	0.010789	0.009134	0.025043	0.007870	0.024261	0.023155	0.157168	0.026337	0.056992	0.049732	0.056884	0.053349	0.059835	0.067554	0.025538	0.148231	0.035504	0.046989	0.052481	0.058427	0.062789	0.058002	0.076363	0.016557	0.013521	0.009132	0.007443	0.010750	0.009453	0.010091	0.012160	0.009996	0.022769	0.018276	0.015331	0.013995	0.014438	0.017256	0.028414	0.024368	0.021638	0.012776	0.026263	0.042124	0.010900	0.011076	0.009909	0.009982	0.025531	0.026514	0.009651	0.010003	0.010766	0.012425	0.014685	0.020972	0.021046	0.004259	0.028816	0.037227
5.910000	0.034426	0.010856	0.009129	0.025032	0.007985	0.024113	0.023106	0.157111	0.026145	0.056275	0.050023	0.057201	0.053409	0.060018	0.067471	0.025341	0.147857	0.035632	0.047128	0.052908	0.059003	0.062959	0.058378	0.076083	0.016364	0.013535	0.009263	0.007353	0.010712	0.010142	0.010732	0.012601	0.010708	0.021982	0.019386	0.015976	0.014555	0.014591	0.017612	0.028321	0.024708	0.022134	0.012157	0.026137	0.042190	0.011166	0.011593	0.010134	0.010202	0.025562	0.026711	0.009787	0.009798	0.010370	0.012152	0.014362	0.020828	0.022263	0.004529	0.029339	0.037029
5.915000	0.034335	0.010839	0.008991	0.024993	0.008014	0.023925	0.023013	0.156776	0.025980	0.056909	0.050381	0.057459	0.053755	0.060136	0.067138	0.025029	0.147547	0.035676	0.047133	0.052781	0.058949	0.063262	0.058155	0.075835	0.017021	0.013365	0.009061	0.007526	0.010736	0.011063	0.011479	0.013074	0.011524	0.021712	0.019070	0.015868	0.014116	0.014406	0.017330	0.028488	0.024817	0.022969	0.011804	0.026697	0.041791	0.012037	0.012540	0.011300	0.011135	0.025157	0.026906	0.009953	0.010285	0.010889	0.012165	0.014565	0.020636	0.022627	0.003375	0.029489	0.036992
5.920000	0.034235	0.010949	0.009007	0.024923	0.008005	0.023814	0.022983	0.156488	0.025724	0.057231	0.050637	0.057818	0.053727	0.060225	0.067036	0.024967	0.147399	0.035562	0.047115	0.053129	0.059486	0.063129	0.058390	0.076049	0.017106	0.013568	0.009191	0.007593	0.010944	0.011655	0.012168	0.013571	0.012231	0.020637	0.019962	0.016359	0.014255	0.014517	0.017373	0.028461	0.024893	0.023628	0.011165	0.026381	0.041887	0.012130	0.012649	0.011499	0.011189	0.024944	0.026969	0.010061	0.010388	0.011043	0.012173	0.014244	0.020553	0.024045	0.003625	0.029740	0.036941
5.925000	0.034441	0.010907	0.008733	0.024853	0.007885	0.023652	0.022942	0.156257	0.025597	0.057383	0.050838	0.058150	0.053804	0.060366	0.066800	0.024845	0.147140	0.035412	0.047348	0.053302	0.059611	0.063200	0.058741	0.076029	0.017116	0.013612	0.008916	0.007496	0.011064	0.012320	0.012874	0.014148	0.012846	0.019927	0.020168	0.016728	0.013761	0.014674	0.017410	0.028502	0.024984	0.024191	0.010458	0.027043	0.041716	0.012585	0.012815	0.011695	0.011403	0.025113	0.027031	0.010356	0.010712	0.011048	0.012028	0.014271	0.020656	0.025317	0.004328	0.030273	0.036772
5.930000	0.034246	0.010861	0.008734	0.024878	0.007964	0.023405	0.022890	0.156260	0.025352	0.056677	0.050920	0.058154	0.054348	0.060634	0.066509	0.024553	0.147221	0.035772	0.046823	0.053121	0.059384	0.063807	0.058782	0.075509	0.017181	0.013652	0.008953	0.007895	0.011192	0.013102	0.013495	0.014921	0.013605	0.019506	0.020081	0.016321	0.015018	0.014703	0.017107	0.028540	0.025205	0.024598	0.010049	0.027221	0.041501	0.013593	0.013650	0.013118	0.012037	0.024855	0.026461	0.010548	0.011460	0.011572	0.012335	0.014687	0.020634	0.025114	0.002850	0.030367	0.037069
5.935000	0.034320	0.010810	0.008635	0.024883	0.007873	0.023224	0.022895	0.155756	0.025175	0.057305	0.051371	0.058664	0.054102	0.060898	0.066476	0.024398	0.146956	0.035713	0.047119	0.053255	0.059694	0.063619	0.059076	0.075481	0.017188	0.013692	0.008821	0.007763	0.011418	0.013831	0.014254	0.015348	0.014222	0.018791	0.020359	0.016473	0.014939	0.014823	0.017049	0.028785	0.025430	0.025509	0.009557	0.027108	0.041382	0.013816	0.013893	0.013138	0.012225	0.025029	0.026488	0.010929	0.011715	0.011904	0.012609	0.014713	0.020842	0.026310	0.003739	0.030533	0.037015
5.940000	0.034346	0.010906	0.008448	0.024807	0.007894	0.022981	0.022841	0.154913	0.024972	0.057859	0.051505	0.058940	0.054368	0.061204	0.066118	0.024203	0.146936	0.035733	0.047318	0.053284	0.059889	0.063504	0.059203	0.075496	0.017177	0.014105	0.008855	0.007784	0.011427	0.014405	0.014867	0.016002	0.014948	0.018361	0.020437	0.016984	0.015147	0.015078	0.017111	0.028978	0.025545	0.026264	0.009173	0.027462	0.041217	0.013892	0.014332	0.013365	0.012488	0.025068	0.026468	0.011386	0.012015	0.012221	0.012476	0.014972	0.021079	0.027442	0.004182	0.030984	0.036973
5.945000	0.034127	0.011066	0.008390	0.024735	0.008086	0.022709	0.022581	0.155479	0.024748	0.057595	0.051547	0.058776	0.054855	0.061135	0.065693	0.023946	0.146971	0.036086	0.047021	0.053388	0.059796	0.064230	0.059512	0.074918	0.017123	0.013848	0.009084	0.008152	0.011185	0.015142	0.015582	0.016719	0.015561	0.018025	0.019845	0.016706	0.015684	0.015176	0.016746	0.028936	0.025686	0.026954	0.009069	0.027510	0.040984	0.014706	0.015046	0.014153	0.013075	0.024384	0.026383	0.012162	0.013091	0.012933	0.013008	0.015304	0.021197	0.027229	0.003272	0.031002	0.037682
5.950000	0.033835	0.010636	0.008136	0.024918	0.008002	0.022433	0.022557	0.154802	0.024450	0.057722	0.051943	0.059328	0.055114	0.061446	0.065552	0.023724	0.146603	0.035978	0.047138	0.053407	0.059974	0.064030	0.059809	0.074834	0.017507	0.014236	0.008759	0.007994	0.011268	0.015900	0.016326	0.017359	0.016207	0.017564	0.019657	0.016826	0.016082	0.015453	0.016701	0.029216	0.025780	0.027864	0.008692	0.027364	0.040785	0.014907	0.015326	0.014562	0.013407	0.024577	0.026209	0.012368	0.013093	0.013019	0.013135	0.015641	0.021413	0.028397	0.003863	0.031412	0.037711
5.955000	0.033694	0.010683	0.008035	0.024762	0.008244	0.022082	0.022226	0.154517	0.024361	0.058263	0.052017	0.059391	0.055513	0.061663	0.065180	0.023491	0.146393	0.036215	0.047233	0.053614	0.060096	0.064521	0.059651	0.074742	0.017488	0.014139	0.009227	0.008322	0.011665	0.016370	0.017000	0.017837	0.016969	0.016868	0.020033	0.017446	0.015695	0.016059	0.016761	0.029449	0.026263	0.028661	0.008485	0.027599	0.040862	0.015334	0.015431	0.014791	0.013834	0.023918	0.026110	0.012992	0.013868	0.013675	0.013594	0.015801	0.021417	0.028829	0.003338	0.031146	0.038009
5.960000	0.033958	0.010850	0.007828	0.024724	0.008138	0.021901	0.021982	0.154310	0.024049	0.058586	0.052353	0.059730	0.055586	0.062000	0.065083	0.023341	0.146613	0.036045	0.047144	0.053746	0.060528	0.064292	0.059891	0.074645	0.017195	0.014370	0.008743	0.008179	0.011450	0.016904	0.017568	0.018434	0.017622	0.016550	0.019963	0.017515	0.016854	0.016421	0.016944	0.029888	0.026277	0.029993	0.008627	0.027925	0.040535	0.015201	0.015685	0.015128	0.013916	0.024314	0.025944	0.013204	0.014079	0.013784	0.013481	0.016233	0.021544	0.029832	0.003724	0.031491	0.037910
5.965000	0.033582	0.010654	0.007499	0.024774	0.008252	0.021480	0.021767	0.153656	0.023869	0.059348	0.052278	0.059751	0.055855	0.062313	0.064768	0.022881	0.146298	0.036392	0.047149	0.054175	0.060730	0.064923	0.060151	0.074165	0.017236	0.014360	0.008758	0.008434	0.011418	0.017448	0.018213	0.018935	0.018154	0.015784	0.019994	0.017711	0.017374	0.017021	0.017060	0.030324	0.026523	0.030686	0.008183	0.027715	0.040895	0.016020	0.016288	0.015620	0.014441	0.023691	0.025780	0.013839	0.014771	0.014229	0.013836	0.016609	0.021603	0.029861	0.003261	0.031184	0.038450
5.970000	0.033490	0.010593	0.007454	0.024790	0.008479	0.021164	0.021441	0.153863	0.023448	0.058364	0.052545	0.059929	0.055467	0.062449	0.064722	0.022820	0.146203	0.036910	0.046901	0.054371	0.060720	0.065215	0.060344	0.073640	0.017474	0.014391	0.009022	0.008518	0.011753	0.017795	0.018249	0.019460	0.018290	0.016113	0.019524	0.017889	0.017229	0.017191	0.017155	0.030526	0.026955	0.030951	0.008107	0.027737	0.041485	0.015717	0.016164	0.015789	0.014332	0.024284	0.025262	0.013641	0.014435	0.014317	0.014063	0.016937	0.022132	0.030338	0.003886	0.031655	0.038961
5.975000	0.033779	0.010381	0.007222	0.025037	0.008355	0.020809	0.021369	0.153364	0.023078	0.059666	0.053110	0.060417	0.055637	0.062810	0.064559	0.022625	0.146303	0.036934	0.047003	0.054553	0.061044	0.065113	0.060480	0.073527	0.017101	0.014538	0.008645	0.008448	0.011763	0.018304	0.018710	0.019917	0.018381	0.016113	0.019439	0.017812	0.017579	0.017475	0.017217	0.031164	0.027033	0.032361	0.008338	0.027978	0.041274	0.015798	0.016253	0.015486	0.014416	0.024760	0.025324	0.013642	0.014565	0.014177	0.014016	0.017531	0.022202	0.031435	0.003828	0.031762	0.039018
5.980000	0.033085	0.010501	0.006873	0.024899	0.008482	0.020429	0.020894	0.153225	0.022663	0.059591	0.053314	0.060716	0.056002	0.062807	0.064361	0.022082	0.145871	0.037109	0.047525	0.054900	0.061299	0.065206	0.060878	0.073411	0.017333	0.014518	0.008574	0.008795	0.011583	0.018719	0.019636	0.020240	0.019173	0.015547	0.019888	0.018605	0.018089	0.017914	0.017796	0.031795	0.027037	0.032970	0.008103	0.028376	0.041770	0.016294	0.016461	0.015990	0.014943	0.023996	0.025212	0.014328	0.015155	0.014710	0.014500	0.017915	0.022341	0.031530	0.003461	0.031356	0.039516
5.985000	0.032983	0.010405	0.006540	0.025031	0.008400	0.019974	0.020331	0.152974	0.022445	0.059769	0.053546	0.060965	0.055948	0.063299	0.064109	0.021920	0.145770	0.037702	0.046864	0.055361	0.061684	0.065441	0.061145	0.072837	0.016834	0.014372	0.008756	0.008726	0.012037	0.019238	0.019804	0.020801	0.019379	0.015315	0.019685	0.018749	0.018321	0.018729	0.017951	0.032295	0.027362	0.033389	0.008031	0.028233	0.042275	0.016530	0.016583	0.016066	0.015141	0.023962	0.024963	0.014552	0.015103	0.014908	0.014714	0.018461	0.022492	0.032052	0.003333	0.031512	0.040014
5.990000	0.032917	0.010034	0.006263	0.025131	0.008399	0.019661	0.020167	0.152611	0.021862	0.060101	0.054139	0.061403	0.056052	0.063353	0.063931	0.021638	0.145665	0.037860	0.047251	0.055602	0.061938	0.065449	0.061166	0.072915	0.017134	0.014729	0.008329	0.008602	0.011861	0.019600	0.020326	0.021068	0.020134	0.015187	0.019517	0.018995	0.018325	0.018838	0.018047	0.033089	0.027416	0.034804	0.008092	0.028678	0.042154	0.016715	0.016703	0.016309	0.015263	0.024427	0.024630	0.014539	0.015113	0.014937	0.014921	0.019173	0.022836	0.033073	0.003402	0.031666	0.040266
5.995000	0.032701	0.010081	0.006207	0.025277	0.008697	0.019294	0.019624	0.152569	0.021610	0.060494	0.054362	0.061557	0.056190	0.063368	0.063811	0.021300	0.145679	0.038131	0.047018	0.055809	0.062094	0.065879	0.061293	0.072524	0.017209	0.014572	0.008354	0.009009	0.011906	0.019649	0.020502	0.021531	0.020095	0.015635	0.019416	0.019062	0.018324	0.018879	0.018221	0.033435	0.027654	0.034612	0.008115	0.028444	0.043500	0.016595	0.016693	0.016226	0.015206	0.024539	0.024421	0.014614	0.015282	0.015078	0.014919	0.019598	0.023083	0.032870	0.003706	0.031473	0.041034
6.000000	0.032747	0.010061	0.005791	0.025327	0.008637	0.019016	0.019441	0.152141	0.021082	0.060904	0.054827	0.062005	0.056522	0.063856	0.063537	0.021027	0.145362	0.038277	0.047243	0.056093	0.062290	0.065998	0.061267	0.072316	0.016860	0.014814	0.008364	0.008836	0.012079	0.020060	0.020898	0.021829	0.020367	0.015755	0.019331	0.019383	0.018474	0.019199	0.018530	0.034201	0.027766	0.035743	0.008298	0.029213	0.043293	0.016558	0.017019	0.016326	0.015402	0.024907	0.024158	0.014719	0.015518	0.015163	0.015181	0.020243	0.023100	0.033870	0.003521	0.031772	0.041416
6.005000	0.032693	0.010012	0.005570	0.025376	0.008756	0.018632	0.019090	0.152147	0.020638	0.061168	0.054960	0.061898	0.056670	0.063674	0.063529	0.020513	0.145571	0.038915	0.046869	0.056239	0.062235	0.066523	0.061573	0.071561	0.017191	0.014515	0.008437	0.009191	0.012008	0.020148	0.020925	0.022029	0.020574	0.015807	0.019599	0.019709	0.018498	0.019284	0.018848	0.034623	0.027775	0.035733	0.008218	0.028365	0.043992	0.017097	0.017098	0.016568	0.015760	0.024646	0.024045	0.014965	0.015450	0.015262	0.015365	0.020671	0.023361	0.033741	0.003603	0.031481	0.042002
6.010000	0.032571	0.009711	0.004982	0.025596	0.009000	0.018052	0.018391	0.152078	0.020129	0.061403	0.055326	0.062289	0.056758	0.063810	0.063198	0.020071	0.145090	0.039026	0.047164	0.056557	0.062584	0.066681	0.061611	0.071563	0.016965	0.014630	0.008905	0.009331	0.012330	0.020410	0.021256	0.022015	0.020896	0.015659	0.019726	0.019953	0.018712	0.019588	0.019222	0.035153	0.027778	0.036350	0.008194	0.028226	0.044447	0.016810	0.017082	0.016856	0.015809	0.024878	0.023677	0.015385	0.015801	0.015709	0.015820	0.021334	0.023548	0.034134	0.003543	0.031557	0.042533
6.015000	0.032352	0.009475	0.004595	0.025701	0.009243	0.017653	0.017987	0.151694	0.019694	0.061797	0.055688	0.062541	0.057130	0.063931	0.063115	0.019656	0.144761	0.039328	0.047151	0.056729	0.063071	0.066838	0.062034	0.071169	0.017029	0.014576	0.008577	0.009554	0.012224	0.020670	0.021399	0.022497	0.021084	0.015414	0.019943	0.020482	0.019047	0.019869	0.019294	0.035669	0.027874	0.036777	0.008557	0.028271	0.044804	0.017197	0.017456	0.016887	0.016004	0.024773	0.023898	0.015502	0.015956	0.015727	0.016045	0.021658	0.023781	0.034257	0.003663	0.031433	0.042979
6.020000	0.032252	0.009429	0.004019	0.025726	0.009452	0.017360	0.017397	0.151711	0.019418	0.061653	0.055865	0.062638	0.057104	0.063961	0.062953	0.019215	0.144662	0.039577	0.046983	0.057192	0.063135	0.066855	0.062073	0.071164	0.016947	0.014618	0.008526	0.009765	0.012502	0.020826	0.021541	0.022684	0.021170	0.015748	0.019672	0.020411	0.019382	0.020017	0.019436	0.036240	0.027895	0.037275	0.008402	0.028140	0.045250	0.017337	0.017340	0.017180	0.016226	0.024898	0.023845	0.015799	0.016328	0.016093	0.016255	0.022048	0.023734	0.034913	0.003705	0.031810	0.043418
6.025000	0.032392	0.009389	0.003427	0.025735	0.009545	0.016801	0.016750	0.151110	0.019059	0.062390	0.056403	0.063021	0.057418	0.063911	0.063179	0.018724	0.144253	0.039824	0.047277	0.057515	0.063447	0.067150	0.062101	0.071205	0.016798	0.014712	0.008519	0.009948	0.012354	0.021033	0.021814	0.022865	0.021314	0.015722	0.020084	0.020959	0.019569	0.020362	0.019839	0.036886	0.027846	0.038105	0.008268	0.027267	0.045670	0.017492	0.017760	0.017206	0.016693	0.024870	0.023910	0.016232	0.016230	0.016305	0.016403	0.022353	0.023772	0.035546	0.003854	0.031831	0.043674
6.030000	0.032187	0.009320	0.002911	0.025711	0.009636	0.016549	0.016204	0.151187	0.018642	0.062074	0.056534	0.063289	0.057354	0.064452	0.062658	0.018295	0.144227	0.040272	0.047234	0.057698	0.063843	0.067253	0.062561	0.070872	0.016884	0.014581	0.008570	0.010054	0.012651	0.021063	0.021644	0.022878	0.021577	0.015676	0.020214	0.021496	0.019715	0.020812	0.020021	0.037481	0.027800	0.038651	0.008093	0.027785	0.045766	0.017644	0.017725	0.017531	0.016899	0.024882	0.023818	0.016545	0.016768	0.016523	0.016745	0.022734	0.024101	0.035682	0.004390	0.031863	0.044215
6.035000	0.032490	0.009213	0.002403	0.025878	0.009824	0.016094	0.015588	0.150984	0.018315	0.062754	0.056817	0.063459	0.057658	0.064405	0.062640	0.017815	0.144039	0.040833	0.046965	0.057902	0.063724	0.067534	0.062682	0.070735	0.017050	0.014686	0.008591	0.010174	0.012666	0.021369	0.022098	0.023256	0.021639	0.015605	0.020288	0.021659	0.019976	0.021049	0.020435	0.038081	0.027872	0.039315	0.008053	0.027890	0.046541	0.017819	0.017864	0.017712	0.017029	0.024738	0.023978	0.016853	0.016857	0.016785	0.017033	0.022916	0.024204	0.035991	0.004521	0.031903	0.044505
6.040000	0.032763	0.009184	0.002060	0.025850	0.010221	0.015740	0.015071	0.150665	0.017824	0.063018	0.057081	0.063777	0.058125	0.064600	0.062374	0.017478	0.143892	0.041459	0.047068	0.058601	0.064190	0.067920	0.062145	0.070838	0.017099	0.014668	0.008833	0.010283	0.012869	0.021351	0.022051	0.023246	0.021799	0.015705	0.020645	0.021908	0.020309	0.021211	0.020734	0.038429	0.027774	0.039536	0.008266	0.027316	0.046808	0.017952	0.018151	0.017873	0.017297	0.024802	0.023950	0.017279	0.017199	0.017088	0.017314	0.023001	0.024408	0.036074	0.004998	0.031868	0.044833
6.045000	0.032954	0.009297	0.002127	0.025873	0.010603	0.015375	0.014332	0.150745	0.017570	0.062872	0.057070	0.063994	0.058088	0.064608	0.062541	0.016917	0.143495	0.041414	0.047482	0.058743	0.064304	0.068019	0.062841	0.070767	0.017177	0.014771	0.008845	0.010515	0.013073	0.021663	0.022193	0.023734	0.022272	0.015447	0.020821	0.022772	0.020590	0.021499	0.020807	0.038932	0.027812	0.040059	0.008366	0.027896	0.047240	0.018388	0.018696	0.018253	0.017622	0.024423	0.024336	0.017834	0.017534	0.017594	0.017699	0.023200	0.024397	0.036432	0.005553	0.031997	0.045059
6.050000	0.033290	0.009398	0.002495	0.025956	0.010872	0.015323	0.013778	0.150222	0.017221	0.063160	0.057483	0.064039	0.058452	0.064700	0.062604	0.016474	0.143317	0.041819	0.047560	0.058978	0.064630	0.067969	0.063044	0.070718	0.017218	0.014617	0.008758	0.010559	0.013034	0.021756	0.022503	0.023880	0.022388	0.015531	0.021289	0.022939	0.020819	0.021862	0.021210	0.039323	0.027996	0.040262	0.008590	0.027305	0.047624	0.018764	0.018842	0.018626	0.017906	0.024036	0.024600	0.018305	0.017911	0.018041	0.018068	0.023230	0.024397	0.036608	0.006296	0.031944	0.045353
6.055000	0.033433	0.009386	0.003062	0.025818	0.011074	0.014631	0.013164	0.149784	0.016698	0.063776	0.057822	0.064459	0.058304	0.064967	0.062617	0.016357	0.143202	0.042404	0.047472	0.059414	0.064966	0.068494	0.062978	0.070362	0.017092	0.014650	0.008990	0.010632	0.013280	0.022302	0.022735	0.024051	0.022843	0.015382	0.021548	0.023349	0.021313	0.022320	0.021666	0.039738	0.027832	0.040577	0.008786	0.027301	0.048246	0.019035	0.019411	0.019212	0.018322	0.023743	0.024970	0.018668	0.018264	0.018404	0.018194	0.023226	0.024761	0.036897	0.006963	0.032330	0.045955
6.060000	0.033830	0.009832	0.003401	0.025633	0.011202	0.014894	0.012471	0.149448	0.016474	0.063804	0.058041	0.064517	0.058545	0.064934	0.062596	0.016089	0.142980	0.042542	0.047798	0.059652	0.065129	0.068950	0.062804	0.070759	0.017236	0.014692	0.008953	0.010758	0.013447	0.022458	0.022864	0.024314	0.023289	0.015209	0.021805	0.023828	0.021719	0.022627	0.021955	0.040168	0.028138	0.040859	0.008976	0.027496	0.048975	0.019499	0.019610	0.019544	0.018714	0.023342	0.025364	0.019379	0.018812	0.018591	0.018524	0.023272	0.024819	0.036877	0.007802	0.032339	0.046244
6.065000	0.034356	0.009882	0.004331	0.025588	0.011580	0.014947	0.011979	0.149345	0.016009	0.064123	0.058355	0.064787	0.058783	0.065297	0.062406	0.015672	0.142757	0.043022	0.047788	0.059958	0.065190	0.069157	0.063320	0.070357	0.017249	0.014612	0.009196	0.010898	0.013538	0.022974	0.023575	0.024650	0.023610	0.015136	0.022001	0.024479	0.021939	0.022863	0.022326	0.040520	0.028206	0.040843	0.009146	0.027666	0.049607	0.020271	0.020380	0.020380	0.019239	0.022792	0.025879	0.020048	0.019383	0.019424	0.019334	0.023349	0.025233	0.036988	0.009106	0.032375	0.046766
6.070000	0.034791	0.010017	0.004852	0.025424	0.011734	0.014875	0.011588	0.148997	0.015762	0.064723	0.058598	0.064990	0.059135	0.065384	0.062587	0.015582	0.142733	0.043394	0.047977	0.060374	0.065508	0.069255	0.063232	0.070459	0.017274	0.014823	0.009054	0.010853	0.013544	0.023338	0.024425	0.025020	0.024126	0.014891	0.022129	0.025089	0.022637	0.023474	0.022648	0.040910	0.028537	0.040941	0.009246	0.027782	0.050420	0.020587	0.021120	0.020965	0.019785	0.022437	0.026264	0.020636	0.019802	0.019941	0.019694	0.023366	0.025608	0.037732	0.009542	0.033144	0.046702
6.075000	0.035346	0.010597	0.005544	0.025308	0.011929	0.015075	0.010894	0.148981	0.015285	0.064793	0.058737	0.065242	0.059396	0.065558	0.062536	0.015654	0.142546	0.043924	0.048130	0.060645	0.065688	0.069508	0.063119	0.070623	0.017510	0.014712	0.009241	0.010932	0.013786	0.023836	0.024904	0.025589	0.024780	0.014865	0.022463	0.025930	0.023502	0.024360	0.023191	0.041301	0.028647	0.040973	0.009660	0.027920	0.051091	0.021526	0.021929	0.022023	0.020597	0.021966	0.026841	0.021302	0.020222	0.020619	0.020138	0.023148	0.025678	0.037885	0.010019	0.032966	0.047041
6.080000	0.035724	0.010816	0.006235	0.025228	0.012129	0.015487	0.010395	0.148653	0.014879	0.065146	0.058944	0.065376	0.059487	0.065682	0.062407	0.015987	0.142390	0.044207	0.048399	0.061139	0.066002	0.069481	0.063249	0.070428	0.017377	0.014999	0.009408	0.011000	0.013976	0.024464	0.025126	0.026037	0.025399	0.014958	0.022737	0.026386	0.024233	0.024794	0.023476	0.041597	0.028933	0.041017	0.009482	0.028114	0.051488	0.022212	0.022500	0.023008	0.021466	0.021547	0.027299	0.021870	0.020761	0.020874	0.020609	0.022951	0.025932	0.038209	0.010341	0.033425	0.047113
6.085000	0.036773	0.010993	0.006961	0.025099	0.012184	0.015626	0.010038	0.148444	0.014645	0.064919	0.059052	0.065514	0.059513	0.065702	0.062603	0.016222	0.142400	0.044836	0.048631	0.061418	0.066024	0.069792	0.062904	0.070445	0.017977	0.014992	0.009356	0.011088	0.014123	0.024996	0.025741	0.026253	0.025952	0.015536	0.023226	0.026879	0.024810	0.025547	0.024013	0.042011	0.029130	0.041235	0.009852	0.028048	0.051939	0.023020	0.023827	0.023860	0.022550	0.021142	0.027760	0.022323	0.020950	0.021175	0.020953	0.022658	0.026282	0.038353	0.011154	0.033584	0.047149
6.090000	0.037620	0.011518	0.007818	0.025118	0.012462	0.016052	0.009898	0.148779	0.014456	0.065008	0.059335	0.065707	0.059587	0.066052	0.062599	0.016893	0.142293	0.045316	0.048634	0.061883	0.066281	0.069767	0.063006	0.070368	0.017981	0.015240	0.009677	0.011217	0.014174	0.025491	0.026348	0.026910	0.026654	0.015042	0.023635	0.027666	0.025480	0.025999	0.024454	0.042052	0.029211	0.041332	0.010170	0.028517	0.051950	0.023825	0.024637	0.024464	0.023751	0.020650	0.028253	0.022669	0.021213	0.021579	0.021308	0.022329	0.026563	0.038655	0.011663	0.033991	0.046984
6.095000	0.038308	0.012031	0.008728	0.025257	0.012403	0.017044	0.009850	0.148582	0.014233	0.065325	0.059422	0.065777	0.059796	0.066090	0.062463	0.017494	0.142543	0.045787	0.048415	0.062042	0.066317	0.069964	0.062919	0.070355	0.018455	0.015483	0.009655	0.011287	0.014248	0.026070	0.027070	0.027034	0.027477	0.015862	0.024381	0.028505	0.026122	0.026700	0.024928	0.042094	0.029381	0.041445	0.010548	0.028461	0.052129	0.024710	0.025788	0.025657	0.025352	0.020042	0.028662	0.023062	0.021543	0.021835	0.021885	0.021902	0.027001	0.038756	0.012465	0.034522	0.046924
6.100000	0.039225	0.012740	0.009723	0.025191	0.012880	0.017555	0.010117	0.148976	0.014167	0.065417	0.059430	0.065655	0.059818	0.066133	0.062340	0.019053	0.142513	0.046277	0.048742	0.062198	0.066234	0.070021	0.062653	0.069963	0.018475	0.015135	0.009831	0.011487	0.014378	0.026726	0.027269	0.027629	0.028520	0.016206	0.025071	0.029293	0.026124	0.027348	0.025539	0.041982	0.029570	0.041485	0.011125	0.028259	0.051923	0.025679	0.026626	0.025959	0.026625	0.020007	0.029192	0.023046	0.021708	0.021840	0.021901	0.021270	0.027214	0.037316	0.008749	0.032642	0.046477
6.105000	0.040396	0.013538	0.011166	0.025397	0.012781	0.018656	0.010375	0.149137	0.014096	0.065289	0.059626	0.065749	0.060011	0.066403	0.062181	0.019976	0.142744	0.046779	0.048568	0.062585	0.066241	0.070099	0.062677	0.070273	0.019225	0.015646	0.009866	0.011615	0.014493	0.027379	0.028099	0.028290	0.028845	0.016050	0.025975	0.030403	0.026681	0.027960	0.025865	0.042059	0.029713	0.039866	0.011719	0.026648	0.051766	0.026313	0.027368	0.026842	0.028058	0.020944	0.029401	0.023456	0.022668	0.022157	0.023049	0.021936	0.027324	0.039198	0.014574	0.028415	0.036403
6.110000	0.041286	0.014967	0.012833	0.025810	0.013012	0.019870	0.010957	0.149408	0.014065	0.064844	0.059506	0.065834	0.060388	0.066564	0.062234	0.021606	0.143022	0.047271	0.048687	0.062862	0.066446	0.070156	0.062582	0.069841	0.019803	0.016299	0.010212	0.012157	0.014912	0.028399	0.029020	0.028936	0.030211	0.017140	0.026630	0.031176	0.028178	0.029212	0.025799	0.042686	0.030999	0.039699	0.010963	0.019660	0.044263	0.027588	0.028331	0.027518	0.028963	0.022626	0.029847	0.025216	0.024245	0.023874	0.023062	0.032095	0.024298	0.047312	0.020258	0.022672	0.038485
6.115000	0.043306	0.015986	0.014179	0.025799	0.013094	0.021412	0.011614	0.149952	0.014183	0.064941	0.059696	0.065790	0.060360	0.066750	0.062153	0.023178	0.143218	0.047679	0.048652	0.062934	0.066313	0.069881	0.062569	0.070450	0.020065	0.016659	0.010855	0.012510	0.014966	0.029694	0.030023	0.029824	0.031475	0.017739	0.026370	0.031467	0.029290	0.031144	0.025020	0.047133	0.029564	0.046729	0.016596	0.013059	0.039533	0.028692	0.029453	0.028339	0.030742	0.021142	0.030576	0.027208	0.024694	0.024659	0.023898	0.036424	0.021743	0.043880	0.019375	0.021649	0.040810
6.120000	0.046162	0.016751	0.015186	0.025577	0.012748	0.022338	0.012733	0.150307	0.014600	0.064360	0.059501	0.065666	0.060698	0.066980	0.062155	0.024934	0.143512	0.048180	0.048200	0.062909	0.066201	0.070078	0.062390	0.069908	0.020185	0.017470	0.010746	0.012484	0.014836	0.031307	0.031422	0.030605	0.032538	0.017558	0.026630	0.032414	0.029647	0.031391	0.024825	0.048825	0.023893	0.048119	0.017540	0.007532	0.042586	0.029285	0.030219	0.028294	0.032874	0.018722	0.031860	0.027730	0.021583	0.022352	0.021856	0.033327	0.017850	0.040443	0.018706	0.021731	0.038273
6.125000	0.049165	0.017336	0.015999	0.025209	0.012261	0.023497	0.013619	0.150724	0.014828	0.064166	0.059520	0.065759	0.060556	0.067029	0.062500	0.026986	0.143854	0.048447	0.048162	0.062927	0.066226	0.070197	0.062091	0.070298	0.020441	0.017982	0.011092	0.012886	0.015014	0.032554	0.032784	0.031269	0.034896	0.017609	0.029110	0.033896	0.027891	0.029226	0.023818	0.045400	0.018581	0.042972	0.016184	0.009074	0.039873	0.030322	0.031242	0.028840	0.034743	0.017781	0.033664	0.025897	0.018816	0.018584	0.019150	0.027274	0.015035	0.040420	0.017412	0.022613	0.036604
6.130000	0.052004	0.017694	0.016515	0.024864	0.011508	0.024398	0.015210	0.151565	0.015119	0.063798	0.059254	0.065512	0.060896	0.067152	0.062505	0.028941	0.144250	0.049003	0.048128	0.062916	0.066113	0.069990	0.062079	0.070274	0.020880	0.018588	0.010909	0.013225	0.015021	0.033892	0.033902	0.031288	0.037509	0.019085	0.031177	0.034031	0.023331	0.026042	0.022458	0.039827	0.015184	0.040402	0.015474	0.011459	0.036566	0.031758	0.032643	0.029937	0.037124	0.017409	0.034840	0.022578	0.017222	0.016097	0.017348	0.025045	0.014203	0.039915	0.016750	0.023324	0.035725
6.135000	0.054493	0.018305	0.016823	0.024388	0.010986	0.025384	0.016548	0.152094	0.015585	0.063805	0.059264	0.065439	0.060393	0.067241	0.062781	0.030935	0.144728	0.049124	0.047979	0.062711	0.065626	0.069970	0.061637	0.070398	0.021988	0.018812	0.011036	0.013681	0.014980	0.035022	0.035011	0.031919	0.039151	0.020094	0.031782	0.033169	0.019505	0.023652	0.021429	0.034639	0.013681	0.038597	0.014041	0.011639	0.035323	0.032616	0.033007	0.030201	0.038173	0.017376	0.035552	0.019943	0.016836	0.015510	0.016586	0.024667	0.013773	0.039932	0.016755	0.022517	0.034644
6.140000	0.056596	0.018902	0.017209	0.023546	0.010711	0.027256	0.018052	0.152489	0.016207	0.063708	0.058918	0.065156	0.060608	0.067062	0.062585	0.032882	0.145101	0.049330	0.047825	0.062725	0.065665	0.069674	0.061521	0.070785	0.022122	0.019575	0.011339	0.013985	0.014973	0.035038	0.035168	0.031479	0.039928	0.019218	0.031428	0.031354	0.017905	0.021550	0.020046	0.033486	0.013041	0.033910	0.014369	0.011696	0.034206	0.030546	0.030764	0.027834	0.036557	0.019168	0.035691	0.018919	0.017985	0.016701	0.017445	0.024968	0.013696	0.027901	0.017762	0.022322	0.034338
6.145000	0.059206	0.019625	0.017554	0.022515	0.010895	0.028776	0.019483	0.153236	0.016749	0.062826	0.058665	0.064999	0.060732	0.067323	0.062581	0.034886	0.145479	0.049736	0.047444	0.062786	0.065537	0.069384	0.061457	0.071560	0.022848	0.019887	0.011525	0.014007	0.014491	0.033722	0.033093	0.030469	0.038166	0.017160	0.031471	0.028958	0.019313	0.020865	0.017765	0.031648	0.012838	0.022510	0.014874	0.011060	0.033424	0.026555	0.025757	0.023345	0.031676	0.021397	0.034849	0.019892	0.019232	0.017175	0.016745	0.021950	0.011179	0.024075	0.019221	0.022222	0.032978
6.150000	0.061788	0.021019	0.018607	0.022067	0.012119	0.030777	0.020880	0.153581	0.016865	0.062594	0.058702	0.064902	0.060473	0.067275	0.062888	0.036845	0.145804	0.050172	0.047250	0.062795	0.065834	0.069221	0.061214	0.071893	0.023474	0.020510	0.012225	0.013357	0.013632	0.031916	0.030911	0.029456	0.034556	0.014232	0.031498	0.025982	0.019971	0.019604	0.011624	0.027613	0.010640	0.017721	0.016751	0.011177	0.033604	0.023934	0.022986	0.021151	0.029499	0.013341	0.033790	0.024640	0.018182	0.017913	0.015816	0.014419	0.003841	0.022466	0.017332	0.023329	0.030150
6.155000	0.064330	0.022710	0.020342	0.022564	0.013633	0.032569	0.022570	0.153799	0.016564	0.062781	0.058410	0.064570	0.060407	0.067194	0.063459	0.038569	0.146298	0.050904	0.047580	0.063151	0.065805	0.068801	0.060410	0.073929	0.024859	0.020577	0.012793	0.013779	0.014342	0.032754	0.031425	0.031271	0.034878	0.011142	0.030978	0.026770	0.018576	0.019557	0.011846	0.023444	0.002821	0.013970	0.015868	0.013799	0.032183	0.024868	0.023978	0.022300	0.032468	0.009368	0.036685	0.026472	0.018609	0.019009	0.016763	0.010402	0.008508	0.022845	0.016662	0.024116	0.028993
6.160000	0.068138	0.022872	0.020882	0.022539	0.012842	0.035396	0.024836	0.154040	0.016857	0.062215	0.058130	0.064385	0.060579	0.066829	0.064577	0.040269	0.146678	0.051190	0.047507	0.063024	0.065713	0.068390	0.059758	0.075306	0.025114	0.020277	0.012891	0.014580	0.014544	0.035270	0.033098	0.031989	0.037183	0.010580	0.029733	0.028442	0.019865	0.020124	0.015649	0.019056	0.006909	0.013313	0.014985	0.014468	0.030642	0.025563	0.026065	0.024254	0.033242	0.008168	0.039185	0.025601	0.018558	0.018184	0.018040	0.008880	0.009038	0.025497	0.017008	0.024403	0.029043
6.165000	0.073042	0.022624	0.020518	0.022131	0.011022	0.036673	0.026752	0.155013	0.017845	0.061437	0.057519	0.064093	0.060961	0.066811	0.065214	0.041747	0.147305	0.051364	0.046968	0.062620	0.065582	0.067712	0.059173	0.076362	0.025526	0.020157	0.012604	0.014376	0.014268	0.034323	0.032028	0.030729	0.036797	0.012967	0.027994	0.027524	0.020104	0.019573	0.015819	0.016787	0.006043	0.013924	0.014808	0.013679	0.030323	0.026308	0.027280	0.025593	0.034004	0.007726	0.040980	0.024465	0.017593	0.017619	0.017362	0.009888	0.008547	0.027549	0.017168	0.024236	0.028985
6.170000	0.076426	0.023128	0.020573	0.022215	0.009536	0.038403	0.029324	0.156073	0.018479	0.061493	0.056738	0.063719	0.060613	0.066523	0.065939	0.043932	0.148078	0.050779	0.046306	0.061899	0.065465	0.065333	0.058562	0.078265	0.025054	0.020192	0.012317	0.013950	0.013916	0.031690	0.029992	0.029420	0.034503	0.015523	0.027749	0.026178	0.019971	0.019413	0.014188	0.016551	0.006074	0.015523	0.015614	0.014089	0.029760	0.025580	0.026017	0.024598	0.033581	0.007307	0.040640	0.020953	0.015350	0.015278	0.016506	0.011520	0.008289	0.030289	0.017788	0.024928	0.029439
6.175000	0.078819	0.024659	0.021412	0.022574	0.008596	0.039096	0.031877	0.157407	0.019489	0.059350	0.055332	0.062889	0.059736	0.065492	0.065876	0.045918	0.149017	0.050407	0.045745	0.061073	0.065021	0.065599	0.057347	0.080047	0.024731	0.020242	0.011786	0.013349	0.013837	0.030162	0.028820	0.028248	0.032786	0.016481	0.028596	0.022877	0.018786	0.018275	0.011713	0.016858	0.005361	0.016689	0.015774	0.014316	0.029695	0.024293	0.024301	0.023248	0.032762	0.007548	0.040814	0.017992	0.013935	0.013064	0.014418	0.012423	0.008004	0.031284	0.018240	0.024978	0.029613
6.180000	0.080578	0.026704	0.023158	0.022421	0.008018	0.039539	0.033769	0.158653	0.020743	0.058654	0.054080	0.061778	0.058873	0.064628	0.066534	0.047526	0.150148	0.050060	0.044504	0.060014	0.064424	0.064110	0.056880	0.081355	0.024112	0.019641	0.011310	0.012978	0.013887	0.029835	0.027766	0.027766	0.031751	0.015775	0.030004	0.020061	0.017414	0.016560	0.009360	0.017526	0.004757	0.017582	0.015449	0.012811	0.030061	0.023203	0.023136	0.022031	0.031329	0.009133	0.041167	0.016059	0.012547	0.010858	0.012348	0.012947	0.007962	0.031748	0.017811	0.024820	0.029837
6.185000	0.081591	0.028830	0.025308	0.022201	0.007499	0.039810	0.035075	0.160057	0.022346	0.056947	0.052820	0.060543	0.058200	0.063580	0.067124	0.048485	0.151113	0.049608	0.043894	0.058840	0.063752	0.063010	0.056231	0.082569	0.023957	0.018808	0.010819	0.012744	0.013853	0.028738	0.026879	0.026704	0.030993	0.014178	0.031925	0.018530	0.015690	0.014835	0.008905	0.017894	0.004208	0.017666	0.015160	0.012765	0.030215	0.022363	0.021862	0.021120	0.030230	0.011932	0.041681	0.014452	0.011346	0.008602	0.010180	0.013207	0.007302	0.031501	0.017573	0.024557	0.030013
6.190000	0.082784	0.030736	0.027475	0.022004	0.007040	0.040690	0.035923	0.161548	0.022642	0.055585	0.051690	0.059550	0.057124	0.062571	0.067942	0.049122	0.152271	0.049275	0.043440	0.058174	0.063157	0.061949	0.055650	0.083335	0.023430	0.018794	0.010714	0.012324	0.014181	0.028639	0.027103	0.026898	0.030919	0.013825	0.033538	0.017803	0.014205	0.014020	0.008110	0.018347	0.003336	0.017734	0.015359	0.012759	0.030131	0.021322	0.020562	0.019761	0.028513	0.014729	0.041642	0.012527	0.010840	0.006834	0.008730	0.013459	0.007325	0.031173	0.017812	0.024757	0.030235
6.195000	0.084151	0.032077	0.029557	0.021962	0.006872	0.041130	0.036502	0.162649	0.024117	0.054286	0.050628	0.058269	0.056302	0.061964	0.068804	0.049716	0.153576	0.048872	0.043336	0.057504	0.062363	0.059797	0.055323	0.084160	0.022067	0.018417	0.010311	0.012176	0.014307	0.028719	0.026786	0.026840	0.030559	0.014269	0.034394	0.016700	0.012992	0.012675	0.007744	0.018446	0.002467	0.017566	0.015772	0.012583	0.030032	0.020812	0.019793	0.019241	0.027604	0.017497	0.041557	0.011253	0.010763	0.005256	0.007689	0.013296	0.007095	0.030582	0.017623	0.024518	0.030057
6.200000	0.085422	0.032966	0.031673	0.022466	0.007223	0.041901	0.036973	0.164182	0.025323	0.053449	0.050152	0.057622	0.055609	0.061305	0.069545	0.050018	0.154570	0.048407	0.042802	0.056937	0.061825	0.059809	0.054822	0.083639	0.021189	0.017791	0.010423	0.012106	0.014359	0.028785	0.027071	0.027415	0.029694	0.015738	0.032861	0.015903	0.012121	0.011587	0.007280	0.018464	0.002236	0.016992	0.016534	0.012534	0.029862	0.020513	0.019615	0.018852	0.026870	0.020185	0.041075	0.010111	0.010668	0.004228	0.006407	0.013063	0.006254	0.029237	0.017132	0.023874	0.029823
6.205000	0.087326	0.033507	0.033426	0.023391	0.007579	0.042511	0.037555	0.164947	0.026094	0.052809	0.049682	0.056751	0.055133	0.060872	0.070674	0.050522	0.155474	0.047610	0.042599	0.056264	0.060934	0.059359	0.054664	0.083684	0.020721	0.017265	0.009829	0.012097	0.013873	0.029460	0.027609	0.028251	0.030182	0.016716	0.030163	0.015540	0.010940	0.010674	0.006467	0.018444	0.002684	0.015963	0.016739	0.012661	0.029693	0.020698	0.019471	0.018853	0.026210	0.022626	0.039939	0.009760	0.010341	0.003929	0.005909	0.012872	0.005745	0.027718	0.017115	0.023535	0.029809
6.210000	0.089175	0.034331	0.034761	0.024108	0.008046	0.043095	0.038035	0.165825	0.026513	0.051845	0.049393	0.056019	0.054659	0.060424	0.071345	0.050826	0.155750	0.047318	0.042780	0.055836	0.060664	0.058786	0.054658	0.083709	0.019844	0.016478	0.009247	0.011764	0.013685	0.030053	0.028406	0.029174	0.030248	0.018136	0.027856	0.015497	0.009610	0.010143	0.006174	0.018137	0.004002	0.014644	0.017341	0.012092	0.029682	0.020626	0.019233	0.019070	0.025628	0.024686	0.038532	0.009187	0.010022	0.003986	0.005725	0.012326	0.005838	0.026604	0.016868	0.023066	0.029516
6.215000	0.090722	0.035418	0.036080	0.025230	0.008676	0.044313	0.038865	0.166731	0.026716	0.051460	0.049749	0.056352	0.054463	0.060603	0.071303	0.051390	0.155990	0.046843	0.042747	0.055531	0.060358	0.058474	0.054851	0.083148	0.019073	0.015910	0.009009	0.012001	0.013217	0.031322	0.029438	0.030096	0.031314	0.019402	0.025928	0.015123	0.008589	0.009659	0.006728	0.017335	0.005755	0.013417	0.018011	0.012851	0.029412	0.020676	0.019566	0.019578	0.025318	0.025434	0.036850	0.008974	0.009299	0.004338	0.005727	0.011507	0.006377	0.025588	0.016426	0.022671	0.029183
6.220000	0.092196	0.036633	0.036867	0.026193	0.009370	0.044944	0.039542	0.166915	0.027100	0.051068	0.049649	0.056475	0.054080	0.060400	0.071626	0.051448	0.155917	0.046182	0.042783	0.055264	0.059945	0.058268	0.055076	0.083087	0.018252	0.014980	0.008810	0.012749	0.013253	0.032064	0.029891	0.030633	0.031835	0.020543	0.023081	0.015472	0.008478	0.009749	0.007718	0.016508	0.007171	0.012627	0.018487	0.013295	0.029112	0.020688	0.019667	0.019915	0.025283	0.025407	0.036009	0.009156	0.008749	0.005014	0.006129	0.010661	0.007113	0.025060	0.016083	0.022350	0.028429
6.225000	0.093683	0.037886	0.037910	0.026868	0.010047	0.045751	0.039783	0.168388	0.027603	0.050672	0.049470	0.056465	0.054007	0.059614	0.071752	0.051842	0.155911	0.045387	0.043166	0.054909	0.059956	0.058172	0.055508	0.082747	0.017944	0.014547	0.008171	0.011953	0.012556	0.032519	0.030000	0.030848	0.032235	0.020670	0.021590	0.015562	0.008331	0.010028	0.008826	0.015532	0.008061	0.012032	0.018867	0.014270	0.028626	0.020924	0.019944	0.020129	0.025426	0.025183	0.035880	0.009132	0.008645	0.005701	0.006580	0.010085	0.007653	0.025023	0.015584	0.022017	0.027921
6.230000	0.094968	0.040440	0.039399	0.027091	0.011578	0.046243	0.044566	0.169556	0.027446	0.050339	0.049567	0.055897	0.052001	0.059069	0.072323	0.048042	0.154715	0.044828	0.043167	0.054436	0.059297	0.058946	0.056495	0.082306	0.017802	0.013796	0.007830	0.012681	0.012484	0.031854	0.029351	0.030206	0.031242	0.020071	0.020687	0.015136	0.008661	0.010209	0.008930	0.015089	0.008514	0.011830	0.019136	0.014445	0.028321	0.020746	0.019642	0.019867	0.025615	0.025624	0.036945	0.008807	0.008739	0.006119	0.006957	0.009758	0.007805	0.025108	0.015276	0.021719	0.027589
6.235000	0.096357	0.041907	0.040321	0.027539	0.011694	0.047328	0.045025	0.170681	0.028241	0.050137	0.049444	0.055935	0.053312	0.059103	0.072039	0.048895	0.154561	0.043853	0.043599	0.054295	0.059616	0.060325	0.056874	0.082103	0.016977	0.013156	0.007455	0.011520	0.012402	0.030184	0.027911	0.028818	0.030470	0.021054	0.020460	0.014039	0.008188	0.009816	0.008299	0.014842	0.008637	0.011759	0.019133	0.014572	0.028301	0.019672	0.018763	0.019196	0.024993	0.026109	0.037429	0.008377	0.008520	0.006428	0.007350	0.009683	0.007795	0.025154	0.015058	0.021631	0.027651
6.240000	0.097409	0.043646	0.041670	0.028461	0.011746	0.047948	0.045984	0.170717	0.028396	0.049626	0.049197	0.056184	0.051996	0.059215	0.072186	0.049548	0.154565	0.043302	0.043915	0.053963	0.059761	0.058641	0.057174	0.082891	0.016835	0.012244	0.007238	0.012359	0.012419	0.027998	0.025862	0.026535	0.028823	0.021910	0.021388	0.012698	0.008382	0.008960	0.007399	0.014774	0.008498	0.011838	0.019204	0.015231	0.028209	0.017933	0.017466	0.017696	0.023752	0.027024	0.038466	0.007652	0.008662	0.006637	0.007669	0.009757	0.007695	0.025157	0.015088	0.021639	0.027612
6.245000	0.099083	0.045446	0.043126	0.028946	0.011978	0.048310	0.046652	0.170911	0.029080	0.049371	0.048956	0.055934	0.052366	0.058929	0.072236	0.050184	0.154762	0.043106	0.043592	0.053460	0.059868	0.059664	0.057097	0.082309	0.016609	0.012256	0.006687	0.011962	0.012197	0.025759	0.023852	0.024476	0.027270	0.022306	0.022599	0.011104	0.007860	0.008297	0.006510	0.015147	0.008007	0.012161	0.018988	0.014519	0.028500	0.016327	0.016344	0.016877	0.022594	0.027732	0.039359	0.007222	0.008904	0.006896	0.007637	0.010077	0.007814	0.025364	0.015343	0.021664	0.027596
6.250000	0.100519	0.046865	0.044646	0.029359	0.012231	0.048756	0.047110	0.170961	0.029708	0.049082	0.048530	0.055994	0.052235	0.059048	0.072265	0.050351	0.154851	0.042642	0.043276	0.053421	0.059943	0.059542	0.057252	0.082213	0.015448	0.011388	0.006567	0.012124	0.011976	0.023045	0.021728	0.022073	0.025694	0.023209	0.023153	0.009592	0.007596	0.007689	0.005878	0.015621	0.007592	0.012410	0.018740	0.014397	0.028803	0.014958	0.015593	0.016034	0.021689	0.028836	0.040177	0.006769	0.009297	0.006971	0.007994	0.010295	0.007616	0.025388	0.015264	0.021711	0.027823
6.255000	0.101859	0.048393	0.046254	0.029772	0.012659	0.049372	0.048263	0.171275	0.029117	0.048803	0.047937	0.055653	0.052333	0.058948	0.072448	0.050700	0.154953	0.042426	0.043246	0.053148	0.059836	0.059697	0.057130	0.082892	0.015522	0.010763	0.006273	0.011919	0.011800	0.020580	0.019073	0.018927	0.023781	0.024095	0.024116	0.008436	0.007360	0.007318	0.005021	0.015833	0.007275	0.012629	0.018614	0.014371	0.028931	0.013604	0.014764	0.015163	0.020998	0.030262	0.040872	0.006063	0.009624	0.007239	0.008204	0.010502	0.007454	0.025455	0.015296	0.021728	0.027836
6.260000	0.103216	0.049783	0.047408	0.030141	0.012972	0.049997	0.049044	0.171699	0.029158	0.048391	0.047492	0.055432	0.052294	0.058918	0.072275	0.050851	0.155337	0.042841	0.042973	0.053004	0.059705	0.061406	0.057188	0.082588	0.015544	0.010593	0.005768	0.011948	0.011656	0.018635	0.017455	0.017062	0.022991	0.024886	0.024861	0.007772	0.007681	0.007282	0.004707	0.016019	0.007177	0.012793	0.018506	0.014331	0.029016	0.012573	0.013803	0.014422	0.020248	0.031826	0.041398	0.005770	0.009951	0.007503	0.008250	0.010600	0.007317	0.025654	0.015215	0.021815	0.027890
6.265000	0.104637	0.050783	0.048382	0.030215	0.013248	0.050031	0.050023	0.172087	0.030073	0.047791	0.047089	0.055231	0.052265	0.058687	0.072468	0.051135	0.156027	0.043349	0.042708	0.052727	0.059639	0.060019	0.057131	0.083578	0.014351	0.009802	0.005696	0.011940	0.011462	0.016831	0.016350	0.015850	0.021945	0.025833	0.025349	0.007212	0.007758	0.007259	0.004648	0.016094	0.007054	0.012932	0.018259	0.014239	0.029121	0.011663	0.013589	0.014162	0.020059	0.032767	0.041669	0.005868	0.010332	0.007857	0.008276	0.010537	0.007605	0.025784	0.015150	0.021929	0.027970
6.270000	0.106059	0.052053	0.049488	0.030253	0.013687	0.050023	0.049998	0.172061	0.030273	0.048115	0.046741	0.055148	0.052221	0.058595	0.072642	0.051123	0.156347	0.043853	0.042035	0.052889	0.059101	0.061812	0.056617	0.083578	0.014007	0.009450	0.005487	0.011653	0.011448	0.015488	0.015915	0.015060	0.020960	0.026667	0.026153	0.006612	0.007259	0.007137	0.004540	0.016266	0.006862	0.013135	0.018121	0.014013	0.029168	0.010943	0.013083	0.013601	0.019914	0.033402	0.042404	0.005972	0.010822	0.008169	0.008345	0.010611	0.007330	0.025954	0.015091	0.022048	0.028006
6.275000	0.107485	0.052714	0.050154	0.030436	0.014037	0.050537	0.050500	0.172464	0.030609	0.047380	0.046409	0.054852	0.052269	0.058363	0.073114	0.051259	0.156785	0.044636	0.041582	0.052709	0.058944	0.061379	0.056174	0.084567	0.013786	0.009029	0.004965	0.011275	0.011100	0.014650	0.014594	0.014081	0.020062	0.027762	0.027611	0.006098	0.006678	0.006928	0.004699	0.016152	0.006812	0.013055	0.017925	0.014166	0.029252	0.010069	0.012804	0.013328	0.019531	0.033977	0.043061	0.005872	0.011237	0.008399	0.008231	0.010728	0.007378	0.026002	0.014936	0.022089	0.028136
6.280000	0.108286	0.053689	0.050939	0.030617	0.014308	0.050701	0.050936	0.172691	0.030812	0.046748	0.046419	0.054797	0.052326	0.058302	0.073224	0.051298	0.156876	0.045194	0.041714	0.053315	0.059001	0.060337	0.056009	0.085474	0.013053	0.008771	0.005092	0.011451	0.011065	0.014507	0.014736	0.014117	0.019716	0.028254	0.028566	0.005777	0.006123	0.006820	0.004704	0.016222	0.006741	0.013200	0.017985	0.013989	0.029221	0.009391	0.011937	0.012783	0.018691	0.034598	0.043379	0.005866	0.011882	0.008742	0.008223	0.011031	0.007433	0.026306	0.015030	0.021764	0.028124
6.285000	0.109529	0.054409	0.051705	0.030863	0.014431	0.050879	0.050779	0.172750	0.030870	0.046320	0.046369	0.054789	0.052523	0.058144	0.073410	0.051531	0.157379	0.045720	0.041101	0.053259	0.058918	0.060398	0.055715	0.086215	0.012597	0.008916	0.004601	0.011124	0.011171	0.013901	0.014095	0.013937	0.018830	0.028976	0.030175	0.005437	0.005459	0.006440	0.004824	0.016180	0.006561	0.013101	0.017810	0.014379	0.029320	0.008622	0.011807	0.012540	0.018265	0.035279	0.043732	0.006177	0.012489	0.009011	0.008085	0.011051	0.007134	0.026239	0.014835	0.021687	0.028195
6.290000	0.110278	0.055074	0.052402	0.031250	0.014743	0.051268	0.050895	0.172952	0.030778	0.046269	0.046044	0.054608	0.052163	0.058082	0.074221	0.051958	0.157465	0.045750	0.041803	0.053601	0.059261	0.060210	0.055350	0.087229	0.012140	0.009653	0.004487	0.010922	0.010852	0.013706	0.013596	0.013571	0.017888	0.030098	0.031330	0.005298	0.004833	0.006431	0.004890	0.016242	0.006512	0.013108	0.017843	0.014356	0.029131	0.007796	0.011336	0.012409	0.017774	0.036064	0.044151	0.006462	0.013010	0.009380	0.008033	0.011033	0.007089	0.026047	0.014840	0.022468	0.028019
6.295000	0.111354	0.055682	0.052907	0.031445	0.014883	0.051683	0.051105	0.173407	0.031760	0.046607	0.046206	0.054529	0.052238	0.057645	0.074541	0.052475	0.157794	0.046059	0.040253	0.053828	0.059273	0.059985	0.055124	0.088238	0.012515	0.009270	0.004023	0.010595	0.010802	0.013380	0.012528	0.013031	0.016670	0.030358	0.032421	0.005358	0.004660	0.007015	0.005128	0.016005	0.006571	0.012859	0.017539	0.014586	0.029205	0.007910	0.011528	0.012555	0.017585	0.036758	0.044267	0.006432	0.013240	0.009598	0.008080	0.010994	0.007340	0.025985	0.014503	0.021677	0.028026
6.300000	0.112404	0.056077	0.053469	0.031942	0.014920	0.051563	0.051091	0.173450	0.031502	0.046388	0.046257	0.054683	0.052474	0.057475	0.074985	0.052739	0.157627	0.045718	0.040621	0.053826	0.059368	0.059401	0.054988	0.089482	0.011731	0.009378	0.003889	0.010450	0.010703	0.013758	0.012581	0.013216	0.015875	0.031997	0.033200	0.005590	0.004755	0.007129	0.005321	0.015896	0.006626	0.012788	0.017610	0.014503	0.029115	0.007130	0.011226	0.012595	0.017205	0.037793	0.044511	0.006813	0.013597	0.009894	0.008229	0.010932	0.007256	0.025746	0.014537	0.021606	0.027837
6.305000	0.112678	0.057094	0.054265	0.032688	0.015397	0.052628	0.051488	0.173372	0.030930	0.046248	0.046429	0.054736	0.052228	0.057233	0.075857	0.053292	0.157438	0.045134	0.041080	0.054007	0.059865	0.059033	0.054501	0.090183	0.011932	0.009694	0.003598	0.010402	0.010762	0.014011	0.011387	0.012445	0.014616	0.033852	0.034642	0.005695	0.005155	0.007239	0.005567	0.015798	0.006607	0.012606	0.017652	0.014700	0.029000	0.006621	0.011054	0.012517	0.016752	0.039000	0.045126	0.007079	0.013823	0.010072	0.008231	0.010891	0.007092	0.025326	0.014391	0.021429	0.027751
6.310000	0.114368	0.057702	0.055138	0.032779	0.015633	0.052205	0.051564	0.173818	0.031184	0.046228	0.046132	0.053990	0.053017	0.056379	0.076530	0.053391	0.157554	0.045075	0.041069	0.054005	0.059417	0.059398	0.054120	0.090455	0.012598	0.011254	0.003128	0.009942	0.010409	0.014161	0.010363	0.011689	0.013815	0.035029	0.036253	0.006006	0.006032	0.007867	0.006242	0.015564	0.006831	0.012302	0.017791	0.014944	0.028888	0.005988	0.010739	0.012577	0.016263	0.040178	0.045511	0.007651	0.013908	0.010386	0.008461	0.010565	0.007051	0.024829	0.014158	0.021311	0.027593
6.315000	0.114784	0.057928	0.055286	0.032838	0.015027	0.052468	0.051404	0.173720	0.030889	0.046130	0.046159	0.054315	0.052538	0.056699	0.076725	0.053884	0.157625	0.044717	0.041388	0.053849	0.059915	0.058613	0.054361	0.091202	0.012122	0.010336	0.003204	0.010176	0.010535	0.014113	0.010317	0.011721	0.012546	0.035990	0.035768	0.006163	0.005908	0.007612	0.006576	0.015605	0.006700	0.012307	0.017366	0.014762	0.029084	0.006746	0.011462	0.012981	0.016648	0.039661	0.044718	0.006924	0.013310	0.009755	0.007929	0.010620	0.006855	0.024862	0.014035	0.021103	0.027614
6.320000	0.115108	0.058984	0.056474	0.033642	0.015443	0.052864	0.051681	0.173666	0.030597	0.046169	0.046008	0.054472	0.052227	0.056610	0.077587	0.054199	0.157009	0.044098	0.042449	0.054196	0.059957	0.058285	0.054191	0.091831	0.011878	0.010951	0.002948	0.010082	0.010703	0.014183	0.009461	0.011279	0.011767	0.036359	0.036670	0.006102	0.005933	0.007618	0.006610	0.015698	0.006591	0.012539	0.017643	0.015035	0.028976	0.005759	0.011013	0.012524	0.016201	0.040891	0.045443	0.007289	0.013581	0.010098	0.008207	0.010722	0.006261	0.024596	0.013973	0.020887	0.027263
6.325000	0.115786	0.059461	0.056957	0.033801	0.015458	0.052913	0.052030	0.173514	0.030350	0.045945	0.046092	0.054266	0.052466	0.056358	0.077749	0.054436	0.157125	0.043555	0.042656	0.054119	0.059878	0.058357	0.054048	0.091777	0.012060	0.010759	0.002824	0.010025	0.010659	0.013753	0.008749	0.010364	0.011431	0.036676	0.037406	0.006133	0.006093	0.007798	0.006756	0.015664	0.006603	0.012563	0.017557	0.015170	0.028933	0.006719	0.011759	0.013083	0.016670	0.040502	0.045176	0.007083	0.013051	0.009788	0.007981	0.010681	0.006130	0.024173	0.013688	0.020431	0.027339
6.330000	0.116461	0.060171	0.057786	0.034321	0.015705	0.053154	0.052072	0.173772	0.030456	0.045813	0.045540	0.053950	0.052530	0.055158	0.078444	0.054746	0.157434	0.042824	0.042800	0.053622	0.059466	0.058671	0.053310	0.092590	0.011880	0.010854	0.002631	0.009869	0.010280	0.012953	0.007618	0.009426	0.010736	0.037158	0.038346	0.006368	0.006373	0.008065	0.006957	0.015622	0.006646	0.012576	0.017630	0.015175	0.028966	0.006905	0.012192	0.013489	0.017103	0.040783	0.045367	0.007349	0.012769	0.009840	0.008048	0.010530	0.005929	0.023667	0.013517	0.020208	0.027193
6.335000	0.116713	0.060572	0.058524	0.034542	0.015459	0.053740	0.052250	0.173401	0.030402	0.045722	0.045970	0.054204	0.052065	0.055833	0.078078	0.055037	0.156747	0.042313	0.043078	0.053629	0.059810	0.058430	0.053804	0.092224	0.011830	0.010651	0.002808	0.010043	0.010410	0.012085	0.007241	0.009240	0.011047	0.037209	0.038070	0.006408	0.005972	0.007700	0.006911	0.015720	0.006566	0.012648	0.017601	0.014983	0.028950	0.007664	0.012705	0.014061	0.017406	0.040304	0.044891	0.006968	0.012050	0.009298	0.007809	0.010607	0.005745	0.023555	0.013578	0.019962	0.027020
6.340000	0.117531	0.061308	0.059236	0.034977	0.015632	0.053885	0.052409	0.173571	0.030364	0.045584	0.045540	0.053836	0.051579	0.054963	0.078772	0.055116	0.156782	0.041367	0.043667	0.053304	0.059441	0.058296	0.053198	0.092927	0.011500	0.010477	0.002706	0.009785	0.010376	0.010682	0.006911	0.008578	0.011529	0.037436	0.038771	0.006807	0.006009	0.007671	0.006876	0.015757	0.006472	0.012727	0.017575	0.015246	0.029067	0.008041	0.013087	0.014138	0.017618	0.040152	0.045177	0.007047	0.011585	0.009219	0.007965	0.010439	0.005562	0.023085	0.013395	0.019641	0.026883
6.345000	0.117841	0.061766	0.059889	0.035134	0.015708	0.053983	0.052646	0.173725	0.030530	0.045448	0.045291	0.053847	0.051291	0.054821	0.078686	0.055300	0.156814	0.040598	0.044002	0.053050	0.059327	0.059366	0.053131	0.093333	0.011099	0.010577	0.002719	0.009709	0.010420	0.009529	0.006962	0.008418	0.012175	0.037774	0.038878	0.006648	0.005526	0.007456	0.006682	0.016064	0.006291	0.012981	0.017534	0.015083	0.029283	0.008586	0.013254	0.014120	0.017684	0.040150	0.045630	0.006981	0.010980	0.008853	0.007992	0.010409	0.005400	0.022742	0.013132	0.019468	0.026807
6.350000	0.118433	0.062283	0.060389	0.035309	0.015829	0.054303	0.052986	0.173911	0.030385	0.045605	0.045829	0.054384	0.051330	0.055278	0.077699	0.055228	0.156951	0.040566	0.043713	0.052910	0.059345	0.058067	0.053513	0.093004	0.011254	0.010501	0.003236	0.010067	0.010221	0.008846	0.007733	0.008775	0.012965	0.037674	0.038185	0.006350	0.004971	0.007199	0.006521	0.016310	0.006334	0.013329	0.018017	0.014882	0.028956	0.008453	0.013205	0.014155	0.017629	0.039869	0.045533	0.006796	0.010543	0.008493	0.007721	0.010403	0.005056	0.022700	0.013544	0.019187	0.026334
6.355000	0.119431	0.062960	0.060781	0.035143	0.015980	0.053963	0.053007	0.174122	0.030564	0.045217	0.045558	0.054275	0.051415	0.055219	0.077435	0.054836	0.156917	0.040218	0.043354	0.052785	0.059234	0.058345	0.053693	0.092964	0.011226	0.010365	0.003323	0.010255	0.010435	0.008127	0.008131	0.008775	0.013574	0.038026	0.038461	0.006397	0.004632	0.007296	0.006419	0.016640	0.006203	0.013585	0.018337	0.015197	0.028869	0.008392	0.013249	0.014235	0.017865	0.040070	0.045627	0.006661	0.010059	0.008246	0.007569	0.010475	0.004833	0.022406	0.013611	0.018868	0.026138
6.360000	0.120040	0.063218	0.061057	0.035406	0.016332	0.054144	0.053449	0.174470	0.030860	0.044762	0.044974	0.053844	0.050727	0.054498	0.077979	0.054997	0.157186	0.039413	0.043809	0.052737	0.059156	0.058127	0.053117	0.092915	0.010941	0.010201	0.003404	0.010346	0.010752	0.007702	0.008387	0.008844	0.014085	0.038128	0.038777	0.006655	0.004466	0.007192	0.006346	0.016835	0.006218	0.013809	0.018475	0.015211	0.028969	0.008468	0.013300	0.014211	0.017796	0.039851	0.046013	0.006643	0.009636	0.008149	0.007686	0.010329	0.004636	0.021774	0.013523	0.018496	0.025995
6.365000	0.121362	0.063032	0.061023	0.034778	0.016393	0.054431	0.053707	0.175189	0.031236	0.044811	0.045284	0.054639	0.051158	0.055027	0.076664	0.054862	0.157542	0.039657	0.043338	0.052324	0.059270	0.058527	0.053635	0.091750	0.010973	0.010672	0.003385	0.010314	0.010352	0.007887	0.008884	0.009234	0.014413	0.038347	0.038413	0.006220	0.004056	0.006762	0.006099	0.017100	0.006282	0.014141	0.018961	0.015143	0.028773	0.008496	0.013310	0.014320	0.017796	0.039653	0.045613	0.006487	0.009241	0.007839	0.007626	0.010289	0.004544	0.021615	0.013729	0.018248	0.025655
6.370000	0.121975	0.063373	0.061270	0.034860	0.016666	0.054668	0.054050	0.175467	0.031646	0.044051	0.044783	0.053904	0.050861	0.054309	0.076982	0.054963	0.157739	0.038946	0.043389	0.052078	0.059014	0.057761	0.053348	0.092745	0.010985	0.010629	0.003719	0.010450	0.010544	0.007821	0.008864	0.009068	0.014713	0.038801	0.038745	0.006302	0.004164	0.006864	0.006103	0.017172	0.006471	0.014309	0.019118	0.015310	0.028784	0.008402	0.013519	0.014319	0.017747	0.039946	0.046284	0.006554	0.008923	0.007847	0.007418	0.010150	0.004437	0.020950	0.013745	0.017908	0.025526
6.375000	0.122727	0.063664	0.061229	0.034605	0.016770	0.054429	0.054028	0.176005	0.032056	0.043969	0.044622	0.053926	0.050413	0.054206	0.076913	0.055009	0.158035	0.038787	0.043345	0.052078	0.059025	0.057474	0.053361	0.092682	0.010782	0.010608	0.003936	0.010678	0.010611	0.007714	0.009197	0.009056	0.014526	0.039360	0.038829	0.006481	0.003999	0.006759	0.006013	0.017348	0.006605	0.014525	0.019278	0.015386	0.028839	0.008208	0.013178	0.014307	0.017573	0.040237	0.046526	0.006568	0.008672	0.007667	0.007327	0.010251	0.004397	0.020471	0.013637	0.017702	0.025539
6.380000	0.124740	0.063408	0.061111	0.033641	0.016742	0.053847	0.053937	0.176540	0.032669	0.043542	0.044284	0.054144	0.051055	0.054445	0.075071	0.054060	0.158548	0.039415	0.042038	0.051394	0.058766	0.059479	0.053601	0.091492	0.010682	0.010732	0.003864	0.010539	0.010481	0.007881	0.009351	0.009495	0.014557	0.039669	0.038384	0.006215	0.003542	0.006308	0.005920	0.017490	0.006789	0.014921	0.019941	0.015370	0.028473	0.008096	0.013067	0.014357	0.017473	0.040346	0.046667	0.006608	0.008460	0.007523	0.007548	0.010192	0.004344	0.020280	0.013835	0.017433	0.025037
6.385000	0.125632	0.063191	0.060723	0.033300	0.016808	0.054034	0.053983	0.177127	0.033158	0.043000	0.043824	0.053534	0.050914	0.053962	0.075101	0.054450	0.159067	0.038855	0.042111	0.051136	0.058464	0.058970	0.053357	0.092313	0.010814	0.010761	0.003954	0.010678	0.010599	0.007977	0.009007	0.009517	0.014442	0.039819	0.038176	0.006459	0.003622	0.006309	0.005884	0.017381	0.007075	0.014956	0.020134	0.015712	0.028404	0.007864	0.013151	0.014308	0.017188	0.040375	0.046673	0.006603	0.008085	0.007481	0.007279	0.010096	0.004386	0.019726	0.013846	0.017218	0.024947
6.390000	0.126333	0.063166	0.060575	0.032842	0.016737	0.054319	0.054277	0.177755	0.033578	0.042456	0.043616	0.053521	0.050726	0.053965	0.074508	0.054536	0.159149	0.038997	0.041666	0.051131	0.058876	0.058546	0.053608	0.092157	0.010541	0.010892	0.003829	0.010759	0.010644	0.007788	0.008813	0.009648	0.014208	0.040254	0.038764	0.006623	0.003907	0.006344	0.006017	0.017386	0.007269	0.015141	0.020390	0.015915	0.028353	0.007867	0.013054	0.014426	0.017129	0.040663	0.046828	0.006600	0.007987	0.007376	0.007170	0.010045	0.004429	0.019285	0.013935	0.017019	0.024848
6.395000	0.127146	0.062775	0.060485	0.032314	0.016608	0.054248	0.054402	0.178131	0.034040	0.042770	0.043686	0.054000	0.050798	0.054018	0.073747	0.054616	0.159414	0.038723	0.041626	0.050898	0.058937	0.058730	0.053596	0.091813	0.010390	0.011063	0.003748	0.010694	0.010575	0.008049	0.008852	0.010005	0.013905	0.040466	0.038996	0.006604	0.003567	0.006422	0.006167	0.017348	0.007546	0.015323	0.020663	0.015837	0.028228	0.007790	0.013075	0.014421	0.017120	0.040886	0.046880	0.006638	0.007897	0.007269	0.007401	0.009889	0.004472	0.019040	0.013981	0.016880	0.024617
6.400000	0.127695	0.063073	0.060369	0.031746	0.017052	0.054413	0.057281	0.179107	0.034223	0.041855	0.043560	0.054106	0.050792	0.053730	0.073042	0.052204	0.158908	0.039037	0.041481	0.050650	0.058608	0.061318	0.054198	0.090671	0.010328	0.011219	0.003575	0.010519	0.010568	0.008457	0.008795	0.010193	0.013634	0.040397	0.038692	0.006314	0.003483	0.006419	0.006091	0.017323	0.007655	0.015527	0.021070	0.016111	0.027948	0.007766	0.012885	0.014388	0.017078	0.040806	0.046505	0.006578	0.007805	0.007356	0.007273	0.009863	0.004487	0.018933	0.014153	0.016761	0.024250
6.405000	0.128484	0.063050	0.060415	0.031599	0.016968	0.054566	0.057738	0.179350	0.034758	0.041655	0.044241	0.054492	0.050905	0.053697	0.073135	0.052153	0.159090	0.038743	0.041467	0.050476	0.058792	0.059182	0.054276	0.091577	0.010278	0.011345	0.003438	0.010340	0.010621	0.008569	0.008900	0.010424	0.013384	0.039152	0.038744	0.006175	0.003645	0.006537	0.006266	0.017143	0.007817	0.015618	0.021296	0.016308	0.027753	0.007821	0.012873	0.014300	0.017168	0.040714	0.046383	0.006506	0.007687	0.007264	0.007264	0.009716	0.004555	0.018689	0.014242	0.016634	0.024076
6.410000	0.129712	0.063000	0.060181	0.031180	0.016271	0.054129	0.055996	0.179852	0.035363	0.041255	0.043447	0.053886	0.051541	0.053909	0.072622	0.053694	0.160192	0.038620	0.040798	0.050266	0.058878	0.059641	0.053672	0.091053	0.010206	0.011214	0.003431	0.010266	0.010546	0.008701	0.008533	0.010598	0.013170	0.039147	0.038901	0.006281	0.003680	0.006709	0.006503	0.017208	0.007968	0.015827	0.021427	0.016516	0.027672	0.007656	0.013066	0.014264	0.017226	0.040919	0.046498	0.006565	0.007769	0.007262	0.007183	0.009661	0.004591	0.018511	0.014360	0.016542	0.023893
6.415000	0.130506	0.063172	0.060189	0.030905	0.015707	0.054182	0.054988	0.180042	0.035558	0.040982	0.043159	0.054173	0.051868	0.054077	0.072702	0.055270	0.160477	0.038503	0.040747	0.050345	0.059299	0.059237	0.053651	0.091349	0.010193	0.011170	0.003297	0.010205	0.010534	0.009219	0.008435	0.010693	0.013217	0.039692	0.039311	0.006173	0.003421	0.006617	0.006406	0.017404	0.008015	0.015973	0.021612	0.016398	0.027525	0.007804	0.012959	0.014281	0.017250	0.040732	0.046398	0.006444	0.007870	0.007040	0.007268	0.009604	0.004538	0.018395	0.014454	0.016420	0.023710
6.420000	0.130233	0.063526	0.060615	0.030757	0.016687	0.054986	0.058972	0.180768	0.035371	0.040894	0.043846	0.054646	0.051468	0.053423	0.072431	0.052419	0.159447	0.038280	0.041422	0.050485	0.059057	0.059712	0.054080	0.091396	0.009959	0.011318	0.003424	0.010066	0.010294	0.009213	0.008548	0.010609	0.012910	0.039649	0.039472	0.006293	0.003625	0.006704	0.006455	0.017112	0.008139	0.016023	0.021606	0.016636	0.027486	0.007933	0.013156	0.014273	0.017294	0.040342	0.046249	0.006423	0.007775	0.007040	0.007233	0.009564	0.004675	0.018149	0.014363	0.016344	0.023698
6.425000	0.130922	0.063617	0.060613	0.030673	0.016442	0.054900	0.059429	0.181113	0.035186	0.040803	0.044208	0.054928	0.051438	0.053341	0.071857	0.052203	0.159607	0.037936	0.041524	0.050203	0.059273	0.059404	0.054004	0.091953	0.010267	0.011599	0.003240	0.010136	0.010354	0.009241	0.008913	0.010527	0.012987	0.039505	0.039429	0.006747	0.003814	0.006649	0.006499	0.017084	0.008178	0.016106	0.021644	0.016435	0.027398	0.007972	0.013182	0.014267	0.017500	0.040135	0.046141	0.006273	0.007695	0.006976	0.007154	0.009591	0.004627	0.018102	0.014409	0.016363	0.023598
6.430000	0.131986	0.063385	0.060335	0.030589	0.015623	0.054717	0.056721	0.181204	0.036040	0.040432	0.043447	0.054416	0.051594	0.053767	0.072348	0.054545	0.160479	0.038037	0.041124	0.050450	0.059621	0.059023	0.053579	0.091924	0.010310	0.011750	0.003296	0.010058	0.010340	0.009248	0.008101	0.010482	0.013034	0.039426	0.039596	0.006657	0.003940	0.006603	0.006403	0.017117	0.008157	0.016224	0.021779	0.016710	0.027275	0.007955	0.013012	0.014236	0.017399	0.040075	0.046254	0.006185	0.007686	0.006936	0.007048	0.009654	0.004601	0.018070	0.014485	0.016314	0.023535
6.435000	0.131854	0.064029	0.060566	0.030554	0.016341	0.055072	0.060106	0.181668	0.035561	0.040659	0.044269	0.055156	0.051379	0.053122	0.072356	0.052207	0.159454	0.037284	0.041484	0.050465	0.059286	0.061012	0.053989	0.091806	0.010513	0.011789	0.003356	0.009759	0.010149	0.009053	0.007797	0.010562	0.013261	0.039737	0.039636	0.006696	0.003892	0.006642	0.006469	0.017120	0.008325	0.016309	0.021655	0.016599	0.027259	0.007984	0.013133	0.014167	0.017351	0.040143	0.046439	0.006159	0.007702	0.007007	0.007095	0.009708	0.004586	0.017978	0.014491	0.016212	0.023469
6.440000	0.132836	0.063919	0.060541	0.030519	0.015468	0.054888	0.057473	0.181775	0.035953	0.040515	0.043570	0.054669	0.051413	0.053468	0.072763	0.054612	0.160233	0.037547	0.041351	0.050539	0.059756	0.060403	0.053448	0.093043	0.010515	0.011932	0.003519	0.009808	0.009995	0.009122	0.008111	0.010588	0.013404	0.039710	0.039882	0.006789	0.003965	0.006648	0.006430	0.017149	0.008311	0.016262	0.021726	0.016678	0.027162	0.007758	0.013070	0.014004	0.017284	0.040095	0.046749	0.006178	0.007664	0.007023	0.007080	0.009753	0.004611	0.017854	0.014417	0.016240	0.023505
6.445000	0.132759	0.064576	0.060749	0.030327	0.016263	0.055508	0.060269	0.181855	0.035563	0.040644	0.044343	0.055423	0.051220	0.052983	0.072496	0.052491	0.159174	0.036687	0.041779	0.050819	0.059642	0.060693	0.053823	0.092546	0.010695	0.011960	0.003287	0.009715	0.010101	0.009051	0.008426	0.010547	0.013540	0.039874	0.039799	0.006814	0.003953	0.006611	0.006299	0.017160	0.008221	0.016277	0.021526	0.016660	0.027262	0.007866	0.013149	0.013995	0.017417	0.039885	0.046690	0.006300	0.007572	0.007008	0.007168	0.009642	0.004566	0.017949	0.014442	0.016233	0.023426
6.450000	0.133602	0.064381	0.060321	0.030348	0.015514	0.055146	0.058012	0.181851	0.035912	0.040585	0.043687	0.054550	0.051494	0.053421	0.072465	0.054564	0.159738	0.036914	0.041840	0.051151	0.059943	0.060010	0.053472	0.092264	0.010966	0.012108	0.003236	0.009744	0.010165	0.008961	0.008827	0.010501	0.013718	0.039777	0.039764	0.006846	0.003859	0.006602	0.006344	0.017142	0.008194	0.016243	0.021596	0.016613	0.027182	0.007816	0.012958	0.013951	0.017401	0.040037	0.046898	0.006355	0.007688	0.007050	0.007252	0.009656	0.004511	0.017966	0.014416	0.016248	0.023389
6.455000	0.134294	0.064483	0.060330	0.030107	0.015061	0.055164	0.055974	0.181561	0.036246	0.040421	0.043309	0.054007	0.049494	0.053774	0.072418	0.056018	0.160286	0.036341	0.041754	0.051079	0.060169	0.059932	0.053496	0.091923	0.011054	0.012379	0.003114	0.009756	0.010004	0.008875	0.009047	0.010352	0.013758	0.039845	0.039807	0.006786	0.003667	0.006439	0.006248	0.017330	0.007924	0.016360	0.021516	0.016702	0.027147	0.007711	0.012815	0.013841	0.017294	0.040044	0.046878	0.006379	0.007715	0.007048	0.007285	0.009645	0.004460	0.018161	0.014560	0.016272	0.023163
6.460000	0.133694	0.064785	0.060978	0.030212	0.016251	0.055418	0.060775	0.181845	0.035325	0.040656	0.044467	0.055054	0.049993	0.052623	0.072226	0.052110	0.158462	0.036087	0.042485	0.051260	0.059921	0.060282	0.054277	0.092518	0.011434	0.012213	0.002980	0.009469	0.009929	0.008709	0.008723	0.010335	0.014165	0.039992	0.040003	0.006897	0.003659	0.006557	0.006410	0.017232	0.007962	0.016262	0.021393	0.016519	0.027244	0.007745	0.012800	0.013784	0.017345	0.040407	0.047447	0.006692	0.007903	0.007440	0.007518	0.009615	0.004547	0.017977	0.014354	0.016296	0.023328
6.465000	0.134866	0.064185	0.060679	0.029936	0.015428	0.055123	0.056976	0.181682	0.035796	0.040229	0.043565	0.054501	0.050794	0.053262	0.072008	0.054803	0.159604	0.036259	0.041976	0.051153	0.060205	0.060436	0.053539	0.092409	0.011548	0.012451	0.002927	0.009479	0.009935	0.008487	0.008602	0.010201	0.014211	0.040163	0.040132	0.006848	0.003562	0.006561	0.006366	0.017507	0.007804	0.016324	0.021260	0.016617	0.027188	0.007721	0.012780	0.013655	0.017232	0.040442	0.047519	0.006604	0.008026	0.007490	0.007573	0.009735	0.004438	0.018100	0.014361	0.016370	0.023317
