Inverse Dynamics Generalized Forces
version=1
nRows=128
nColumns=40
inDegrees=no
endheader
time	pelvis_tilt_moment	pelvis_list_moment	pelvis_rotation_moment	pelvis_tx_force	pelvis_ty_force	pelvis_tz_force	hip_flexion_r_moment	hip_adduction_r_moment	hip_rotation_r_moment	hip_flexion_l_moment	hip_adduction_l_moment	hip_rotation_l_moment	lumbar_extension_moment	lumbar_bending_moment	lumbar_rotation_moment	knee_angle_r_moment	knee_angle_r_beta_force	knee_angle_l_moment	knee_angle_l_beta_force	arm_flex_r_moment	arm_add_r_moment	arm_rot_r_moment	arm_flex_l_moment	arm_add_l_moment	arm_rot_l_moment	ankle_angle_r_moment	ankle_angle_l_moment	elbow_flex_r_moment	elbow_flex_l_moment	subtalar_angle_r_moment	subtalar_angle_l_moment	pro_sup_r_moment	pro_sup_l_moment	mtp_angle_r_moment	mtp_angle_l_moment	wrist_flex_r_moment	wrist_dev_r_moment	wrist_flex_l_moment	wrist_dev_l_moment
      5.83000000	   -118.69125069	      3.73234363	     -0.57144404	      4.64918172	    901.18088799	     -2.20088623	    -16.36212857	     -4.27527342	      0.35065849	    -15.61112697	    -12.49156435	      0.60455511	    -10.80497729	      2.26568000	      0.13518933	      4.50611167	     -0.04943012	      4.51487089	     -0.04780898	     -1.79197885	     -4.44104032	     -0.28280732	     -1.19943153	     -4.83665930	     -0.47980680	      0.53501772	      0.54895543	      2.24878228	      2.53314135	     -0.16027434	     -0.21474293	     -0.05000558	     -0.06092198	     -0.04481527	     -0.04399416	      0.06196283	     -0.22882695	      0.04962523	     -0.26424600
      5.83500000	   -103.88507065	      2.79740162	     -1.10466330	      8.59479988	    786.82872477	     -0.50065786	    -13.46156624	     -5.17735589	      0.04313659	    -13.25922519	    -11.91220777	      0.23438583	    -11.03967330	      1.99417375	     -0.71716615	      3.64138375	     -0.04360120	      4.25585268	     -0.04224947	     -1.69095210	     -3.82111110	     -0.17998904	     -0.99207959	     -4.26568464	     -0.40530200	      0.52626759	      0.43983580	      1.91464768	      2.21658478	     -0.17903487	     -0.19659480	     -0.04210462	     -0.05215328	     -0.04258470	     -0.03529497	      0.05869958	     -0.19197524	      0.04952961	     -0.22916852
      5.84000000	    -89.55660043	      2.05400992	     -1.67282390	     12.18301042	    674.04687499	      0.85775659	    -10.67273565	     -6.05276463	     -0.24917597	    -11.08936243	    -11.52099076	     -0.10700619	    -11.30383681	      1.68684229	     -1.54779050	      2.80799858	     -0.03783215	      4.02855252	     -0.03672647	     -1.58570083	     -3.21168509	     -0.08103402	     -0.78439011	     -3.69922886	     -0.33301108	      0.51639223	      0.33016633	      1.58848506	      1.90508368	     -0.19791732	     -0.18525965	     -0.03444694	     -0.04359421	     -0.04040309	     -0.02656894	      0.05533693	     -0.15610498	      0.04924435	     -0.19477959
      5.84500000	    -75.89880547	      1.50384288	     -2.24693838	     15.27900673	    564.90299691	      1.86112462	     -8.03126323	     -6.85445252	     -0.51526057	     -9.11794271	    -11.28424956	     -0.41213645	    -11.56287377	      1.34780584	     -2.32980730	      2.01434351	     -0.03222835	      3.82689495	     -0.03134376	     -1.47769475	     -2.62492888	      0.01118230	     -0.58217053	     -3.14299804	     -0.26336797	      0.50639206	      0.22347085	      1.27818313	      1.60519658	     -0.21570401	     -0.17991113	     -0.02723872	     -0.03542880	     -0.03838419	     -0.01810617	      0.05186211	     -0.12218177	      0.04877343	     -0.16184426
      5.85000000	    -63.07177938	      1.13130608	     -2.79754247	     17.79504013	    461.26054733	      2.51592754	     -5.56385598	     -7.53690387	     -0.74592160	     -7.34985701	    -11.15087974	     -0.67538143	    -11.78828201	      0.98289791	     -3.03852267	      1.26680379	     -0.02688614	      3.64292000	     -0.02619595	     -1.36837027	     -2.07194736	      0.09414670	     -0.39099816	     -2.60270339	     -0.19668941	      0.49720131	      0.12318319	      0.99060355	      1.32250879	     -0.23115302	     -0.17914307	     -0.02065533	     -0.02781357	     -0.03663058	     -0.01019472	      0.04827172	     -0.09103778	      0.04812288	     -0.13099799
      5.85500000	    -51.20126326	      0.90606785	     -3.29671651	     19.69265211	    364.70707877	      2.84601350	     -3.28893567	     -8.06014325	     -0.93416146	     -5.78050055	    -11.05838531	     -0.89277727	    -11.95917858	      0.59972957	     -3.65252874	      0.56987966	     -0.02188903	      3.46742838	     -0.02136495	     -1.25911936	     -1.56235627	      0.16586373	     -0.21596876	     -2.08407271	     -0.13320412	      0.48961971	      0.03248306	      0.73125916	      1.06134611	     -0.24312332	     -0.18116344	     -0.01483104	     -0.02086997	     -0.03522541	     -0.00310498	      0.04457893	     -0.06332947	      0.04729724	     -0.10271216
      5.86000000	    -40.37865902	      0.78725926	     -3.71991981	     20.97729633	    276.51089181	      2.88876162	     -1.21816956	     -8.39333237	     -1.07536264	     -4.39805566	    -10.94033154	     -1.06189650	    -12.06191455	      0.20748925	     -4.15441512	     -0.07350737	     -0.01730519	      3.29074314	     -0.01691838	     -1.15127173	     -1.10396789	      0.22495696	     -0.06152445	     -1.59276008	     -0.07304851	      0.48425576	     -0.04585245	      0.50413934	      0.82465771	     -0.25069074	     -0.18402448	     -0.00985300	     -0.01467955	     -0.03422584	      0.00292556	      0.04081889	     -0.03951474	      0.04630272	     -0.07728119
      5.86500000	    -30.66253947	      0.72887040	     -4.04743240	     21.68789188	    197.60149006	      2.68954528	      0.64166165	     -8.51756948	     -1.16728274	     -3.18601716	    -10.73433306	     -1.18178572	    -12.08856865	     -0.18353878	     -4.53113469	     -0.66166569	     -0.01318591	      3.10350856	     -0.01290782	     -1.04607111	     -0.70257085	      0.27072093	      0.06868152	     -1.13414210	     -0.01625535	      0.48148874	     -0.10956763	      0.31166083	      0.61406463	     -0.25324205	     -0.18586367	     -0.00575917	     -0.00928297	     -0.03365873	      0.00770525	      0.03705158	     -0.01984680	      0.04515302	     -0.05483198
      5.87000000	    -22.08160348	      0.68539928	     -4.26522486	     21.88489452	    128.56901465	      2.29671942	      2.28683216	     -8.42765827	     -1.20987859	     -2.12574560	    -10.38934029	     -1.25288722	    -12.03522134	     -0.56245403	     -4.77409576	     -1.19382125	     -0.00956508	      2.89745798	     -0.00936826	     -0.94465165	     -0.36181299	      0.30312406	      0.17196845	     -0.71309546	      0.03718398	      0.48145178	     -0.15701534	      0.15471497	      0.43003310	     -0.25053563	     -0.18512165	     -0.00254019	     -0.00468441	     -0.03351876	      0.01109825	      0.03336120	     -0.00438103	      0.04386636	     -0.03535257
      5.87500000	    -14.63838851	      0.61680437	     -4.36518936	     21.63896126	     69.67910192	      1.75824601	      3.71525685	     -8.13270399	     -1.20503713	     -1.19866409	     -9.87109341	     -1.27694333	    -11.90048061	     -0.91803999	     -4.87906938	     -1.66989062	     -0.00645961	      2.66605997	     -0.00631829	     -0.84797955	     -0.08319847	      0.32273776	      0.24684894	     -0.33384980	      0.08717651	      0.48403542	     -0.18721240	      0.03278933	      0.27209773	     -0.24272341	     -0.18070351	     -0.00014527	     -0.00085992	     -0.03376907	      0.01303073	      0.02984834	      0.00700652	      0.04245150	     -0.01872916
      5.88000000	     -8.31263819	      0.49231893	     -4.34494907	     21.02280223	     20.89948781	      1.11860522	      4.92604157	     -7.65540450	     -1.15631672	     -0.38786367	     -9.16525482	     -1.25687796	    -11.68438077	     -1.23904997	     -4.84607387	     -2.09039286	     -0.00387085	      2.40497725	     -0.00376109	     -0.75675894	      0.13382637	      0.33059964	      0.29318106	      0.00010493	      0.13339812	      0.48890923	     -0.19986286	     -0.05585231	      0.13907582	     -0.23033296	     -0.17206600	      0.00150837	      0.00223346	     -0.03434383	      0.01349336	      0.02661513	      0.01459137	      0.04089385	     -0.00478000
      5.88500000	     -3.06365012	      0.29310619	     -4.20758728	     20.10814609	    -18.06606765	      0.41543994	      5.92001781	     -7.02996643	     -1.06870147	      0.32102607	     -8.27810925	     -1.19663560	    -11.38759024	     -1.51459077	     -4.67935429	     -2.45648025	     -0.00178656	      2.11230437	     -0.00168597	     -0.67137503	      0.29173080	      0.32806841	      0.31216330	      0.28612293	      0.17526328	      0.49555428	     -0.19535094	     -0.11394739	      0.02925767	     -0.21420972	     -0.15922798	      0.00252472	      0.00465065	     -0.03515253	      0.01254008	      0.02375070	      0.01876711	      0.03915237	      0.00671862
      5.89000000	      1.16756531	      0.01361108	     -3.96133035	     18.96524927	    -47.73941254	     -0.32257987	      6.70040049	     -6.29886080	     -0.94827433	      0.93961509	     -7.23483370	     -1.10099832	    -11.01094220	     -1.73450770	     -4.38734839	     -2.76995571	     -0.00018300	      1.78857640	     -0.00007050	     -0.59192946	      0.39469755	      0.31671501	      0.30616441	      0.52253240	      0.21199725	      0.50329729	     -0.17470227	     -0.14498175	     -0.05941517	     -0.19542582	     -0.14271207	      0.00301857	      0.00645346	     -0.03608543	      0.01028349	      0.02132284	      0.02000928	      0.03716808	      0.01601219
      5.89500000	      4.45516755	     -0.33907510	     -3.61886156	     17.66137033	    -68.82644292	     -1.07531322	      7.27294076	     -5.50904410	     -0.80179364	      1.47683770	     -6.07561859	     -0.97539116	    -10.55541072	     -1.88987415	     -3.98235664	     -3.03320837	      0.00097317	      1.43658708	      0.00111721	     -0.51832328	      0.44834228	      0.29823515	      0.27843724	      0.70876611	      0.24276450	      0.51134437	     -0.13951571	     -0.15293331	     -0.12918417	     -0.17517257	     -0.12343172	      0.00310618	      0.00770643	     -0.03701989	      0.00688709	      0.01937431	      0.01884044	      0.03487787	      0.02335132
      5.90000000	      6.88464115	     -0.74806979	     -3.19607972	     16.25854895	    -82.17428204	     -1.82837235	      7.64586382	     -4.70831812	     -0.63627716	      1.93910122	     -4.85036281	     -0.82565138	    -10.02249365	     -1.97371584	     -3.47979634	     -3.24914143	      0.00172307	      1.06108694	      0.00191627	     -0.45030225	      0.45937262	      0.27434810	      0.23279458	      0.84546317	      0.26680093	      0.51881626	     -0.09187782	     -0.14204883	     -0.18233409	     -0.15465413	     -0.10254321	      0.00289741	      0.00847355	     -0.03782685	      0.00255576	      0.01791826	      0.01580088	      0.03222734	      0.02897853
      5.90500000	      8.54951855	     -1.19072072	     -2.71057502	     14.81333034	    -88.72989266	     -2.56951414	      7.83010513	     -3.94218585	     -0.45868637	      2.33069310	     -3.61287480	     -0.65778495	     -9.41478298	     -1.98167148	     -2.89725800	     -3.42113208	      0.00211359	      0.66841281	      0.00237089	     -0.38744746	      0.43523530	      0.24668305	      0.17332585	      0.93451845	      0.28351126	      0.52477978	     -0.03427409	     -0.11665828	     -0.22107742	     -0.13499259	     -0.08128284	      0.00248987	      0.00881579	     -0.03837631	     -0.00247427	      0.01693236	      0.01142474	      0.02917910	      0.03311719
      5.91000000	      9.54957971	     -1.64251123	     -2.18033134	     13.37946833	    -89.50190276	     -3.28580609	      7.83998208	     -3.25133225	     -0.27573465	      2.65480048	     -2.41541151	     -0.47777848	     -8.73660048	     -1.91228917	     -2.25370287	     -3.55297329	      0.00219516	      0.26605829	      0.00252828	     -0.32917496	      0.38378196	      0.21668972	      0.10419047	      0.97906444	      0.29252134	      0.52826798	      0.03049984	     -0.08100710	     -0.24745482	     -0.11714976	     -0.06080941	      0.00196563	      0.00878982	     -0.03854137	     -0.00794524	      0.01635650	      0.00621871	      0.02571689	      0.03596168
      5.91500000	      9.98982216	     -2.08054878	     -1.62292667	     12.01159824	    -85.52618512	     -3.96183735	      7.69391565	     -2.66975876	     -0.09377214	      2.91485213	     -1.30400949	     -0.29147310	     -7.99467529	     -1.76709041	     -1.56894052	     -3.64875951	      0.00201959	     -0.13778757	      0.00243671	     -0.27481539	      0.31295671	      0.18561201	      0.02945675	      0.98337542	      0.29370807	      0.52829549	      0.09943802	     -0.03911275	     -0.26326439	     -0.10186940	     -0.04207168	      0.00139030	      0.00844732	     -0.03820149	     -0.01358835	      0.01609841	      0.00064550	      0.02184840	      0.03767140
      5.92000000	      9.97854645	     -2.48688954	     -1.05505007	     10.76686729	    -77.83538728	     -4.57802613	      7.41450545	     -2.22356418	      0.08132444	      3.11540546	     -0.31471292	     -0.10446172	     -7.19875382	     -1.55059159	     -0.86320599	     -3.71269446	      0.00163828	     -0.53465749	      0.00214397	     -0.22377551	      0.23051041	      0.15453048	     -0.04706713	      0.95269826	      0.28723024	      0.52388276	      0.16944419	      0.00533616	     -0.27003639	     -0.08964427	     -0.02571529	      0.00081417	      0.00783498	     -0.03724656	     -0.01913558	      0.01604714	     -0.00488474	      0.01760794	      0.03837116
      5.92500000	      9.62407518	     -2.85140616	     -0.49210193	      9.70388459	    -67.43281796	     -5.10875921	      7.02766712	     -1.93041115	      0.24423386	      3.26247689	      0.52905912	      0.07795782	     -6.36208056	     -1.27021189	     -0.15661048	     -3.74881251	      0.00110106	     -0.91614859	      0.00169639	     -0.17570005	      0.14375418	      0.12442735	     -0.12200557	      0.89303883	      0.27355213	      0.51409853	      0.23746024	      0.04904525	     -0.26904142	     -0.08071498	     -0.01203532	      0.00027455	      0.00699477	     -0.03558243	     -0.02433171	      0.01608840	     -0.01001735	      0.01305755	      0.03815578
      5.93000000	      9.03087050	     -3.17340424	      0.05199048	      8.87985556	    -55.27076713	     -5.52157987	      6.56105729	     -1.79960934	      0.39022260	      3.36372558	      1.21761263	      0.25075321	     -5.50171210	     -0.93596905	      0.53145119	     -3.76063468	      0.00045542	     -1.27421090	      0.00113802	     -0.13055226	      0.05934663	      0.09622647	     -0.19254467	      0.81091923	      0.25345075	      0.49811246	      0.30057740	      0.08914854	     -0.26131545	     -0.07509839	     -0.00097163	     -0.00020125	      0.00596509	     -0.03313701	     -0.02894384	      0.01611631	     -0.01445275	      0.00828721	      0.03709675
      5.93500000	      8.29554928	     -3.46162363	      0.56459617	      8.34517619	    -42.23242856	     -5.77878004	      6.04199486	     -1.83252981	      0.51525164	      3.42830492	      1.75452306	      0.40916131	     -4.63832790	     -0.56004208	      1.18272897	     -3.75077969	     -0.00025397	     -1.60133615	      0.00050991	     -0.08860808	     -0.01689996	      0.07081824	     -0.25649771	      0.71310103	      0.22801761	      0.47523346	      0.35611738	      0.12320632	     -0.24770869	     -0.07262827	      0.00786051	     -0.00059210	      0.00478298	     -0.02986467	     -0.03276749	      0.01604425	     -0.01794166	      0.00341726	      0.03525246
      5.94000000	      7.50308155	     -3.73289710	      1.03406798	      8.13523421	    -29.11695817	     -5.84121101	      5.49518402	     -2.02320224	      0.61617620	      3.46607260	      2.15493478	      0.54877710	     -3.79527209	     -0.15627238	      1.78043000	     -3.72059269	     -0.00098569	     -1.89060066	     -0.00015029	     -0.05040201	     -0.08017115	      0.04908475	     -0.31231358	      0.60630623	      0.19864212	      0.44493808	      0.40169461	      0.14919448	     -0.22894927	     -0.07299874	      0.01510925	     -0.00087900	      0.00348595	     -0.02574933	     -0.03563092	      0.01581684	     -0.02027953	     -0.00140034	      0.03267965
      5.94500000	      6.72341600	     -4.00994461	      1.44956484	      8.26228439	    -16.62848207	     -5.67292388	      4.94078074	     -2.35921670	      0.69087165	      3.48641397	      2.44292307	      0.66565161	     -2.99735386	      0.26041705	      2.30956517	     -3.66986482	     -0.00170179	     -2.13561865	     -0.00080864	     -0.01665664	     -0.12672860	      0.03190814	     -0.35906523	      0.49697148	      0.16696735	      0.40690653	      0.43527703	      0.16550731	     -0.20570732	     -0.07581364	      0.02159774	     -0.00104186	      0.00211364	     -0.02080792	     -0.03739928	      0.01541758	     -0.02130449	     -0.00598600	      0.02944330
      5.95000000	      6.00841254	     -4.31875846	      1.80106412	      8.71012810	     -5.36967572	     -5.24550309	      4.39310656	     -2.82291598	      0.73827355	      3.49686404	      2.64829584	      0.75641225	     -2.27010868	      0.67464002	      2.75729087	     -3.59663065	     -0.00236802	     -2.33045669	     -0.00143477	      0.01177636	     -0.15393647	      0.02016894	     -0.39647230	      0.39101664	      0.13485770	      0.36104444	      0.45524765	      0.17094179	     -0.17868125	     -0.08063178	      0.02821927	     -0.00105723	      0.00071032	     -0.01509216	     -0.03797886	      0.01487154	     -0.02089379	     -0.01013709	      0.02562956
      5.95500000	      5.38941124	     -4.68577342	      2.07960626	      9.43163910	      4.16077698	     -4.54115769	      3.85997065	     -3.39260666	      0.75842813	      3.50167712	      2.80324347	      0.81844699	     -1.63939165	      1.07118384	      3.11318538	     -3.49701633	     -0.00295413	     -2.46952656	     -0.00200175	      0.03394380	     -0.16025502	      0.01475776	     -0.42494645	      0.29362327	      0.10438454	      0.30747880	      0.46046028	      0.16465024	     -0.14871104	     -0.08699454	      0.03583032	     -0.00089616	     -0.00067186	     -0.00868811	     -0.03732102	      0.01424698	     -0.01895617	     -0.01363092	      0.02136292
      5.96000000	      4.87593886	     -5.13467050	      2.27778352	     10.34905248	     11.56840246	     -3.55425783	      3.34253306	     -4.04348920	      0.75250934	      3.50084822	      2.93905121	      0.85007121	     -1.13107073	      1.43576563	      3.36952029	     -3.36515684	     -0.00343424	     -2.54750172	     -0.00248591	      0.04878673	     -0.14518423	      0.01659203	     -0.44559071	      0.20905192	      0.07777064	      0.24656331	      0.45028866	      0.14610012	     -0.11687850	     -0.09443820	      0.04515046	     -0.00052266	     -0.00197078	     -0.00171677	     -0.03542574	      0.01365538	     -0.01542578	     -0.01623449	      0.01681961
      5.96500000	      4.45532004	     -5.68280361	      2.39025348	     11.35820928	     16.56213238	     -2.29275597	      2.83573676	     -4.74812234	      0.72274679	      3.48976649	      3.08300783	      0.85062161	     -0.77106311	      1.75585769	      3.52149443	     -3.19319446	     -0.00378714	     -2.55924324	     -0.00286666	      0.05512779	     -0.10915721	      0.02661858	     -0.46011317	      0.14048317	      0.05726301	      0.17890270	      0.42466245	      0.11505477	     -0.08456889	     -0.10249248	      0.05667725	      0.00010703	     -0.00311431	      0.00566324	     -0.03234444	      0.01324733	     -0.01026013	     -0.01772366	      0.01223276
      5.97000000	      4.09323561	     -6.33771681	      2.41403828	     12.33633957	     18.95300979	     -0.78068142	      2.32930442	     -5.47649485	      0.67229763	      3.45917764	      3.25572120	      0.82050072	     -0.58548041	      2.02127706	      3.56728241	     -2.97139446	     -0.00399685	     -2.49969730	     -0.00312662	      0.05168802	     -0.05339768	      0.04580530	     -0.47064379	      0.08986642	      0.04496039	      0.10535938	      0.38407081	      0.07155009	     -0.05348296	     -0.11066445	      0.07062534	      0.00104351	     -0.00402313	      0.01325524	     -0.02817981	      0.01320598	     -0.00343781	     -0.01790512	      0.00788897
      5.97500000	      3.73571914	     -7.09422791	      2.34866619	     13.14956706	     18.65296988	      0.93915358	      1.80904014	     -6.19591676	      0.60508538	      3.39528669	      3.46905018	      0.76115928	     -0.60009087	      2.22435137	      3.50792035	     -2.68845576	     -0.00405292	     -2.36386498	     -0.00325209	      0.03716364	      0.02025953	      0.07513223	     -0.47947185	      0.05785884	      0.04264594	      0.02703281	      0.32953371	      0.01587249	     -0.02556824	     -0.11842121	      0.08689223	      0.00234168	     -0.00461672	      0.02082853	     -0.02308180	      0.01374194	      0.00504393	     -0.01663257	      0.00411293
      5.98000000	      3.31237296	     -7.93224480	      2.19633372	     13.65727167	     15.67368755	      2.80294262	      1.25815191	     -6.87082812	      0.52562280	      3.28012403	      3.72475562	      0.67501556	     -0.83902223	      2.35979201	      3.34724066	     -2.33200581	     -0.00395075	     -2.14692464	     -0.00323361	      0.01035959	      0.10956733	      0.11556481	     -0.48880044	      0.04393382	      0.05167888	     -0.05476433	      0.26256956	     -0.05142624	     -0.00287762	     -0.12517733	      0.10504827	      0.00405647	     -0.00482022	      0.02812429	     -0.01724262	      0.01508785	      0.01516580	     -0.01381347	      0.00124300
      5.98500000	      2.74009125	     -8.81556964	      1.96212962	     13.71561961	     10.12422115	      4.72417301	      0.65871295	     -7.46267499	      0.43888167	      3.09236667	      4.01388017	      0.56538010	     -1.32371941	      2.42450235	      3.09195500	     -1.88913923	     -0.00369168	     -1.84437984	     -0.00306633	     -0.02966439	      0.21204353	      0.16798649	     -0.50061258	      0.04657562	      0.07295245	     -0.13854280	      0.18516273	     -0.12948862	      0.01256767	     -0.13025979	      0.12435364	      0.00623803	     -0.00456884	      0.03486129	     -0.01089273	      0.01748709	      0.02687771	     -0.00941027	     -0.00039106
      5.99000000	      1.92691702	     -9.69191315	      1.65434654	     13.18314086	      2.20728763	      6.59351054	     -0.00661538	     -7.93010209	      0.35021413	      2.80863965	      4.31688398	      0.43640932	     -2.07273048	      2.41749903	      2.75184834	     -1.34696755	     -0.00328329	     -1.45214590	     -0.00275027	     -0.08348351	      0.32511010	      0.23311183	     -0.51661907	      0.06344193	      0.10686923	     -0.22268915	      0.09971013	     -0.21712613	      0.01886939	     -0.13286145	      0.14380537	      0.00892739	     -0.00380982	      0.04074238	     -0.00429621	      0.02117744	      0.04009082	     -0.00344313	     -0.00048339
      5.99500000	      0.77622770	    -10.49402794	      1.28479646	     11.92719757	     -7.78379378	      8.28110263	     -0.75286339	     -8.22960692	      0.26520074	      2.40507893	      4.60457176	      0.29301664	     -3.10148130	      2.34000591	      2.33999689	     -0.69337846	     -0.00273978	     -0.96671501	     -0.00229072	     -0.15125591	      0.44619890	      0.31142822	     -0.53821172	      0.09152478	      0.15331121	     -0.30545460	      0.00895282	     -0.31280658	      0.01433642	     -0.13209105	      0.16220526	      0.01215332	     -0.00250490	      0.04546189	      0.00225553	      0.02637829	      0.05467248	      0.00400572	      0.00123363
      6.00000000	     -0.80852696	    -11.14183766	      0.86875720	      9.82971701	    -19.46541964	      9.64037037	     -1.59126731	     -8.31650686	      0.18939754	      1.85907714	      4.83975711	      0.14068129	     -4.42140245	      2.19554003	      1.87277102	      0.08198667	     -0.00208233	     -0.38556215	     -0.00169894	     -0.23274172	      0.57281300	      0.40319209	     -0.56642258	      0.12736494	      0.21164273	     -0.38489828	     -0.08409183	     -0.41464370	     -0.00240864	     -0.12708622	      0.17823707	      0.01593068	     -0.00063360	      0.04871374	      0.00845191	      0.03328750	      0.07044355	      0.01279311	      0.00497337
      6.00500000	     -2.91898560	    -11.54534108	      0.42430279	      6.79271376	    -32.36084916	     10.51232434	     -2.52811824	     -8.14565508	      0.12819940	      1.15140200	      4.97954334	     -0.01482099	     -6.03899891	      1.98970581	      1.36940058	      0.98704078	     -0.00133976	      0.29222515	     -0.00099317	     -0.32739106	      0.70252895	      0.50846665	     -0.60192380	      0.16726032	      0.28076947	     -0.45903604	     -0.17619465	     -0.52040938	     -0.03232142	     -0.11684346	      0.19054865	      0.02026048	      0.00180412	      0.05020092	      0.01397266	      0.04208487	      0.08718073	      0.02272533	      0.01088118
      6.01000000	     -5.63730572	    -11.60930020	     -0.02909495	      2.74450219	    -45.89558623	     10.73150666	     -3.56405829	     -7.67280764	      0.08677701	      0.26873780	      4.97808011	     -0.16768323	     -7.95538482	      1.72967349	      0.85108164	      2.02679906	     -0.00054960	      1.06525528	     -0.00019993	     -0.43446180	      0.83295534	      0.62716327	     -0.64506036	      0.20739097	      0.35923102	     -0.52608873	     -0.26397581	     -0.62757733	     -0.07584824	     -0.09992969	      0.19783842	      0.02513096	      0.00478738	      0.04964648	      0.01849741	      0.05293594	      0.10462316	      0.03357517	      0.01902535
      6.01500000	     -9.03144759	    -11.24313637	     -0.47307280	     -2.35337681	    -59.39297486	     10.13661217	     -4.69369831	     -6.86043150	      0.06943625	     -0.79360810	      4.78961968	     -0.31225385	    -10.16610882	      1.42364949	      0.33970507	      3.20167366	      0.00024068	      1.92919478	      0.00064447	     -0.55312806	      0.96169444	      0.75906129	     -0.69589045	      0.24387185	      0.44530916	     -0.58395679	     -0.34396457	     -0.73337554	     -0.13285537	     -0.07533491	      0.19894487	      0.03051855	      0.00827597	      0.04680519	      0.02171489	      0.06599181	      0.12247868	      0.04510313	      0.02939140
      6.02000000	    -13.15101316	    -10.37340821	     -0.89345646	     -8.49922999	    -72.07110598	      8.58374766	     -5.90558585	     -5.68603906	      0.07867255	     -2.02920379	      4.37163833	     -0.44313535	    -12.66118298	      1.08053271	     -0.14362424	      4.50518168	      0.00097251	      2.87616115	      0.00149263	     -0.68259270	      1.08633411	      0.90380753	     -0.75423877	      0.27279457	      0.53714539	     -0.62933766	     -0.41264953	     -0.83482543	     -0.20256692	     -0.04383606	      0.19293150	      0.03638730	      0.01221288	      0.04147401	      0.02333146	      0.08138480	      0.14042610	      0.05707969	      0.04187818
      6.02500000	    -18.02639685	     -8.94378160	     -1.28146431	    -15.64523995	    -83.04218797	      5.95068632	     -7.18329618	     -4.13899129	      0.11612962	     -3.41845625	      3.68771069	     -0.55525093	    -15.42556690	      0.70966953	     -0.58009093	      5.92670946	      0.00157507	      3.89413469	      0.00228481	     -0.82223740	      1.20444783	      1.06090525	     -0.81978070	      0.29029377	      0.63284976	     -0.65956270	     -0.46650462	     -0.92877134	     -0.28350991	     -0.00542698	      0.17915313	      0.04268710	      0.01652666	      0.03350004	      0.02307824	      0.09922068	      0.15811510	      0.06930303	      0.05629421
      6.03000000	    -23.67041655	     -6.90809448	     -1.63372374	    -23.69266200	    -91.31397106	      2.13595399	     -8.50732590	     -2.21130842	      0.18426198	     -4.92714044	      2.70980248	     -0.64391824	    -18.44002083	      0.32065865	     -0.95459044	      7.45691840	      0.00196436	      4.96646788	      0.00294782	     -0.97178193	      1.31357727	      1.22969003	     -0.89213643	      0.29262909	      0.73058303	     -0.67567622	     -0.50198919	     -1.01191786	     -0.37347229	      0.04512996	      0.15729207	      0.04935178	      0.02113288	      0.02278683	      0.02071681	      0.11956818	      0.17516658	      0.08160965	      0.07235425
      6.03500000	    -30.07468253	     -4.27057554	     -1.95883973	    -32.48635901	    -95.78792674	     -2.90823132	     -9.85506113	      0.06607728	      0.28125451	     -6.50565665	      1.41977683	     -0.70490629	    -21.68166793	     -0.07685147	     -1.25690465	      9.07497714	      0.00204249	      6.07158251	      0.00339439	     -1.13137772	      1.41121077	      1.40928836	     -0.97093424	      0.27623409	      0.82860479	     -0.67536999	     -0.51553558	     -1.08088607	     -0.46950411	      0.10778096	      0.12736254	      0.05629791	      0.02593530	      0.00930088	      0.01604441	      0.14244739	      0.19117520	      0.09387912	      0.08968025
      6.04000000	    -37.20266554	     -1.14657498	     -2.28724593	    -41.81235292	    -95.25904273	     -9.12447853	    -11.19897461	      2.56679081	      0.39308311	     -8.08931146	     -0.18998987	     -0.73444557	    -25.12375425	     -0.47344574	     -1.48240954	     10.72791060	      0.00169762	      7.18297447	      0.00352286	     -1.30164233	      1.49480754	      1.59860188	     -1.05585792	      0.23769460	      0.92530178	     -0.64257863	     -0.50355337	     -1.13227837	     -0.56799393	      0.16285800	      0.08968775	      0.06342532	      0.03082797	     -0.00692163	      0.00890097	      0.16782363	      0.20571465	      0.10603536	      0.10781137
      6.04500000	    -45.00652300	      2.34305082	     -2.65243617	    -51.41504653	    -88.44600937	    -16.42493738	    -12.51567073	      5.16858891	      0.51238673	     -9.59969658	     -2.11711599	     -0.72922006	    -28.73464934	     -0.86016007	     -1.63233499	     12.37346876	      0.00080464	      8.26966370	      0.00321779	     -1.48371469	      1.56188060	      1.79635705	     -1.14672765	      0.17369097	      1.01922739	     -0.56916401	     -0.46247568	     -1.16274435	     -0.66480408	      0.19905608	      0.04485055	      0.07062004	      0.03569888	     -0.02576832	     -0.00082023	      0.19561122	      0.21834534	      0.11804812	      0.12622193
      6.05000000	    -53.45029557	      6.29972203	     -3.06044187	    -61.02531111	    -74.04170728	    -24.83747966	    -13.79210765	      7.96798896	      0.65807200	    -10.94706366	     -4.35106529	     -0.68640638	    -32.47629538	     -1.22857561	     -1.71378583	     14.06504434	     -0.00077295	      9.29716533	      0.00235127	     -1.67931380	      1.61002976	      2.00114548	     -1.24359933	      0.08096066	      1.10915280	     -0.50261055	     -0.38884658	     -1.16907890	     -0.75541219	      0.29290375	     -0.00638798	      0.07775809	      0.04043491	     -0.04704378	     -0.01315895	      0.22567556	      0.22862602	      0.12993566	      0.14433996
      6.05500000	    -62.46554808	     10.51584899	     -3.54124836	    -70.33211450	    -50.68234275	    -34.18959231	    -15.02388824	     10.77072893	      0.84314353	    -12.03382438	     -6.87616944	     -0.60378632	    -36.30233826	     -1.57103954	     -1.73946943	     15.75493328	     -0.00317931	     10.22902756	      0.00078555	     -1.89070120	      1.63683657	      2.21136169	     -1.34682032	     -0.04369451	      1.19409220	     -0.42164131	     -0.27944224	     -1.14836770	     -0.83502912	      0.38427883	     -0.06320339	      0.08470766	      0.04492616	     -0.07046132	     -0.02807302	      0.25782111	      0.23612873	      0.14176410	      0.16156051
      6.06000000	    -71.80283968	     14.07047218	     -4.30437947	    -78.92330859	    -16.87962259	    -43.54254879	    -16.09400289	     12.70949254	      0.90598439	    -12.75927249	     -9.67539259	     -0.47988685	    -40.15643596	     -1.88115895	     -1.72692502	     17.12604634	     -0.00656015	     11.02892493	     -0.00162274	     -2.12054230	      1.63970727	      2.42508902	     -1.45701260	     -0.20333990	      1.27328601	     -0.22378590	     -0.13142671	     -1.09812977	     -0.89869981	      0.40384822	     -0.12484896	      0.09132989	      0.04906863	     -0.09563228	     -0.04542280	      0.29177401	      0.24045247	      0.15364064	      0.17725355
      6.06500000	    -81.43760363	     15.49769161	     -5.31898463	    -86.44314979	     28.69409251	    -52.37503981	    -17.17529232	     12.37400924	      1.10280363	    -13.02525910	    -12.73444168	     -0.31406896	    -43.97111303	     -2.15444826	     -1.69728540	     17.72433759	     -0.01105357	     11.66318937	     -0.00501639	     -2.37173024	      1.61576186	      2.64002230	     -1.57500571	     -0.40078241	      1.34616784	      0.49046545	      0.05746008	     -1.01642324	     -0.94140654	     -0.65794394	     -0.19081294	      0.09747991	      0.05276599	     -0.12205347	     -0.06495629	      0.32717212	      0.24123397	      0.16570380	      0.19077078
      6.07000000	    -91.28446667	     20.24135018	     -6.40446440	    -92.86886028	     86.72122348	    -62.72514092	    -17.84469905	     14.96240498	      1.07529255	    -12.74249938	    -16.04569645	     -0.10649061	    -47.66701269	     -2.38900405	     -1.67361258	     19.51258495	     -0.01677839	     12.10365515	     -0.00952983	     -2.64717769	      1.56175354	      2.85341925	     -1.70177689	     -0.63843313	      1.41233753	      0.22599643	      0.28867967	     -0.90194001	     -0.95820429	      0.45016268	     -0.26097601	      0.10300841	      0.05593180	     -0.14909421	     -0.08629620	      0.36355990	      0.23815877	      0.17811279	      0.20145661
      6.07500000	   -103.18062415	     14.93092909	     -5.84796798	    -97.98101721	    158.00426114	    -74.82843937	    -21.18072985	      7.60926869	      4.97116914	    -11.83733193	    -19.61120568	      0.14213027	    -51.15267737	     -2.58611998	     -1.67884398	     18.05468083	     -0.02382094	     12.33070969	     -0.01527959	     -2.94956950	      1.47400897	      3.06205543	     -1.83842873	     -0.91819161	      1.47153678	      3.92202559	      0.56262224	     -0.75410126	     -0.94440258	     -9.35276699	     -0.33574342	      0.10776266	      0.05849182	     -0.17598639	     -0.10892953	      0.40038345	      0.23097319	      0.19103417	      0.20866543
      6.08000000	   -110.48111606	     22.79002358	     -9.59136175	   -100.39501246	    244.91252203	    -79.20603266	    -18.58679650	     12.65336117	      1.17973181	    -10.25936739	    -23.44576333	      0.43111607	    -54.32548599	     -2.75075327	     -1.73372256	     20.83037034	     -0.03222270	     12.33627674	     -0.02237255	     -3.28111239	      1.34842723	      3.26220221	     -1.98616386	     -1.24133744	      1.52362086	      0.86809015	      0.87828403	     -0.57313230	     -0.89576071	      0.37840901	     -0.41618015	      0.11158686	      0.06038567	     -0.20182066	     -0.13220016	      0.43698760	      0.21949478	      0.20462669	      0.21178134
      6.08500000	   -139.34093619	   -152.67219614	      3.38740912	    -99.61050801	    348.11391928	    -73.03783083	    -52.63131290	   -157.40979493	     51.87770832	     -7.98799443	    -27.57420779	      0.76059512	    -57.07379758	     -2.89178237	     -1.85506468	    -39.35186724	     -0.04204378	     12.12666324	     -0.03088461	     -3.64331192	      1.18056203	      3.44965235	     -2.14621492	     -1.60841636	      1.56852769	     60.52454898	      1.23285750	     -0.36010184	     -0.80865473	   -153.47933732	     -0.50392977	      0.11432232	      0.06156751	     -0.22554959	     -0.15530924	      0.47261900	      0.20361975	      0.21902724	      0.21023553
      6.09000000	   -127.55867016	     20.25745879	    -13.74105074	    -99.69514297	    460.72881644	    -89.83371606	    -17.57549140	      4.02418634	      1.37088468	     -5.03909091	    -32.02792321	      1.13261344	    -59.27996927	     -3.02193305	     -2.05438008	     20.77704928	     -0.05324773	     11.72460727	     -0.04083644	     -4.03679198	      0.96579651	      3.61981857	     -2.31974514	     -2.01913551	      1.60624786	      1.69470544	      1.62130189	     -0.11692237	     -0.68021295	      0.14013228	     -0.60106978	      0.11580905	      0.06200572	     -0.24601963	     -0.17732479	      0.50643983	      0.18332831	      0.23433868	      0.20352126
      6.09500000	   -449.37316998	  -2145.00559017	    229.16490208	   -101.73732750	    580.09710494	   -138.43462378	   -508.02277750	  -2042.72269373	    792.06891281	     -1.47131844	    -36.83974277	      1.55246662	    -60.82438443	     -3.15723081	     -2.33691405	   -736.69582661	     -0.06570511	     11.17028180	     -0.05219696	     -4.46116709	      0.69960959	      3.76791488	     -2.50776239	     -2.47228810	      1.63680099	    763.78522093	      2.03593924	      0.15368997	     -0.50844497	  -2043.66534429	     -0.70985672	      0.11588952	      0.06168159	     -0.26202543	     -0.19720596	      0.53755445	      0.15868815	      0.25061808	      0.19121068
      6.10000000	   -140.51127160	     12.50150420	    -18.24665669	    -90.15580051	    729.18293432	    -92.47652381	    -13.85392143	    -11.52840848	      1.94112050	      2.60932147	    -42.03438669	      2.02979302	    -61.59047624	     -3.31586074	     -2.70130723	     19.26411839	     -0.07922141	     10.52120333	     -0.06486759	     -4.91496066	      0.37792558	      3.88919756	     -2.71108357	     -2.96572593	      1.66022778	      2.64501891	      2.46615289	      0.44828869	     -0.29238966	     -0.28419128	     -0.83226182	      0.11441446	      0.06058777	     -0.27240751	     -0.21385010	      0.56504597	      0.12985577	      0.26786523	      0.17297797
      6.10500000	   5054.96236737	 -72533.79487260	   5571.96856677	    -29.00888498	    924.96402776	    165.83013001	   -613.29350254	 -69162.68120496	  22128.24878888	      7.04625698	    -47.61643939	      2.57912171	    -61.47016375	     -3.51617914	     -3.13994076	 -39623.22216129	     -0.09350202	      9.85096870	     -0.07866355	     -5.39557110	     -0.00243431	      3.97925352	     -2.93036178	     -3.49639421	      1.67660775	  37783.30225326	      2.89836583	      0.76280154	     -0.03228551	 -63984.00083172	     -0.96940075	      0.11125020	      0.05872714	     -0.27620092	     -0.22617079	      0.58802039	      0.09707504	      0.28601356	      0.14862998
      6.11000000	 172221.42604678	-494120.07453586	  23952.35532166	    182.73104984	   1136.16157347	    585.07734404	 133192.25789124	-481100.37486477	 106446.66803038	     11.63140921	    -53.55633672	      3.21939114	    -60.36918459	     -3.77364657	     -3.63992387	-395336.42704408	     -0.10785645	      9.24672688	     -0.09328211	     -5.89929875	     -0.44317688	      4.03433166	     -3.16615924	     -4.06041808	      1.68610715	 377432.18662183	      3.31652437	      1.09267870	      0.27026022	-418309.50267158	     -1.12094005	      0.10628722	      0.05611307	     -0.27282703	     -0.23321540	      0.60565842	      0.06067020	      0.30492639	      0.11814137
      6.11500000	 591489.28021243	-1122548.18374701	  39009.09981367	    564.24267651	   1321.49512283	   1044.46430012	 503821.26245521	-1101668.48075325	 188883.14323008	     16.14305753	    -59.68940953	      3.96020084	    -58.21204724	     -4.09687319	     -4.18451929	-1078215.19857428	     -0.12060581	      8.80825193	     -0.10759000	     -6.42142606	     -0.94388206	      4.05167921	     -3.41904522	     -4.65320178	      1.68904751	1031078.46922891	      3.70264380	      1.43308582	      0.61214223	-921670.17193138	     -1.28161562	      0.09944874	      0.05277044	     -0.26229451	     -0.23435677	      0.61726992	      0.02103176	      0.32439846	      0.08168721
      6.12000000	 728578.48599729	-1328528.60994086	  47148.79439447	    741.58573928	   1449.63234785	   1315.70629004	 626799.88974536	-1291143.62939939	 243575.13070245	     20.31071003	    -65.83376364	      4.81046922	    -54.94610045	     -4.48339035	     -4.75461935	-1299123.30779715	     -0.13287936	      8.63377401	     -0.12091784	     -6.95634121	     -1.50136816	      4.02983767	     -3.68969293	     -5.26949531	      1.68597231	1239627.51457155	      4.03920146	      1.77911681	      0.98871050	-1075562.56028642	     -1.44546525	      0.09069907	      0.04873582	     -0.24497339	     -0.22936153	      0.62234506	     -0.02140081	      0.34416031	      0.03966552
      6.12500000	 443336.99345235	-1121177.36320549	  42685.53131724	    417.41124095	   1514.26473098	   1223.42560057	 359845.08281355	-1062728.54956179	 289067.61641489	     23.81651036	    -71.83697281	      5.78527739	    -50.54397317	     -4.91589703	     -5.32993894	-940238.57771697	     -0.14459543	      8.80682297	     -0.13346526	     -7.49770868	     -2.10917889	      3.96887975	     -3.97892746	     -5.90339591	      1.67769400	 887075.45303456	      4.31076511	      2.12598968	      1.39384627	-913213.66356536	     -1.60750946	      0.08005279	      0.04405587	     -0.22178667	     -0.21841728	      0.62059973	     -0.06615241	      0.36388491	     -0.00729680
      6.13000000	  51082.37409205	-775441.42839344	  35345.69942306	     -6.23889481	   1600.01225086	    912.67004599	  -4555.99371493	-704950.14101452	 308750.47582351	     26.39670171	    -77.43139443	      6.87967428	    -45.00427209	     -5.35976071	     -5.88978523	-420474.42085882	     -0.15636689	      9.38485438	     -0.14497453	     -8.03867678	     -2.75729145	      3.87056209	     -4.28768711	     -6.54827025	      1.66532014	 379657.77403524	      4.50408629	      2.46919679	      1.82017065	-643428.67720054	     -1.75883297	      0.06758516	      0.03878459	     -0.19405565	     -0.20216752	      0.61201168	     -0.11271737	      0.38319854	     -0.05835687
      6.13500000	-102918.33359949	-617282.45361215	  19755.47275028	    -99.77453523	   1781.12884070	    687.72305270	-145556.66430526	-546002.14842273	 304166.58142129	     27.90321059	    -82.23778557	      8.05381120	    -38.35147201	     -5.76260869	     -6.41348654	-205704.67743830	     -0.16785275	     10.37609206	     -0.15597953	     -8.57209237	     -3.43216230	      3.73834339	     -4.61689098	     -7.19660939	      1.65026280	 169917.87420361	      4.60884370	      2.80458528	      2.25935490	-518638.37372542	     -1.88671204	      0.05344233	      0.03298055	     -0.16336265	     -0.18161288	      0.59683997	     -0.16055583	      0.40169676	     -0.11248486
      6.14000000	 -61159.48539028	-957561.65845238	  44998.84438687	    -23.66277904	   1999.36786831	   1169.49363998	-125741.64026671	-830806.17129108	 478704.07051590	     28.31338621	    -85.84684506	      9.23399492	    -30.63581381	     -6.05672094	     -6.88074349	-405113.76992738	     -0.17521487	     11.72645136	     -0.16575575	     -9.09068992	     -4.11720498	      3.57722762	     -4.96720426	     -7.83985352	      1.63422417	 346464.42155552	      4.61882785	      3.12834349	      2.70248990	-768998.57775897	     -1.97767720	      0.03784969	      0.02670492	     -0.13125451	     -0.15797383	      0.57562068	     -0.20908067	      0.41896398	     -0.16850474
      6.14500000	 -18086.77624393	-1955672.37406499	 213091.44811483	    -49.88177041	   2179.25715377	   2688.66676731	-146438.90867827	-1606907.05298982	1096563.40054969	     27.61519545	    -88.09568361	     10.37536289	    -21.93284271	     -6.16445880	     -7.27206469	-920856.05647433	     -0.17741346	     13.33331756	     -0.17123894	     -9.58720632	     -4.79368829	      3.39342444	     -5.33870222	     -8.46823937	      1.61914516	 786810.59124401	      4.53405198	      3.43689021	      3.14046279	-1451111.63500837	     -2.02728729	      0.02111729	      0.02002176	     -0.09927928	     -0.13248307	      0.54913591	     -0.25763627	      0.43459388	     -0.22514035
      6.15000000	-208797.50242810	-3092239.74230049	 453511.70312745	   -306.77056034	   2307.38584891	   4099.95530325	-404100.00943322	-2397739.27807391	1976783.04337804	     25.96996059	    -88.76060417	     11.39591895	    -12.34163172	     -6.00617808	     -7.56910201	-1294131.76787469	     -0.17176959	     15.04274820	     -0.17155701	    -10.05438407	     -5.44192663	      3.19386550	     -5.73047512	     -9.07072116	      1.60710710	1058881.41003965	      4.35821152	      3.72669746	      3.56427612	-2167709.54442757	     -2.02918319	      0.00364130	      0.01300190	     -0.06899043	     -0.10638853	      0.51835942	     -0.30547483	      0.44820651	     -0.28105984
      6.15500000	-680353.20777814	-3518790.13343245	 464030.28857475	   -771.61371083	   2385.17969701	   4272.22063365	-892946.40488587	-2640207.61682882	2465493.06189592	     23.72878459	    -87.45560495	     12.13572054	     -1.98132310	     -5.50935685	     -7.75464013	-1072620.25021076	     -0.16395893	     16.68379541	     -0.16442233	    -10.48493320	     -6.04257901	      2.98569074	     -6.14025277	     -9.63500979	      1.60019048	 793703.02812113	      4.09848772	      3.99410018	      3.96528531	-2448414.76090986	     -1.97178320	     -0.01410025	      0.00572906	     -0.04125332	     -0.08096951	      0.48439360	     -0.35173959	      0.45946089	     -0.33491825
      6.16000000	-917326.89364656	-3252740.34738334	 316195.33692224	   -960.55005585	   2408.48431883	   3601.89884103	-1105564.82719151	-2402345.20806366	2391539.16586564	     21.13175428	    -84.37199298	     12.57005557	      9.01347691	     -4.61743677	     -7.81255449	-725669.29876251	     -0.15485324	     18.05377032	     -0.15491545	    -10.87161303	     -6.57787236	      2.77584231	     -6.56414495	    -10.14779613	      1.60031454	 471052.79149406	      3.76789288	      4.23515704	      4.33539179	-2282658.26654349	     -1.86319043	     -0.03155870	     -0.00169446	     -0.01677104	     -0.05701823	      0.44841440	     -0.39546456	      0.46806623	     -0.38540453
      6.16500000	-523089.40393233	-2592299.09330146	 150326.13703209	   -489.75342336	   2376.51808516	   2768.83131509	-667689.08834359	-1913933.21577675	1828738.41244249	     18.49009571	    -79.67866498	     12.66792810	     20.49784982	     -3.29702992	     -7.72857612	-753409.79468153	     -0.14484411	     18.97817177	     -0.14446582	    -11.20753544	     -7.03261123	      2.57082707	     -6.99656264	    -10.59523622	      1.60907924	 567184.49240337	      3.38250556	      4.44561458	      4.66723948	-1820540.76373377	     -1.71062956	     -0.04813340	     -0.00914452	      0.00397783	     -0.03519841	      0.41162996	     -0.43559600	      0.47379397	     -0.43129477
      6.17000000	  69763.14229157	-1885802.33825685	  27521.45920119	    162.03888840	   2305.77403563	   2059.28762906	 -32251.94292335	-1410220.96638408	1155617.70736923	     16.16033666	    -73.47415117	     12.36976313	     32.32197496	     -1.54265512	     -7.49234353	-939992.09646390	     -0.13212857	     19.32174677	     -0.13379683	    -11.48667260	     -7.39489585	      2.37663344	     -7.43031119	    -10.96371545	      1.62760666	 826107.28246262	      2.95992301	      4.62101148	      4.95443626	-1317969.02397856	     -1.51852437	     -0.06319703	     -0.01647553	      0.02088617	     -0.01603275	      0.37524977	     -0.47103470	      0.47648720	     -0.47150731
      6.17500000	 365657.54431949	-1445427.72156976	 -40770.99044165	    458.28768639	   2217.65992836	   1613.21189205	 289786.69736977	-1092570.49092793	 762862.30607262	     14.38678538	    -66.08711831	     11.69612535	     44.33564959	      0.62114276	     -7.10034594	-991775.98135772	     -0.11695395	     19.01889568	     -0.12146440	    -11.70451089	     -7.65649868	      2.19878629	     -7.85683181	    -11.24081271	      1.65638975	 921387.76036190	      2.52033826	      4.75695641	      5.19180308	-1010766.57287983	     -1.29880742	     -0.07612689	     -0.02352605	      0.03403610	      0.00019121	      0.34046460	     -0.50069864	      0.47606576	     -0.50515575
      6.18000000	 426457.42303603	-1230205.96966893	 -78194.20683329	    494.28051446	   2134.36020590	   1380.21883541	 364006.31197270	-928145.35969272	 607527.71609015	     13.27067495	    -58.03352393	     10.75594055	     56.39049067	      3.14034425	     -6.55887719	-942316.63918014	     -0.10012125	     18.09029267	     -0.10741795	    -11.85876970	     -7.81286535	      2.04252034	     -8.26662192	    -11.41632205	      1.69520542	 892967.63465232	      2.08500541	      4.84958007	      5.37563961	-865890.98641246	     -1.06926335	     -0.08634099	     -0.03012906	      0.04357191	      0.01337333	      0.30843894	     -0.52360479	      0.47253209	     -0.53159792
      6.18500000	 423500.32635401	-1122515.78208831	 -96480.98069835	    480.27215337	   2071.27581469	   1271.67426940	 368597.82542290	-832828.52615586	 552456.94480614	     12.86425375	    -49.69855200	      9.62811197	     68.34070663	      5.93493388	     -5.88619862	-887915.12508706	     -0.08334431	     16.61700704	     -0.09249611	    -11.94999806	     -7.86274074	      1.91298728	     -8.64985487	    -11.48317576	      1.74316157	 848963.46958460	      1.67262645	      4.89610132	      5.50395948	-790620.17786889	     -0.84228891	     -0.09333575	     -0.03612224	      0.04968274	      0.02347755	      0.28030916	     -0.53896420	      0.46598596	     -0.55047328
      6.19000000	 401249.74412233	-1078135.49217343	-107582.88984830	    454.80969195	   2016.11040076	   1236.43875912	 350599.60171902	-778519.84541756	 548821.20755157	     13.18944715	    -41.29466882	      8.32921599	     80.04488402	      8.90513373	     -5.11341138	-846637.05664384	     -0.06843317	     14.73646241	     -0.07765383	    -11.98183767	     -7.80748182	      1.81537253	     -8.99712583	    -11.43814279	      1.79888764	 812757.98349193	      1.29780731	      4.89540265	      5.57662036	-756717.14283778	     -0.62311400	     -0.09672158	     -0.04135375	      0.05273140	      0.03048464	      0.25717364	     -0.54627821	      0.45664782	     -0.56171823
      6.19500000	 370675.38330308	-1076407.13126498	-119499.70848390	    416.54262297	   1955.58337389	   1240.86783480	 322175.76364673	-753337.76764234	 576684.40156632	     14.06306707	    -33.34968528	      7.02853746	     91.36971123	     11.93951291	     -4.28371067	-818074.45239816	     -0.05565911	     12.60934985	     -0.06495526	    -11.96090229	     -7.65021802	      1.75485355	     -9.30019231	    -11.28223435	      1.86079413	 786782.89089530	      0.97447389	      4.84848592	      5.59531152	-753548.33164708	     -0.42782601	     -0.09625264	     -0.04568406	      0.05299779	      0.03461558	      0.24006523	     -0.54541717	      0.44487877	     -0.56555626
      6.20000000	 337218.93701986	-1115187.51575266	-132594.09441865	    377.62158130	   1900.47314646	   1287.44199822	 289114.55896120	-752739.50102782	 634775.00340277	     15.33017941	    -26.13599387	      5.80376327	    102.19477668	     14.92372841	     -3.44973552	-806022.05727918	     -0.04528126	     10.41176118	     -0.05451066	    -11.89636693	     -7.39511448	      1.73640061	     -9.55260702	    -11.02080649	      1.92730704	 775169.49832898	      0.71075202	      4.75867774	      5.56341747	-778122.43766352	     -0.26278100	     -0.09184728	     -0.04898797	      0.05076257	      0.03605883	      0.22990455	     -0.53666061	      0.43118368	     -0.56246882
      6.20500000	 300449.34173215	-1195468.65064859	-145420.24690064	    344.97699858	   1862.34611605	   1383.58156421	 251211.00085306	-772429.81831962	 726906.77677919	     16.82630535	    -19.84784778	      4.71023694	    112.41735089	     17.74874634	     -2.66893733	-810737.36696218	     -0.03745431	      8.30711326	     -0.04623187	    -11.79937118	     -7.04699614	      1.76444018	     -9.75021045	    -10.66337617	      1.99704246	 777802.33370822	      0.51035453	      4.63149901	      5.48579337	-828649.87750999	     -0.13125319	     -0.08359643	     -0.05115854	      0.04630823	      0.03505313	      0.22743738	     -0.52068502	      0.41619415	     -0.55315407
      6.21000000	 241994.74356741	-1311869.80075096	-157742.53328970	    291.42535243	   1833.04908236	   1520.77667013	 190532.51482099	-805398.42472590	 858417.05461344	     18.43380374	    -14.54959982	      3.75072520	    121.95643486	     20.31795628	     -1.99718470	-813609.77167515	     -0.03133485	      6.42734853	     -0.04035000	    -11.68227284	     -6.61147533	      1.84237735	     -9.89149854	    -10.22317595	      2.06894053	 775992.04602871	      0.37255097	      4.47421447	      5.36847679	-901832.98253454	     -0.03163662	     -0.07176106	     -0.05211175	      0.03999911	      0.03185655	      0.23315864	     -0.49850249	      0.40063716	     -0.53847681
      6.21500000	 148271.59063281	-1452001.47002559	-169633.43916938	    193.55809448	   1801.30813536	   1680.89330378	  94103.12789521	-842585.47771964	1026509.66210326	     19.97944883	    -10.37809822	      2.98344916	    130.75543783	     22.55306653	     -1.48111053	-797011.61999591	     -0.02682581	      4.87139324	     -0.03589003	    -11.55776020	     -6.09555923	      1.97197204	     -9.97786137	     -9.71647890	      2.14236771	 752563.43514217	      0.29421191	      4.29515275	      5.21834391	-990608.23250301	      0.03430929	     -0.05676249	     -0.05179026	      0.03217159	      0.02683315	      0.24722459	     -0.47136628	      0.38529410	     -0.51941166
      6.22000000	  41983.43635560	-1580788.34123250	-181686.08999266	     77.22203037	   1764.03079356	   1824.66593654	 -14144.03341519	-867588.82403346	1193511.59667345	     21.36625533	     -7.34582072	      2.41762522	    138.78277330	     24.39867183	     -1.14996551	-764737.29856607	     -0.02375480	      3.69494584	     -0.03253565	    -11.43794167	     -5.50858460	      2.15265439	    -10.01364783	     -9.16175058	      2.21716601	 713607.71818753	      0.26918162	      4.10287598	      5.04271086	-1072900.31531604	      0.06896907	     -0.03916728	     -0.05016558	      0.02318464	      0.02034535	      0.26936377	     -0.44065448	      0.37095090	     -0.49698106
      6.22500000	 -46769.11351587	-1665438.10232063	-195606.15786852	    -21.44006448	   1721.63527208	   1917.39511899	-103210.50251938	-870188.06631948	1318055.74774113	     22.54539739	     -5.40433650	      2.04325322	    146.03027094	     25.82508676	     -1.00843782	-727854.14728993	     -0.02190436	      2.91459591	     -0.03008824	    -11.33361448	     -4.86324473	      2.38095512	    -10.00603889	     -8.57876506	      2.29363576	 672736.60483421	      0.28952446	      3.90527702	      4.84889656	-1129188.78361086	      0.07629697	     -0.01966409	     -0.04723843	      0.01341399	      0.01276693	      0.29880905	     -0.40773937	      0.35834302	     -0.47219125
      6.23000000	 -94627.92947833	-1708609.00925407	-212355.93967169	    -74.79862621	   1680.96755800	   1963.47806956	-150088.08939256	-856727.47505931	1390105.94060061	     23.50380285	     -4.46970286	      1.84299160	    152.51047902	     26.82787414	     -1.03433867	-707917.86603131	     -0.02087625	      2.51492261	     -0.02835996	    -11.25380869	     -4.17638617	      2.65021968	     -9.96473702	     -7.98782592	      2.37246333	 651870.87790384	      0.34646590	      3.70874568	      4.64380387	-1160817.74126195	      0.06075116	      0.00097294	     -0.04304045	      0.00323019	      0.00447516	      0.33427757	     -0.37385984	      0.34810195	     -0.44597372
      6.23500000	 -88415.50726774	-1719989.65286271	-231484.80297050	    -67.66265956	   1648.03779250	   1974.49550529	-142081.05825378	-834024.07666151	1410731.99987497	     24.25818795	     -4.42747173	      1.79282770	    158.25385924	     27.42223774	     -1.18524254	-720864.50589104	     -0.02069919	      2.45676282	     -0.02714763	    -11.20555283	     -3.46917090	      2.95071720	     -9.90140033	     -7.40898449	      2.45459478	 666505.28280930	      0.43104972	      3.51760125	      4.43362575	-1172402.34900781	      0.02709834	      0.02193692	     -0.03764290	     -0.00698605	     -0.00416715	      0.37401939	     -0.34002486	      0.34070785	     -0.41914719
      6.24000000	 -49018.65238648	-1700639.56247895	-250269.28014445	    -26.37025038	   1619.12910789	   1951.13068989	-100197.18675455	-802193.64766753	1389870.48155012	     24.84546225	     -5.14153699	      1.86469185	    163.30517040	     27.63424632	     -1.41073132	-748646.25271203	     -0.02116749	      2.68574232	     -0.02627051	    -11.19377745	     -2.76628616	      3.27018512	     -9.82872740	     -6.86098588	      2.54103420	 697835.59193668	      0.53467077	      3.33395991	      4.22375431	-1164217.43992648	     -0.01987897	      0.04244615	     -0.03117054	     -0.01689606	     -0.01282585	      0.41593602	     -0.30697189	      0.33645078	     -0.39241342
      6.24500000	  -4463.17586249	-1655644.28713921	-265797.37601967	     15.23056319	   1589.93757272	   1898.64967763	 -52667.29056081	-762049.61089076	1344360.90044360	     25.30284578	     -6.49277766	      2.04744640	    167.71802190	     27.49400596	     -1.66125278	-768904.15890160	     -0.02206190	      3.14070296	     -0.02581410	    -11.22132290	     -2.09423831	      3.59477111	     -9.75929083	     -6.35999617	      2.63257760	 722405.64891532	      0.64976873	      3.15804722	      4.01883589	-1139255.66181665	     -0.07691581	      0.06179068	     -0.02380869	     -0.02620807	     -0.02119284	      0.45775098	     -0.27518064	      0.33540597	     -0.36637781
      6.25000000	  22907.25852924	-1614152.84950149	-277946.75419185	     34.66710556	   1563.41528287	   1851.71949284	 -22662.17723280	-723266.95265657	1308778.92671708	     25.67740261	     -8.33399003	      2.31756486	    171.54863993	     27.03292698	     -1.89060293	-775689.02994215	     -0.02319985	      3.75859714	     -0.02566235	    -11.28904242	     -1.47910618	      3.91026460	     -9.70441164	     -5.91851784	      2.72956387	 732274.02645831	      0.76952969	      2.98878869	      3.82283909	-1115561.74747750	     -0.14023303	      0.07936474	     -0.01579633	     -0.03468559	     -0.02901730	      0.49721052	     -0.24492016	      0.33743057	     -0.34157130
      6.25500000	  20062.68774109	-1600596.71593659	-288538.54058887	     20.20935516	   1542.64937493	   1839.32917670	 -23826.47109593	-693395.34571800	1309848.79166515	     26.01264699	    -10.51785452	      2.65304072	    174.85069623	     26.28352907	     -2.05612079	-769136.97309334	     -0.02443557	      4.47926713	     -0.02572636	    -11.39596625	     -0.94419159	      4.20342957	     -9.67331297	     -5.54478916	      2.83172555	 726228.49495209	      0.88822360	      2.82448057	      3.63906719	-1108903.84937708	     -0.20654487	      0.09469074	     -0.00740933	     -0.04215330	     -0.03610003	      0.53228817	     -0.21630792	      0.34218361	     -0.31845865
      6.26000000	   5268.26019134	-1597358.68562346	-298740.62236427	     -8.31491776	   1523.96274039	   1838.40252112	 -37422.69584069	-667462.37304775	1324427.76345587	     26.34509934	    -12.90070576	      3.03317560	    177.67169204	     25.28030579	     -2.11966074	-757009.25916341	     -0.02565838	      5.24827650	     -0.02593861	    -11.53947680	     -0.50792516	      4.46320580	     -9.67259618	     -5.24267676	      2.93815124	 713562.40658200	      1.00122493	      2.66341147	      3.47013496	-1108721.79927371	     -0.27304538	      0.10743553	      0.00105938	     -0.04849830	     -0.04229520	      0.56136108	     -0.18937074	      0.34916344	     -0.29743472
      6.26500000	    -62.29437727	-1580376.18603377	-308468.82721842	    -27.65984246	   1503.71077484	   1819.10068099	 -41461.09885011	-639570.55051499	1322130.77369254	     26.70251475	    -15.34631152	      3.43828018	    180.05089596	     24.06088963	     -2.04937850	-746684.34468153	     -0.02678973	      6.01863237	     -0.02624806	    -11.71547671	     -0.18229894	      4.68160594	     -9.70598629	     -5.01194084	      3.04734052	 703521.41516290	      1.10497833	      2.50435602	      3.31795334	-1100034.79549861	     -0.33737538	      0.11741737	      0.00931969	     -0.05366721	     -0.04750922	      0.58333517	     -0.16409964	      0.35775760	     -0.27881640
      6.27000000	   6922.66190627	-1542402.93308770	-316331.15237732	    -32.41888469	   1485.12197408	   1776.65680504	 -32928.49221074	-607737.75844062	1295423.06173968	     27.10327546	    -17.72972694	      3.84948994	    182.01940638	     22.66669580	     -1.82167146	-737199.60480480	     -0.02777920	      6.75171017	     -0.02661605	    -11.91857140	      0.02800344	      4.85422519	     -9.77431479	     -4.84873068	      3.15734536	 695493.75283971	      1.19692386	      2.34689554	      3.18374305	-1077734.18254766	     -0.39758387	      0.12460434	      0.01710381	     -0.05766040	     -0.05169710	      0.59771036	     -0.14049122	      0.36730206	     -0.26283468
      6.27500000	  22704.97526277	-1484904.15638819	-321072.39385535	    -24.25687151	   1471.84593946	   1715.99011414	 -15373.21271299	-572105.23201885	1247128.64277931	     27.55637224	    -19.94098764	      4.24880181	    183.60253352	     21.14242733	     -1.42282327	-726135.63870394	     -0.02860225	      7.41757729	     -0.02701285	    -12.14229533	      0.12572020	      4.98033356	     -9.87570845	     -4.74618524	      3.26598026	 686786.00814993	      1.27539313	      2.19155165	      3.06808198	-1042105.21774587	     -0.45209208	      0.12910517	      0.02418442	     -0.06052465	     -0.05485734	      0.60458315	     -0.11857176	      0.37714442	     -0.24962907
      6.28000000	  36765.27274029	-1426561.86139880	-324141.90842418	    -15.16436478	   1462.27638747	   1655.79909066	    261.24104677	-537890.41595883	1198064.09079679	     28.06171033	    -21.88861575	      4.61942966	    184.82353326	     19.53432998	     -0.85014921	-713174.86657366	     -0.02925803	      7.99485797	     -0.02741479	    -12.37937061	      0.12041143	      5.06255286	    -10.00592515	     -4.69507300	      3.37106207	 675998.78708277	      1.33949340	      2.03973821	      2.97097301	-1005239.84266771	     -0.49967006	      0.13115225	      0.03039001	     -0.06234453	     -0.05702609	      0.60458756	     -0.09840365	      0.38670365	     -0.23924480
      6.28500000	  39615.17105297	-1384854.30796595	-327888.89791957	    -16.70618273	   1453.73124916	   1613.13444082	   4106.61399373	-509594.82238723	1167746.66207562	     28.61088503	    -23.50279578	      4.94643892	    185.70724328	     17.88763116	     -0.11236191	-698425.92157501	     -0.02974002	      8.47024177	     -0.02780223	    -12.62196177	      0.02725845	      5.10616696	    -10.15879323	     -4.68446732	      3.47062988	 662311.31329820	      1.38899300	      1.89354474	      2.89188887	-978944.09304492	     -0.53942794	      0.13107723	      0.03561590	     -0.06323177	     -0.05827092	      0.59878093	     -0.08007536	      0.39551641	     -0.23162893
      6.29000000	  32990.19442873	-1356278.13621974	-332113.40317575	    -28.21717661	   1444.33683212	   1584.79445770	  -1981.70823546	-485567.78908341	1152551.10648679	     29.18945366	    -24.73581189	      5.21627544	    186.28257134	     16.24388593	      0.77122768	-681831.00194602	     -0.03005921	      8.83764022	     -0.02816985	    -12.86193798	     -0.13458591	      5.11819136	    -10.32672216	     -4.70247334	      3.56308873	 645840.01767170	      1.42419735	      1.75537840	      2.82977101	-960900.79339978	     -0.57073417	      0.12928149	      0.03982891	     -0.06331949	     -0.05868559	      0.58849203	     -0.06367598	      0.40325934	     -0.22662458
      6.29500000	  21519.07472236	-1332864.33898478	-335772.86905532	    -45.55859905	   1432.95189239	   1562.94554916	 -13152.65842883	-463212.89914270	1143553.53151028	     29.77574007	    -25.56790575	      5.42109739	    186.58339710	     14.63883204	      1.77253345	-663677.46508138	     -0.03023209	      9.09742805	     -0.02849271	    -13.09115492	     -0.34389440	      5.10635970	    -10.50122665	     -4.73699111	      3.64724884	 627289.21269607	      1.44589085	      1.62754503	      2.78302219	-945652.52331043	     -0.59345657	      0.12620413	      0.04306443	     -0.06275246	     -0.05838084	      0.57515547	     -0.04926201	      0.40974595	     -0.22396972
      6.30000000	  10164.07108613	-1309362.85504070	-338488.32017986	    -62.72670631	   1420.36456279	   1541.63427594	 -24294.29576237	-441408.36063101	1133898.27783522	     30.34629700	    -25.99997450	      5.55514110	    186.64804690	     13.10109873	      2.85688737	-645789.17442843	     -0.03027812	      9.25516688	     -0.02875458	    -13.30170626	     -0.57926151	      5.07815915	    -10.67343046	     -4.77644148	      3.72230199	 608884.61891059	      1.45519094	      1.51188508	      2.74953297	-929770.87652077	     -0.60767830	      0.12228966	      0.04541764	     -0.06167910	     -0.05748137	      0.56015486	     -0.03683088	      0.41490909	     -0.22330343
      6.30500000	   2526.45994021	-1282985.87199373	-340205.64698650	    -74.94376617	   1407.76683336	   1517.35967429	 -31713.34123158	-419882.70013562	1119454.66242158	     30.87708980	    -26.05310192	      5.61652705	    186.51771450	     11.65193371	      3.98516847	-629943.77427356	     -0.03021800	      9.32051104	     -0.02894197	    -13.48613043	     -0.82077183	      5.04003442	    -10.83458585	     -4.81039253	      3.78779885	 592690.46618962	      1.45347943	      1.40953123	      2.72673224	-911528.08493574	     -0.61378065	      0.11795801	      0.04703167	     -0.06024438	     -0.05611805	      0.54469381	     -0.02630927	      0.41877955	     -0.22417673
      6.31000000	  -3608.15225888	-1257985.04217368	-341805.62943784	    -84.13721122	   1395.86960740	   1494.60548343	 -37698.34437794	-399806.66576055	1104966.57782940	     31.34592924	    -25.76456815	      5.60732899	    186.23427740	     10.30585903	      5.11581900	-616264.85905473	     -0.03007262	      9.30600962	     -0.02904454	    -13.63764955	     -1.05128279	      4.99687888	    -10.97664903	     -4.83012135	      3.84365424	 578654.42733072	      1.44233024	      1.32078415	      2.71164477	-894018.10131713	     -0.61241338	      0.11358085	      0.04808424	     -0.05858425	     -0.05442235	      0.52971009	     -0.01755258	      0.42146492	     -0.22606516
      6.31500000	 -11118.06229994	-1238955.89388355	-344200.86993433	    -93.33140001	   1385.02526649	   1478.35826673	 -45213.54741357	-382132.76832900	1095855.25405162	     31.73489981	    -25.18263192	      5.53325205	    185.83848348	      9.07189562	      6.20676744	-604515.36933846	     -0.02986244	      9.22590099	     -0.02905624	    -13.75044917	     -1.25722563	      4.95186907	    -11.09285094	     -4.82913885	      3.89017060	 566295.27744786	      1.42345014	      1.24509331	      2.70095822	-880520.28695748	     -0.60444566	      0.10946750	      0.04877443	     -0.05682156	     -0.05252178	      0.51584166	     -0.01035052	      0.42313151	     -0.22838306
      6.32000000	 -19705.47470296	-1225001.12168104	-347023.22099728	   -103.23779830	   1374.55714658	   1467.60295465	 -53906.63133987	-366187.72424818	1091259.44591618	     32.03243092	    -24.36118815	      5.40306092	    185.36899876	      7.95499255	      7.21715274	-594545.01802509	     -0.02960698	      9.09495545	     -0.02897645	    -13.81988709	     -1.42887862	      4.90657238	    -11.17808725	     -4.80357557	      3.92801015	 555445.28137362	      1.39862280	      1.18116347	      2.69111377	-870214.80019252	     -0.59091282	      0.10585963	      0.04930947	     -0.05506302	     -0.05053563	      0.50343764	     -0.00444240	      0.42398394	     -0.23050285
      6.32500000	 -28149.27270397	-1213857.18880612	-349637.21572146	   -113.50810610	   1363.87719531	   1459.92039141	 -62467.37535848	-351105.32507860	1088644.86649525	     32.23442624	    -23.35496095	      5.22774251	    184.86142126	      6.95732694	      8.10860693	-586301.48343306	     -0.02932431	      8.92747835	     -0.02881029	    -13.84262650	     -1.56013817	      4.86123082	    -11.22902711	     -4.75230456	      3.95806125	 546123.02100642	      1.36964860	      1.12719441	      2.67844387	-861330.60323421	     -0.57295666	      0.10292993	      0.04988896	     -0.05339782	     -0.04857131	      0.49259872	      0.00045278	      0.42423513	     -0.23178498
      6.33000000	 -34712.63223916	-1203205.33256492	-351820.38353527	   -121.96072236	   1353.76783097	   1453.18946692	 -69081.07880715	-336577.88709145	1085155.22046832	     32.34422472	    -22.21516962	      5.01945202	    184.34674116	      6.07906255	      8.84604327	-580117.50861087	     -0.02903068	      8.73659703	     -0.02856820	    -13.81684884	     -1.64792526	      4.81521675	    -11.24407124	     -4.67680161	      3.98128884	 538848.89887807	      1.33828333	      1.08118697	      2.65937017	-852405.79497083	     -0.55175411	      0.10078516	      0.05068877	     -0.05189685	     -0.04672228	      0.48324242	      0.00460158	      0.42407884	     -0.23161764
      6.33500000	 -37931.96077938	-1190926.35116744	-353449.98520426	   -126.34580333	   1345.15607927	   1444.99647489	 -72217.09784722	-322525.11795283	1078227.33552935	     32.37173389	    -20.98605934	      4.79050966	    183.84990851	      5.31839073	      9.39824898	-576149.50256493	     -0.02874037	      8.53385069	     -0.02826538	    -13.74257107	     -1.69142463	      4.76762381	    -11.22328880	     -4.58081382	      3.99866543	 533981.66339245	      1.30617918	      1.04122963	      2.63063787	-842214.46461560	     -0.52844838	      0.09947553	      0.05184913	     -0.05061157	     -0.04506641	      0.47518814	      0.00823020	      0.42367857	     -0.22945841
      6.34000000	 -37989.68751009	-1175716.49171542	-354476.53104098	   -126.04486187	   1338.25169140	   1431.34765119	 -72015.44968202	-309016.37022492	1066800.40853216	     32.33205940	    -19.70309909	      4.55265250	    183.38890869	      4.67110880	      9.73851685	-573508.00496939	     -0.02846594	      8.32899734	     -0.02792089	    -13.62187564	     -1.69130578	      4.71781639	    -11.16825871	     -4.46988203	      4.01111918	 530766.53292468	      1.27482668	      1.00574240	      2.58954955	-830191.44808911	     -0.50409876	      0.09900635	      0.05346651	     -0.04957341	     -0.04366386	      0.46823900	      0.01150610	      0.42316319	     -0.22487356
      6.34500000	 -35652.09658059	-1157405.29295622	-355016.16424197	   -121.22134623	   1333.05457259	   1409.86545408	 -69234.58188156	-296283.57924684	1051111.12516894	     32.24371893	    -18.39295028	      4.31654606	    182.97409347	      4.13001714	      9.84533299	-571363.23187907	     -0.02821828	      8.12994054	     -0.02755638	    -13.45891008	     -1.64904609	      4.66577639	    -11.08175856	     -4.35075070	      4.01943517	 528429.58326018	      1.24549745	      0.97368364	      2.53418210	-816507.83249423	     -0.47964909	      0.09934587	      0.05558704	     -0.04879441	     -0.04255494	      0.46223793	      0.01452035	      0.42261912	     -0.21757472
      6.35000000	 -32353.25966941	-1139651.41495715	-355774.48525517	   -113.55361056	   1329.56919772	   1386.12407615	 -65399.22991476	-284903.92738325	1035123.67802907	     32.12657482	    -17.07476008	      4.09150296	    182.60744986	      3.68422590	      9.70311146	-570293.44092607	     -0.02800653	      7.94274717	     -0.02719447	    -13.25964455	     -1.56646307	      4.61221277	    -10.96737956	     -4.23069300	      4.02415423	 527324.05370880	      1.21919703	      0.94468303	      2.46355161	-803575.90290277	     -0.45591115	      0.10042910	      0.05820318	     -0.04826921	     -0.04175891	      0.45709285	      0.01727479	      0.42208288	     -0.20744652
      6.35500000	 -29548.92941633	-1126163.63952245	-357391.71989073	   -105.07239681	   1327.47958821	   1366.33094206	 -62056.01876297	-275212.00519323	1022865.63135680	     31.99979909	    -15.76228712	      3.88529591	    182.28185141	      3.31862845	      9.30285446	-570944.02833527	     -0.02783775	      7.77177932	     -0.02685680	    -13.03139556	     -1.44548086	      4.55846720	    -10.82910913	     -4.11677252	      4.02549905	 527824.54903556	      1.19664636	      0.91902972	      2.37765244	-793714.88542975	     -0.43356077	      0.10216112	      0.06125557	     -0.04797885	     -0.04127512	      0.45277456	      0.01968518	      0.42153551	     -0.19455337
      6.36000000	 -28127.22218020	-1117076.60986363	-359433.22781352	    -97.66512145	   1325.35404758	   1351.23492631	 -60081.80646194	-266611.50931220	1014893.21108504	     31.88017253	    -14.46615727	      3.70393535	    181.98063339	      3.01403059	      8.64258743	-572606.11221115	     -0.02771643	      7.61990855	     -0.02656230	    -12.78221760	     -1.28810647	      4.50629419	    -10.67090870	     -4.01513390	      4.02332869	 529087.20300973	      1.17829443	      0.89749240	      2.27738502	-786673.47352928	     -0.41313758	      0.10442286	      0.06463991	     -0.04789606	     -0.04108676	      0.44929656	      0.02160569	      0.42090007	     -0.17912735
      6.36500000	 -28395.51961047	-1111516.35504838	-361334.10822348	    -92.52871108	   1321.82481197	   1340.06690125	 -59751.58438510	-258474.47225949	1010581.31262610	     31.78082651	    -13.19567190	      3.55144484	    181.67733071	      2.74819097	      7.72769308	-574534.92599466	     -0.02764415	      7.48873545	     -0.02632577	    -12.52033902	     -1.09659756	      4.45760505	    -10.49638565	     -3.93045099	      4.01715244	 530319.94095283	      1.16434205	      0.88103835	      2.16447568	-781594.43588543	     -0.39504177	      0.10707859	      0.06821673	     -0.04798975	     -0.04116516	      0.44668801	      0.02286732	      0.42004956	     -0.16155040
      6.37000000	 -28916.67773801	-1108169.61470895	-363112.54636289	    -88.16167327	   1317.08717245	   1331.44364629	 -59611.34835419	-250836.41354535	1008109.77151303	     31.71045495	    -11.96014346	      3.42977257	    181.33508031	      2.49762986	      6.57143951	-577263.91217159	     -0.02761963	      7.37878516	     -0.02615688	    -12.25368224	     -0.87377181	      4.41419531	    -10.30862347	     -3.86557399	      4.00621604	 532199.31041254	      1.15476464	      0.87054509	      2.04140257	-777701.82574306	     -0.37953228	      0.10998186	      0.07182268	     -0.04822757	     -0.04147342	      0.44496331	      0.02331753	      0.41882526	     -0.14233321
      6.37500000	 -28338.24064189	-1106145.05196256	-364932.92422951	    -82.86823097	   1311.78355662	   1324.44222697	 -58309.39675548	-243880.68975159	1006074.97914210	     31.67304008	    -10.76990044	      3.33891612	    180.90591843	      2.23996956	      5.19588144	-581461.99488905	     -0.02763908	      7.28967434	     -0.02605994	    -11.98941818	     -0.62337069	      4.37745013	    -10.11015642	     -3.82136428	      3.98963207	 535525.84918418	      1.14933817	      0.86656450	      1.91128877	-774528.26832512	     -0.36673410	      0.11297832	      0.07528256	     -0.04857701	     -0.04196900	      0.44408914	      0.02285120	      0.41705883	     -0.12208762
      6.38000000	 -27381.61978583	-1106644.43054162	-367009.50600297	    -76.80198127	   1306.94661193	   1320.59781155	 -56605.96154303	-237630.28146327	1005917.19964405	     31.66804827	     -9.63697784	      3.27723782	    180.33113811	      1.95651311	      3.63291713	-587130.14955215	     -0.02769658	      7.22025262	     -0.02603397	    -11.73357068	     -0.35038543	      4.34809503	     -9.90303329	     -3.79671049	      3.96652598	 540197.28100762	      1.14767327	      0.86915251	      1.77776940	-772829.22839894	     -0.35665511	      0.11590889	      0.07842218	     -0.04900618	     -0.04260609	      0.44396041	      0.02143253	      0.41459617	     -0.10149579
      6.38500000	 -27015.61008364	-1110409.12121153	-369392.21933483	    -70.51957670	   1303.24534269	   1320.89240056	 -55494.14813549	-231968.11602686	1008790.03516495	     31.69101516	     -8.57544662	      3.24186698	    179.54377434	      1.63456776	      1.92495779	-593827.22064862	     -0.02778466	      7.16875285	     -0.02607330	    -11.49070784	     -0.06125111	      4.32608501	     -9.68891410	     -3.78871664	      3.93619173	 545680.64482801	      1.14926031	      0.87774645	      1.64480551	-773074.51159400	     -0.34920890	      0.11861874	      0.08108367	     -0.04948472	     -0.04333825	      0.44439876	      0.01911414	      0.41132415	     -0.08127157
      6.39000000	 -27115.36868447	-1114245.85939522	-371389.61199270	    -64.26693651	   1299.60719205	   1321.63522473	 -54794.60047193	-226526.94633647	1011841.95441138	     31.73450800	     -7.60123175	      3.22909691	    178.47245518	      1.26932987	      0.12529185	-599903.02145313	     -0.02789486	      7.13294266	     -0.02616843	    -11.26373823	      0.23616423	      4.31062894	     -9.46921022	     -3.79309741	      3.89824969	 550532.63629084	      1.15351863	      0.89111874	      1.51642575	-773346.15215482	     -0.34423851	      0.12096862	      0.08314240	     -0.04998451	     -0.04412089	      0.44517025	      0.01604879	      0.40719695	     -0.06211169
      6.39500000	 -27088.58154721	-1114768.21809919	-372296.80791534	    -57.95169191	   1294.67318055	   1318.94786923	 -53869.02187017	-221029.01830162	1011826.88710408	     31.78933247	     -6.73135353	      3.23476299	    177.04471974	      0.86550996	     -1.70151072	-603960.67030232	     -0.02801848	      7.11022922	     -0.02630729	    -11.05383377	      0.53278565	      4.30026538	     -9.24528524	     -3.80479545	      3.85275914	 553598.15689322	      1.15983436	      0.90745106	      1.39645280	-771584.92417210	     -0.34153691	      0.12283979	      0.08451994	     -0.05047943	     -0.04491232	      0.44600391	      0.01248269	      0.40225160	     -0.04464717
      6.40000000	 -25570.33817779	-1111764.32417889	-372127.24833598	    -50.41208805	   1287.66865887	   1312.87142949	 -51378.21255069	-215534.69698946	1007900.23553695	     31.84568572	     -5.98284182	      3.25458737	    175.18961407	      0.43771008	     -3.48136209	-606977.58965695	     -0.02814719	      7.09773426	     -0.02647652	    -10.86047892	      0.81873865	      4.29295442	     -9.01864250	     -3.81868125	      3.80024094	 555892.40964589	      1.16758465	      0.92447540	      1.28824566	-767465.89500605	     -0.34086308	      0.12413435	      0.08518753	     -0.05094488	     -0.04567375	      0.44660496	      0.00873458	      0.39660328	     -0.02940249
      6.40500000	 -21389.10030773	-1105496.39726589	-370974.32791633	    -40.59262084	   1278.00241863	   1304.03310073	 -46183.37430642	-210107.67050973	 999715.89736933	     31.89409986	     -5.37161866	      3.28444765	    172.84070984	      0.00775730	     -5.13798160	-610032.34182155	     -0.02827362	      7.09238508	     -0.02666256	    -10.68160903	      1.08393138	      4.28622083	     -8.79099803	     -3.83010363	      3.74162256	 558489.83733073	      1.17616371	      0.93963134	      1.19446765	-760931.59771676	     -0.34195700	      0.12478090	      0.08515809	     -0.05135810	     -0.04636993	      0.44667337	      0.00516872	      0.39042293	     -0.01676385
      6.41000000	 -14933.67630762	-1094947.30217211	-368524.44926497	    -28.95319735	   1265.11615574	   1291.50647309	 -38676.84732959	-204582.58953748	 986585.18984023	     31.92618764	     -4.91145129	      3.32057214	    169.93976835	     -0.39971491	     -6.60250918	-612183.14729689	     -0.02839180	      7.09101501	     -0.02685256	    -10.51381824	      1.31881685	      4.27737841	     -8.56420000	     -3.83516333	      3.67813489	 560500.77758833	      1.18501448	      0.95029630	      1.11692835	-751366.17911630	     -0.34455490	      0.12474270	      0.08447388	     -0.05169941	     -0.04697064	      0.44593373	      0.00215800	      0.38391006	     -0.00696203
      6.41500000	  -7117.39892144	-1079569.74715193	-364591.25695093	    -16.43809574	   1248.68784916	   1274.71579823	 -29783.86923614	-198856.73311661	 968510.34609953	     31.93511601	     -4.61302962	      3.35968650	    166.44047220	     -0.75908953	     -7.81631019	-612325.30252703	     -0.02849717	      7.09045604	     -0.02703502	    -10.35266248	      1.51521841	      4.26382044	     -8.34005948	     -3.83082720	      3.61118729	 560844.33040325	      1.19365382	      0.95409920	      1.05650632	-738565.82228527	     -0.34840251	      0.12401552	      0.08320289	     -0.05195319	     -0.04745198	      0.44416794	      0.00004080	      0.37727436	     -0.00006802
      6.42000000	    629.90698751	-1061943.73841208	-359942.69699683	     -4.48582598	   1229.11904099	   1256.10723604	 -21002.49209139	-193290.62377707	 948543.99463000	     31.91566354	     -4.48336101	      3.39921873	    162.31152938	     -1.04263760	     -8.72691061	-610725.23790682	     -0.02858695	      7.08764163	     -0.02719982	    -10.19304862	      1.66700586	      4.24329085	     -8.12023315	     -3.81510923	      3.54225729	 559638.07910748	      1.20168547	      0.94920299	      1.01311183	-724483.99734796	     -0.35327109	      0.12261544	      0.08144421	     -0.05210834	     -0.04779686	      0.44123625	     -0.00091469	      0.37072672	      0.00400628
      6.42500000	   6886.15750984	-1045094.00776212	-355471.19272945	      5.44269348	   1206.92792327	   1238.66429320	 -13818.91558600	-188258.48809865	 930125.32730036	     31.86415218	     -4.52507495	      3.43729372	    157.53857755	     -1.22142916	     -9.28813876	-607944.21860374	     -0.02865999	      7.07972235	     -0.02733923	    -10.02964557	      1.77053438	      4.21404817	     -7.90619768	     -3.78728439	      3.47280097	 557260.64321559	      1.20879851	      0.93447403	      0.98571667	-711348.12166713	     -0.35895882	      0.12057059	      0.07932410	     -0.05215801	     -0.04799491	      0.43708282	     -0.00053538	      0.36446676	      0.00549728
      6.43000000	  10776.02656045	-1030739.30919046	-351543.98403425	     12.22360748	   1182.16447832	   1224.53291415	  -9132.69798491	-183787.73810324	 915223.27579768	     31.77829631	     -4.73592115	      3.47275544	    152.12518731	     -1.26957126	     -9.46742836	-604260.84899147	     -0.02871643	      7.06419846	     -0.02744756	     -9.85728845	      1.82490076	      4.17494083	     -7.69919593	     -3.74787908	      3.40414767	 553849.83141723	      1.21476174	      0.90955859	      0.97252163	-700301.21931396	     -0.36529466	      0.11792170	      0.07697720	     -0.05209897	     -0.04804169	      0.43173303	      0.00123912	      0.35866202	      0.00475673
      6.43500000	  11857.45310426	-1019898.69399273	-348332.28741005	     15.21702638	   1154.83459952	   1215.14872272	  -7391.61013847	-179812.12754671	 904954.68531130	     31.65703578	     -5.10848579	      3.50510390	    146.09372295	     -1.16743662	     -9.25123548	-599922.77866476	     -0.02875746	      7.03907723	     -0.02752109	     -9.67137610	      1.83202231	      4.12545411	     -7.50009876	     -3.69841131	      3.33737354	 549554.37562088	      1.21941709	      0.87489722	      0.97124159	-691953.23889148	     -0.37213701	      0.11472236	      0.07452814	     -0.05193155	     -0.04793812	      0.42528731	      0.00435034	      0.35343037	      0.00220176
      6.44000000	  10873.12234263	-1012109.36663168	-345757.55813555	     15.30066562	   1125.02554234	   1210.00610167	  -7836.78270828	-176257.42611350	 898523.49833054	     31.50032489	     -5.63032791	      3.53438905	    139.48594122	     -0.90248176	     -8.64519709	-595334.43678037	     -0.02878486	      7.00305076	     -0.02755794	     -9.46822584	      1.79647458	      4.06571560	     -7.30928564	     -3.64106928	      3.27320695	 544809.75018674	      1.22267344	      0.83168331	      0.97942040	-685883.94806051	     -0.37936892	      0.11103492	      0.07208144	     -0.05165969	     -0.04769006	      0.41790913	      0.00862691	      0.34883423	     -0.00173663
      6.44500000	   8707.06348996	-1006573.02538020	-343659.75094962	     13.52768224	   1092.81294146	   1208.09063872	  -9562.32240713	-173035.35892940	 894759.20474714	     31.30897496	     -6.28444479	      3.56106709	    132.36255846	     -0.47012837	     -7.67374763	-590822.66516714	     -0.02880069	      6.95566134	     -0.02755786	     -9.24533452	      1.72507746	      3.99641333	     -7.12662826	     -3.57840773	      3.21200301	 539999.35170072	      1.22449771	      0.78178378	      0.99471745	-681442.13985042	     -0.38688954	      0.10692594	      0.06971361	     -0.05129077	     -0.04730761	      0.40980505	      0.01379579	      0.34488274	     -0.00665808
      6.45000000	   5619.34782322	-1002601.11064196	-341820.50764861	     10.07475629	   1057.95088424	   1208.34225165	 -12284.32213962	-169993.83457365	 892898.93856863	     31.08459733	     -7.04985719	      3.58580846	    124.80135454	      0.12498708	     -6.38034884	-586246.19757334	     -0.02880708	      6.89741112	     -0.02752206	     -9.00152260	      1.62628910	      3.91862489	     -6.95154585	     -3.51307937	      3.15375931	 535012.85233482	      1.22490229	      0.72763320	      1.01512272	-678097.38416873	     -0.39460188	      0.10246151	      0.06746537	     -0.05083501	     -0.04680402	      0.40119680	      0.01949535	      0.34153496	     -0.01222529
      6.45500000	   1782.47555175	-999242.32287454	-339947.28468379	      5.00550439	   1020.33068103	   1209.44752740	 -15801.74890619	-166960.60408074	 891990.96402640	     30.82954927	     -7.90222960	      3.60927399	    116.89391037	      0.86948910	     -4.82483175	-581240.09274883	     -0.02880607	      6.82980124	     -0.02745294	     -8.73696240	      1.50945303	      3.83359287	     -6.78306020	     -3.44766381	      3.09812677	 529534.42050151	      1.22393292	      0.67206696	      1.03905770	-675176.33362418	     -0.40239938	      0.09769984	      0.06533941	     -0.05030506	     -0.04619486	      0.39228567	      0.02529753	      0.33870151	     -0.01817846
      6.46000000	  -2364.65811937	-994391.54909219	-337520.54029013	     -1.24432933	    980.56463729	   1209.16456535	 -19633.56773977	-163744.47433895	 889936.79188644	     30.54677211	     -8.81454193	      3.63190184	    108.74126824	      1.74327271	     -3.07825163	-575011.45216088	     -0.02879955	      6.75531834	     -0.02735377	     -8.45308138	      1.38393524	      3.74248138	     -6.61984805	     -3.38463924	      3.04442716	 522917.77033264	      1.22166016	      0.61806032	      1.06534843	-671322.83334242	     -0.41015432	      0.09268430	      0.06330493	     -0.04971634	     -0.04549751	      0.38321483	      0.03074425	      0.33624776	     -0.02432947
      6.46500000	  -6290.60189208	-986712.81533961	-334282.13305369	     -8.07256636	    939.43147750	   1206.02972483	 -23220.21506244	-160294.73082169	 885274.69224352	     30.23952652	     -9.75784950	      3.65375799	    100.44852174	      2.72008283	     -1.22066699	-567291.39139536	     -0.02878914	      6.67738262	     -0.02722826	     -8.15235144	      1.25827165	      3.64617396	     -6.46032625	     -3.32640712	      2.99172380	 515004.03629089	      1.21817354	      0.56840390	      1.09310217	-665685.47063270	     -0.41771089	      0.08744562	      0.06130281	     -0.04908728	     -0.04473113	      0.37404440	      0.03539280	      0.33400083	     -0.03054129
