Coordinates
version=1
nRows=128
nColumns=40
inDegrees=yes

Units are S.I. units (second, meters, Newtons, ...)
If the header above contains a line with 'inDegrees', this indicates whether rotational values are in degrees (yes) or radians (no).

endheader
time	pelvis_tilt	pelvis_list	pelvis_rotation	pelvis_tx	pelvis_ty	pelvis_tz	hip_flexion_r	hip_adduction_r	hip_rotation_r	knee_angle_r	knee_angle_r_beta	ankle_angle_r	subtalar_angle_r	mtp_angle_r	hip_flexion_l	hip_adduction_l	hip_rotation_l	knee_angle_l	knee_angle_l_beta	ankle_angle_l	subtalar_angle_l	mtp_angle_l	lumbar_extension	lumbar_bending	lumbar_rotation	arm_flex_r	arm_add_r	arm_rot_r	elbow_flex_r	pro_sup_r	wrist_flex_r	wrist_dev_r	arm_flex_l	arm_add_l	arm_rot_l	elbow_flex_l	pro_sup_l	wrist_flex_l	wrist_dev_l
      5.83000000	     -4.28948987	      0.31170985	      3.34738237	     -0.12761076	      1.45263707	     -0.86330555	     -8.72245939	     -6.47396248	    -22.20436001	      8.56914130	      0.14955973	    -38.33016813	      0.00000000	      0.00000000	     -7.22282128	    -11.85972451	    -15.64953064	     10.77314898	      0.18802692	    -37.62960050	      0.00000000	      0.00000000	      3.63313760	     -1.69102659	      2.39442711	    -31.75239546	    -52.47567350	     34.46806079	     96.79644026	     87.85280186	      0.00000000	      0.00000000	    -27.47662502	    -55.54294431	     36.18213907	    100.29663002	     87.68379831	      0.00000000	      0.00000000
      5.83500000	     -4.37744089	      0.25087473	      3.40412852	     -0.12807481	      1.45231476	     -0.86299307	     -8.47584946	     -6.43727684	    -21.59438481	      8.27566573	      0.14443761	    -38.32167340	      0.00000000	      0.00000000	     -7.04430425	    -11.91063081	    -14.90773413	     10.28205019	      0.17945563	    -37.45670415	      0.00000000	      0.00000000	      3.62515506	     -1.65194664	      2.43348756	    -31.91910015	    -52.42710841	     34.25885232	     96.86617326	     87.83572308	      0.00000000	      0.00000000	    -27.50944634	    -55.49400178	     36.09560277	    100.33326297	     87.71259342	      0.00000000	      0.00000000
      5.84000000	     -4.47285034	      0.17852812	      3.44725176	     -0.12849647	      1.45173335	     -0.86271872	     -8.18119129	     -6.43508112	    -21.44896202	      8.06668719	      0.14079025	    -38.23562215	      0.00000000	      0.00000000	     -6.77987143	    -12.01108569	    -14.63623654	      9.95143756	      0.17368535	    -37.35753495	      0.00000000	      0.00000000	      3.64274481	     -1.59515150	      2.52829052	    -32.01210285	    -52.39582543	     34.20715004	     96.89797389	     87.83322869	      0.00000000	      0.00000000	    -27.52961913	    -55.40799876	     36.00013624	    100.37880248	     87.71491871	      0.00000000	      0.00000000
      5.84500000	     -4.64749505	      0.16792926	      3.52646592	     -0.12886465	      1.45074309	     -0.86254149	     -7.82956525	     -6.50711936	    -21.16223239	      7.84954499	      0.13700040	    -38.23606756	      0.00000000	      0.00000000	     -6.53112904	    -12.01837464	    -14.12286708	      9.43262696	      0.16463040	    -37.16918317	      0.00000000	      0.00000000	      3.73137655	     -1.61466015	      2.51680510	    -32.12597881	    -52.34747001	     34.03739916	     96.89141519	     87.82606304	      0.00000000	      0.00000000	    -27.70963780	    -55.39173539	     35.94563927	    100.34568173	     87.74648840	      0.00000000	      0.00000000
      5.85000000	     -4.69532226	      0.14424677	      3.63968736	     -0.12944051	      1.44972163	     -0.86243727	     -7.58801520	     -6.57962161	    -21.14528232	      7.69220565	      0.13425432	    -38.10571707	      0.00000000	      0.00000000	     -6.31772580	    -12.07022963	    -13.78240344	      9.07212057	      0.15833837	    -36.99634098	      0.00000000	      0.00000000	      3.61973953	     -1.60928937	      2.51151955	    -32.18109283	    -52.30372278	     33.99366834	     96.88738522	     87.82845186	      0.00000000	      0.00000000	    -27.67604307	    -55.34258588	     35.83465603	    100.41572469	     87.75246466	      0.00000000	      0.00000000
      5.85500000	     -4.79776468	      0.06018606	      3.65036931	     -0.12946736	      1.44821518	     -0.86209599	     -7.29863345	     -6.60780000	    -21.18806991	      7.54059938	      0.13160829	    -38.07721606	      0.00000000	      0.00000000	     -6.19322176	    -12.16073809	    -13.19462272	      8.56491489	      0.14948596	    -36.86280029	      0.00000000	      0.00000000	      3.64294744	     -1.53340595	      2.56496196	    -32.38070698	    -52.27179200	     33.84411824	     96.86698099	     87.83393933	      0.00000000	      0.00000000	    -27.91520188	    -55.35809387	     35.70440109	    100.37581533	     87.76444867	      0.00000000	      0.00000000
      5.86000000	     -4.78434569	      0.04225887	      3.74782688	     -0.13019273	      1.44676180	     -0.86189779	     -7.10381155	     -6.70182136	    -21.27530282	      7.43177074	      0.12970887	    -37.99049551	      0.00000000	      0.00000000	     -5.96575255	    -12.26305203	    -13.20992631	      8.39137250	      0.14645708	    -36.76063562	      0.00000000	      0.00000000	      3.43578872	     -1.52894660	      2.54076640	    -32.33218318	    -52.26324374	     33.83124089	     96.85091633	     87.83440593	      0.00000000	      0.00000000	    -27.85881561	    -55.40085304	     35.67484607	    100.38299924	     87.76216038	      0.00000000	      0.00000000
      5.86500000	     -4.93855900	     -0.00154465	      3.83870785	     -0.13035459	      1.44472628	     -0.86177969	     -6.73817169	     -6.81969176	    -21.82956326	      7.39186856	      0.12901244	    -37.87211368	      0.00000000	      0.00000000	     -5.72160377	    -12.33968777	    -12.94599980	      7.99181124	      0.13948342	    -36.58347919	      0.00000000	      0.00000000	      3.49738349	     -1.50642958	      2.50418446	    -32.39963555	    -52.21180814	     33.86029002	     96.74113578	     87.83605315	      0.00000000	      0.00000000	    -28.00805430	    -55.41036717	     35.72145538	    100.32873506	     87.72574081	      0.00000000	      0.00000000
      5.87000000	     -4.88698525	     -0.01748283	      3.84475157	     -0.13077808	      1.44270963	     -0.86142633	     -6.57088566	     -6.93987930	    -21.87347939	      7.32430944	      0.12783332	    -37.83581396	      0.00000000	      0.00000000	     -5.56246237	    -12.45964622	    -12.97826699	      7.91192726	      0.13808918	    -36.54552617	      0.00000000	      0.00000000	      3.27818971	     -1.49731370	      2.54786059	    -32.40635979	    -52.21644391	     33.88100590	     96.72847124	     87.83750471	      0.00000000	      0.00000000	    -28.03391784	    -55.43720808	     35.73510738	    100.32309426	     87.72640644	      0.00000000	      0.00000000
      5.87500000	     -5.01981745	     -0.06516483	      3.87002282	     -0.13119800	      1.44019249	     -0.86104619	     -6.23363949	     -7.03964224	    -22.35493172	      7.21671065	      0.12595536	    -37.65991464	      0.00000000	      0.00000000	     -5.28595691	    -12.59755656	    -13.21754923	      7.67274294	      0.13391463	    -36.36248404	      0.00000000	      0.00000000	      3.28777189	     -1.47977637	      2.59841534	    -32.41316073	    -52.14127079	     33.96807626	     96.58024016	     87.83966052	      0.00000000	      0.00000000	    -28.05105008	    -55.52512346	     35.76626283	    100.37754732	     87.72643195	      0.00000000	      0.00000000
      5.88000000	     -4.97509165	     -0.07879492	      3.91489936	     -0.13177610	      1.43769209	     -0.86075633	     -6.06604298	     -7.17435846	    -22.41672920	      7.15818529	      0.12493390	    -37.62264250	      0.00000000	      0.00000000	     -5.10998860	    -12.71682758	    -13.24196309	      7.61012795	      0.13282179	    -36.32753256	      0.00000000	      0.00000000	      3.04352671	     -1.47060079	      2.60457733	    -32.39522199	    -52.14142908	     33.97571861	     96.56534289	     87.83956204	      0.00000000	      0.00000000	    -28.03995268	    -55.55875797	     35.76528541	    100.37102545	     87.72593351	      0.00000000	      0.00000000
      5.88500000	     -5.12075923	     -0.16878621	      4.08524570	     -0.13233215	      1.43466404	     -0.86052710	     -5.64387053	     -7.27421526	    -23.51299636	      7.25751567	      0.12666754	    -37.37032863	      0.00000000	      0.00000000	     -4.63688136	    -12.96859676	    -13.42349858	      7.67864351	      0.13401761	    -36.11266448	      0.00000000	      0.00000000	      3.05922628	     -1.44267859	      2.51051067	    -32.29367996	    -51.99745685	     34.08636691	     96.28889225	     87.83555815	      0.00000000	      0.00000000	    -27.94364286	    -55.65870841	     35.85980500	    100.39880296	     87.72652832	      0.00000000	      0.00000000
      5.89000000	     -5.06364171	     -0.17289363	      4.09911632	     -0.13275642	      1.43162627	     -0.86022240	     -5.48197300	     -7.42081479	    -23.55039744	      7.19662090	      0.12560473	    -37.33047925	      0.00000000	      0.00000000	     -4.49827027	    -13.08442696	    -13.45044186	      7.63521599	      0.13325966	    -36.08914892	      0.00000000	      0.00000000	      2.81555269	     -1.42342134	      2.51017131	    -32.29502463	    -51.99686437	     34.10091855	     96.28663908	     87.83630124	      0.00000000	      0.00000000	    -27.95401640	    -55.68323898	     35.87544006	    100.39381595	     87.72746596	      0.00000000	      0.00000000
      5.89500000	     -5.13949595	     -0.21599650	      4.26758406	     -0.13340451	      1.42817614	     -0.86003037	     -5.13524599	     -7.57361653	    -24.54549041	      7.33034611	      0.12793867	    -36.97969802	      0.00000000	      0.00000000	     -4.02031268	    -13.30886580	    -13.84754966	      7.88832670	      0.13767727	    -35.84833463	      0.00000000	      0.00000000	      2.73389007	     -1.42469159	      2.38070302	    -32.26493818	    -51.89617655	     34.11020698	     96.17586754	     87.83435265	      0.00000000	      0.00000000	    -27.89174986	    -55.76017620	     35.93237601	    100.45457976	     87.73477459	      0.00000000	      0.00000000
      5.90000000	     -5.09334969	     -0.22457440	      4.27855841	     -0.13394840	      1.42465110	     -0.85965398	     -4.94386932	     -7.71901083	    -24.55985122	      7.28680602	      0.12717876	    -36.84011508	      0.00000000	      0.00000000	     -3.85982552	    -13.44039340	    -13.86578629	      7.85826386	      0.13715258	    -35.75001014	      0.00000000	      0.00000000	      2.47924779	     -1.41804460	      2.38987080	    -32.27071880	    -51.89266413	     34.12521262	     96.16562093	     87.70573564	      0.00000000	      0.00000000	    -27.90332460	    -55.77739860	     35.94434353	    100.44628666	     87.60972674	      0.00000000	      0.00000000
      5.90500000	     -5.22216519	     -0.26487213	      4.30535406	     -0.13450635	      1.42062206	     -0.85915145	     -4.57924882	     -7.83822700	    -25.20057561	      7.22152596	      0.12603941	    -36.46015611	      0.00000000	      0.00000000	     -3.47561739	    -13.62752688	    -14.26678451	      7.89057763	      0.13771656	    -35.64786904	      0.00000000	      0.00000000	      2.46392026	     -1.42764583	      2.39201406	    -32.27798494	    -51.73620646	     34.06294258	     95.99778010	     87.73036011	      0.00000000	      0.00000000	    -27.94838739	    -55.82884869	     35.93565713	    100.49985976	     87.62274252	      0.00000000	      0.00000000
      5.91000000	     -5.16875176	     -0.26972837	      4.34243205	     -0.13504513	      1.41662805	     -0.85882382	     -4.39609428	     -7.98621539	    -25.22624580	      7.19143329	      0.12551419	    -36.33175937	      0.00000000	      0.00000000	     -3.31170978	    -13.76195048	    -14.28947564	      7.88307725	      0.13758565	    -35.56354699	      0.00000000	      0.00000000	      2.20678781	     -1.42998505	      2.40114433	    -32.27509972	    -51.72239047	     34.06624796	     95.99763133	     87.61058623	      0.00000000	      0.00000000	    -27.94542976	    -55.82823859	     35.93404012	    100.50024803	     87.50615843	      0.00000000	      0.00000000
      5.91500000	     -5.28400467	     -0.29989503	      4.50986651	     -0.13581596	      1.41212658	     -0.85857110	     -3.99260822	     -8.14816295	    -26.13064607	      7.28401213	      0.12712999	    -35.92058724	      0.00000000	      0.00000000	     -2.72420106	    -13.98967458	    -14.64728094	      8.24330589	      0.14387283	    -35.56285265	      0.00000000	      0.00000000	      2.12602330	     -1.44675105	      2.23998468	    -32.31770903	    -51.57215829	     33.85749320	     95.93219539	     87.75798467	      0.00000000	      0.00000000	    -27.97273234	    -55.82858862	     35.87152198	    100.56630459	     87.63989874	      0.00000000	      0.00000000
      5.92000000	     -5.22856673	     -0.31126938	      4.51200778	     -0.13636252	      1.40764229	     -0.85816554	     -3.78935915	     -8.29453876	    -26.14312255	      7.24924750	      0.12652324	    -35.79756274	      0.00000000	      0.00000000	     -2.56919397	    -14.12587369	    -14.66841914	      8.22253193	      0.14351025	    -35.45930070	      0.00000000	      0.00000000	      1.87115252	     -1.44127465	      2.25307021	    -32.31727380	    -51.56952382	     33.84725382	     95.92501601	     87.63068849	      0.00000000	      0.00000000	    -27.99573556	    -55.82207755	     35.88444604	    100.56398849	     87.51890112	      0.00000000	      0.00000000
      5.92500000	     -5.17774805	     -0.32579280	      4.52035725	     -0.13698305	      1.40291773	     -0.85776576	     -3.56917416	     -8.42569159	    -26.18422821	      7.20205368	      0.12569955	    -35.65674112	      0.00000000	      0.00000000	     -2.40365630	    -14.26416012	    -14.70416032	      8.20688139	      0.14323710	    -35.36069704	      0.00000000	      0.00000000	      1.60686393	     -1.44056161	      2.25909355	    -32.31808932	    -51.54807291	     33.83952573	     95.93265637	     87.51323449	      0.00000000	      0.00000000	    -28.00306569	    -55.80138637	     35.88402692	    100.57651157	     87.40565132	      0.00000000	      0.00000000
      5.93000000	     -5.39327718	     -0.38251560	      4.60331608	     -0.13765973	      1.39749794	     -0.85737337	     -3.00055133	     -8.59582490	    -27.11869626	      7.40019183	      0.12915771	    -34.92427794	      0.00000000	      0.00000000	     -1.76228845	    -14.49330890	    -15.18162444	      8.52722142	      0.14882809	    -35.01401938	      0.00000000	      0.00000000	      1.64290772	     -1.42374477	      2.22361115	    -32.75763880	    -51.34844972	     33.19681296	     96.04343397	     87.81821941	      0.00000000	      0.00000000	    -28.30403450	    -55.69807026	     35.44715501	    100.68116524	     87.70406517	      0.00000000	      0.00000000
      5.93500000	     -5.33935183	     -0.39443315	      4.60673452	     -0.13830008	      1.39225511	     -0.85695671	     -2.78702846	     -8.73487792	    -27.11697385	      7.34526402	      0.12819904	    -34.80974916	      0.00000000	      0.00000000	     -1.58633886	    -14.62520156	    -15.19246968	      8.50163065	      0.14838145	    -34.92281726	      0.00000000	      0.00000000	      1.34599173	     -1.42558748	      2.22529341	    -32.75862178	    -51.35366335	     33.19608285	     96.04300477	     87.67975776	      0.00000000	      0.00000000	    -28.34421168	    -55.69348123	     35.48940461	    100.67587840	     87.57268012	      0.00000000	      0.00000000
      5.94000000	     -5.29077028	     -0.40276520	      4.61353452	     -0.13891422	      1.38682692	     -0.85652989	     -2.56093907	     -8.86880074	    -27.14219566	      7.27124193	      0.12690711	    -34.66810828	      0.00000000	      0.00000000	     -1.40843402	    -14.74677609	    -15.21769178	      8.47746973	      0.14795976	    -34.82697658	      0.00000000	      0.00000000	      1.08546696	     -1.43095629	      2.23577603	    -32.75879785	    -51.34936100	     33.19254351	     96.05216004	     87.55537769	      0.00000000	      0.00000000	    -28.35242301	    -55.67303378	     35.49749926	    100.68194177	     87.45177729	      0.00000000	      0.00000000
      5.94500000	     -5.50433138	     -0.49123594	      4.75383625	     -0.13965644	      1.38070131	     -0.85627073	     -2.10998174	     -8.92907082	    -27.75946326	      7.16822369	      0.12510910	    -33.88193440	      0.00000000	      0.00000000	     -0.74594941	    -14.99071732	    -15.47607864	      8.75938608	      0.15288013	    -34.45726368	      0.00000000	      0.00000000	      1.12749768	     -1.37889782	      2.13792117	    -33.05567762	    -51.25736703	     32.79635819	     96.21855995	     87.77154874	      0.00000000	      0.00000000	    -28.53881804	    -55.55548776	     35.20708720	    100.74867635	     87.65463715	      0.00000000	      0.00000000
      5.95000000	     -5.44274620	     -0.50113138	      4.75734532	     -0.14040454	      1.37482452	     -0.85590326	     -1.88015374	     -9.07730916	    -27.75462431	      7.11304448	      0.12414605	    -33.78190164	      0.00000000	      0.00000000	     -0.56289009	    -15.10080208	    -15.47593759	      8.72575958	      0.15229323	    -34.35820296	      0.00000000	      0.00000000	      0.80894840	     -1.37135136	      2.15612698	    -33.05128991	    -51.27473781	     32.79414973	     96.21825749	     87.63363707	      0.00000000	      0.00000000	    -28.55190584	    -55.54564690	     35.22491907	    100.74460479	     87.52267746	      0.00000000	      0.00000000
      5.95500000	     -5.55682299	     -0.47288618	      4.73321657	     -0.14096977	      1.36839882	     -0.85561522	     -1.53878336	     -9.25369762	    -27.93250625	      6.88608768	      0.12018490	    -33.42519515	      0.00000000	      0.00000000	     -0.25746425	    -15.13663685	    -15.58133782	      8.62691026	      0.15056799	    -34.04769532	      0.00000000	      0.00000000	      0.75276394	     -1.41701195	      2.20052160	    -33.11984021	    -51.30104070	     32.71793188	     96.32888263	     87.62483891	      0.00000000	      0.00000000	    -28.61173596	    -55.45460011	     35.22109148	    100.74644826	     87.51082336	      0.00000000	      0.00000000
      5.96000000	     -5.49151288	     -0.48766668	      4.74152277	     -0.14176701	      1.36199827	     -0.85519500	     -1.30369139	     -9.39866515	    -27.92672928	      6.83391172	      0.11927426	    -33.30982358	      0.00000000	      0.00000000	     -0.07001432	    -15.25950450	    -15.58588460	      8.59172825	      0.14995395	    -33.93747531	      0.00000000	      0.00000000	      0.44969965	     -1.41344044	      2.23467697	    -33.12830783	    -51.32005193	     32.71581696	     96.33596900	     87.49984055	      0.00000000	      0.00000000	    -28.62430388	    -55.45835071	     35.22049919	    100.73303590	     87.38960587	      0.00000000	      0.00000000
      5.96500000	     -5.66809365	     -0.49478602	      4.79178654	     -0.14253476	      1.35505188	     -0.85495459	     -0.91152246	     -9.52602797	    -28.12529451	      6.56681972	      0.11461263	    -32.82514748	      0.00000000	      0.00000000	      0.36050228	    -15.32356141	    -15.63205632	      8.47317671	      0.14788483	    -33.46545639	      0.00000000	      0.00000000	      0.42595531	     -1.42741703	      2.21343720	    -33.22896378	    -51.34384508	     32.61735974	     96.48931721	     87.51994524	      0.00000000	      0.00000000	    -28.68413869	    -55.32896485	     35.20153595	    100.71124886	     87.40560402	      0.00000000	      0.00000000
      5.97000000	     -5.83427254	     -0.59711293	      4.84305194	     -0.14332163	      1.34772875	     -0.85475891	     -0.39317492	     -9.61669097	    -28.12222052	      6.65810833	      0.11620591	    -32.14562560	      0.00000000	      0.00000000	      0.91133652	    -15.52333809	    -15.35422528	      8.72534449	      0.15228599	    -32.53454480	      0.00000000	      0.00000000	      0.39554331	     -1.31851817	      2.23378097	    -33.65175433	    -51.34827958	     32.13282516	     96.65487430	     87.80660486	      0.00000000	      0.00000000	    -28.92751387	    -55.23500047	     34.92986413	    100.60591460	     87.68802971	      0.00000000	      0.00000000
      5.97500000	     -5.78066358	     -0.60947847	      4.83784750	     -0.14398560	      1.34058813	     -0.85437206	     -0.15640886	     -9.76997359	    -28.12461660	      6.58482835	      0.11492694	    -32.04312995	      0.00000000	      0.00000000	      1.10179344	    -15.63208454	    -15.36209926	      8.67710378	      0.15144403	    -32.43227556	      0.00000000	      0.00000000	      0.08584802	     -1.31474130	      2.24870615	    -33.65803481	    -51.36802203	     32.13556854	     96.65761229	     87.66876417	      0.00000000	      0.00000000	    -28.93354364	    -55.23802090	     34.93996987	    100.59880128	     87.55497777	      0.00000000	      0.00000000
      5.98000000	     -5.93988268	     -0.59322684	      4.89339085	     -0.14464734	      1.33295899	     -0.85411512	      0.19193529	     -9.90943157	    -28.32818172	      6.26449270	      0.10933602	    -31.63144287	      0.00000000	      0.00000000	      1.47192135	    -15.65430948	    -15.37272207	      8.47031965	      0.14783497	    -31.92929889	      0.00000000	      0.00000000	      0.08196796	     -1.35058292	      2.28416516	    -33.79646599	    -51.36079055	     32.08972328	     96.73767508	     87.65959169	      0.00000000	      0.00000000	    -28.96191883	    -55.18170961	     34.88853814	    100.53979926	     87.53777990	      0.00000000	      0.00000000
      5.98500000	     -6.03130690	     -0.61043493	      4.85596921	     -0.14519523	      1.32508573	     -0.85386389	      0.55341259	    -10.05785419	    -28.33654702	      6.11639923	      0.10675130	    -31.25237667	      0.00000000	      0.00000000	      1.75672197	    -15.72941435	    -15.35658709	      8.36447084	      0.14598756	    -31.25260549	      0.00000000	      0.00000000	     -0.00513272	     -1.33441811	      2.33460752	    -33.95716468	    -51.41632284	     31.95526304	     96.83936219	     87.67864278	      0.00000000	      0.00000000	    -29.05468089	    -55.08253489	     34.85865186	    100.47545927	     87.55735084	      0.00000000	      0.00000000
      5.99000000	     -5.96804639	     -0.62459274	      4.87249216	     -0.14601782	      1.31727957	     -0.85355021	      0.79437820	    -10.21311369	    -28.31383096	      6.06987707	      0.10593934	    -31.16221621	      0.00000000	      0.00000000	      1.97111556	    -15.83630163	    -15.33838318	      8.32735880	      0.14533983	    -31.14454070	      0.00000000	      0.00000000	     -0.33764694	     -1.31650617	      2.36670981	    -33.95586059	    -51.42755959	     31.94922233	     96.83501482	     87.54730399	      0.00000000	      0.00000000	    -29.05284353	    -55.08381945	     34.85074243	    100.45808573	     87.43024376	      0.00000000	      0.00000000
      5.99500000	     -6.27316667	     -0.64205342	      4.91828479	     -0.14678603	      1.30855246	     -0.85334368	      1.39380203	    -10.39904991	    -28.30016162	      6.00821064	      0.10486306	    -30.48029788	      0.00000000	      0.00000000	      2.62001055	    -15.90482976	    -14.97986591	      8.47383993	      0.14789641	    -29.82004408	      0.00000000	      0.00000000	     -0.20544151	     -1.32722207	      2.41628485	    -34.39370732	    -51.31311032	     31.44021035	     96.94846571	     87.82961806	      0.00000000	      0.00000000	    -29.19098561	    -54.99703429	     34.62940800	    100.40044153	     87.71703616	      0.00000000	      0.00000000
      6.00000000	     -6.22639936	     -0.65745087	      4.91030706	     -0.14737333	      1.30017095	     -0.85310395	      1.62439564	    -10.56048532	    -28.29547978	      5.93643577	      0.10361035	    -30.37971914	      0.00000000	      0.00000000	      2.80989741	    -16.00492791	    -14.98039617	      8.41669796	      0.14689909	    -29.72478924	      0.00000000	      0.00000000	     -0.47011958	     -1.29715270	      2.47314012	    -34.41418048	    -51.32602842	     31.44483200	     96.94883676	     87.69061332	      0.00000000	      0.00000000	    -29.20368948	    -54.96486138	     34.63300054	    100.38882311	     87.58139727	      0.00000000	      0.00000000
      6.00500000	     -6.52503455	     -0.63022262	      4.97281182	     -0.14821456	      1.29099368	     -0.85294821	      2.18603554	    -10.78195773	    -28.42077910	      5.75777440	      0.10049212	    -29.93578556	      0.00000000	      0.00000000	      3.39426828	    -15.99980656	    -14.61084157	      8.35690589	      0.14585552	    -28.86213916	      0.00000000	      0.00000000	     -0.35946381	     -1.34078086	      2.52614962	    -34.83756437	    -51.18188106	     30.99480018	     97.05812913	     87.83677088	      0.00000000	      0.00000000	    -29.26197563	    -54.85777627	     34.48808721	    100.31188456	     87.70805367	      0.00000000	      0.00000000
      6.01000000	     -6.60549813	     -0.61798949	      4.87718714	     -0.14876791	      1.28198827	     -0.85264790	      2.57405214	    -10.98603606	    -28.28282977	      5.69713728	      0.09943380	    -29.63762901	      0.00000000	      0.00000000	      3.64857047	    -16.05105507	    -14.78860844	      8.23104764	      0.14365888	    -28.44787721	      0.00000000	      0.00000000	     -0.47375382	     -1.35617822	      2.70818712	    -35.01726388	    -51.13277009	     30.85343722	     97.01854567	     87.83635838	      0.00000000	      0.00000000	    -29.39506361	    -54.76375511	     34.31108694	    100.27869267	     87.74544378	      0.00000000	      0.00000000
      6.01500000	     -6.69792497	     -0.60705731	      4.89744221	     -0.14954485	      1.27265949	     -0.85238419	      2.93073717	    -11.18310389	    -28.25758608	      5.56355118	      0.09710229	    -29.44821856	      0.00000000	      0.00000000	      4.00918833	    -16.10984016	    -14.56339699	      8.23020030	      0.14364409	    -27.88606585	      0.00000000	      0.00000000	     -0.60562214	     -1.36838680	      2.77930150	    -35.16726833	    -51.06882212	     30.73763082	     97.04374982	     87.84562699	      0.00000000	      0.00000000	    -29.41589695	    -54.70205918	     34.20512765	    100.24673126	     87.72915022	      0.00000000	      0.00000000
      6.02000000	     -6.80101880	     -0.58160456	      4.83454121	     -0.15031580	      1.26306473	     -0.85211164	      3.35580193	    -11.41553307	    -28.20280784	      5.50085582	      0.09600805	    -29.29308384	      0.00000000	      0.00000000	      4.37480461	    -16.15375259	    -14.50694685	      8.25972773	      0.14415944	    -27.32339950	      0.00000000	      0.00000000	     -0.70113431	     -1.38994264	      2.94547909	    -35.29040841	    -50.99699012	     30.63589648	     96.99087340	     87.85966035	      0.00000000	      0.00000000	    -29.33736830	    -54.65597064	     34.30489772	    100.19608369	     87.71631589	      0.00000000	      0.00000000
      6.02500000	     -6.92119552	     -0.52848429	      4.80964933	     -0.15107613	      1.25325467	     -0.85177744	      3.77288477	    -11.68040544	    -28.07629032	      5.42920824	      0.09475756	    -29.10969390	      0.00000000	      0.00000000	      4.71367178	    -16.15633700	    -14.28811756	      8.15978134	      0.14241505	    -26.90414536	      0.00000000	      0.00000000	     -0.80149640	     -1.46948493	      3.06877191	    -35.34983362	    -50.89450319	     30.63137306	     96.91281392	     87.80135999	      0.00000000	      0.00000000	    -29.30747228	    -54.66208900	     34.30775611	    100.13881656	     87.61990962	      0.00000000	      0.00000000
      6.03000000	     -6.92699958	     -0.51200549	      4.83993814	     -0.15174999	      1.24328645	     -0.85173314	      4.08700115	    -11.92618201	    -28.24275882	      5.47420582	      0.09554292	    -28.80364404	      0.00000000	      0.00000000	      5.00953841	    -16.21244801	    -14.17418462	      8.24854682	      0.14396430	    -26.44375964	      0.00000000	      0.00000000	     -1.02809342	     -1.45672171	      3.13335951	    -35.63484095	    -50.82819726	     30.38844703	     96.94827461	     87.85135745	      0.00000000	      0.00000000	    -29.45715627	    -54.53484900	     34.13237158	    100.17590270	     87.70202623	      0.00000000	      0.00000000
      6.03500000	     -6.98541456	     -0.41558429	      4.82537757	     -0.15260346	      1.23308791	     -0.85144040	      4.47892041	    -12.26117141	    -28.27710368	      5.52724669	      0.09646865	    -28.67810807	      0.00000000	      0.00000000	      5.37563589	    -16.19831655	    -14.06252112	      8.36407110	      0.14598058	    -25.70299142	      0.00000000	      0.00000000	     -1.24088171	     -1.56871970	      3.19929206	    -35.69315083	    -50.71746075	     30.30921273	     96.90405551	     87.86444550	      0.00000000	      0.00000000	    -29.52332169	    -54.46705255	     34.02229027	    100.15673323	     87.73965589	      0.00000000	      0.00000000
      6.04000000	     -7.02299618	     -0.35820671	      4.79450933	     -0.15337428	      1.22259684	     -0.85131803	      4.88758734	    -12.56999571	    -28.33059091	      5.65876143	      0.09876402	    -28.53432361	      0.00000000	      0.00000000	      5.65635120	    -16.19951218	    -14.03553537	      8.38572325	      0.14635848	    -25.11050780	      0.00000000	      0.00000000	     -1.45620230	     -1.61594677	      3.29462913	    -35.81167552	    -50.69971830	     30.12260684	     96.80410234	     87.84665351	      0.00000000	      0.00000000	    -29.65000672	    -54.36694111	     33.84047577	    100.20929301	     87.73183882	      0.00000000	      0.00000000
      6.04500000	     -7.03737171	     -0.29930366	      4.82167640	     -0.15419589	      1.21191480	     -0.85109590	      5.22893046	    -12.87834360	    -28.48572111	      5.75139330	      0.10038075	    -28.47429799	      0.00000000	      0.00000000	      5.97967543	    -16.22055588	    -13.87554494	      8.48500013	      0.14809119	    -24.55612321	      0.00000000	      0.00000000	     -1.73041610	     -1.68662038	      3.36367639	    -35.89569187	    -50.51645922	     30.12046728	     96.78675709	     87.86105018	      0.00000000	      0.00000000	    -29.76004096	    -54.28682189	     33.67818122	    100.17611469	     87.74926665	      0.00000000	      0.00000000
      6.05000000	     -7.07588589	     -0.20031804	      4.80704828	     -0.15513969	      1.20094120	     -0.85085943	      5.66801396	    -13.25772421	    -28.62176505	      5.96047070	      0.10402984	    -28.49119333	      0.00000000	      0.00000000	      6.35831792	    -16.20569208	    -13.79152528	      8.66278333	      0.15119409	    -23.96041530	      0.00000000	      0.00000000	     -1.99531849	     -1.79365035	      3.41491712	    -35.90128587	    -50.43052668	     30.17789239	     96.67050944	     87.83004125	      0.00000000	      0.00000000	    -29.86273885	    -54.22171441	     33.56772531	    100.17820433	     87.70424798	      0.00000000	      0.00000000
      6.05500000	     -7.08480524	     -0.11755031	      4.75461627	     -0.15609592	      1.18980282	     -0.85061259	      6.12809182	    -13.64223136	    -28.74968939	      6.28777957	      0.10974246	    -28.52410153	      0.00000000	      0.00000000	      6.68656752	    -16.21815573	    -13.87263526	      8.83702582	      0.15423520	    -23.56483616	      0.00000000	      0.00000000	     -2.29889116	     -1.87440457	      3.49524679	    -35.91919147	    -50.36292540	     30.15929833	     96.58465119	     87.86248822	      0.00000000	      0.00000000	    -30.04363274	    -54.12811953	     33.39791550	    100.17951396	     87.74656320	      0.00000000	      0.00000000
      6.06000000	     -7.07722471	     -0.01188923	      4.75543391	     -0.15715349	      1.17841806	     -0.85040820	      6.56551867	    -14.05436366	    -28.89647195	      6.62134829	      0.11556433	    -28.68847283	      0.00000000	      0.00000000	      7.07303742	    -16.21440767	    -13.89111645	      9.12638108	      0.15928540	    -23.24861808	      0.00000000	      0.00000000	     -2.63167206	     -1.99989002	      3.54895041	    -35.90253322	    -50.23192412	     30.18066871	     96.41154622	     87.84418079	      0.00000000	      0.00000000	    -30.20560611	    -54.07324957	     33.18010460	    100.16831842	     87.70743612	      0.00000000	      0.00000000
      6.06500000	     -7.10911035	      0.04198546	      4.79414558	     -0.15833483	      1.16674623	     -0.85022406	      7.08733230	    -14.44454357	    -29.22295730	      7.08325243	      0.12362608	    -28.93805693	      0.00000000	      0.00000000	      7.55132056	    -16.26587399	    -13.94661994	      9.43508903	      0.16467337	    -23.15528243	      0.00000000	      0.00000000	     -2.97399572	     -2.05178384	      3.50843589	    -35.90204532	    -50.16430689	     30.24029112	     96.35364630	     87.87545166	      0.00000000	      0.00000000	    -30.37025639	    -53.95684717	     33.00802551	    100.19938263	     87.75171928	      0.00000000	      0.00000000
      6.07000000	     -7.13075559	      0.18741324	      4.73736620	     -0.15963437	      1.15485564	     -0.84997891	      7.68238964	    -14.94767199	    -29.20333583	      7.67791064	      0.13400482	    -29.39237008	      0.00000000	      0.00000000	      8.00601674	    -16.24133926	    -14.15456940	      9.80496551	      0.17112893	    -23.20164944	      0.00000000	      0.00000000	     -3.32688811	     -2.21856496	      3.55115413	    -35.75773086	    -50.12116048	     30.41669402	     96.18964694	     87.87293329	      0.00000000	      0.00000000	    -30.50360732	    -53.88018780	     32.87639272	    100.19975768	     87.73557754	      0.00000000	      0.00000000
      6.07500000	     -7.17890710	      0.30068163	      4.78870136	     -0.16098310	      1.14267381	     -0.84984727	      8.29903566	    -15.45329594	    -29.48872718	      8.29527474	      0.14477986	    -29.73480264	      0.00000000	      0.00000000	      8.56362364	    -16.23079803	    -14.21653315	     10.20949287	      0.17818927	    -23.35513839	      0.00000000	      0.00000000	     -3.65812150	     -2.34854548	      3.53778905	    -35.70312113	    -50.02680392	     30.54062773	     96.01752441	     87.86816154	      0.00000000	      0.00000000	    -30.64393144	    -53.83578319	     32.72327948	    100.22608905	     87.72797404	      0.00000000	      0.00000000
      6.08000000	     -7.25681009	      0.42300208	      4.70554559	     -0.16266744	      1.13016237	     -0.84951095	      9.09374549	    -15.96445200	    -29.45944753	      9.09597720	      0.15875475	    -30.15985810	      0.00000000	      0.00000000	      9.19191608	    -16.25367779	    -14.47558602	     10.76156055	      0.18782466	    -23.67517432	      0.00000000	      0.00000000	     -4.02791095	     -2.48695578	      3.61335660	    -35.55870348	    -50.01767683	     30.79755463	     95.89651289	     87.87688143	      0.00000000	      0.00000000	    -30.76746556	    -53.76188682	     32.58559244	    100.22457168	     87.74755294	      0.00000000	      0.00000000
      6.08500000	     -7.31359575	      0.60210061	      4.66694229	     -0.16433549	      1.11747126	     -0.84931161	      9.87271726	    -16.56167394	    -29.35467083	      9.96927353	      0.17399665	    -30.49857911	      0.00000000	      0.00000000	      9.80659333	    -16.20808967	    -14.69020094	     11.32970560	      0.19774067	    -23.95745112	      0.00000000	      0.00000000	     -4.42852216	     -2.69405745	      3.63384860	    -35.50080229	    -49.93353976	     30.82345827	     95.72358893	     87.87137169	      0.00000000	      0.00000000	    -30.95495415	    -53.69195132	     32.36446510	    100.23813758	     87.76164512	      0.00000000	      0.00000000
      6.09000000	     -7.50147862	      0.62231644	      4.71152009	     -0.16636527	      1.10426580	     -0.84900527	     10.81851984	    -16.98533609	    -29.16509507	     10.88381808	      0.18995846	    -30.93684814	      0.00000000	      0.00000000	     10.71174384	    -16.33754343	    -14.66428606	     12.04509138	      0.21022650	    -24.28190030	      0.00000000	      0.00000000	     -4.70162808	     -2.73804750	      3.62795751	    -35.37930247	    -49.89248916	     31.08373072	     95.55999613	     87.86280303	      0.00000000	      0.00000000	    -30.95688026	    -53.71255710	     32.38489653	    100.27187576	     87.74061710	      0.00000000	      0.00000000
      6.09500000	     -7.57230727	      0.76572400	      4.69930712	     -0.16826563	      1.09103434	     -0.84876446	     11.70433518	    -17.56233535	    -28.90884204	     11.92828271	      0.20818781	    -31.28283089	      0.00000000	      0.00000000	     11.42833727	    -16.32248626	    -14.71556524	     12.71570408	      0.22193090	    -24.58918487	      0.00000000	      0.00000000	     -5.14933605	     -2.89940647	      3.66108042	    -35.42329605	    -49.76714373	     31.07893654	     95.42093843	     87.85852978	      0.00000000	      0.00000000	    -31.01346822	    -53.71659427	     32.31402218	    100.32834426	     87.77137588	      0.00000000	      0.00000000
      6.10000000	     -7.75140166	      0.86331273	      4.67169915	     -0.17048987	      1.07734734	     -0.84846909	     12.80233393	    -18.08133486	    -28.35727871	     13.06319244	      0.22799572	    -31.71710809	      0.00000000	      0.00000000	     12.35318500	    -16.37336413	    -14.70609595	     13.54208349	      0.23635394	    -24.86345185	      0.00000000	      0.00000000	     -5.49523801	     -3.02088806	      3.71319606	    -35.34659848	    -49.74345117	     31.27878629	     95.29017645	     87.84980769	      0.00000000	      0.00000000	    -30.99741662	    -53.74419244	     32.33680889	    100.39955728	     87.75315888	      0.00000000	      0.00000000
      6.10500000	     -7.85007190	      0.85265577	      4.67207629	     -0.17288966	      1.06372093	     -0.84818182	     13.90781610	    -18.51741424	    -27.82398667	     14.72234975	      0.25695348	    -31.73984717	      0.00000000	      0.00000000	     13.25372704	    -16.54317593	    -14.69278290	     14.40186111	      0.25135989	    -25.11048540	      0.00000000	      0.00000000	     -5.99020870	     -3.01468676	      3.77686251	    -35.40404996	    -49.64994373	     31.26512331	     95.11829940	     87.85437309	      0.00000000	      0.00000000	    -30.95472357	    -53.74145764	     32.31361017	    100.45868694	     87.78011999	      0.00000000	      0.00000000
      6.11000000	     -7.96574835	      0.90932845	      4.57756566	     -0.17521594	      1.05006246	     -0.84783001	     15.19504893	    -19.24942532	    -27.54471959	     17.46573952	      0.30483466	    -25.58794942	      0.00000000	      0.00000000	     14.20227030	    -16.68642423	    -14.80291100	     15.72488912	      0.27445109	    -25.74014588	      0.00000000	      0.00000000	     -6.45832422	     -3.08097968	      3.91014298	    -35.29645183	    -49.59614236	     31.52380161	     94.89599607	     87.84090264	      0.00000000	      0.00000000	    -30.78617201	    -53.72753220	     32.47248467	    100.41111867	     87.74600233	      0.00000000	      0.00000000
      6.11500000	     -8.13028136	      1.03800982	      4.50831288	     -0.17796519	      1.03597130	     -0.84738528	     16.46866383	    -20.01390421	    -27.24522413	     21.31159424	      0.37195749	    -16.91736530	      0.00000000	      0.00000000	     15.41354994	    -16.93518441	    -15.16614958	     17.98683030	      0.31392941	    -21.93744049	      0.00000000	      0.00000000	     -6.95803101	     -3.25065550	      3.98189728	    -35.16382634	    -49.52077206	     31.77515296	     94.68522638	     87.84587850	      0.00000000	      0.00000000	    -30.65227866	    -53.81143586	     32.62620975	    100.44410965	     87.73375121	      0.00000000	      0.00000000
      6.12000000	     -8.23174003	      0.92734673	      4.46644250	     -0.18100229	      1.02163381	     -0.84690591	     17.53384833	    -20.27244077	    -26.07339178	     24.51327925	      0.42783743	    -10.29928451	      0.00000000	      0.00000000	     16.49854171	    -17.59032015	    -15.56814528	     21.10427260	      0.36833904	    -14.03875115	      0.00000000	      0.00000000	     -7.57491637	     -3.13158807	      4.05326237	    -35.20260865	    -49.51373802	     31.80449448	     94.67722646	     87.85316610	      0.00000000	      0.00000000	    -30.57948881	    -53.81233039	     32.62150019	    100.47301099	     87.76079936	      0.00000000	      0.00000000
      6.12500000	     -8.39420403	      0.90595131	      4.27499788	     -0.18402828	      1.00724438	     -0.84634508	     18.88067273	    -20.61935402	    -24.62928930	     27.65397782	      0.48265296	     -3.99047823	      0.00000000	      0.00000000	     17.33888764	    -18.02043997	    -15.81452703	     23.95004450	      0.41800713	     -7.19844118	      0.00000000	      0.00000000	     -8.13205900	     -3.12945801	      4.22691957	    -35.06801292	    -49.53487123	     32.06069360	     94.54059492	     87.83194789	      0.00000000	      0.00000000	    -30.43376221	    -53.81473250	     32.81370157	    100.40369163	     87.75127882	      0.00000000	      0.00000000
      6.13000000	     -8.59140069	      0.84639320	      4.26578104	     -0.18736073	      0.99297944	     -0.84624309	     20.29180763	    -21.08380006	    -24.02224044	     30.60819121	      0.53421371	      1.65308630	      0.00000000	      0.00000000	     18.53799046	    -18.40129546	    -15.50191565	     26.70098260	      0.46602006	     -1.31915839	      0.00000000	      0.00000000	     -8.69366315	     -3.04151870	      4.26690133	    -34.96004995	    -49.52814970	     32.32859252	     94.39820288	     87.84261307	      0.00000000	      0.00000000	    -30.15833560	    -53.74644469	     33.00933043	    100.29600137	     87.77734183	      0.00000000	      0.00000000
      6.13500000	     -8.84919621	      0.87090110	      4.22311551	     -0.19075013	      0.97866233	     -0.84608521	     21.84743076	    -21.67819369	    -23.52961871	     33.43809299	      0.58360482	      6.59242355	      0.00000000	      0.00000000	     20.05380700	    -18.82142893	    -15.53938184	     29.73307405	      0.51894004	      4.27332284	      0.00000000	      0.00000000	     -9.20164902	     -3.06099359	      4.31041912	    -34.71997116	    -49.47558773	     32.70691914	     94.18936456	     87.82741057	      0.00000000	      0.00000000	    -29.86392012	    -53.71250047	     33.33462481	    100.08349300	     87.76883540	      0.00000000	      0.00000000
      6.14000000	     -9.13076702	      0.77328463	      4.10717265	     -0.19407354	      0.96418369	     -0.84570814	     23.45940543	    -22.04506385	    -22.75872798	     36.12676218	      0.63053095	     11.24471173	      0.00000000	      0.00000000	     21.71968207	    -19.52581253	    -16.00516495	     32.77987054	      0.57211667	      9.09786722	      0.00000000	      0.00000000	     -9.69166388	     -2.95536943	      4.48703191	    -34.57442167	    -49.45804465	     33.14475674	     94.01092818	     87.82788613	      0.00000000	      0.00000000	    -29.56611138	    -53.65064900	     33.57849743	     99.91819228	     87.77636159	      0.00000000	      0.00000000
      6.14500000	     -9.59903565	      0.75102546	      3.84547039	     -0.19786130	      0.94974878	     -0.84536111	     25.46828026	    -22.47199857	    -21.18613916	     38.90617472	      0.67904085	     14.71006597	      0.00000000	      0.00000000	     23.52988239	    -20.13159186	    -16.15219496	     35.67256621	      0.62260373	     13.42568286	      0.00000000	      0.00000000	    -10.03190380	     -2.95093347	      4.76103050	    -34.34286131	    -49.47657790	     33.67213255	     93.78467048	     87.69938546	      0.00000000	      0.00000000	    -29.21917159	    -53.52712891	     33.91612424	     99.70462573	     87.64609343	      0.00000000	      0.00000000
      6.15000000	    -10.50153204	      0.52937661	      3.54306908	     -0.20276983	      0.93569996	     -0.84511250	     28.17231657	    -22.74816904	    -19.86193617	     41.91559415	      0.73156513	     17.62131299	      0.00000000	      0.00000000	     26.03203462	    -20.90874914	    -15.51032016	     38.63664191	      0.67433661	     16.52250731	      0.00000000	      0.00000000	    -10.01739203	     -2.74181839	      5.07466273	    -33.76506992	    -49.51226784	     34.44399746	     93.34171931	     87.82259267	      0.00000000	      0.00000000	    -28.52664270	    -53.21258485	     34.50115258	     99.12368163	     87.78543540	      0.00000000	      0.00000000
      6.15500000	    -11.93520930	      0.31747039	      3.18150315	     -0.20885462	      0.92233481	     -0.84504107	     32.21973268	    -23.16596536	    -18.36406570	     45.67142028	      0.79711666	     19.14344370	      0.00000000	      0.00000000	     29.21192927	    -21.74985541	    -15.01261129	     41.71581274	      0.72807828	     18.98616819	      0.00000000	      0.00000000	     -9.54615762	     -2.55549328	      5.45328958	    -32.88058232	    -49.47367285	     35.45553292	     92.51412357	     87.82038040	      0.00000000	      0.00000000	    -27.52107502	    -52.64700993	     35.23899872	     98.16163035	     87.78561871	      0.00000000	      0.00000000
      6.16000000	    -13.24133889	      0.08542731	      3.05469242	     -0.21531409	      0.90927990	     -0.84444918	     36.38838553	    -23.56492986	    -16.61066801	     49.77194461	      0.86868431	     19.90366112	      0.00000000	      0.00000000	     32.89580786	    -22.74615747	    -14.23052724	     45.46984338	      0.79359848	     20.56449889	      0.00000000	      0.00000000	     -9.27003446	     -2.40807688	      5.64081022	    -31.75516977	    -49.37132271	     36.81874857	     91.84136645	     87.83207144	      0.00000000	      0.00000000	    -26.33455948	    -52.43932264	     36.19503901	     97.32667752	     87.80613286	      0.00000000	      0.00000000
      6.16500000	    -13.91700512	     -0.25333677	      3.05121671	     -0.22082716	      0.89697682	     -0.84413853	     39.63205458	    -23.95635500	    -15.48893799	     53.66504020	      0.93663164	     20.55390832	      0.00000000	      0.00000000	     36.29619553	    -23.83048431	    -13.11070866	     49.58406322	      0.86540516	     21.73400793	      0.00000000	      0.00000000	     -9.69731433	     -2.07901046	      5.74240120	    -31.00414535	    -49.34833538	     37.77351769	     91.41822145	     87.77122568	      0.00000000	      0.00000000	    -25.44308490	    -52.21851859	     36.83338902	     96.72261299	     87.74790900	      0.00000000	      0.00000000
      6.17000000	    -14.73682390	     -0.83483860	      3.03755138	     -0.22612650	      0.88467980	     -0.84370564	     42.84683222	    -23.97261587	    -14.47091114	     57.32010119	      1.00042449	     20.80110328	      0.00000000	      0.00000000	     39.92977228	    -24.86528612	    -11.24192231	     53.38363230	      0.93172015	     22.21950602	      0.00000000	      0.00000000	     -9.83478119	     -1.47974310	      5.88876020	    -30.14680314	    -49.42911289	     39.06803148	     91.03905044	     87.79916440	      0.00000000	      0.00000000	    -24.40788778	    -52.07261896	     37.83800999	     96.07076221	     87.80646564	      0.00000000	      0.00000000
      6.17500000	    -15.42280242	     -1.31727499	      3.00374459	     -0.23080360	      0.87293555	     -0.84367249	     45.48911521	    -24.18086612	    -14.12854276	     60.33591519	      1.05306038	     21.24459796	      0.00000000	      0.00000000	     43.23659631	    -25.82047133	     -9.90919494	     57.00179955	      0.99486908	     22.71926634	      0.00000000	      0.00000000	    -10.08122155	     -0.97041349	      6.05579606	    -29.38981163	    -49.52722528	     40.16542458	     90.71754080	     87.79399169	      0.00000000	      0.00000000	    -23.36972639	    -51.85909117	     38.90131784	     95.36472142	     87.85359505	      0.00000000	      0.00000000
      6.18000000	    -16.17513389	     -1.62353337	      2.90840691	     -0.23519538	      0.86124147	     -0.84369977	     48.04639553	    -24.50528958	    -13.80681974	     63.07874287	      1.10093175	     21.88155437	      0.00000000	      0.00000000	     46.27359957	    -26.57913416	     -8.97500465	     60.20794384	      1.05082686	     23.47026008	      0.00000000	      0.00000000	    -10.27135623	     -0.65851253	      6.20015890	    -28.95692971	    -49.66306729	     41.06728209	     90.59467002	     87.82089997	      0.00000000	      0.00000000	    -22.62532974	    -51.72714810	     39.72613949	     94.91026956	     87.86508917	      0.00000000	      0.00000000
      6.18500000	    -16.81717248	     -1.78741078	      2.77717123	     -0.23904755	      0.84994193	     -0.84368072	     50.35176486	    -24.94722486	    -13.59462088	     65.61314055	      1.14516534	     22.64388771	      0.00000000	      0.00000000	     48.86156326	    -27.28789779	     -8.51067570	     63.10438015	      1.10137921	     24.13649231	      0.00000000	      0.00000000	    -10.56288563	     -0.52908343	      6.36604667	    -28.68433578	    -49.79621352	     41.70513128	     90.58952831	     87.82079200	      0.00000000	      0.00000000	    -22.08991657	    -51.68484805	     40.36255813	     94.69227678	     87.87091265	      0.00000000	      0.00000000
      6.19000000	    -17.51048408	     -2.02266286	      2.64810069	     -0.24287039	      0.83885639	     -0.84341223	     52.55672542	    -25.25332740	    -13.40836635	     67.95690286	      1.18607170	     23.38085200	      0.00000000	      0.00000000	     51.37460093	    -28.01184197	     -7.97741290	     65.63530172	      1.14555212	     24.77302768	      0.00000000	      0.00000000	    -10.79558160	     -0.34737330	      6.48558590	    -28.47870647	    -49.99448273	     42.24054038	     90.71633066	     87.80490248	      0.00000000	      0.00000000	    -21.61098048	    -51.78775321	     41.07797299	     94.64132226	     87.86494627	      0.00000000	      0.00000000
      6.19500000	    -18.22008026	     -2.05294328	      2.48458113	     -0.24665966	      0.82796546	     -0.84297888	     54.71311758	    -25.65048933	    -13.05577841	     70.02288957	      1.22212997	     24.16127242	      0.00000000	      0.00000000	     53.60347562	    -28.59235685	     -7.68324947	     67.83345732	      1.18391717	     25.53006165	      0.00000000	      0.00000000	    -11.01966374	     -0.41914730	      6.55565064	    -28.39816249	    -50.17632518	     42.53651001	     90.96486315	     87.78380004	      0.00000000	      0.00000000	    -21.28274607	    -52.00559661	     41.70301204	     94.83066811	     87.85727098	      0.00000000	      0.00000000
      6.20000000	    -18.83691237	     -1.88272261	      2.35294466	     -0.25014789	      0.81755376	     -0.84253523	     56.70255470	    -26.16438430	    -12.55253502	     71.87132360	      1.25439123	     25.15569805	      0.00000000	      0.00000000	     55.40364294	    -28.99226357	     -7.63850186	     69.70398118	      1.21656397	     26.40348940	      0.00000000	      0.00000000	    -11.31684748	     -0.70941028	      6.54976778	    -28.39467985	    -50.32147726	     42.57605695	     91.32125564	     87.75135852	      0.00000000	      0.00000000	    -21.04064729	    -52.40929814	     42.24418213	     95.17512133	     87.84745705	      0.00000000	      0.00000000
      6.20500000	    -19.41633508	     -1.65607141	      2.18895879	     -0.25366086	      0.80769197	     -0.84197126	     58.59040149	    -26.56482477	    -11.87362086	     73.50446144	      1.28289487	     26.22211816	      0.00000000	      0.00000000	     56.95438577	    -29.36345267	     -7.68440097	     71.32943229	      1.24493345	     27.34497989	      0.00000000	      0.00000000	    -11.67336958	     -1.08000747	      6.50038895	    -28.44078859	    -50.41912862	     42.49043166	     91.58735671	     87.73500995	      0.00000000	      0.00000000	    -20.79020562	    -52.81734015	     42.77458365	     95.59092545	     87.84120960	      0.00000000	      0.00000000
      6.21000000	    -19.98452347	     -1.43742246	      2.09212788	     -0.25705654	      0.79819120	     -0.84139945	     60.35631903	    -26.93666500	    -11.16025788	     74.98534566	      1.30874117	     27.14489403	      0.00000000	      0.00000000	     58.40574852	    -29.62936869	     -7.57933820	     72.74114052	      1.26957240	     28.30552958	      0.00000000	      0.00000000	    -12.01440041	     -1.44688099	      6.40540653	    -28.55704979	    -50.52660564	     42.30339860	     91.85309825	     87.72555009	      0.00000000	      0.00000000	    -20.62710042	    -53.34171247	     43.16574536	     96.12762115	     87.84242632	      0.00000000	      0.00000000
      6.21500000	    -20.58704886	     -1.17621031	      1.93027652	     -0.26032268	      0.78909912	     -0.84084601	     62.17520359	    -27.18400284	    -10.27279251	     76.36726338	      1.33286019	     28.04335424	      0.00000000	      0.00000000	     59.74748004	    -29.89348618	     -7.52733062	     74.01643980	      1.29183058	     29.20326631	      0.00000000	      0.00000000	    -12.27533920	     -1.84819244	      6.34019854	    -28.74307645	    -50.61571213	     41.96554352	     92.16563270	     87.71343619	      0.00000000	      0.00000000	    -20.47615381	    -53.88741821	     43.61658917	     96.70760090	     87.83794516	      0.00000000	      0.00000000
      6.22000000	    -21.08171732	     -0.89524011	      1.81628607	     -0.26334169	      0.78037815	     -0.84056559	     63.89972462	    -27.46973271	     -9.35124282	     77.76241060	      1.35721010	     28.74896793	      0.00000000	      0.00000000	     61.00747605	    -30.08450793	     -7.39761128	     75.32995913	      1.31475581	     29.99053328	      0.00000000	      0.00000000	    -12.63704092	     -2.23903339	      6.23962270	    -29.02363606	    -50.68721097	     41.44821063	     92.45298511	     87.70296846	      0.00000000	      0.00000000	    -20.32615277	    -54.35498328	     43.95616311	     97.21131717	     87.83873327	      0.00000000	      0.00000000
      6.22500000	    -21.41150048	     -0.62055340	      1.73883954	     -0.26642462	      0.77239152	     -0.84035598	     65.48883858	    -27.74600184	     -8.43354641	     79.15173022	      1.38145830	     29.23600818	      0.00000000	      0.00000000	     62.13074647	    -30.24690334	     -7.23975358	     76.62077088	      1.33728473	     30.58838685	      0.00000000	      0.00000000	    -13.21610158	     -2.60162656	      6.11632410	    -29.35416805	    -50.77056758	     40.75047439	     92.82015060	     87.70279768	      0.00000000	      0.00000000	    -20.17165414	    -54.78590102	     44.15800784	     97.72039867	     87.83602197	      0.00000000	      0.00000000
      6.23000000	    -21.79353056	     -0.43344143	      1.66490743	     -0.26918065	      0.76452413	     -0.84042520	     67.11143184	    -27.97704916	     -7.60390283	     80.51806668	      1.40530537	     29.51909309	      0.00000000	      0.00000000	     63.42555470	    -30.41051483	     -6.94040439	     77.97898197	      1.36098998	     31.07244507	      0.00000000	      0.00000000	    -13.71455926	     -2.73574763	      7.55388756	    -33.30563214	    -49.51188865	     36.02737541	     93.25135327	     87.76659850	      0.00000000	      0.00000000	    -16.06583857	    -55.78986279	     48.57727077	     97.77196618	     87.80563623	      0.00000000	      0.00000000
      6.23500000	    -22.12897352	     -0.35277386	      1.63494649	     -0.27213613	      0.75704014	     -0.84046670	     68.62286946	    -28.12895342	     -6.90855825	     81.82867706	      1.42817984	     29.82122684	      0.00000000	      0.00000000	     64.80476564	    -30.53910009	     -6.43433775	     79.32158088	      1.38442275	     31.46261969	      0.00000000	      0.00000000	    -14.22872953	     -2.83197178	      7.31868306	    -33.38786681	    -49.73877857	     35.65155513	     93.61422341	     87.75656652	      0.00000000	      0.00000000	    -16.13262335	    -56.11669047	     48.47327535	     98.23512081	     87.77859358	      0.00000000	      0.00000000
      6.24000000	    -22.52363303	     -0.23247421	      1.61108192	     -0.27459477	      0.74982732	     -0.84057303	     70.14528830	    -28.28105875	     -6.19305788	     83.06738780	      1.44979942	     30.06638808	      0.00000000	      0.00000000	     66.15327453	    -30.62203373	     -6.00573803	     80.60116470	      1.40675570	     31.76004664	      0.00000000	      0.00000000	    -14.63682059	     -2.95039459	      7.08550471	    -33.59211797	    -49.79105145	     35.15175192	     93.78238547	     87.77388805	      0.00000000	      0.00000000	    -16.34151129	    -56.33188759	     48.32814147	     98.43927900	     87.78742195	      0.00000000	      0.00000000
      6.24500000	    -22.89543608	     -0.21360877	      1.60109386	     -0.27759182	      0.74307915	     -0.84058809	     71.57586993	    -28.33345663	     -5.58160091	     84.18943344	      1.46938281	     30.15525918	      0.00000000	      0.00000000	     67.60215748	    -30.68222384	     -5.38296157	     81.83923442	      1.42836410	     31.94825739	      0.00000000	      0.00000000	    -15.16692823	     -2.94399547	      6.89691994	    -33.93650823	    -49.84924582	     34.23613538	     94.19237629	     87.76851060	      0.00000000	      0.00000000	    -16.54449205	    -56.46798871	     47.85031168	     98.66646476	     87.76235935	      0.00000000	      0.00000000
      6.25000000	    -23.41832308	     -0.15321459	      1.61941872	     -0.28051668	      0.73617848	     -0.84061267	     73.15842720	    -28.43011749	     -4.95265655	     85.29126480	      1.48861339	     30.37784942	      0.00000000	      0.00000000	     69.15768975	    -30.64647123	     -4.77450665	     83.02218018	      1.44901040	     32.09083937	      0.00000000	      0.00000000	    -15.47686714	     -2.99678883	      6.72475495	    -34.12217474	    -49.88177916	     33.83053966	     94.43686268	     87.77828549	      0.00000000	      0.00000000	    -16.64984133	    -56.67035596	     47.64435092	     98.88907122	     87.77360393	      0.00000000	      0.00000000
      6.25500000	    -23.76665029	     -0.09746906	      1.54399241	     -0.28301991	      0.72994926	     -0.84062283	     74.48163253	    -28.42474179	     -4.33089856	     86.28926717	      1.50603182	     30.50333393	      0.00000000	      0.00000000	     70.39807057	    -30.70965355	     -4.26054100	     84.11492159	      1.46808233	     32.28330444	      0.00000000	      0.00000000	    -15.94822554	     -3.03456862	      6.65807113	    -34.20758828	    -49.90645946	     33.47354400	     94.61767822	     87.78809508	      0.00000000	      0.00000000	    -16.68391767	    -56.72666112	     47.43859702	     98.93500592	     87.77538526	      0.00000000	      0.00000000
      6.26000000	    -24.27642556	     -0.22579212	      1.52596295	     -0.28564826	      0.72356715	     -0.84061710	     75.83471963	    -28.36682074	     -3.92127083	     87.23197555	      1.52248519	     30.63598590	      0.00000000	      0.00000000	     71.95118932	    -30.76655289	     -3.48511747	     85.15068507	      1.48615981	     32.44322029	      0.00000000	      0.00000000	    -16.22680440	     -2.86416480	      6.61814677	    -34.34390722	    -49.95266447	     33.17858527	     94.86076035	     87.80174341	      0.00000000	      0.00000000	    -16.75897572	    -56.74012295	     47.20371501	     98.98572390	     87.78419980	      0.00000000	      0.00000000
      6.26500000	    -24.87568609	     -0.39214842	      1.46464435	     -0.28832834	      0.71709092	     -0.84057335	     77.26204165	    -28.25266339	     -3.56147404	     88.14246475	      1.53837622	     30.77049334	      0.00000000	      0.00000000	     73.63049624	    -30.86595645	     -2.67638693	     86.18823512	      1.50426848	     32.59449994	      0.00000000	      0.00000000	    -16.37663658	     -2.65458932	      6.64852882	    -34.38541086	    -50.00024536	     33.13381414	     94.92923230	     87.82576025	      0.00000000	      0.00000000	    -16.76011413	    -56.73115767	     47.09166270	     99.01444345	     87.78986782	      0.00000000	      0.00000000
      6.27000000	    -25.31058553	     -0.55305778	      1.36297363	     -0.29069084	      0.71127745	     -0.84058844	     78.45337037	    -28.13485471	     -3.25257290	     88.98160704	      1.55302202	     30.78988565	      0.00000000	      0.00000000	     75.05162750	    -31.01878439	     -1.96750270	     87.15758078	      1.52118675	     32.69657341	      0.00000000	      0.00000000	    -16.70521684	     -2.43467981	      6.69467946	    -34.22633719	    -50.12346443	     33.22978760	     95.09665940	     87.83264784	      0.00000000	      0.00000000	    -16.67055308	    -56.66686200	     47.08930253	     98.98124704	     87.79793623	      0.00000000	      0.00000000
      6.27500000	    -25.63951869	     -0.64582624	      1.19596995	     -0.29285551	      0.70569000	     -0.84054042	     79.56038241	    -27.98855650	     -2.88860444	     89.81537932	      1.56757409	     30.89920228	      0.00000000	      0.00000000	     76.23737534	    -31.21631588	     -1.39938484	     88.10402659	      1.53770535	     32.89912684	      0.00000000	      0.00000000	    -17.11235126	     -2.30614977	      6.85641382	    -34.05915714	    -50.22709559	     33.51480081	     95.10276945	     87.85531866	      0.00000000	      0.00000000	    -16.48790429	    -56.62270875	     47.13780156	     98.95170609	     87.80410750	      0.00000000	      0.00000000
      6.28000000	    -26.28679161	     -0.96686762	      1.15709872	     -0.29511622	      0.69991957	     -0.84059960	     80.79742689	    -27.89628330	     -2.83702808	     90.52938491	      1.58003584	     30.89065403	      0.00000000	      0.00000000	     77.95643351	    -31.33291096	     -0.49770629	     88.96289605	      1.55269545	     32.95703239	      0.00000000	      0.00000000	    -17.10986525	     -1.90836562	      6.89642217	    -33.61559256	    -50.42438639	     34.20442271	     95.11208400	     87.86086056	      0.00000000	      0.00000000	    -16.19897456	    -56.52823990	     47.49959233	     98.90488696	     87.82402783	      0.00000000	      0.00000000
      6.28500000	    -26.74625337	     -1.17803574	      1.07289148	     -0.29726683	      0.69460492	     -0.84074601	     81.85546553	    -27.84602163	     -2.74261494	     91.22377390	      1.59215521	     30.98051166	      0.00000000	      0.00000000	     79.33543070	    -31.47758703	      0.16474550	     89.80962850	      1.56747372	     33.10456772	      0.00000000	      0.00000000	    -17.31551993	     -1.61631062	      6.91884050	    -33.14858758	    -50.63421546	     34.81454736	     95.16932063	     87.85344893	      0.00000000	      0.00000000	    -15.88836277	    -56.46680916	     47.86742501	     98.87847454	     87.83011536	      0.00000000	      0.00000000
      6.29000000	    -27.23365213	     -1.31504432	      1.01824892	     -0.29936756	      0.68964436	     -0.84088586	     82.92951246	    -27.86292846	     -2.63195300	     91.84717445	      1.60303560	     30.94551950	      0.00000000	      0.00000000	     80.63567527	    -31.57933880	      0.67491385	     90.53204246	      1.58008222	     33.10951288	      0.00000000	      0.00000000	    -17.45228769	     -1.41909837	      6.91323476	    -32.25307099	    -50.83199999	     36.01161476	     95.01500109	     87.83753473	      0.00000000	      0.00000000	    -15.29454508	    -56.40003575	     48.65661694	     98.72083525	     87.82744083	      0.00000000	      0.00000000
      6.29500000	    -27.78735729	     -1.31070448	      0.89928476	     -0.30156616	      0.68470744	     -0.84124619	     84.16411554	    -27.87377283	     -2.31410413	     92.40533957	      1.61277742	     31.04087630	      0.00000000	      0.00000000	     81.84176732	    -31.68644289	      0.93762134	     91.22661582	      1.59220481	     33.36260195	      0.00000000	      0.00000000	    -17.51970995	     -1.34662467	      6.93577053	    -31.81042833	    -50.97157873	     36.60308060	     94.99519841	     87.84593053	      0.00000000	      0.00000000	    -14.92616227	    -56.37871956	     49.06669951	     98.67520943	     87.83532076	      0.00000000	      0.00000000
      6.30000000	    -28.35691108	     -1.66466649	      0.98579425	     -0.30359661	      0.68002689	     -0.84143144	     85.09324819	    -28.01595057	     -2.56988956	     92.93856189	      1.62208391	     31.00532918	      0.00000000	      0.00000000	     83.35972355	    -31.70716597	      1.67736117	     91.84007181	      1.60291164	     33.38408549	      0.00000000	      0.00000000	    -17.53287738	     -0.89440203	      6.87364652	    -31.17071563	    -51.03099068	     37.42185170	     94.81487194	     87.83897724	      0.00000000	      0.00000000	    -14.39773581	    -56.37008960	     49.73739687	     98.60689034	     87.84024447	      0.00000000	      0.00000000
      6.30500000	    -28.66491617	     -1.72398160	      0.97556297	     -0.30509546	      0.67615858	     -0.84167756	     85.87772171	    -28.17854619	     -2.51406811	     93.43894333	      1.63081721	     31.03615140	      0.00000000	      0.00000000	     84.24883490	    -31.80420163	      1.91563794	     92.41767284	      1.61299268	     33.44008592	      0.00000000	      0.00000000	    -17.77362748	     -0.74955534	      6.81061629	    -30.27782285	    -51.14687526	     38.51187219	     94.61446741	     87.81052746	      0.00000000	      0.00000000	    -13.51001705	    -56.37083898	     50.85459660	     98.37746719	     87.82872672	      0.00000000	      0.00000000
      6.31000000	    -28.86150896	     -1.75982950	      0.99437471	     -0.30659831	      0.67249957	     -0.84179352	     86.52827845	    -28.37376234	     -2.46778327	     93.93640647	      1.63949958	     31.13102936	      0.00000000	      0.00000000	     84.96772396	    -31.95246217	      2.00453782	     92.93031040	      1.62193989	     33.61710460	      0.00000000	      0.00000000	    -18.25002401	     -0.64693163	      6.72826340	    -30.01424520	    -51.03543883	     38.51577994	     94.62931012	     87.80967754	      0.00000000	      0.00000000	    -13.27779902	    -56.34119398	     50.86645689	     98.35953336	     87.82902006	      0.00000000	      0.00000000
      6.31500000	    -30.06097052	     -1.70822633	      1.10566041	     -0.30958383	      0.66696953	     -0.84227625	     88.50622482	    -28.63903471	     -2.12777764	     94.41908484	      1.64792391	     30.96265718	      0.00000000	      0.00000000	     86.86960433	    -31.61012784	      2.38849790	     93.45581034	      1.63111160	     33.62341738	      0.00000000	      0.00000000	    -17.47006009	     -0.59824321	      6.46852227	    -29.90039812	    -51.09127835	     38.91996142	     94.66380930	     87.82463721	      0.00000000	      0.00000000	    -13.10755742	    -56.54652526	     51.44762922	     98.49270077	     87.85065165	      0.00000000	      0.00000000
      6.32000000	    -30.21079237	     -2.02838050	      1.18132851	     -0.31046792	      0.66384654	     -0.84228390	     88.82615287	    -28.88955020	     -2.50319343	     94.86344686	      1.65567949	     30.89390162	      0.00000000	      0.00000000	     87.74628692	    -31.72808626	      2.92197651	     93.95084039	      1.63975150	     33.54060870	      0.00000000	      0.00000000	    -17.83170560	     -0.18147417	      6.45055736	    -29.49310691	    -51.08075688	     39.31277264	     94.47496135	     87.81558052	      0.00000000	      0.00000000	    -12.64426795	    -56.56300320	     52.02263748	     98.33951753	     87.84622971	      0.00000000	      0.00000000
      6.32500000	    -30.76658311	     -1.79770452	      1.24802665	     -0.31228803	      0.65982003	     -0.84261191	     90.08264998	    -29.19547310	     -2.08329426	     95.31549302	      1.66356918	     30.98702627	      0.00000000	      0.00000000	     88.64766245	    -31.61076732	      2.81776639	     94.40302052	      1.64764353	     33.59464637	      0.00000000	      0.00000000	    -17.75034931	     -0.34142281	      6.23490345	    -29.44130660	    -51.04103115	     39.33866298	     94.53944558	     87.80961687	      0.00000000	      0.00000000	    -12.45997073	    -56.77732643	     52.30415580	     98.47955208	     87.84960650	      0.00000000	      0.00000000
      6.33000000	    -30.92771873	     -1.78962981	      1.26723446	     -0.31337798	      0.65670230	     -0.84257183	     90.65312996	    -29.42110288	     -2.04434169	     95.74780670	      1.67111448	     31.03816694	      0.00000000	      0.00000000	     89.24093253	    -31.71511026	      2.90167207	     94.84765755	      1.65540391	     33.70388678	      0.00000000	      0.00000000	    -18.09477528	     -0.29111585	      6.13504188	    -29.29753425	    -50.97462183	     39.28623084	     94.54013179	     87.80429350	      0.00000000	      0.00000000	    -12.33091278	    -56.88101328	     52.33252103	     98.46672330	     87.84798919	      0.00000000	      0.00000000
      6.33500000	    -31.58220947	     -1.78770665	      1.30706232	     -0.31519397	      0.65279547	     -0.84269825	     91.83769297	    -29.63339726	     -1.90561752	     96.13588257	      1.67788768	     30.88866090	      0.00000000	      0.00000000	     90.42675327	    -31.58232587	      3.21486026	     95.26172620	      1.66263077	     33.64023480	      0.00000000	      0.00000000	    -17.84489317	     -0.22934589	      6.04428606	    -29.49965159	    -51.06344995	     39.25398164	     94.68114901	     87.80386355	      0.00000000	      0.00000000	    -12.34035562	    -57.15221128	     52.58266097	     98.78378052	     87.84988555	      0.00000000	      0.00000000
      6.34000000	    -31.78806465	     -1.79222464	      1.27362740	     -0.31632037	      0.64972271	     -0.84265333	     92.45451416	    -29.83869402	     -1.91356109	     96.54005992	      1.68494191	     30.91977019	      0.00000000	      0.00000000	     91.08569818	    -31.72431942	      3.33505905	     95.72396500	      1.67069836	     33.71115638	      0.00000000	      0.00000000	    -18.10268367	     -0.17472955	      6.03676393	    -29.51276028	    -51.06957664	     39.18938474	     94.71485580	     87.80295473	      0.00000000	      0.00000000	    -12.28303207	    -57.27955012	     52.57349264	     98.85659621	     87.84560778	      0.00000000	      0.00000000
      6.34500000	    -32.08684892	     -1.80140680	      1.24011909	     -0.31754241	      0.64655465	     -0.84259641	     93.18523328	    -30.00277951	     -1.87170633	     96.94949967	      1.69208798	     30.90242257	      0.00000000	      0.00000000	     91.87074902	    -31.78795731	      3.56817609	     96.17544037	      1.67857809	     33.72578957	      0.00000000	      0.00000000	    -18.21296889	     -0.11619932	      6.04429252	    -29.68207004	    -51.15077675	     39.11850544	     94.84445057	     87.80286368	      0.00000000	      0.00000000	    -12.31813065	    -57.49514839	     52.58295802	     99.12111520	     87.84441625	      0.00000000	      0.00000000
      6.35000000	    -32.60425342	     -1.94612318	      1.32017593	     -0.31921632	      0.64327193	     -0.84260600	     94.05710243	    -30.24294023	     -1.97554713	     97.22803251	      1.69694929	     30.62880646	      0.00000000	      0.00000000	     92.98655109	    -31.65864360	      4.02950460	     96.47802807	      1.68385925	     33.43644739	      0.00000000	      0.00000000	    -18.09207095	      0.10235117	      6.03964973	    -30.21165025	    -51.24841042	     38.68735494	     95.15492576	     87.80595028	      0.00000000	      0.00000000	    -12.46492276	    -57.83548400	     52.48358391	     99.68994071	     87.83137029	      0.00000000	      0.00000000
      6.35500000	    -32.80454444	     -1.96930967	      1.27064429	     -0.32030814	      0.64034049	     -0.84260888	     94.66235860	    -30.42987942	     -1.99999931	     97.60226986	      1.70348097	     30.52290494	      0.00000000	      0.00000000	     93.65971225	    -31.79766372	      4.22611508	     96.92671298	      1.69169027	     33.31906914	      0.00000000	      0.00000000	    -18.31954327	      0.17972264	      6.16390121	    -30.79017481	    -51.31317318	     38.11883238	     95.53682338	     87.79051017	      0.00000000	      0.00000000	    -12.60039208	    -58.03311341	     52.28417918	    100.07632947	     87.81942673	      0.00000000	      0.00000000
      6.36000000	    -32.84451203	     -1.92019356	      1.18583375	     -0.32121522	      0.63790998	     -0.84255205	     95.07651752	    -30.62961060	     -2.04436063	     97.93071829	      1.70921347	     30.56400106	      0.00000000	      0.00000000	     94.05028046	    -32.00043330	      4.27832784	     97.32287114	      1.69860454	     33.37984379	      0.00000000	      0.00000000	    -18.67953969	      0.16420514	      6.27073511	    -30.91357284	    -51.42139255	     38.03493165	     95.63425326	     87.79315259	      0.00000000	      0.00000000	    -12.57947764	    -58.17984634	     52.20892613	    100.22474098	     87.81815256	      0.00000000	      0.00000000
      6.36500000	    -33.04115875	     -1.90190097	      1.11124268	     -0.32266369	      0.63513974	     -0.84238355	     95.69078465	    -30.72050769	     -1.97867880	     98.23231214	      1.71447728	     30.43044197	      0.00000000	      0.00000000	     94.70222441	    -32.16036294	      4.44561615	     97.68174383	      1.70486805	     33.21161441	      0.00000000	      0.00000000	    -18.89801806	      0.16774610	      6.42951853	    -31.58699883	    -51.53952084	     37.42362180	     96.16019703	     87.78095656	      0.00000000	      0.00000000	    -12.78233797	    -58.58883180	     51.93517307	    101.01211629	     87.81652231	      0.00000000	      0.00000000
      6.37000000	    -33.06682943	     -1.88085932	      1.04889742	     -0.32340603	      0.63289051	     -0.84240651	     96.03989341	    -30.95262499	     -2.07846150	     98.54140793	      1.71987202	     30.46474739	      0.00000000	      0.00000000	     95.05243000	    -32.39462487	      4.43839213	     98.04709525	      1.71124463	     33.26948151	      0.00000000	      0.00000000	    -19.24369233	      0.19868183	      6.54322609	    -31.76555200	    -51.62075404	     37.35077372	     96.21259624	     87.78594017	      0.00000000	      0.00000000	    -12.76813117	    -58.67410756	     51.83615459	    101.15551397	     87.81449528	      0.00000000	      0.00000000
      6.37500000	    -33.07688243	     -1.87823533	      0.96667595	     -0.32420149	      0.63073322	     -0.84234982	     96.36568313	    -31.13326831	     -2.16910209	     98.85911327	      1.72541702	     30.46271070	      0.00000000	      0.00000000	     95.41771051	    -32.65614052	      4.47326099	     98.40426374	      1.71747840	     33.30051222	      0.00000000	      0.00000000	    -19.60504677	      0.22675994	      6.65784827	    -31.97465213	    -51.74919943	     37.22059026	     96.39866179	     87.78521227	      0.00000000	      0.00000000	    -12.82315907	    -58.86594251	     51.76365313	    101.46768149	     87.81550245	      0.00000000	      0.00000000
      6.38000000	    -33.15787751	     -2.00133818	      0.86469922	     -0.32539008	      0.62836540	     -0.84221560	     96.67760946	    -31.22853901	     -2.34917295	     99.09837434	      1.72959292	     30.32057116	      0.00000000	      0.00000000	     96.02346660	    -32.89269208	      4.75667362	     98.72933827	      1.72315202	     33.08236502	      0.00000000	      0.00000000	    -19.96252109	      0.40132411	      7.02921843	    -33.33289620	    -51.67886123	     35.67352493	     96.99561512	     87.78063574	      0.00000000	      0.00000000	    -13.09559166	    -59.13129100	     51.24860317	    102.16355699	     87.81923129	      0.00000000	      0.00000000
      6.38500000	    -33.18793930	     -1.98784657	      0.79960264	     -0.32642419	      0.62646476	     -0.84222661	     96.99678467	    -31.40958718	     -2.45354911	     99.32450838	      1.73353970	     30.34293781	      0.00000000	      0.00000000	     96.34990412	    -33.12650124	      4.70697755	     98.99527101	      1.72779342	     33.15109297	      0.00000000	      0.00000000	    -20.28533122	      0.43076038	      7.12856507	    -33.39927790	    -51.80378665	     35.69724695	     97.06305162	     87.79554558	      0.00000000	      0.00000000	    -13.01715773	    -59.23155572	     51.22316600	    102.35132251	     87.81901055	      0.00000000	      0.00000000
      6.39000000	    -33.19531754	     -1.99755451	      0.69515818	     -0.32719923	      0.62453566	     -0.84209855	     97.26644707	    -31.52649008	     -2.55320210	     99.57825279	      1.73796837	     30.32842015	      0.00000000	      0.00000000	     96.68791100	    -33.43454434	      4.71505703	     99.30028867	      1.73311699	     33.19317572	      0.00000000	      0.00000000	    -20.59024573	      0.45943388	      7.28393520	    -33.56484067	    -51.97056461	     35.73612768	     97.24149417	     87.80929664	      0.00000000	      0.00000000	    -12.99985249	    -59.41355996	     51.25814938	    102.70669423	     87.82565067	      0.00000000	      0.00000000
      6.39500000	    -33.23243872	     -1.99945471	      0.62246889	     -0.32809602	      0.62277676	     -0.84204801	     97.54860153	    -31.64814707	     -2.61888715	     99.78291401	      1.74154039	     30.28661479	      0.00000000	      0.00000000	     97.03194481	    -33.65959888	      4.72704047	     99.54878576	      1.73745408	     33.19143080	      0.00000000	      0.00000000	    -20.88448376	      0.49216636	      7.40371244	    -33.68339452	    -52.10839344	     35.71147933	     97.43161486	     87.81415174	      0.00000000	      0.00000000	    -12.97147116	    -59.61955252	     51.28200094	    103.05870913	     87.82620093	      0.00000000	      0.00000000
      6.40000000	    -33.29383966	     -2.08374489	      0.50378389	     -0.32921509	      0.62115093	     -0.84194057	     97.79263892	    -31.67079579	     -2.76773973	     99.91869652	      1.74391024	     30.12844347	      0.00000000	      0.00000000	     97.48306021	    -33.89611635	      4.88855465	     99.77306646	      1.74136851	     33.03002952	      0.00000000	      0.00000000	    -21.14647500	      0.64515826	      8.72337091	    -36.31966308	    -51.31371072	     33.04576354	     97.77240690	     87.83204217	      0.00000000	      0.00000000	     -9.39487090	    -60.12326495	     54.89771470	    103.25536713	     87.81031086	      0.00000000	      0.00000000
      6.40500000	    -33.33294261	     -2.14976483	      0.41246246	     -0.33021942	      0.61983145	     -0.84188837	     97.98231971	    -31.72128442	     -2.91815349	    100.03468104	      1.74593455	     30.06382266	      0.00000000	      0.00000000	     97.83492871	    -34.10644001	      4.96574876	     99.94859570	      1.74443208	     32.98900554	      0.00000000	      0.00000000	    -21.42448198	      0.74953286	      9.01964233	    -36.54834784	    -51.36865330	     32.98557743	     97.75076751	     87.84724419	      0.00000000	      0.00000000	     -8.60888128	    -60.32432601	     55.69227644	    103.48903387	     87.80373402	      0.00000000	      0.00000000
      6.41000000	    -33.38801045	     -2.19110882	      0.38001757	     -0.33091816	      0.61856976	     -0.84194352	     98.19261523	    -31.84852793	     -3.03329763	    100.16874584	      1.74827442	     29.98805178	      0.00000000	      0.00000000	     98.15821154	    -34.22625707	      5.02346222	    100.13171435	      1.74762810	     32.94921942	      0.00000000	      0.00000000	    -21.67198774	      0.81081202	      8.36458626	    -35.11131232	    -52.12721209	     34.51031493	     97.85244666	     87.83957002	      0.00000000	      0.00000000	    -11.04205706	    -60.18248070	     53.07631017	    103.83326399	     87.83082438	      0.00000000	      0.00000000
      6.41500000	    -33.48160411	     -2.22008769	      0.31848426	     -0.33168522	      0.61743621	     -0.84195563	     98.43595982	    -31.91348997	     -3.12172275	    100.26408728	      1.74993844	     29.89618152	      0.00000000	      0.00000000	     98.50092966	    -34.34909009	      5.09047516	    100.28377542	      1.75028207	     32.84882919	      0.00000000	      0.00000000	    -21.84272343	      0.85604308	      7.94462000	    -33.81418775	    -52.78481305	     36.08122951	     97.83699837	     87.81897367	      0.00000000	      0.00000000	    -12.45802363	    -60.10822975	     51.62885406	    104.02197082	     87.83159239	      0.00000000	      0.00000000
      6.42000000	    -33.54572049	     -2.15630232	      0.23294394	     -0.33259393	      0.61650308	     -0.84197716	     98.70676719	    -31.91034251	     -3.07770245	    100.33252120	      1.75113284	     29.87001796	      0.00000000	      0.00000000	     98.69367946	    -34.49566761	      5.00059278	    100.40056397	      1.75232041	     32.87186396	      0.00000000	      0.00000000	    -22.02397436	      0.87827265	      9.49509485	    -36.66400403	    -51.72379343	     33.23239745	     97.95532672	     87.82492749	      0.00000000	      0.00000000	     -7.27758715	    -60.62158664	     56.93341664	    103.89888102	     87.81846382	      0.00000000	      0.00000000
      6.42500000	    -33.68247138	     -2.19783981	      0.18275885	     -0.33348843	      0.61552398	     -0.84205894	     98.97603507	    -31.94121602	     -3.14651084	    100.38930952	      1.75212398	     29.73913885	      0.00000000	      0.00000000	     99.05376603	    -34.55878159	      5.08006630	    100.49886883	      1.75403616	     32.82388728	      0.00000000	      0.00000000	    -22.13426454	      0.97524261	      9.73727305	    -36.90816584	    -51.77359104	     33.12553987	     97.99724182	     87.82501709	      0.00000000	      0.00000000	     -6.45769868	    -60.73079863	     57.78410232	    103.95024987	     87.81205827	      0.00000000	      0.00000000
      6.43000000	    -33.73403931	     -2.23198015	      0.15243322	     -0.33414961	      0.61484435	     -0.84210248	     99.12470052	    -31.98543870	     -3.21348817	    100.44126021	      1.75303070	     29.65574349	      0.00000000	      0.00000000	     99.29050011	    -34.60608546	      5.16180404	    100.59161670	      1.75565491	     32.71138401	      0.00000000	      0.00000000	    -22.35088289	      1.00955535	      8.74127916	    -34.58486191	    -52.90194434	     35.62193625	     98.03338343	     87.81653086	      0.00000000	      0.00000000	     -9.80461228	    -60.53094469	     54.30979071	    104.16525313	     87.81961011	      0.00000000	      0.00000000
      6.43500000	    -33.72138212	     -2.28017748	      0.14618675	     -0.33480824	      0.61431621	     -0.84225780	     99.17978358	    -32.04756971	     -3.28791541	    100.47846814	      1.75368010	     29.63651519	      0.00000000	      0.00000000	     99.44102711	    -34.58823466	      5.25326409	    100.66539217	      1.75694254	     32.73394511	      0.00000000	      0.00000000	    -22.58863831	      1.17922646	     10.02274289	    -37.06876479	    -52.02325729	     33.11579786	     98.17697644	     87.81381065	      0.00000000	      0.00000000	     -5.34976966	    -60.85705414	     58.83038725	    103.99732272	     87.81174851	      0.00000000	      0.00000000
      6.44000000	    -33.78881025	     -2.33744210	      0.13402444	     -0.33539641	      0.61380849	     -0.84229194	     99.29897437	    -32.09269311	     -3.39617768	    100.52235439	      1.75444606	     29.58117268	      0.00000000	      0.00000000	     99.66485996	    -34.59228762	      5.36194474	    100.71187492	      1.75775381	     32.67043641	      0.00000000	      0.00000000	    -22.75591600	      1.25217978	      9.01307360	    -34.69414790	    -53.10168500	     35.69751586	     98.09040947	     87.83550952	      0.00000000	      0.00000000	     -8.72419376	    -60.71157078	     55.31183095	    104.17608924	     87.81888418	      0.00000000	      0.00000000
      6.44500000	    -33.82191593	     -2.39115506	      0.11126049	     -0.33614647	      0.61341246	     -0.84247069	     99.37073134	    -32.05691346	     -3.40611689	    100.49557496	      1.75397867	     29.56454926	      0.00000000	      0.00000000	     99.85605116	    -34.55546200	      5.48717908	    100.77713748	      1.75889286	     32.65848436	      0.00000000	      0.00000000	    -22.92798026	      1.41758972	     10.19881062	    -37.00841380	    -52.34710029	     33.38554512	     98.24149256	     87.84841799	      0.00000000	      0.00000000	     -4.57643282	    -60.97738314	     59.52457474	    104.07524718	     87.81551760	      0.00000000	      0.00000000
      6.45000000	    -33.89946133	     -2.46054847	      0.12331127	     -0.33678111	      0.61304577	     -0.84254657	     99.47028272	    -32.06603955	     -3.46584365	    100.49039269	      1.75388822	     29.52176212	      0.00000000	      0.00000000	    100.07506346	    -34.49784090	      5.61337631	    100.78876235	      1.75909575	     32.62077995	      0.00000000	      0.00000000	    -23.04835389	      1.50887142	      9.28006420	    -34.86544734	    -53.35939438	     35.73828425	     98.25446984	     87.82882442	      0.00000000	      0.00000000	     -7.52294290	    -60.85976137	     56.47710417	    104.31003862	     87.82045528	      0.00000000	      0.00000000
      6.45500000	    -33.99346890	     -2.45899367	      0.08273346	     -0.33742459	      0.61272352	     -0.84257506	     99.64142614	    -31.98676868	     -3.41146448	    100.45965712	      1.75335178	     29.34934515	      0.00000000	      0.00000000	    100.27826465	    -34.48859837	      5.68071529	    100.84197169	      1.76002443	     32.45076193	      0.00000000	      0.00000000	    -23.16675222	      1.52786959	      8.65808776	    -33.40739271	    -54.00593032	     37.29085655	     98.40212382	     87.84401226	      0.00000000	      0.00000000	     -9.73255419	    -60.77834847	     54.13979965	    104.52873935	     87.84614387	      0.00000000	      0.00000000
      6.46000000	    -33.97945839	     -2.55528000	      0.14724770	     -0.33791507	      0.61257052	     -0.84278477	     99.59780946	    -32.05087869	     -3.51334800	    100.46761732	      1.75349071	     29.46342369	      0.00000000	      0.00000000	    100.38836870	    -34.37626426	      5.81131029	    100.84426178	      1.76006440	     32.52914039	      0.00000000	      0.00000000	    -23.33239305	      1.78411973	     10.52109415	    -37.39801777	    -52.54029476	     33.22357105	     98.55042404	     87.84412323	      0.00000000	      0.00000000	     -3.01401961	    -61.15644899	     60.89002411	    104.28700957	     87.76161398	      0.00000000	      0.00000000
      6.46500000	    -34.08079983	     -2.50442989	      0.13235774	     -0.33850716	      0.61239879	     -0.84282833	     99.80786911	    -31.98506120	     -3.39976291	    100.44260498	      1.75305417	     29.34519241	      0.00000000	      0.00000000	    100.51184158	    -34.33370919	      5.77755676	    100.85581415	      1.76026603	     32.38541588	      0.00000000	      0.00000000	    -23.42707628	      1.73770713	      9.22628084	    -34.82505368	    -53.70905999	     35.77803442	     98.64947563	     87.90792743	      0.00000000	      0.00000000	     -7.41341303	    -61.05337705	     56.29321698	    104.64546873	     87.71345660	      0.00000000	      0.00000000
