Model Marker Errors from IK
version=1
nRows=631
nColumns=4
inDegrees=no
endheader
time	total_squared_error	marker_error_RMS	marker_error_max
      2.25000000	      0.02106209	      0.01873592	      0.04663583
      2.25500000	      0.02111199	      0.01875810	      0.04671953
      2.26000000	      0.02104721	      0.01872930	      0.04668918
      2.26500000	      0.02104596	      0.01872875	      0.04672423
      2.27000000	      0.02121435	      0.01880352	      0.04665977
      2.27500000	      0.02123306	      0.01881182	      0.04676903
      2.28000000	      0.02105983	      0.01873492	      0.04663002
      2.28500000	      0.02101822	      0.01871640	      0.04679476
      2.29000000	      0.02100429	      0.01871020	      0.04681092
      2.29500000	      0.02114249	      0.01877165	      0.04702029
      2.30000000	      0.02158675	      0.01896784	      0.04905161
      2.30500000	      0.02120769	      0.01880057	      0.04708803
      2.31000000	      0.02118319	      0.01878971	      0.04704181
      2.31500000	      0.02111995	      0.01876164	      0.04703283
      2.32000000	      0.02112329	      0.01876313	      0.04717792
      2.32500000	      0.02123198	      0.01881134	      0.04715715
      2.33000000	      0.02131445	      0.01884784	      0.04731525
      2.33500000	      0.02121328	      0.01880305	      0.04708557
      2.34000000	      0.02123116	      0.01881097	      0.04697451
      2.34500000	      0.02129873	      0.01884088	      0.04693644
      2.35000000	      0.02171366	      0.01902352	      0.04783386
      2.35500000	      0.02151486	      0.01893623	      0.04725603
      2.36000000	      0.02156210	      0.01895701	      0.04723694
      2.36500000	      0.02162404	      0.01898422	      0.04708956
      2.37000000	      0.02173802	      0.01903419	      0.04715635
      2.37500000	      0.02172720	      0.01902945	      0.04716780
      2.38000000	      0.02178759	      0.01905588	      0.04716204
      2.38500000	      0.02185368	      0.01908476	      0.04716816
      2.39000000	      0.02232399	      0.01928902	      0.04917608
      2.39500000	      0.02190645	      0.01910779	      0.04723824
      2.40000000	      0.02189831	      0.01910424	      0.04735860
      2.40500000	      0.02205408	      0.01917206	      0.04733936
      2.41000000	      0.02215979	      0.01921796	      0.04741657
      2.41500000	      0.02200982	      0.01915282	      0.04748713
      2.42000000	      0.02201044	      0.01915308	      0.04735054
      2.42500000	      0.02197619	      0.01913818	      0.04743731
      2.43000000	      0.02255333	      0.01938785	      0.04916027
      2.43500000	      0.02222337	      0.01924551	      0.04746582
      2.44000000	      0.02216077	      0.01921838	      0.04721328
      2.44500000	      0.02225740	      0.01926023	      0.04731032
      2.45000000	      0.02239138	      0.01931812	      0.04731425
      2.45500000	      0.02247274	      0.01935318	      0.04746742
      2.46000000	      0.02241783	      0.01932952	      0.04723547
      2.46500000	      0.02242247	      0.01933152	      0.04726814
      2.47000000	      0.02249051	      0.01936083	      0.04724692
      2.47500000	      0.02253674	      0.01938072	      0.04740932
      2.48000000	      0.02259637	      0.01940634	      0.04739643
      2.48500000	      0.02272838	      0.01946295	      0.04753480
      2.49000000	      0.02299684	      0.01957755	      0.04753929
      2.49500000	      0.02308344	      0.01961438	      0.04745767
      2.50000000	      0.02316790	      0.01965023	      0.04753908
      2.50500000	      0.02321766	      0.01967132	      0.04752999
      2.51000000	      0.02330228	      0.01970714	      0.04777378
      2.51500000	      0.02338178	      0.01974073	      0.04766206
      2.52000000	      0.02320864	      0.01966750	      0.04765045
      2.52500000	      0.02356600	      0.01981834	      0.04784099
      2.53000000	      0.02349354	      0.01978785	      0.04786393
      2.53500000	      0.02344980	      0.01976942	      0.04794094
      2.54000000	      0.02358182	      0.01982499	      0.04791898
      2.54500000	      0.02356449	      0.01981771	      0.04780045
      2.55000000	      0.02362838	      0.01984456	      0.04800242
      2.55500000	      0.02377323	      0.01990529	      0.04790053
      2.56000000	      0.02376820	      0.01990318	      0.04790829
      2.56500000	      0.02396663	      0.01998609	      0.04791351
      2.57000000	      0.02398763	      0.01999485	      0.04791333
      2.57500000	      0.02405655	      0.02002355	      0.04813277
      2.58000000	      0.02412623	      0.02005253	      0.04810444
      2.58500000	      0.02438773	      0.02016091	      0.04814742
      2.59000000	      0.02443284	      0.02017955	      0.04821644
      2.59500000	      0.02459016	      0.02024441	      0.04834935
      2.60000000	      0.02472259	      0.02029885	      0.04824612
      2.60500000	      0.02472058	      0.02029802	      0.04815782
      2.61000000	      0.02489790	      0.02037069	      0.04835776
      2.61500000	      0.02494593	      0.02039033	      0.04831602
      2.62000000	      0.02489615	      0.02036997	      0.04828859
      2.62500000	      0.02495954	      0.02039589	      0.04819513
      2.63000000	      0.02494984	      0.02039193	      0.04821402
      2.63500000	      0.02578116	      0.02072887	      0.05071380
      2.64000000	      0.02516801	      0.02048089	      0.04824315
      2.64500000	      0.02522205	      0.02050286	      0.04839511
      2.65000000	      0.02539379	      0.02057255	      0.04832929
      2.65500000	      0.02545436	      0.02059707	      0.04831276
      2.66000000	      0.02551192	      0.02062035	      0.04856135
      2.66500000	      0.02564286	      0.02067319	      0.04867841
      2.67000000	      0.02568950	      0.02069199	      0.04848279
      2.67500000	      0.02576216	      0.02072123	      0.04852092
      2.68000000	      0.02597369	      0.02080613	      0.04868486
      2.68500000	      0.02604486	      0.02083461	      0.04878655
      2.69000000	      0.02611644	      0.02086322	      0.04875062
      2.69500000	      0.02612851	      0.02086804	      0.04858528
      2.70000000	      0.02629218	      0.02093330	      0.04858092
      2.70500000	      0.02645356	      0.02099744	      0.04855097
      2.71000000	      0.02688689	      0.02116872	      0.05026419
      2.71500000	      0.02629854	      0.02093583	      0.04870685
      2.72000000	      0.02635544	      0.02095847	      0.04862895
      2.72500000	      0.02648255	      0.02100895	      0.04875474
      2.73000000	      0.02648008	      0.02100797	      0.04894294
      2.73500000	      0.02657541	      0.02104575	      0.04901884
      2.74000000	      0.02664647	      0.02107387	      0.04908162
      2.74500000	      0.02663213	      0.02106820	      0.04920195
      2.75000000	      0.02684447	      0.02115202	      0.04881591
      2.75500000	      0.02695986	      0.02119743	      0.04897246
      2.76000000	      0.02699370	      0.02121073	      0.04910722
      2.76500000	      0.02683007	      0.02114634	      0.04901989
      2.77000000	      0.02694350	      0.02119100	      0.04901705
      2.77500000	      0.02728043	      0.02132308	      0.04933000
      2.78000000	      0.02732112	      0.02133898	      0.04924329
      2.78500000	      0.02716769	      0.02127897	      0.04921835
      2.79000000	      0.02749733	      0.02140768	      0.05085360
      2.79500000	      0.02727947	      0.02132271	      0.04931778
      2.80000000	      0.02725308	      0.02131239	      0.04921576
      2.80500000	      0.02728468	      0.02132474	      0.04895930
      2.81000000	      0.02746129	      0.02139365	      0.04921508
      2.81500000	      0.02747166	      0.02139769	      0.04908887
      2.82000000	      0.02762997	      0.02145925	      0.04899365
      2.82500000	      0.02772226	      0.02149506	      0.04911869
      2.83000000	      0.02781236	      0.02152996	      0.04914650
      2.83500000	      0.02771460	      0.02149209	      0.04890612
      2.84000000	      0.02789124	      0.02156047	      0.04906815
      2.84500000	      0.02794976	      0.02158308	      0.04918730
      2.85000000	      0.02858613	      0.02182740	      0.04911134
      2.85500000	      0.02835657	      0.02173958	      0.04941281
      2.86000000	      0.02885168	      0.02192855	      0.05047197
      2.86500000	      0.02853321	      0.02180719	      0.04934754
      2.87000000	      0.02885872	      0.02193123	      0.05028874
      2.87500000	      0.02877987	      0.02190125	      0.04947693
      2.88000000	      0.02882551	      0.02191860	      0.04937792
      2.88500000	      0.02903194	      0.02199695	      0.04929220
      2.89000000	      0.02909309	      0.02202010	      0.04933690
      2.89500000	      0.02921612	      0.02206661	      0.04950084
      2.90000000	      0.02927828	      0.02209007	      0.04955103
      2.90500000	      0.02941863	      0.02214296	      0.04953175
      2.91000000	      0.02951628	      0.02217968	      0.04958032
      2.91500000	      0.03009493	      0.02239603	      0.05113082
      2.92000000	      0.02969754	      0.02224767	      0.04982654
      2.92500000	      0.02971883	      0.02225565	      0.04971626
      2.93000000	      0.02965840	      0.02223301	      0.04951484
      2.93500000	      0.02968626	      0.02224345	      0.04959968
      2.94000000	      0.02988593	      0.02231813	      0.04968094
      2.94500000	      0.02986298	      0.02230956	      0.05010863
      2.95000000	      0.02998191	      0.02235394	      0.04982842
      2.95500000	      0.03017361	      0.02242529	      0.05046325
      2.96000000	      0.03026190	      0.02245807	      0.04982442
      2.96500000	      0.03032636	      0.02248198	      0.04976805
      2.97000000	      0.03040387	      0.02251069	      0.04979359
      2.97500000	      0.03051230	      0.02255080	      0.04974376
      2.98000000	      0.03059108	      0.02257989	      0.04999226
      2.98500000	      0.03070668	      0.02262251	      0.05031222
      2.99000000	      0.03082684	      0.02266673	      0.04980117
      2.99500000	      0.03103523	      0.02274321	      0.05000043
      3.00000000	      0.03116348	      0.02279016	      0.05018553
      3.00500000	      0.03138200	      0.02286992	      0.05054840
      3.01000000	      0.03137900	      0.02286883	      0.05002221
      3.01500000	      0.03171525	      0.02299103	      0.05090636
      3.02000000	      0.03160403	      0.02295068	      0.04993629
      3.02500000	      0.03166249	      0.02297190	      0.05009096
      3.03000000	      0.03202528	      0.02310313	      0.05206510
      3.03500000	      0.03178627	      0.02301676	      0.05071179
      3.04000000	      0.03190699	      0.02306042	      0.05072680
      3.04500000	      0.03198565	      0.02308883	      0.05090745
      3.05000000	      0.03212909	      0.02314054	      0.05100014
      3.05500000	      0.03235046	      0.02322013	      0.05142758
      3.06000000	      0.03241844	      0.02324451	      0.05120909
      3.06500000	      0.03251357	      0.02327859	      0.05152875
      3.07000000	      0.03261512	      0.02331492	      0.05179387
      3.07500000	      0.03276994	      0.02337019	      0.05165072
      3.08000000	      0.03274151	      0.02336005	      0.05175070
      3.08500000	      0.03286994	      0.02340582	      0.05226287
      3.09000000	      0.03297861	      0.02344448	      0.05187418
      3.09500000	      0.03369004	      0.02369600	      0.05421857
      3.10000000	      0.03313527	      0.02350010	      0.05238138
      3.10500000	      0.03330827	      0.02356136	      0.05284322
      3.11000000	      0.03333234	      0.02356988	      0.05267547
      3.11500000	      0.03350518	      0.02363090	      0.05259561
      3.12000000	      0.03361652	      0.02367014	      0.05262813
      3.12500000	      0.03360753	      0.02366697	      0.05279478
      3.13000000	      0.03362133	      0.02367183	      0.05293095
      3.13500000	      0.03361746	      0.02367047	      0.05302591
      3.14000000	      0.03441827	      0.02395074	      0.05446582
      3.14500000	      0.03466952	      0.02403800	      0.05528113
      3.15000000	      0.03415738	      0.02385979	      0.05327987
      3.15500000	      0.03410679	      0.02384212	      0.05326407
      3.16000000	      0.03422259	      0.02388256	      0.05353961
      3.16500000	      0.03434139	      0.02392397	      0.05367553
      3.17000000	      0.03448802	      0.02397499	      0.05373521
      3.17500000	      0.03502154	      0.02415973	      0.05511097
      3.18000000	      0.03464191	      0.02402842	      0.05377109
      3.18500000	      0.03459278	      0.02401138	      0.05396010
      3.19000000	      0.03475669	      0.02406820	      0.05408970
      3.19500000	      0.03492750	      0.02412727	      0.05420393
      3.20000000	      0.03501772	      0.02415841	      0.05408244
      3.20500000	      0.03564857	      0.02437504	      0.05615886
      3.21000000	      0.03515726	      0.02420649	      0.05425385
      3.21500000	      0.03522446	      0.02422962	      0.05413807
      3.22000000	      0.03535108	      0.02427313	      0.05459776
      3.22500000	      0.03535795	      0.02427549	      0.05451185
      3.23000000	      0.03544674	      0.02430595	      0.05461702
      3.23500000	      0.03549583	      0.02432277	      0.05456553
      3.24000000	      0.03570391	      0.02439396	      0.05482782
      3.24500000	      0.03639203	      0.02462791	      0.05713168
      3.25000000	      0.03584905	      0.02444349	      0.05532012
      3.25500000	      0.03645549	      0.02464937	      0.05684551
      3.26000000	      0.03624787	      0.02457908	      0.05533785
      3.26500000	      0.03643898	      0.02464379	      0.05554459
      3.27000000	      0.03626057	      0.02458339	      0.05529905
      3.27500000	      0.03645393	      0.02464884	      0.05567838
      3.28000000	      0.03659807	      0.02469753	      0.05583226
      3.28500000	      0.03676306	      0.02475313	      0.05587965
      3.29000000	      0.03677937	      0.02475863	      0.05569247
      3.29500000	      0.03707316	      0.02485731	      0.05684209
      3.30000000	      0.03697279	      0.02482364	      0.05610250
      3.30500000	      0.03712908	      0.02487605	      0.05634402
      3.31000000	      0.03723998	      0.02491317	      0.05669113
      3.31500000	      0.03745223	      0.02498407	      0.05668462
      3.32000000	      0.03754338	      0.02501446	      0.05646205
      3.32500000	      0.03754796	      0.02501598	      0.05669280
      3.33000000	      0.03764340	      0.02504776	      0.05680703
      3.33500000	      0.03801247	      0.02517024	      0.05700791
      3.34000000	      0.03811991	      0.02520579	      0.05716138
      3.34500000	      0.03826967	      0.02525525	      0.05732844
      3.35000000	      0.03848351	      0.02532571	      0.05761916
      3.35500000	      0.03861309	      0.02536832	      0.05763535
      3.36000000	      0.03871345	      0.02540126	      0.05759972
      3.36500000	      0.03896199	      0.02548267	      0.05775504
      3.37000000	      0.03921760	      0.02556612	      0.05816202
      3.37500000	      0.03949303	      0.02565574	      0.05841540
      3.38000000	      0.03969693	      0.02572189	      0.05863411
      3.38500000	      0.03996515	      0.02580864	      0.05889126
      3.39000000	      0.04023618	      0.02589600	      0.05908228
      3.39500000	      0.04044779	      0.02596401	      0.05908214
      3.40000000	      0.04073205	      0.02605509	      0.05945339
      3.40500000	      0.04092728	      0.02611745	      0.05941890
      3.41000000	      0.04119528	      0.02620283	      0.05978061
      3.41500000	      0.04148588	      0.02629508	      0.06014975
      3.42000000	      0.04175063	      0.02637885	      0.06046143
      3.42500000	      0.04212894	      0.02649810	      0.06068406
      3.43000000	      0.04255246	      0.02663095	      0.06107823
      3.43500000	      0.04265163	      0.02666197	      0.06085211
      3.44000000	      0.04298407	      0.02676567	      0.06102636
      3.44500000	      0.04335714	      0.02688157	      0.06127122
      3.45000000	      0.04368853	      0.02698411	      0.06167009
      3.45500000	      0.04409167	      0.02710832	      0.06214810
      3.46000000	      0.04436923	      0.02719351	      0.06234631
      3.46500000	      0.04478422	      0.02732039	      0.06263655
      3.47000000	      0.04512391	      0.02742381	      0.06317029
      3.47500000	      0.05028057	      0.02894839	      0.06611493
      3.48000000	      0.05063028	      0.02904889	      0.06645066
      3.48500000	      0.05095973	      0.02914325	      0.06666065
      3.49000000	      0.05134902	      0.02925435	      0.06689099
      3.49500000	      0.05183462	      0.02939235	      0.06736274
      3.50000000	      0.05214518	      0.02948027	      0.06766667
      3.50500000	      0.05270088	      0.02963694	      0.06773643
      3.51000000	      0.05263406	      0.02961814	      0.06808724
      3.51500000	      0.05322386	      0.02978362	      0.06849853
      3.52000000	      0.05386805	      0.02996332	      0.06866461
      3.52500000	      0.05441669	      0.03011552	      0.06913650
      3.53000000	      0.05481292	      0.03022497	      0.06935150
      3.53500000	      0.05525776	      0.03034737	      0.06993153
      3.54000000	      0.05543395	      0.03039571	      0.06990741
      3.54500000	      0.05613218	      0.03058654	      0.07029543
      3.55000000	      0.05655428	      0.03070133	      0.07071003
      3.55500000	      0.05732044	      0.03090859	      0.07255378
      3.56000000	      0.05735129	      0.03091690	      0.07131939
      3.56500000	      0.05782041	      0.03104309	      0.07156141
      3.57000000	      0.05818208	      0.03114003	      0.07177598
      3.57500000	      0.05868375	      0.03127399	      0.07241983
      3.58000000	      0.05917964	      0.03140585	      0.07259574
      3.58500000	      0.05975813	      0.03155897	      0.07323484
      3.59000000	      0.06016908	      0.03166730	      0.07325955
      3.59500000	      0.06059258	      0.03177855	      0.07343986
      3.60000000	      0.06083407	      0.03184182	      0.07386622
      3.60500000	      0.06122670	      0.03194440	      0.07430051
      3.61000000	      0.06172161	      0.03207325	      0.07468184
      3.61500000	      0.06175222	      0.03208120	      0.07465051
      3.62000000	      0.06226706	      0.03221466	      0.07494332
      3.62500000	      0.06279065	      0.03234982	      0.07537750
      3.63000000	      0.06293065	      0.03238586	      0.07571414
      3.63500000	      0.06293996	      0.03238826	      0.07529722
      3.64000000	      0.06385653	      0.03262324	      0.07576143
      3.64500000	      0.06438593	      0.03275819	      0.07639228
      3.65000000	      0.06455108	      0.03280017	      0.07639816
      3.65500000	      0.06494515	      0.03290014	      0.07646806
      3.66000000	      0.06518962	      0.03296200	      0.07699590
      3.66500000	      0.06570016	      0.03309082	      0.07719433
      3.67000000	      0.06620498	      0.03321771	      0.07743333
      3.67500000	      0.06620825	      0.03321853	      0.07727102
      3.68000000	      0.06676524	      0.03335797	      0.07762372
      3.68500000	      0.06690324	      0.03339242	      0.07795906
      3.69000000	      0.06729652	      0.03349043	      0.07792985
      3.69500000	      0.06780651	      0.03361709	      0.07815058
      3.70000000	      0.06787998	      0.03363529	      0.07842334
      3.70500000	      0.06807524	      0.03368364	      0.07817984
      3.71000000	      0.06780575	      0.03361690	      0.07812292
      3.71500000	      0.06802335	      0.03367080	      0.07839477
      3.72000000	      0.06823326	      0.03372271	      0.07853809
      3.72500000	      0.06840286	      0.03376459	      0.07867977
      3.73000000	      0.06848208	      0.03378414	      0.07881525
      3.73500000	      0.06865176	      0.03382597	      0.07880506
      3.74000000	      0.06928460	      0.03398152	      0.07915978
      3.74500000	      0.06943185	      0.03401760	      0.07907087
      3.75000000	      0.06912328	      0.03394193	      0.07904185
      3.75500000	      0.06920809	      0.03396275	      0.07908712
      3.76000000	      0.06937449	      0.03400355	      0.07901576
      3.76500000	      0.06987144	      0.03412512	      0.07929788
      3.77000000	      0.06997595	      0.03415063	      0.07915532
      3.77500000	      0.07016931	      0.03419779	      0.07937394
      3.78000000	      0.07017890	      0.03420012	      0.07964354
      3.78500000	      0.07021891	      0.03420987	      0.07947905
      3.79000000	      0.07041020	      0.03425643	      0.07952787
      3.79500000	      0.07046100	      0.03426879	      0.07958902
      3.80000000	      0.07074393	      0.03433752	      0.07960767
      3.80500000	      0.07060603	      0.03430404	      0.07960476
      3.81000000	      0.07065481	      0.03431589	      0.07956774
      3.81500000	      0.07074397	      0.03433753	      0.07948809
      3.82000000	      0.07092998	      0.03438265	      0.07950601
      3.82500000	      0.07102600	      0.03440591	      0.07972236
      3.83000000	      0.07110893	      0.03442599	      0.07981535
      3.83500000	      0.07120430	      0.03444907	      0.07989688
      3.84000000	      0.07141418	      0.03449980	      0.07990121
      3.84500000	      0.07146778	      0.03451275	      0.08003657
      3.85000000	      0.07154537	      0.03453148	      0.08011559
      3.85500000	      0.07163854	      0.03455395	      0.08012991
      3.86000000	      0.07185966	      0.03460724	      0.08017146
      3.86500000	      0.07192385	      0.03462269	      0.07976809
      3.87000000	      0.07187007	      0.03460974	      0.07986033
      3.87500000	      0.07211302	      0.03466819	      0.07993878
      3.88000000	      0.07223944	      0.03469857	      0.08013999
      3.88500000	      0.07235025	      0.03472517	      0.08009198
      3.89000000	      0.07234868	      0.03472479	      0.08022693
      3.89500000	      0.07235459	      0.03472621	      0.08028500
      3.90000000	      0.07266698	      0.03480110	      0.08048109
      3.90500000	      0.07284385	      0.03484342	      0.08053477
      3.91000000	      0.07296420	      0.03487220	      0.08065768
      3.91500000	      0.07314561	      0.03491552	      0.08071913
      3.92000000	      0.07318436	      0.03492477	      0.08075083
      3.92500000	      0.07320792	      0.03493039	      0.08061395
      3.93000000	      0.07355114	      0.03501217	      0.08102099
      3.93500000	      0.07358479	      0.03502018	      0.08106142
      3.94000000	      0.07376853	      0.03506388	      0.08110633
      3.94500000	      0.07369872	      0.03504728	      0.08104629
      3.95000000	      0.07374104	      0.03505734	      0.08093026
      3.95500000	      0.07387822	      0.03508994	      0.08115022
      3.96000000	      0.07376369	      0.03506273	      0.08134355
      3.96500000	      0.07379102	      0.03506922	      0.08109785
      3.97000000	      0.07378194	      0.03506706	      0.08125368
      3.97500000	      0.07386033	      0.03508569	      0.08133969
      3.98000000	      0.07384990	      0.03508321	      0.08126302
      3.98500000	      0.07383125	      0.03507878	      0.08131952
      3.99000000	      0.07386996	      0.03508797	      0.08125670
      3.99500000	      0.07397245	      0.03511231	      0.08115058
      4.00000000	      0.07397288	      0.03511241	      0.08120659
      4.00500000	      0.07391388	      0.03509840	      0.08121868
      4.01000000	      0.07408770	      0.03513965	      0.08133892
      4.01500000	      0.07395967	      0.03510928	      0.08142757
      4.02000000	      0.07409485	      0.03514134	      0.08151425
      4.02500000	      0.07409677	      0.03514180	      0.08149582
      4.03000000	      0.07410198	      0.03514304	      0.08147107
      4.03500000	      0.07411588	      0.03514633	      0.08129693
      4.04000000	      0.07395406	      0.03510794	      0.08126173
      4.04500000	      0.07403052	      0.03512609	      0.08116464
      4.05000000	      0.07406543	      0.03513437	      0.08117451
      4.05500000	      0.07414831	      0.03515402	      0.08102354
      4.06000000	      0.07390511	      0.03509632	      0.08057791
      4.06500000	      0.07386376	      0.03508650	      0.08110715
      4.07000000	      0.07400524	      0.03512009	      0.08045222
      4.07500000	      0.07385442	      0.03508428	      0.08067678
      4.08000000	      0.07392436	      0.03510089	      0.08048960
      4.08500000	      0.07380616	      0.03507282	      0.08054974
      4.09000000	      0.07389200	      0.03509321	      0.08041259
      4.09500000	      0.07411327	      0.03514571	      0.08071588
      4.10000000	      0.07409760	      0.03514200	      0.08029541
      4.10500000	      0.07419274	      0.03516455	      0.08050272
      4.11000000	      0.07403826	      0.03512792	      0.08049152
      4.11500000	      0.07399319	      0.03511723	      0.08066828
      4.12000000	      0.07406805	      0.03513499	      0.08061795
      4.12500000	      0.07392234	      0.03510041	      0.08062229
      4.13000000	      0.07387829	      0.03508995	      0.08066695
      4.13500000	      0.07425052	      0.03517824	      0.08063345
      4.14000000	      0.07414756	      0.03515384	      0.08082493
      4.14500000	      0.07420536	      0.03516754	      0.08072656
      4.15000000	      0.07439302	      0.03521198	      0.08085929
      4.15500000	      0.07420220	      0.03516679	      0.08055616
      4.16000000	      0.07416338	      0.03515759	      0.08069407
      4.16500000	      0.07403111	      0.03512623	      0.08078305
      4.17000000	      0.07421398	      0.03516959	      0.08098310
      4.17500000	      0.07405242	      0.03513128	      0.08098017
      4.18000000	      0.07416231	      0.03515734	      0.08089327
      4.18500000	      0.07398523	      0.03511534	      0.08062308
      4.19000000	      0.07404684	      0.03512996	      0.08091475
      4.19500000	      0.07417707	      0.03516084	      0.08076117
      4.20000000	      0.07410746	      0.03514434	      0.08093372
      4.20500000	      0.07409401	      0.03514115	      0.08086274
      4.21000000	      0.07413768	      0.03515150	      0.08075757
      4.21500000	      0.07417028	      0.03515923	      0.08069984
      4.22000000	      0.07388318	      0.03509111	      0.08017094
      4.22500000	      0.07404822	      0.03513028	      0.08042482
      4.23000000	      0.07363967	      0.03503324	      0.08055380
      4.23500000	      0.07376837	      0.03506384	      0.08045618
      4.24000000	      0.07378450	      0.03506767	      0.08048393
      4.24500000	      0.07386805	      0.03508752	      0.08051101
      4.25000000	      0.07366309	      0.03503881	      0.08040110
      4.25500000	      0.07348083	      0.03499543	      0.08014221
      4.26000000	      0.07351211	      0.03500288	      0.08031726
      4.26500000	      0.07315571	      0.03491793	      0.08019128
      4.27000000	      0.07322367	      0.03493414	      0.08030905
      4.27500000	      0.07316419	      0.03491995	      0.08030447
      4.28000000	      0.07289209	      0.03485496	      0.08039622
      4.28500000	      0.07283308	      0.03484085	      0.08027255
      4.29000000	      0.07253615	      0.03476976	      0.07994300
      4.29500000	      0.07238654	      0.03473388	      0.08012215
      4.30000000	      0.07211911	      0.03466966	      0.07998307
      4.30500000	      0.07206568	      0.03465681	      0.07980011
      4.31000000	      0.07195129	      0.03462930	      0.07965665
      4.31500000	      0.07162247	      0.03455008	      0.07994861
      4.32000000	      0.07149930	      0.03452036	      0.07954568
      4.32500000	      0.07113715	      0.03443282	      0.07932759
      4.33000000	      0.07096257	      0.03439054	      0.07937359
      4.33500000	      0.07070607	      0.03432833	      0.07900968
      4.34000000	      0.07065390	      0.03431567	      0.07886707
      4.34500000	      0.07042921	      0.03426106	      0.07894988
      4.35000000	      0.07018066	      0.03420055	      0.07886046
      4.35500000	      0.07007087	      0.03417379	      0.07897503
      4.36000000	      0.06987468	      0.03412591	      0.07876189
      4.36500000	      0.06999386	      0.03415501	      0.07870919
      4.37000000	      0.06960081	      0.03405897	      0.07864485
      4.37500000	      0.06942190	      0.03401517	      0.07851253
      4.38000000	      0.06933705	      0.03399438	      0.07876016
      4.38500000	      0.06938650	      0.03400649	      0.07852209
      4.39000000	      0.06896555	      0.03390318	      0.07834470
      4.39500000	      0.06889335	      0.03388543	      0.07789544
      4.40000000	      0.06876928	      0.03385491	      0.07789554
      4.40500000	      0.06858579	      0.03380971	      0.07775836
      4.41000000	      0.06812152	      0.03369508	      0.07781201
      4.41500000	      0.06798794	      0.03366203	      0.07790451
      4.42000000	      0.06804209	      0.03367543	      0.07754551
      4.42500000	      0.06759653	      0.03356499	      0.07766480
      4.43000000	      0.06731353	      0.03349466	      0.07739850
      4.43500000	      0.06728822	      0.03348836	      0.07742465
      4.44000000	      0.06677997	      0.03336165	      0.07730621
      4.44500000	      0.06646699	      0.03328338	      0.07677209
      4.45000000	      0.06622726	      0.03322330	      0.07690710
      4.45500000	      0.06598711	      0.03316301	      0.07660987
      4.46000000	      0.06571812	      0.03309535	      0.07677578
      4.46500000	      0.06553518	      0.03304925	      0.07654943
      4.47000000	      0.06499259	      0.03291215	      0.07644854
      4.47500000	      0.06458463	      0.03280870	      0.07658728
      4.48000000	      0.06455316	      0.03280070	      0.07602332
      4.48500000	      0.06418503	      0.03270704	      0.07610907
      4.49000000	      0.06376811	      0.03260064	      0.07591898
      4.49500000	      0.06362925	      0.03256513	      0.07574364
      4.50000000	      0.06314101	      0.03243995	      0.07561765
      4.50500000	      0.06277772	      0.03234649	      0.07510946
      4.51000000	      0.06237161	      0.03224169	      0.07515668
      4.51500000	      0.06208369	      0.03216719	      0.07480265
      4.52000000	      0.06164613	      0.03205363	      0.07486133
      4.52500000	      0.06121865	      0.03194230	      0.07446062
      4.53000000	      0.06114589	      0.03192332	      0.07422004
      4.53500000	      0.06054345	      0.03176567	      0.07402404
      4.54000000	      0.06037819	      0.03172228	      0.07375460
      4.54500000	      0.05994526	      0.03160835	      0.07382142
      4.55000000	      0.05997640	      0.03161656	      0.07348719
      4.55500000	      0.05949189	      0.03148859	      0.07327129
      4.56000000	      0.05921133	      0.03141426	      0.07336934
      4.56500000	      0.05883829	      0.03131514	      0.07268695
      4.57000000	      0.05855262	      0.03123903	      0.07266137
      4.57500000	      0.05844825	      0.03121118	      0.07245185
      4.58000000	      0.05817941	      0.03113931	      0.07256977
      4.58500000	      0.05800632	      0.03109296	      0.07245568
      4.59000000	      0.05776099	      0.03102714	      0.07208368
      4.59500000	      0.05753003	      0.03096504	      0.07205614
      4.60000000	      0.05746636	      0.03094790	      0.07187477
      4.60500000	      0.05713060	      0.03085736	      0.07183161
      4.61000000	      0.05718724	      0.03087265	      0.07174408
      4.61500000	      0.05685056	      0.03078164	      0.07179370
      4.62000000	      0.05684943	      0.03078133	      0.07158005
      4.62500000	      0.05625059	      0.03061878	      0.07102856
      4.63000000	      0.05636184	      0.03064904	      0.07080566
      4.63500000	      0.05585447	      0.03051078	      0.07080319
      4.64000000	      0.05526815	      0.03035022	      0.07061522
      4.64500000	      0.05497761	      0.03027034	      0.07028390
      4.65000000	      0.05509412	      0.03030240	      0.07033491
      4.65500000	      0.05496667	      0.03026733	      0.07049113
      4.66000000	      0.05467644	      0.03018732	      0.07009693
      4.66500000	      0.05435247	      0.03009775	      0.07024378
      4.67000000	      0.05419105	      0.03005302	      0.06994246
      4.67500000	      0.05386259	      0.02996181	      0.06983786
      4.68000000	      0.05357154	      0.02988075	      0.06951289
      4.68500000	      0.05349839	      0.02986034	      0.06915499
      4.69000000	      0.05335691	      0.02982083	      0.06980583
      4.69500000	      0.05291376	      0.02969673	      0.06908364
      4.70000000	      0.05264180	      0.02962032	      0.06934013
      4.70500000	      0.05261180	      0.02961188	      0.06911594
      4.71000000	      0.05223948	      0.02950691	      0.06903307
      4.71500000	      0.05210691	      0.02946945	      0.06880828
      4.72000000	      0.05200143	      0.02943961	      0.06868268
      4.72500000	      0.05153369	      0.02930691	      0.06833852
      4.73000000	      0.05172792	      0.02936208	      0.06866104
      4.73500000	      0.05151865	      0.02930263	      0.06842785
      4.74000000	      0.05135835	      0.02925701	      0.06810717
      4.74500000	      0.05115932	      0.02920026	      0.06783220
      4.75000000	      0.05107117	      0.02917510	      0.06802356
      4.75500000	      0.05111214	      0.02918680	      0.06786323
      4.76000000	      0.05064913	      0.02905430	      0.06746557
      4.76500000	      0.05027508	      0.02894681	      0.06755231
      4.77000000	      0.05041853	      0.02898808	      0.06748575
      4.77500000	      0.05022719	      0.02893302	      0.06724434
      4.78000000	      0.05007694	      0.02888972	      0.06664518
      4.78500000	      0.04971187	      0.02878422	      0.06719522
      4.79000000	      0.04959904	      0.02875153	      0.06657876
      4.79500000	      0.04916730	      0.02862612	      0.06650873
      4.80000000	      0.04884251	      0.02853142	      0.06652771
      4.80500000	      0.04890007	      0.02854823	      0.06638091
      4.81000000	      0.04871311	      0.02849360	      0.06596262
      4.81500000	      0.04855717	      0.02844795	      0.06589102
      4.82000000	      0.04827067	      0.02836391	      0.06594919
      4.82500000	      0.04797010	      0.02827546	      0.06548310
      4.83000000	      0.04755505	      0.02815287	      0.06521589
      4.83500000	      0.04734162	      0.02808962	      0.06502270
      4.84000000	      0.04740480	      0.02810836	      0.06496077
      4.84500000	      0.04709075	      0.02801510	      0.06528748
      4.85000000	      0.04689008	      0.02795534	      0.06472163
      4.85500000	      0.04671234	      0.02790231	      0.06454152
      4.86000000	      0.04665025	      0.02788376	      0.06436638
      4.86500000	      0.04632174	      0.02778541	      0.06431971
      4.87000000	      0.04603380	      0.02769892	      0.06421025
      4.87500000	      0.04608478	      0.02771425	      0.06406093
      4.88000000	      0.04557822	      0.02756151	      0.06398187
      4.88500000	      0.04577676	      0.02762148	      0.06406208
      4.89000000	      0.04518022	      0.02744091	      0.06375027
      4.89500000	      0.04514153	      0.02742916	      0.06341388
      4.90000000	      0.04486377	      0.02734464	      0.06305386
      4.90500000	      0.04430579	      0.02717407	      0.06310580
      4.91000000	      0.04429703	      0.02717138	      0.06281514
      4.91500000	      0.04433256	      0.02718227	      0.06270605
      4.92000000	      0.04404445	      0.02709380	      0.06285626
      4.92500000	      0.04345454	      0.02691175	      0.06225182
      4.93000000	      0.04334093	      0.02687655	      0.06220992
      4.93500000	      0.04322866	      0.02684172	      0.06212999
      4.94000000	      0.04292163	      0.02674622	      0.06172103
      4.94500000	      0.04290662	      0.02674155	      0.06225137
      4.95000000	      0.04297229	      0.02676200	      0.06203816
      4.95500000	      0.04284019	      0.02672084	      0.06183506
      4.96000000	      0.04212661	      0.02649736	      0.06140824
      4.96500000	      0.04193672	      0.02643757	      0.06096051
      4.97000000	      0.04165160	      0.02634755	      0.06115330
      4.97500000	      0.04135164	      0.02625251	      0.06074344
      4.98000000	      0.04092608	      0.02611707	      0.06086487
      4.98500000	      0.04077861	      0.02606997	      0.06059834
      4.99000000	      0.04044268	      0.02596237	      0.06031518
      4.99500000	      0.04055520	      0.02599846	      0.06019513
      5.00000000	      0.04022481	      0.02589235	      0.06030606
      5.00500000	      0.04001002	      0.02582312	      0.05996628
      5.01000000	      0.03951768	      0.02566375	      0.05977226
      5.01500000	      0.03937687	      0.02561799	      0.05949460
      5.02000000	      0.03928964	      0.02558960	      0.05928002
      5.02500000	      0.03892859	      0.02547175	      0.05942854
      5.03000000	      0.03861926	      0.02537034	      0.05950012
      5.03500000	      0.03848308	      0.02532557	      0.05977857
      5.04000000	      0.03841482	      0.02530310	      0.05919228
      5.04500000	      0.03811047	      0.02520267	      0.05932064
      5.05000000	      0.03785504	      0.02511807	      0.05859239
      5.05500000	      0.03730360	      0.02493445	      0.05833590
      5.06000000	      0.03701814	      0.02483886	      0.05850359
      5.06500000	      0.03701260	      0.02483700	      0.05882573
      5.07000000	      0.03670233	      0.02473268	      0.05805393
      5.07500000	      0.03640911	      0.02463369	      0.05788902
      5.08000000	      0.03648461	      0.02465922	      0.05796627
      5.08500000	      0.03656480	      0.02468630	      0.05820438
      5.09000000	      0.03628457	      0.02459152	      0.05829220
      5.09500000	      0.03593805	      0.02447381	      0.05748863
      5.10000000	      0.03555403	      0.02434270	      0.05745231
      5.10500000	      0.03540208	      0.02429063	      0.05745774
      5.11000000	      0.03555237	      0.02434213	      0.05741987
      5.11500000	      0.03516186	      0.02420808	      0.05725958
      5.12000000	      0.03504234	      0.02416690	      0.05719685
      5.12500000	      0.03507981	      0.02417981	      0.05738929
      5.13000000	      0.03482393	      0.02409147	      0.05706555
      5.13500000	      0.03463151	      0.02402482	      0.05694717
      5.14000000	      0.03465322	      0.02403234	      0.05703275
      5.14500000	      0.03434495	      0.02392521	      0.05717852
      5.15000000	      0.03434976	      0.02392689	      0.05689596
      5.15500000	      0.03420011	      0.02387471	      0.05697594
      5.16000000	      0.03404922	      0.02382199	      0.05763537
      5.16500000	      0.03380010	      0.02373468	      0.05650829
      5.17000000	      0.03385624	      0.02375438	      0.05662351
      5.17500000	      0.03369401	      0.02369740	      0.05661282
      5.18000000	      0.03356141	      0.02365073	      0.05709845
      5.18500000	      0.03351721	      0.02363515	      0.05667703
      5.19000000	      0.03353424	      0.02364115	      0.05663835
      5.19500000	      0.03353557	      0.02364162	      0.05686317
      5.20000000	      0.03343902	      0.02360756	      0.05659163
      5.20500000	      0.03324206	      0.02353793	      0.05658280
      5.21000000	      0.03310022	      0.02348766	      0.05645585
      5.21500000	      0.03294920	      0.02343402	      0.05646486
      5.22000000	      0.03289945	      0.02341632	      0.05670362
      5.22500000	      0.03292389	      0.02342502	      0.05650294
      5.23000000	      0.03260279	      0.02331051	      0.05649022
      5.23500000	      0.03260161	      0.02331009	      0.05638689
      5.24000000	      0.03244383	      0.02325361	      0.05619899
      5.24500000	      0.03240515	      0.02323975	      0.05623554
      5.25000000	      0.03226248	      0.02318853	      0.05612348
      5.25500000	      0.03216992	      0.02315525	      0.05598155
      5.26000000	      0.03220307	      0.02316717	      0.05632419
      5.26500000	      0.03215050	      0.02314826	      0.05642976
      5.27000000	      0.03211048	      0.02313384	      0.05621302
      5.27500000	      0.03203865	      0.02310795	      0.05641290
      5.28000000	      0.03186038	      0.02304357	      0.05621276
      5.28500000	      0.03173972	      0.02299990	      0.05620851
      5.29000000	      0.03167299	      0.02297571	      0.05627647
      5.29500000	      0.03155707	      0.02293363	      0.05610467
      5.30000000	      0.03138003	      0.02286920	      0.05613527
      5.30500000	      0.03135655	      0.02286065	      0.05583333
      5.31000000	      0.03132491	      0.02284911	      0.05594065
      5.31500000	      0.03121470	      0.02280888	      0.05600305
      5.32000000	      0.03103524	      0.02274322	      0.05574797
      5.32500000	      0.03116940	      0.02279232	      0.05588325
      5.33000000	      0.03121799	      0.02281008	      0.05590765
      5.33500000	      0.03122069	      0.02281107	      0.05652310
      5.34000000	      0.03056602	      0.02257064	      0.05510332
      5.34500000	      0.03057346	      0.02257339	      0.05584910
      5.35000000	      0.03070009	      0.02262008	      0.05536879
      5.35500000	      0.03055042	      0.02256488	      0.05553732
      5.36000000	      0.03052239	      0.02255452	      0.05544957
      5.36500000	      0.03047419	      0.02253671	      0.05557226
      5.37000000	      0.03041272	      0.02251397	      0.05570143
      5.37500000	      0.03034132	      0.02248752	      0.05537097
      5.38000000	      0.03011552	      0.02240369	      0.05543511
      5.38500000	      0.03025220	      0.02245447	      0.05547151
      5.39000000	      0.03006549	      0.02238507	      0.05552216
      5.39500000	      0.03006599	      0.02238526	      0.05538636
      5.40000000	      0.03013619	      0.02241138	      0.05537333
