_ik_marker_errors_all.sto
version=1
nRows=112
nColumns=62
in_degrees=yes
endheader
time	FHD	LBHD	RBHD	C7	T10	CLAV	LSHO	LUUPA	LMUPA	LDUPA	LLEP	LMEP	LRAD	LUL	LRFIN	RSHO	RUPA1	RMUPA	RDUPA	RLEP	RMEP	RRAD	RUL	RUFIN	LASI	RASI	USACR	LSACR	RSACR	LTHI1	LTHI2	LTHI3	LTHI4	LLFC	LMFC	LTIB1	LTIB2	LTIB3	LTIB4	LLMAL	LMMAL	LHEE	LMT1	LMT2	LMT5	RTHI	RTHI2	RTHI3	RTHI4	RLFC	RMFC	RTIB1	RTIB2	RTIB3	RTIB4	RLMAL	RMMAL	RHEE	RMT1	RMT2	RMT5
3.260000	0.127398	0.062217	0.063778	0.033657	0.012973	0.066433	0.053548	0.028901	0.045890	0.028469	0.045065	0.034865	0.046608	0.033792		0.073382	0.025729	0.034707	0.027716	0.055198	0.041116	0.045928	0.071817	0.084816	0.020403	0.020164	0.009233	0.009626	0.011014	0.034569	0.030355	0.019281	0.036672	0.041731	0.032912	0.008735	0.018094	0.010283	0.005218	0.018034	0.018000	0.015980	0.022612	0.020408	0.031711	0.030855	0.028581	0.025136	0.022959	0.028354	0.025351	0.022923	0.025018	0.017547	0.007463	0.011189	0.028898	0.018567	0.035848	0.020445	0.031658
3.265000	0.128503	0.062051	0.064204	0.032951	0.013086	0.065916	0.052852	0.029008	0.045906	0.028651	0.045222	0.035192	0.046764	0.033041		0.072992	0.025203	0.034520	0.027405	0.054896	0.041025	0.046943	0.072378	0.084881	0.020698	0.019819	0.009375	0.009576	0.011152	0.034511	0.030542	0.019261	0.036473	0.041517	0.032697	0.009027	0.018364	0.010336	0.005059	0.018158	0.018025	0.016018	0.022467	0.020188	0.031618	0.030925	0.028656	0.025532	0.023108	0.028082	0.023571	0.023526	0.025199	0.017984	0.007832	0.011213	0.028868	0.018524	0.035784	0.020434	0.031494
3.270000	0.128909	0.062666	0.064350	0.032832	0.013245	0.065781	0.053058	0.028737	0.046131	0.028304	0.045464	0.035236	0.046297	0.033444		0.073017	0.024961	0.034406	0.027164	0.055126	0.041678	0.047828	0.072755	0.084912	0.020692	0.020151	0.009538	0.009621	0.011208	0.034792	0.030646	0.019451	0.036982	0.041698	0.032770	0.009086	0.018533	0.010512	0.004983	0.018081	0.018042	0.015905	0.022553	0.020338	0.031774	0.031072	0.028882	0.025525	0.023089	0.028154	0.023541	0.023620	0.025196	0.018139	0.007940	0.011124	0.028772	0.018205	0.035614	0.020285	0.031405
3.275000	0.130116	0.062575	0.065110	0.031872	0.013159	0.065218	0.052518	0.028819	0.046001	0.029416	0.044899	0.035354	0.046606	0.033454		0.072119	0.024979	0.033948	0.026978	0.055039	0.041155	0.045836	0.072375	0.084732	0.021110	0.020180	0.009683	0.009523	0.011383	0.034499	0.030571	0.019665	0.036841	0.041560	0.032695	0.008896	0.018572	0.010505	0.004896	0.017932	0.018061	0.015904	0.022524	0.020269	0.031634	0.031430	0.029115	0.025773	0.023281	0.028021	0.023288	0.023794	0.025314	0.018394	0.008183	0.010971	0.028732	0.018254	0.035634	0.020117	0.031387
3.280000	0.130841	0.063559	0.065552	0.031474	0.013016	0.064871	0.052171	0.028574	0.046127	0.028419	0.045058	0.035902	0.046755	0.034934		0.071643	0.024840	0.033797	0.027068	0.055042	0.041355	0.045901	0.072225	0.085105	0.020766	0.020062	0.009726	0.009531	0.011491	0.034416	0.030687	0.019809	0.036665	0.041504	0.032948	0.008793	0.018608	0.010339	0.004819	0.017767	0.018038	0.015942	0.022484	0.020359	0.031703	0.031152	0.029051	0.025945	0.023178	0.027918	0.024390	0.023701	0.025106	0.018286	0.008066	0.010916	0.028607	0.018220	0.035505	0.020075	0.031294
3.285000	0.131573	0.063231	0.066152	0.030945	0.013194	0.064001	0.051804	0.028789	0.045579	0.029463	0.045401	0.035984	0.047560	0.033910		0.071262	0.024482	0.033405	0.026608	0.054895	0.041461	0.046041	0.072159	0.085134	0.020532	0.019841	0.009856	0.009381	0.011657	0.034369	0.030778	0.019812	0.036765	0.041416	0.033047	0.009194	0.018888	0.010597	0.004722	0.017907	0.018154	0.015998	0.022510	0.020336	0.031755	0.031213	0.029190	0.025996	0.023170	0.027925	0.024207	0.023666	0.025042	0.018431	0.008117	0.010752	0.028322	0.018027	0.034596	0.019985	0.031209
3.290000	0.132222	0.062867	0.066338	0.030678	0.013331	0.064160	0.051316	0.028416	0.045340	0.028253	0.045322	0.036131	0.047425	0.034116		0.071080	0.024245	0.033205	0.026398	0.055164	0.041489	0.046270	0.072220	0.085195	0.022277	0.020031	0.010232	0.009505	0.011778	0.034401	0.030839	0.020051	0.037016	0.041371	0.032591	0.009361	0.019095	0.010661	0.004559	0.017732	0.018152	0.015905	0.022495	0.020352	0.031784	0.030994	0.029089	0.026111	0.022937	0.027686	0.023278	0.023898	0.025033	0.018384	0.008830	0.010661	0.028180	0.017786	0.035211	0.019850	0.030818
3.295000	0.133114	0.062170	0.067442	0.029939	0.013005	0.063494	0.050181	0.028288	0.045540	0.028527	0.045451	0.036065	0.047732	0.033529		0.070595	0.024233	0.033084	0.026306	0.054759	0.041579	0.046550	0.072276	0.085332	0.020006	0.020076	0.010163	0.009495	0.011854	0.034230	0.030849	0.019879	0.036560	0.041746	0.033342	0.008720	0.018787	0.010370	0.004733	0.017783	0.018397	0.016160	0.022580	0.020412	0.031606	0.030761	0.028895	0.025778	0.022713	0.027784	0.023946	0.023462	0.024537	0.018163	0.008651	0.010536	0.027945	0.017502	0.034886	0.019776	0.030745
3.300000	0.133786	0.061823	0.067627	0.029553	0.013334	0.063014	0.050046	0.027912	0.045510	0.028862	0.045053	0.035926	0.047718	0.033990		0.069977	0.023986	0.032837	0.026201	0.054778	0.041883	0.046505	0.072156	0.085139	0.021642	0.019894	0.010490	0.009528	0.012221	0.034204	0.030703	0.019872	0.036443	0.041271	0.032653	0.008618	0.019437	0.011022	0.004469	0.017725	0.018177	0.016089	0.022218	0.020315	0.031844	0.030749	0.028958	0.026019	0.022642	0.027442	0.023622	0.023860	0.024659	0.018396	0.009124	0.010568	0.027644	0.017387	0.033755	0.019480	0.030650
3.305000	0.134803	0.062663	0.068459	0.028890	0.013158	0.062899	0.049156	0.027752	0.045306	0.028942	0.046015	0.036488	0.048039	0.032842		0.069520	0.024044	0.032676	0.026238	0.054901	0.041999	0.047184	0.071892	0.085082	0.020614	0.020653	0.010496	0.009724	0.011964	0.033698	0.030603	0.019869	0.036214	0.041185	0.032808	0.008645	0.019634	0.010831	0.004590	0.017805	0.018344	0.015782	0.022529	0.020335	0.031442	0.030355	0.028757	0.025928	0.022467	0.027723	0.023404	0.023487	0.024010	0.018071	0.009137	0.010279	0.027265	0.016642	0.033605	0.019429	0.030071
3.310000	0.135167	0.063290	0.068716	0.028663	0.013242	0.062665	0.048656	0.027606	0.045190	0.028519	0.045361	0.036502	0.047686	0.033234		0.069203	0.023832	0.032273	0.025831	0.054829	0.042096	0.045715	0.072247	0.084794	0.022315	0.019152	0.010760	0.009740	0.012064	0.033088	0.030135	0.019764	0.035999	0.041347	0.032770	0.008677	0.019458	0.010712	0.004405	0.017841	0.018180	0.015736	0.022081	0.020104	0.031459	0.030612	0.028948	0.026159	0.022520	0.027462	0.023575	0.023471	0.023862	0.018110	0.009175	0.010319	0.027173	0.016620	0.033335	0.019000	0.030056
3.315000	0.135802	0.064418	0.069279	0.028257	0.012980	0.062250	0.048271	0.027501	0.044893	0.028444	0.045600	0.036725	0.048038	0.033156		0.068877	0.023674	0.031992	0.025444	0.054605	0.042051	0.047543	0.071524	0.085276	0.022236	0.021044	0.011112	0.009871	0.012228	0.032930	0.030273	0.019581	0.035964	0.041227	0.032964	0.008656	0.019257	0.010588	0.004476	0.017982	0.018224	0.015578	0.022286	0.020149	0.031182	0.030333	0.028626	0.026148	0.022237	0.027285	0.023330	0.023423	0.023565	0.018118	0.009408	0.010179	0.026999	0.016025	0.032735	0.018876	0.029765
3.320000	0.136627	0.064728	0.070015	0.027896	0.012704	0.061977	0.048129	0.027582	0.045137	0.029081	0.045613	0.037131	0.047765	0.032502		0.068356	0.023640	0.031854	0.025467	0.054853	0.042419	0.047630	0.072268	0.084983	0.020157	0.019771	0.010791	0.009924	0.012131	0.032102	0.030238	0.019164	0.035837	0.041435	0.033439	0.008090	0.018751	0.010433	0.004552	0.018141	0.018325	0.015795	0.022282	0.020024	0.031093	0.029976	0.028635	0.025841	0.022022	0.027468	0.023630	0.022816	0.022915	0.017644	0.009245	0.010041	0.026863	0.015747	0.032680	0.018953	0.029307
3.325000	0.137175	0.063944	0.069810	0.027546	0.013215	0.061791	0.047520	0.026958	0.044532	0.028085	0.046220	0.037242	0.047555	0.032965		0.067550	0.023234	0.031289	0.025100	0.054533	0.042641	0.048415	0.072414	0.084824	0.025095	0.019662	0.011657	0.010140	0.012615	0.031870	0.030264	0.019560	0.035047	0.040842	0.032475	0.008508	0.019017	0.011003	0.004045	0.017993	0.017990	0.015314	0.021845	0.019727	0.031271	0.030426	0.028995	0.026608	0.022243	0.026849	0.022792	0.023392	0.023140	0.017868	0.009428	0.010032	0.026279	0.015359	0.031974	0.018411	0.029239
3.330000	0.137577	0.064877	0.070681	0.027427	0.012301	0.061570	0.047390	0.027208	0.044597	0.029465	0.045996	0.037603	0.047728	0.032444		0.067426	0.023404	0.031368	0.025094	0.054698	0.043005	0.047279	0.072817	0.085138	0.022098	0.020318	0.011567	0.010090	0.012483	0.032118	0.030012	0.019350	0.035210	0.041598	0.034477	0.007437	0.018564	0.010112	0.004593	0.017955	0.018245	0.015857	0.022107	0.020234	0.031625	0.029137	0.028071	0.025359	0.021537	0.027279	0.023839	0.022067	0.022175	0.017252	0.009377	0.009975	0.025932	0.014801	0.031493	0.018270	0.028993
3.335000	0.138090	0.065260	0.071006	0.027176	0.012375	0.061239	0.046955	0.027384	0.044564	0.029467	0.046756	0.037980	0.047002	0.033262		0.067247	0.023759	0.031150	0.024982	0.054772	0.043175	0.047270	0.072273	0.084877	0.021997	0.020507	0.011624	0.010275	0.012634	0.031680	0.029487	0.019301	0.034773	0.041677	0.034140	0.007508	0.017892	0.010024	0.004523	0.017949	0.018186	0.015547	0.022151	0.020186	0.031426	0.028967	0.027796	0.025598	0.021340	0.027048	0.023536	0.022448	0.022002	0.017233	0.009579	0.010020	0.025573	0.014102	0.030874	0.017913	0.028772
3.340000	0.138603	0.065246	0.071309	0.027145	0.012172	0.061282	0.046683	0.027049	0.044168	0.028514	0.045683	0.037946	0.047102	0.032630		0.066802	0.023719	0.031013	0.024626	0.054853	0.043307	0.045431	0.072351	0.084892	0.023084	0.020502	0.011951	0.010196	0.012798	0.030992	0.029383	0.019254	0.034839	0.041555	0.034009	0.007642	0.018501	0.010095	0.004383	0.018059	0.018110	0.015353	0.021787	0.019663	0.031133	0.028956	0.028071	0.025754	0.021225	0.026903	0.023338	0.022217	0.021749	0.017085	0.009527	0.009951	0.025334	0.013692	0.030472	0.017619	0.028446
3.345000	0.138877	0.063711	0.071944	0.027001	0.011776	0.061198	0.046685	0.026880	0.043808	0.028414	0.045951	0.038068	0.047018	0.032404		0.066640	0.023770	0.030984	0.024587	0.054747	0.043379	0.046895	0.072464	0.084933	0.021627	0.020416	0.012265	0.010405	0.012930	0.030405	0.028889	0.018958	0.033972	0.041327	0.034504	0.006853	0.018251	0.009875	0.004523	0.017733	0.018077	0.015334	0.021672	0.019568	0.031422	0.028684	0.027844	0.025554	0.020912	0.026783	0.023867	0.021745	0.021257	0.016908	0.009537	0.009780	0.024888	0.013254	0.029812	0.017242	0.028649
3.350000	0.139306	0.065542	0.071901	0.026842	0.011909	0.061277	0.046255	0.026574	0.043509	0.028215	0.045378	0.037931	0.046123	0.033340		0.066338	0.023639	0.030596	0.024355	0.054859	0.043738	0.047379	0.072285	0.085156	0.023320	0.020807	0.012804	0.010541	0.013285	0.029868	0.028738	0.018747	0.033667	0.040958	0.034040	0.007077	0.018364	0.010019	0.004390	0.017804	0.017881	0.014860	0.021491	0.019335	0.030992	0.028634	0.028014	0.025881	0.021112	0.026643	0.023137	0.021835	0.020973	0.016822	0.009737	0.009931	0.024264	0.012618	0.029444	0.016924	0.028175
3.355000	0.139572	0.065910	0.072689	0.027000	0.011054	0.061113	0.046671	0.026802	0.043327	0.028198	0.045477	0.038266	0.046833	0.032279		0.066191	0.023420	0.030519	0.024117	0.054445	0.043539	0.047261	0.073005	0.085294	0.021326	0.019291	0.012970	0.010505	0.013450	0.028914	0.028031	0.018373	0.033236	0.040900	0.034431	0.006569	0.018757	0.009993	0.004489	0.017682	0.017741	0.014987	0.021357	0.019201	0.031242	0.028256	0.027685	0.025506	0.020654	0.026719	0.024928	0.021273	0.020326	0.016362	0.009599	0.009958	0.024085	0.012211	0.029003	0.016679	0.028074
3.360000	0.139822	0.065760	0.072726	0.026726	0.011786	0.061293	0.046134	0.026214	0.042780	0.027754	0.044991	0.038005	0.046977	0.032248		0.065756	0.023014	0.030055	0.023761	0.054241	0.043340	0.047474	0.073061	0.085006	0.023341	0.021741	0.013254	0.010928	0.013599	0.029387	0.028498	0.018666	0.033258	0.040353	0.033385	0.007127	0.017799	0.010424	0.004138	0.017793	0.017637	0.015258	0.021195	0.018997	0.030815	0.028164	0.027708	0.025950	0.020839	0.026020	0.022734	0.021632	0.020284	0.016484	0.009719	0.010012	0.023439	0.011482	0.028157	0.016114	0.027723
3.365000	0.140166	0.062729	0.073567	0.027074	0.010760	0.061240	0.046324	0.026302	0.042537	0.027800	0.045193	0.038057	0.046632	0.032394	0.116265	0.065645	0.023083	0.029630	0.023516	0.054195	0.043317	0.047702	0.072999	0.085359	0.023455	0.020883	0.013405	0.010644	0.013665	0.027634	0.027369	0.017833	0.032637	0.040297	0.033852	0.006941	0.017356	0.010109	0.004141	0.017700	0.017444	0.015017	0.020897	0.018731	0.030706	0.028010	0.027709	0.025479	0.020516	0.026142	0.023664	0.020850	0.019757	0.016131	0.009695	0.010166	0.023148	0.011074	0.027984	0.016267	0.027549
3.370000	0.140609	0.065890	0.073912	0.027507	0.010469	0.061277	0.045619	0.023823	0.038298	0.024954	0.048064	0.044335	0.050227	0.040067	0.086395	0.066147	0.023604	0.030142	0.024242	0.054847	0.043840	0.047207	0.073340	0.085319	0.022630	0.020268	0.013695	0.010991	0.013751	0.027017	0.027037	0.017509	0.031975	0.040250	0.034246	0.006333	0.017169	0.010073	0.004222	0.017280	0.017205	0.014676	0.020701	0.018843	0.030941	0.027465	0.027220	0.025240	0.020236	0.026204	0.023993	0.020546	0.019257	0.015657	0.009702	0.010098	0.022524	0.010613	0.027202	0.015761	0.027630
3.375000	0.140108	0.065938	0.073823	0.028089	0.010377	0.061502	0.045974	0.023883	0.037600	0.024641	0.047953	0.044754	0.048767	0.039768	0.086202	0.065882	0.023016	0.029188	0.023414	0.054203	0.043489	0.046788	0.073550	0.085559	0.022864	0.021760	0.013975	0.011121	0.013912	0.026363	0.026419	0.017222	0.031354	0.039961	0.033670	0.006530	0.017226	0.010098	0.004232	0.017520	0.017129	0.014644	0.020682	0.018682	0.030663	0.027530	0.027217	0.025480	0.020552	0.025886	0.024238	0.020576	0.019015	0.015651	0.009624	0.010175	0.022274	0.010347	0.026493	0.015571	0.027152
3.380000	0.140660	0.066238	0.074610	0.027927	0.009918	0.061547	0.045864	0.023004	0.037053	0.024028	0.047081	0.044007	0.049543	0.039613	0.086122	0.065203	0.022385	0.028526	0.022788	0.053267	0.043142	0.047288	0.073649	0.085490	0.022563	0.021119	0.014260	0.011176	0.014200	0.025517	0.025926	0.016711	0.030326	0.039407	0.033712	0.006282	0.016826	0.009942	0.004239	0.017466	0.016945	0.014418	0.020391	0.018346	0.030732	0.027204	0.026946	0.025200	0.020222	0.025941	0.023888	0.020086	0.018569	0.015314	0.009545	0.010231	0.021930	0.010050	0.025986	0.015173	0.027049
3.385000	0.140083	0.064120	0.074541	0.028569	0.009701	0.062196	0.046132	0.022476	0.035488	0.023339	0.046555	0.043385	0.049799	0.039472	0.086246	0.065093	0.021737	0.027742	0.021901	0.052777	0.042523	0.047019	0.074140	0.086199	0.022768	0.021615	0.014438	0.011290	0.014240	0.024673	0.025576	0.016318	0.029315	0.039376	0.033327	0.006331	0.016726	0.010171	0.004051	0.017746	0.016900	0.014452	0.020229	0.018120	0.030586	0.026422	0.026556	0.024923	0.019898	0.025901	0.023542	0.019931	0.018305	0.015235	0.009643	0.010348	0.021513	0.009691	0.025357	0.015090	0.026860
3.390000	0.140320	0.066246	0.075156	0.028679	0.009430	0.061913	0.045747	0.021702	0.034265	0.021712	0.045647	0.042959	0.049400	0.039582	0.085793	0.064445	0.020941	0.026971	0.021183	0.051598	0.041181	0.047367	0.073968	0.086199	0.021602	0.021110	0.014176	0.011450	0.014144	0.023502	0.024935	0.016011	0.029294	0.039000	0.033102	0.006443	0.016612	0.009964	0.004081	0.017403	0.016749	0.014211	0.019947	0.017718	0.030408	0.026224	0.026417	0.024769	0.019891	0.025721	0.023688	0.019537	0.018026	0.015050	0.009645	0.010154	0.020590	0.009533	0.024908	0.014767	0.026909
3.395000	0.139172	0.065347	0.074330	0.029560	0.009288	0.062832	0.046485	0.020810	0.032611	0.020947	0.044842	0.042518	0.049065	0.038794	0.085553	0.064318	0.019790	0.025511	0.019645	0.050638	0.040359	0.047250	0.074400	0.086913	0.022437	0.021698	0.014524	0.011435	0.014493	0.022223	0.024190	0.015598	0.028508	0.038767	0.032079	0.006842	0.016717	0.010327	0.003904	0.017477	0.016484	0.013853	0.019721	0.017283	0.029974	0.026191	0.026520	0.025114	0.019693	0.025444	0.023319	0.019869	0.017915	0.015301	0.009716	0.010325	0.020232	0.009484	0.025549	0.014761	0.026578
3.400000	0.138722	0.064976	0.074399	0.029961	0.008943	0.063260	0.046332	0.019789	0.030865	0.020063	0.044521	0.041761	0.048958	0.038610	0.085413	0.063831	0.018783	0.024323	0.018274	0.049328	0.039473	0.047126	0.075470	0.087289	0.023071	0.021432	0.014552	0.011368	0.014486	0.021698	0.023755	0.015539	0.027328	0.038130	0.032088	0.006804	0.016650	0.010414	0.003865	0.017350	0.016486	0.013947	0.019488	0.017051	0.029723	0.025203	0.025802	0.024344	0.019701	0.025664	0.023592	0.019489	0.017712	0.014970	0.009489	0.009899	0.019848	0.009110	0.024082	0.014756	0.026715
3.405000	0.137778	0.064434	0.074238	0.030342	0.008408	0.063653	0.046448	0.018977	0.029265	0.019062	0.042537	0.040901	0.048697	0.038122	0.085440	0.063538	0.017953	0.023164	0.017179	0.048317	0.038572	0.047458	0.075747	0.087676	0.021945	0.022533	0.014276	0.011258	0.013939	0.021079	0.023371	0.015472	0.026999	0.037778	0.031969	0.006661	0.016427	0.010526	0.003976	0.016951	0.016421	0.014223	0.019470	0.017214	0.029622	0.024301	0.025332	0.023880	0.019210	0.025634	0.023492	0.019247	0.017304	0.014541	0.009471	0.010161	0.019996	0.009247	0.024066	0.014496	0.026311
3.410000	0.136931	0.063990	0.073710	0.030730	0.008252	0.064008	0.046322	0.017767	0.027343	0.018149	0.041471	0.040490	0.048463	0.037861	0.085155	0.062962	0.016861	0.021676	0.015846	0.046818	0.037354	0.047621	0.075902	0.088200	0.022760	0.019535	0.014445	0.011354	0.014384	0.019547	0.022527	0.015093	0.026240	0.037577	0.031465	0.006930	0.016324	0.010662	0.003805	0.016829	0.016151	0.013696	0.019017	0.016689	0.029442	0.024168	0.025092	0.023904	0.019168	0.025795	0.024029	0.018675	0.017277	0.014475	0.009398	0.009912	0.020002	0.009106	0.023882	0.014509	0.026518
3.415000	0.136386	0.062862	0.073257	0.030440	0.008256	0.064257	0.045166	0.015759	0.025415	0.015714	0.039154	0.039383	0.048537	0.037605	0.083854	0.061928	0.015427	0.019943	0.014070	0.044745	0.035579	0.047763	0.076224	0.088923	0.023260	0.021083	0.014263	0.011114	0.014446	0.020502	0.022959	0.015496	0.026660	0.036847	0.031027	0.007242	0.017562	0.010874	0.003793	0.016955	0.016185	0.013982	0.019172	0.016769	0.029268	0.023503	0.024847	0.023881	0.019194	0.025363	0.022705	0.019362	0.017453	0.014822	0.009839	0.010109	0.019565	0.009286	0.023148	0.014158	0.026309
3.420000	0.134824	0.061628	0.072346	0.030925	0.008018	0.064758	0.045089	0.014554	0.023449	0.014045	0.040148	0.038481	0.048522	0.036891	0.082645	0.061697	0.014252	0.018526	0.012333	0.043329	0.034146	0.047406	0.076767	0.089838	0.020013	0.022757	0.014194	0.011595	0.014356	0.020320	0.022773	0.015375	0.025622	0.037198	0.031340	0.006773	0.016317	0.010681	0.003734	0.016646	0.016388	0.014061	0.019290	0.016950	0.029412	0.022165	0.023998	0.023039	0.018921	0.025573	0.022856	0.019066	0.017222	0.014653	0.009308	0.010046	0.018936	0.009273	0.022905	0.014014	0.026178
3.425000	0.134063	0.060773	0.071745	0.030500	0.008139	0.064940	0.044068	0.012714	0.022056	0.012654	0.035596	0.036446	0.048122	0.036596	0.081834	0.060757	0.012669	0.016772	0.010499	0.041049	0.032000	0.047947	0.077042	0.090805	0.019125	0.020693	0.014064	0.011688	0.014472	0.018887	0.021833	0.014966	0.024899	0.036694	0.029875	0.007746	0.016221	0.010916	0.003731	0.016562	0.015881	0.013744	0.019013	0.016369	0.028684	0.022159	0.024198	0.023220	0.019076	0.025634	0.022626	0.019116	0.017392	0.014654	0.009388	0.009950	0.020755	0.009373	0.022960	0.013843	0.026217
3.430000	0.131855	0.059248	0.069874	0.030869	0.008471	0.065862	0.043347	0.011449	0.019949	0.010761	0.034157	0.035632	0.048435	0.036367	0.080813	0.060535	0.011498	0.014777	0.008216	0.039820	0.030810	0.047856	0.077627	0.092082	0.022638	0.020705	0.013812	0.011590	0.014354	0.018357	0.021554	0.014948	0.024205	0.035584	0.028156	0.008842	0.016677	0.011535	0.003442	0.016736	0.015412	0.013161	0.018720	0.015977	0.028275	0.022288	0.024308	0.023653	0.019189	0.025158	0.021254	0.019652	0.017888	0.015232	0.009414	0.009859	0.019282	0.009145	0.022930	0.013927	0.026060
3.435000	0.130357	0.057986	0.068698	0.031045	0.008277	0.066248	0.042830	0.010617	0.018645	0.009306	0.032720	0.034924	0.047631	0.035602	0.080112	0.060401	0.010497	0.013185	0.006195	0.037462	0.028833	0.047410	0.078515	0.093197	0.018620	0.020321	0.013572	0.011507	0.014426	0.017747	0.020878	0.014426	0.023619	0.035685	0.028370	0.008575	0.016334	0.011512	0.003614	0.016688	0.015453	0.013379	0.018832	0.015717	0.028056	0.021468	0.023857	0.023300	0.019242	0.025318	0.021535	0.019463	0.017810	0.014986	0.009399	0.009766	0.019819	0.009136	0.024075	0.013876	0.025874
3.440000	0.129255	0.055092	0.067329	0.030568	0.008717	0.065958	0.042007	0.009262	0.018152	0.006681	0.030654	0.032899	0.048251	0.035160	0.078846	0.059441	0.009072	0.011773	0.004629	0.034651	0.026337	0.048351	0.078812	0.093978	0.022307	0.021193	0.013692	0.011722	0.014354	0.017851	0.021250	0.015232	0.023930	0.035082	0.026732	0.009549	0.016631	0.011926	0.003257	0.016563	0.015148	0.012995	0.018620	0.015258	0.027813	0.021296	0.024119	0.023869	0.019140	0.025094	0.020300	0.019866	0.018172	0.015337	0.009528	0.009770	0.019518	0.008908	0.023817	0.013739	0.025919
3.445000	0.127391	0.054042	0.066170	0.030867	0.008147	0.066617	0.041715	0.009750	0.018263	0.005874	0.028524	0.032316	0.047390	0.034559	0.078416	0.059606	0.008925	0.010662	0.003426	0.032871	0.025048	0.047325	0.079666	0.095133	0.019191	0.020680	0.013138	0.011482	0.014226	0.017005	0.020500	0.014458	0.022812	0.034611	0.026618	0.009273	0.016342	0.011910	0.003498	0.016408	0.015058	0.013017	0.018797	0.015216	0.027613	0.020519	0.023289	0.023162	0.018869	0.025389	0.020310	0.019504	0.018006	0.015308	0.009282	0.009595	0.019543	0.008982	0.024110	0.013718	0.025785
3.450000	0.125358	0.052047	0.064081	0.031119	0.008684	0.066792	0.041959	0.011536	0.018534	0.005453	0.028281	0.032568	0.047283	0.034226	0.076984	0.059753	0.008823	0.009905	0.004006	0.030538	0.023618	0.047222	0.079929	0.096836	0.019232	0.019016	0.012832	0.011633	0.014473	0.016342	0.020279	0.014583	0.022576	0.034423	0.024882	0.009968	0.016334	0.012122	0.003493	0.016594	0.014781	0.013019	0.018754	0.014640	0.027014	0.020419	0.023467	0.023508	0.019248	0.025481	0.020001	0.019756	0.018265	0.015483	0.009329	0.009517	0.019571	0.008952	0.024297	0.013429	0.025743
3.455000	0.124951	0.051275	0.063335	0.030092	0.009175	0.066558	0.041871	0.012699	0.020123	0.003953	0.024653	0.030487	0.046958	0.033880	0.075676	0.058504	0.009214	0.010250	0.005872	0.027081	0.020713	0.047285	0.080094	0.097101	0.019168	0.019411	0.012663	0.011884	0.014430	0.016685	0.020601	0.015355	0.022638	0.033894	0.023825	0.010336	0.016553	0.012283	0.003349	0.016555	0.014453	0.012639	0.018661	0.014488	0.026926	0.019870	0.023281	0.023625	0.019129	0.025344	0.018731	0.019948	0.018323	0.015737	0.009788	0.009698	0.020060	0.008744	0.024343	0.013216	0.025563
3.460000	0.122455	0.049002	0.060827	0.030697	0.009639	0.067075	0.042889	0.015431	0.021657	0.006650	0.024118	0.031257	0.046949	0.033498	0.075020	0.059198	0.010831	0.011052	0.008324	0.025029	0.020227	0.047110	0.081005	0.098618	0.021523	0.021463	0.012728	0.011857	0.014185	0.016530	0.020466	0.015722	0.022325	0.033433	0.022215	0.011027	0.016457	0.012667	0.003464	0.016690	0.014433	0.012646	0.018852	0.014027	0.026282	0.019930	0.023438	0.024339	0.019396	0.025306	0.017600	0.020367	0.018687	0.015953	0.009704	0.009479	0.020792	0.008822	0.024410	0.013098	0.025559
3.465000	0.122298	0.048594	0.061147	0.029469	0.009096	0.066359	0.043160	0.017352	0.023691	0.007691	0.020809	0.029602	0.046770	0.033262	0.073497	0.058038	0.012122	0.013048	0.010516	0.022520	0.018355	0.046722	0.081288	0.098696	0.019188	0.019061	0.012799	0.012120	0.014518	0.015329	0.019252	0.014751	0.021082	0.033438	0.022325	0.010756	0.016255	0.012386	0.003801	0.016438	0.014314	0.012648	0.018788	0.014139	0.026341	0.018803	0.022419	0.023187	0.018591	0.025998	0.019248	0.019464	0.018290	0.015585	0.009384	0.009404	0.019819	0.008547	0.024754	0.013478	0.025749
3.470000	0.120628	0.045784	0.059248	0.029474	0.009498	0.066371	0.044916	0.020124	0.025766	0.010119	0.020076	0.030797	0.045954	0.033169	0.072196	0.058287	0.014298	0.014929	0.012906	0.020003	0.018400	0.046160	0.081927	0.099555	0.019066	0.021180	0.012993	0.012130	0.014337	0.014762	0.018948	0.014804	0.020389	0.033073	0.020883	0.011287	0.016035	0.012559	0.003777	0.016604	0.013958	0.012301	0.018810	0.013949	0.025992	0.018601	0.022524	0.023575	0.018610	0.025862	0.016824	0.019743	0.018432	0.015739	0.009318	0.009667	0.020045	0.008341	0.025254	0.012511	0.025530
3.475000	0.119494	0.044516	0.058947	0.028658	0.009520	0.066057	0.045532	0.021670	0.028320	0.012097	0.019314	0.030325	0.045653	0.033201	0.071007	0.057791	0.015954	0.017327	0.015116	0.017686	0.017567	0.045765	0.082739	0.099759	0.017578	0.020320	0.013155	0.012144	0.014715	0.014470	0.018389	0.014488	0.019211	0.032940	0.019747	0.011626	0.015892	0.012512	0.004088	0.016526	0.013687	0.012158	0.018864	0.013648	0.025875	0.017877	0.021888	0.023286	0.018321	0.026345	0.016158	0.019485	0.018258	0.015611	0.009030	0.009324	0.020390	0.008288	0.025416	0.012817	0.025725
3.480000	0.118056	0.042787	0.057384	0.028660	0.010230	0.066150	0.047282	0.024283	0.030573	0.014107	0.017620	0.031247	0.044990	0.033150	0.069802	0.058047	0.018231	0.019799	0.017384	0.015540	0.018199	0.043474	0.083815	0.100397	0.018268	0.020957	0.013103	0.012227	0.014813	0.013532	0.017853	0.014714	0.018447	0.032381	0.018079	0.012262	0.015879	0.012719	0.004020	0.016913	0.013528	0.011839	0.018876	0.013218	0.025429	0.017789	0.021842	0.023575	0.018189	0.026590	0.015543	0.019226	0.018295	0.015431	0.008767	0.009515	0.020826	0.008360	0.026087	0.012777	0.025579
3.485000	0.116280	0.041156	0.056203	0.028676	0.010541	0.065911	0.049211	0.026629	0.032475	0.016180	0.017483	0.032021	0.044644	0.033057	0.068792	0.058547	0.020144	0.021865	0.019208	0.013973	0.019120	0.043411	0.084553	0.101052	0.018417	0.020605	0.013274	0.012587	0.015102	0.012739	0.017088	0.014374	0.017511	0.031889	0.016594	0.012778	0.015928	0.013014	0.004450	0.016797	0.013318	0.011524	0.018791	0.012966	0.025105	0.017125	0.021646	0.023600	0.017912	0.027009	0.015137	0.018991	0.018098	0.015260	0.008563	0.009457	0.020778	0.008214	0.026452	0.013002	0.025492
3.490000	0.114520	0.040187	0.054928	0.028763	0.010900	0.065719	0.051243	0.029010	0.033631	0.017845	0.018026	0.032821	0.044259	0.033062	0.067422	0.059128	0.022180	0.024092	0.020997	0.012403	0.020430	0.042712	0.085490	0.101735	0.018761	0.021593	0.013729	0.012513	0.015063	0.011636	0.016237	0.014414	0.016301	0.031097	0.014605	0.013630	0.017020	0.013501	0.004991	0.016650	0.012888	0.011441	0.018827	0.012894	0.023657	0.017238	0.021850	0.024248	0.017630	0.027439	0.014172	0.019069	0.018011	0.015271	0.008384	0.009686	0.021004	0.008353	0.026748	0.012867	0.025442
3.495000	0.113724	0.038231	0.054778	0.028200	0.011189	0.065241	0.052473	0.030733	0.037194	0.019159	0.016023	0.031806	0.043965	0.032878	0.066122	0.059125	0.023665	0.026117	0.022249	0.010667	0.020617	0.041475	0.086709	0.101197	0.018467	0.019988	0.013752	0.012668	0.015216	0.010720	0.015199	0.014110	0.015014	0.030288	0.013536	0.014145	0.016279	0.013839	0.005174	0.016651	0.012658	0.011299	0.018770	0.012715	0.024558	0.016785	0.021516	0.024045	0.017814	0.027807	0.013732	0.018614	0.017777	0.015104	0.008244	0.009745	0.021196	0.008318	0.027136	0.013150	0.025543
3.500000	0.111560	0.035879	0.053020	0.028742	0.011756	0.065231	0.055318	0.032957	0.039522	0.020592	0.016546	0.032817	0.043722	0.032940	0.064756	0.060177	0.025448	0.028117	0.023604	0.009831	0.022265	0.040788	0.086919	0.101786	0.018663	0.018753	0.013689	0.012545	0.015155	0.010095	0.014654	0.014319	0.014041	0.029564	0.012050	0.014866	0.016339	0.014167	0.005510	0.017050	0.012573	0.011092	0.018788	0.012349	0.023376	0.016653	0.021559	0.024523	0.017759	0.028138	0.013373	0.018735	0.017655	0.015077	0.008201	0.010112	0.021131	0.008376	0.027286	0.013135	0.025642
3.505000	0.110368	0.034449	0.052128	0.028932	0.012209	0.065314	0.057515	0.035063	0.040395	0.022946	0.015090	0.033277	0.043348	0.032535	0.063966	0.061056	0.026972	0.029729	0.024775	0.008305	0.023580	0.040134	0.087974	0.101587	0.017533	0.017640	0.014311	0.012700	0.015293	0.009363	0.013843	0.014121	0.012911	0.029136	0.011496	0.015088	0.016333	0.014250	0.005751	0.017092	0.012589	0.011140	0.019025	0.012374	0.023317	0.016212	0.021081	0.024590	0.017581	0.028683	0.012562	0.018094	0.017259	0.014760	0.007803	0.010546	0.021288	0.008631	0.027301	0.013480	0.025636
3.510000	0.108843	0.033081	0.051027	0.029593	0.013200	0.065443	0.059607	0.036745	0.042923	0.024135	0.016096	0.033787	0.043185	0.032580	0.062370	0.061939	0.028136	0.031112	0.025756	0.007152	0.024299	0.039798	0.088559	0.101354	0.017164	0.017578	0.014710	0.012620	0.015410	0.008816	0.013554	0.014232	0.012148	0.028681	0.011175	0.015365	0.016511	0.014389	0.006192	0.017627	0.012564	0.011180	0.019026	0.011852	0.023457	0.015983	0.021052	0.024704	0.017500	0.028998	0.012227	0.017700	0.017159	0.014531	0.007258	0.010919	0.021669	0.008917	0.027494	0.013477	0.025762
3.515000	0.106904	0.031373	0.049582	0.030499	0.014072	0.065666	0.061580	0.038398	0.044556	0.025631	0.016468	0.033996	0.042726	0.033063	0.060619	0.062904	0.029461	0.032420	0.026834	0.006386	0.025508	0.039433	0.088291	0.101296	0.017530	0.017593	0.014780	0.012672	0.015373	0.008759	0.013294	0.014948	0.011681	0.028672	0.011461	0.015741	0.016531	0.014535	0.006499	0.017641	0.012485	0.011229	0.018957	0.011794	0.023383	0.015388	0.020707	0.025131	0.017667	0.029532	0.012488	0.017358	0.016673	0.014234	0.006948	0.011535	0.021609	0.008852	0.027280	0.013217	0.025812
3.520000	0.105276	0.029233	0.048662	0.031802	0.015053	0.065937	0.063299	0.039863	0.046300	0.026751	0.017011	0.034098	0.042051	0.032946	0.060118	0.063791	0.030540	0.033783	0.027673	0.005652	0.026491	0.038682	0.089518	0.100784	0.017429	0.017134	0.014940	0.012685	0.015132	0.008997	0.013209	0.015431	0.011153	0.028675	0.012172	0.015527	0.016913	0.014386	0.006579	0.018438	0.012829	0.011724	0.019018	0.011815	0.024133	0.014741	0.020230	0.024793	0.017378	0.029902	0.012543	0.016670	0.015864	0.013614	0.006564	0.012211	0.021721	0.009096	0.027107	0.013477	0.025882
3.525000	0.103838	0.028377	0.049775	0.032359	0.015757	0.065982	0.064948	0.040826	0.047793	0.028151	0.018191	0.035810	0.040741	0.033235	0.058813	0.061549	0.031523	0.035109	0.027914	0.004501	0.024963	0.039220	0.089366	0.099897	0.017373	0.017124	0.015243	0.012913	0.015401	0.009116	0.013351	0.015983	0.010916	0.028765	0.013050	0.015110	0.015996	0.013866	0.006654	0.018909	0.013156	0.012374	0.018986	0.011763	0.024545	0.014188	0.019239	0.024201	0.017117	0.030033	0.013057	0.015866	0.014987	0.013058	0.006000	0.012705	0.021617	0.009414	0.027467	0.012911	0.026004
3.530000	0.101632	0.026651	0.048196	0.033680	0.016935	0.066340	0.066022	0.041803	0.048781	0.029107	0.019021	0.035812	0.040371	0.033725	0.057870	0.062462	0.032161	0.035931	0.028227	0.004552	0.025240	0.039112	0.089218	0.099186	0.018356	0.017556	0.015248	0.012414	0.015351	0.009378	0.013618	0.016755	0.010955	0.028853	0.014103	0.014903	0.016215	0.013380	0.007128	0.019705	0.013125	0.012910	0.018663	0.011904	0.024959	0.013414	0.018338	0.023918	0.016909	0.030483	0.013957	0.015155	0.013908	0.012403	0.005716	0.013351	0.021233	0.009541	0.026363	0.013385	0.026426
3.535000	0.099316	0.025210	0.047011	0.034904	0.018063	0.066611	0.067079	0.042440	0.049620	0.030101	0.019702	0.035778	0.040088	0.033755	0.057705	0.062288	0.032417	0.036198	0.028026	0.005363	0.025802	0.039555	0.089566	0.098142	0.018190	0.017699	0.015746	0.012631	0.015445	0.009804	0.013605	0.017053	0.010933	0.029215	0.015002	0.014219	0.015247	0.012776	0.007127	0.019973	0.013284	0.013792	0.018258	0.012042	0.025435	0.012860	0.017936	0.023647	0.016767	0.030770	0.015220	0.013967	0.012581	0.011230	0.004948	0.013334	0.021132	0.010286	0.025819	0.013617	0.026826
3.540000	0.097108	0.024252	0.045962	0.035907	0.019199	0.066723	0.067391	0.042758	0.050915	0.030792	0.020161	0.035459	0.039432	0.034576	0.057559	0.061772	0.032547	0.036394	0.027826	0.005978	0.025638	0.039748	0.089224	0.097404	0.018601	0.018125	0.015678	0.012390	0.015649	0.010566	0.014099	0.017556	0.010953	0.029660	0.015676	0.013370	0.014757	0.012358	0.007363	0.020395	0.013245	0.014334	0.017533	0.011887	0.025975	0.012518	0.017298	0.024005	0.016903	0.030839	0.016465	0.012816	0.011177	0.010223	0.004151	0.013551	0.021002	0.010971	0.025338	0.014099	0.027659
3.545000	0.094793	0.023524	0.044985	0.036707	0.020113	0.067164	0.067349	0.043046	0.051028	0.031311	0.020574	0.035375	0.038605	0.034636	0.057517	0.060901	0.032394	0.036310	0.027350	0.007048	0.025457	0.039379	0.089316	0.096041	0.018809	0.018526	0.015724	0.012616	0.015391	0.011863	0.014412	0.017764	0.011523	0.030265	0.016246	0.012919	0.014229	0.011731	0.008040	0.020596	0.013013	0.014560	0.016492	0.012773	0.026769	0.012557	0.016716	0.023300	0.017298	0.030835	0.017140	0.011241	0.009502	0.009072	0.003922	0.013669	0.019881	0.012201	0.023655	0.014430	0.028486
3.550000	0.092138	0.022574	0.044058	0.037429	0.021172	0.067319	0.067561	0.042903	0.050929	0.031358	0.020843	0.035185	0.038039	0.035096	0.057506	0.059798	0.032021	0.035910	0.026579	0.008215	0.025186	0.039635	0.088356	0.095096	0.018890	0.019319	0.016005	0.012799	0.015577	0.012766	0.015007	0.017907	0.012660	0.031422	0.016566	0.012284	0.014164	0.011850	0.009231	0.019329	0.012244	0.013720	0.015444	0.014104	0.027739	0.013190	0.016609	0.022474	0.017665	0.031080	0.017334	0.009733	0.008048	0.008110	0.003678	0.013845	0.017628	0.013126	0.022182	0.015136	0.029803
3.555000	0.089218	0.022363	0.043329	0.037680	0.022132	0.067374	0.066510	0.042481	0.050446	0.031482	0.020424	0.034308	0.037754	0.034872	0.057858	0.058291	0.031314	0.035252	0.025648	0.008956	0.024673	0.039938	0.087737	0.093691	0.019974	0.019923	0.015848	0.012468	0.015312	0.014023	0.015545	0.018119	0.013523	0.033381	0.016060	0.011659	0.013755	0.011501	0.010296	0.018205	0.012142	0.013241	0.013969	0.014935	0.027816	0.013952	0.016761	0.021186	0.018140	0.031481	0.017120	0.008720	0.006397	0.007182	0.004165	0.014219	0.015752	0.014563	0.020581	0.015768	0.031384
3.560000	0.085942	0.022187	0.042284	0.037840	0.022988	0.067427	0.065627	0.042023	0.049678	0.031157	0.019965	0.033622	0.036565	0.035428	0.058395	0.056459	0.030407	0.034462	0.024422	0.010088	0.024063	0.040420	0.087092	0.092291	0.020393	0.020585	0.016129	0.012647	0.015233	0.015244	0.016046	0.017822	0.014520	0.035984	0.016454	0.010839	0.013150	0.011831	0.011904	0.016008	0.012777	0.011744	0.012487	0.016279	0.029427	0.015447	0.016931	0.019250	0.018277	0.032421	0.016677	0.007921	0.005764	0.007562	0.005811	0.013959	0.012346	0.015846	0.018383	0.017283	0.032787
3.565000	0.082310	0.022353	0.041905	0.037552	0.023670	0.067019	0.064090	0.040877	0.048471	0.030321	0.019708	0.033486	0.036443	0.035052	0.058654	0.054375	0.029381	0.033209	0.022892	0.011434	0.023792	0.040232	0.086594	0.090858	0.020712	0.021126	0.016494	0.012892	0.015137	0.015822	0.016573	0.017542	0.015329	0.038286	0.017203	0.010814	0.013505	0.012633	0.013634	0.014527	0.013429	0.009278	0.012654	0.016292	0.029192	0.016558	0.018067	0.019316	0.017938	0.034115	0.016398	0.008782	0.006224	0.008597	0.007868	0.013233	0.007988	0.016477	0.016562	0.018472	0.034376
3.570000	0.078045	0.022504	0.041161	0.036801	0.024000	0.066110	0.062057	0.039924	0.047314	0.029632	0.018406	0.031478	0.036783	0.035161	0.059610	0.051581	0.028314	0.031849	0.021287	0.012466	0.022688	0.040266	0.086282	0.089754	0.021706	0.022010	0.016519	0.012852	0.014860	0.015467	0.016363	0.015817	0.015770	0.042269	0.019291	0.010826	0.013825	0.013387	0.015937	0.013636	0.014106	0.007348	0.014746	0.017029	0.031702	0.016682	0.017417	0.017277	0.016436	0.036339	0.017069	0.009969	0.007139	0.010410	0.009608	0.012606	0.007158	0.016750	0.016024	0.019428	0.036017
3.575000	0.073620	0.022565	0.040087	0.035887	0.024273	0.065618	0.059971	0.038722	0.045777	0.028315	0.017565	0.030273	0.036376	0.035209	0.060024	0.048815	0.027125	0.030692	0.019573	0.013992	0.022450	0.040357	0.085821	0.088664	0.021903	0.022672	0.017091	0.013276	0.014809	0.015216	0.015925	0.014589	0.015748	0.047006	0.022992	0.012001	0.014828	0.014759	0.017473	0.013444	0.015139	0.006308	0.017724	0.016692	0.032609	0.016113	0.016540	0.015820	0.015274	0.039131	0.020314	0.012168	0.008701	0.012757	0.011839	0.012406	0.007533	0.016793	0.017278	0.019930	0.037354
3.580000	0.068866	0.022723	0.039236	0.034473	0.023551	0.064188	0.056859	0.037268	0.043495	0.026618	0.016052	0.028522	0.036479	0.035193	0.060793	0.045192	0.025617	0.029386	0.017670	0.015654	0.021544	0.040372	0.085659	0.087746	0.024192	0.023593	0.016922	0.013677	0.014456	0.013764	0.014785	0.013360	0.015638	0.050321	0.027339	0.012741	0.015606	0.015310	0.017746	0.015120	0.014613	0.007758	0.016647	0.019038	0.033510	0.015120	0.015205	0.014133	0.014813	0.041357	0.025487	0.013122	0.009645	0.013824	0.013144	0.013148	0.007734	0.017314	0.017374	0.022064	0.038207
3.585000	0.063891	0.022526	0.037354	0.032562	0.022808	0.062260	0.053189	0.035198	0.041487	0.024483	0.014695	0.026556	0.036250	0.035414	0.061819	0.041205	0.023844	0.027088	0.015507	0.017571	0.021237	0.040179	0.086121	0.086525	0.024101	0.024587	0.016987	0.013888	0.014144	0.012461	0.013264	0.011670	0.015426	0.051991	0.031909	0.013928	0.015773	0.015863	0.016826	0.018314	0.012464	0.011597	0.018290	0.016172	0.031714	0.014322	0.014153	0.013431	0.014137	0.040676	0.028664	0.013037	0.010122	0.014086	0.012847	0.015286	0.007013	0.019291	0.017395	0.020075	0.038150
3.590000	0.060066	0.022191	0.036202	0.030226	0.021580	0.060468	0.049542	0.033085	0.038749	0.022108	0.013452	0.024736	0.037252	0.035557	0.062520	0.037461	0.021948	0.024770	0.013277	0.019467	0.020789	0.040270	0.085787	0.086241	0.024752	0.023805	0.017837	0.014832	0.014558	0.012596	0.011591	0.011898	0.014202	0.049920	0.034022	0.014096	0.015503	0.015271	0.015777	0.020403	0.011081	0.015421	0.018353	0.014064	0.032482	0.014855	0.014120	0.013929	0.012801	0.038060	0.029795	0.012599	0.010011	0.013187	0.011963	0.017611	0.006079	0.022780	0.018424	0.018751	0.037056
3.595000	0.056557	0.021399	0.033281	0.028674	0.020614	0.058864	0.045771	0.031113	0.036060	0.019422	0.012205	0.022007	0.038150	0.036491	0.063247	0.034732	0.020013	0.022155	0.011229	0.021254	0.021146	0.039681	0.086167	0.086106	0.023764	0.024032	0.018875	0.015625	0.015194	0.013414	0.011129	0.012038	0.012344	0.046037	0.034301	0.013830	0.014226	0.014030	0.014506	0.022335	0.010093	0.020008	0.016845	0.010505	0.033088	0.016537	0.015718	0.016047	0.012711	0.034326	0.029634	0.011876	0.009699	0.012190	0.011137	0.019865	0.007056	0.026003	0.018139	0.018077	0.037033
3.600000	0.054678	0.021436	0.031975	0.027087	0.019774	0.057517	0.042344	0.028920	0.033573	0.016509	0.011860	0.020561	0.039015	0.036476	0.063668	0.031866	0.018050	0.019584	0.009129	0.023276	0.020949	0.039575	0.086620	0.085775	0.024998	0.024093	0.020144	0.016482	0.016298	0.015352	0.012390	0.013094	0.012605	0.043044	0.032968	0.013155	0.012696	0.012454	0.012923	0.023330	0.009110	0.022629	0.015092	0.009782	0.034611	0.018216	0.017644	0.018128	0.013841	0.030758	0.028409	0.011030	0.009084	0.011076	0.009999	0.021035	0.008405	0.027910	0.016135	0.017614	0.038015
3.605000	0.053496	0.021126	0.030991	0.025604	0.018908	0.056532	0.039443	0.026806	0.030701	0.013708	0.012440	0.020091	0.039885	0.037138	0.064252	0.029607	0.016044	0.016800	0.007075	0.026172	0.022108	0.039420	0.086487	0.085471	0.025433	0.027984	0.021561	0.017289	0.017600	0.017479	0.014475	0.014977	0.013951	0.040668	0.030781	0.011433	0.011038	0.011042	0.011175	0.025269	0.008148	0.023541	0.014455	0.008216	0.035781	0.020081	0.019457	0.019938	0.015247	0.028749	0.027389	0.010233	0.008400	0.010055	0.009185	0.021519	0.010259	0.028097	0.015728	0.016259	0.038641
3.610000	0.052508	0.021170	0.029646	0.024289	0.018261	0.055451	0.035923	0.024446	0.028122	0.010846	0.013835	0.019857	0.040832	0.037863	0.065120	0.028089	0.013919	0.014367	0.006249	0.028196	0.022781	0.039100	0.086252	0.085214	0.025695	0.025564	0.023392	0.017983	0.019432	0.019708	0.016312	0.016719	0.015599	0.038180	0.028874	0.010149	0.010099	0.009887	0.010173	0.025022	0.007135	0.022990	0.014362	0.008333	0.036760	0.020042	0.018838	0.019393	0.015600	0.027743	0.025196	0.008734	0.007474	0.008895	0.007965	0.021683	0.010837	0.027082	0.016906	0.015240	0.039542
3.615000	0.051983	0.021362	0.029124	0.022915	0.017089	0.054764	0.033134	0.022298	0.025758	0.007837	0.016013	0.020502	0.041512	0.038321	0.065641	0.027066	0.012479	0.012253	0.006341	0.031051	0.024676	0.038859	0.085953	0.084597	0.026301	0.025106	0.023893	0.017970	0.020078	0.020833	0.017666	0.018485	0.016795	0.035820	0.026698	0.008838	0.009235	0.009301	0.008750	0.024168	0.006970	0.022823	0.015665	0.008513	0.036730	0.020188	0.019289	0.019601	0.016461	0.026962	0.023589	0.008162	0.007132	0.008440	0.007327	0.020615	0.011800	0.024546	0.017573	0.014058	0.039474
3.620000	0.051621	0.022002	0.028096	0.021949	0.016470	0.054154	0.030952	0.020743	0.023873	0.005743	0.018734	0.021896	0.042663	0.038701	0.066215	0.026801	0.011754	0.011037	0.008072	0.034175	0.026292	0.038320	0.085312	0.084380	0.025340	0.025155	0.024588	0.017822	0.021025	0.019981	0.018020	0.018843	0.017062	0.034161	0.025119	0.008080	0.009185	0.009027	0.007835	0.023133	0.007009	0.021800	0.016376	0.009246	0.036587	0.019763	0.019020	0.019263	0.016912	0.026646	0.022757	0.008256	0.007613	0.008407	0.007271	0.018735	0.011948	0.022070	0.018971	0.012315	0.038873
3.625000	0.051247	0.022092	0.027572	0.021006	0.015859	0.053275	0.029178	0.019485	0.022886	0.005769	0.021062	0.023311	0.043183	0.038973	0.066786	0.027503	0.011719	0.011039	0.010595	0.036617	0.028519	0.038972	0.084181	0.084272	0.021736	0.022215	0.024107	0.017470	0.020603	0.019426	0.017784	0.018903	0.016687	0.033572	0.023936	0.007689	0.009137	0.009273	0.007406	0.021986	0.007436	0.020104	0.016887	0.009676	0.036296	0.018157	0.017709	0.018044	0.016714	0.026429	0.021465	0.008324	0.007991	0.008592	0.007111	0.017265	0.011824	0.019557	0.019252	0.011831	0.038452
3.630000	0.051158	0.022400	0.026970	0.021178	0.015731	0.053187	0.027641	0.019747	0.022375	0.006990	0.023808	0.025246	0.043907	0.039001	0.067203	0.028786	0.012368	0.012380	0.012942	0.038974	0.029586	0.039439	0.083124	0.084444	0.025571	0.020731	0.022959	0.016431	0.019025	0.019612	0.018346	0.019589	0.017017	0.033738	0.023787	0.007773	0.009328	0.009381	0.007394	0.020203	0.007506	0.017771	0.017244	0.009718	0.035820	0.017509	0.017459	0.017645	0.016806	0.026556	0.020720	0.008865	0.008771	0.009136	0.007735	0.015549	0.011314	0.017514	0.019979	0.011365	0.037877
3.635000	0.050423	0.022324	0.026270	0.021094	0.015847	0.052217	0.026593	0.020003	0.022429	0.009318	0.026244	0.027034	0.044502	0.038924	0.067662	0.030164	0.013597	0.013988	0.015477	0.041926	0.031167	0.041080	0.081864	0.084429	0.024022	0.021650	0.022208	0.015176	0.019114	0.017284	0.016439	0.017222	0.015400	0.033255	0.022147	0.007126	0.009494	0.008896	0.006747	0.018700	0.008074	0.015106	0.016899	0.010507	0.035918	0.016862	0.016949	0.016923	0.016697	0.027556	0.020000	0.009382	0.009193	0.009972	0.008215	0.013670	0.011697	0.014942	0.021474	0.011524	0.037471
3.640000	0.050028	0.022228	0.026263	0.021337	0.015780	0.051673	0.026427	0.020377	0.023321	0.011551	0.028229	0.028574	0.044968	0.038976	0.068059	0.031312	0.014954	0.015584	0.017462	0.044295	0.032873	0.041644	0.081081	0.084129	0.022881	0.022865	0.021186	0.014426	0.018439	0.015896	0.015126	0.015803	0.014300	0.033426	0.020784	0.006928	0.009661	0.008944	0.006778	0.017276	0.008338	0.012649	0.016884	0.010781	0.035839	0.016474	0.016700	0.016564	0.016515	0.028853	0.019371	0.010017	0.009752	0.010892	0.009038	0.011917	0.011197	0.012913	0.022537	0.012218	0.037266
3.645000	0.049587	0.021982	0.026341	0.021758	0.015862	0.051052	0.025827	0.020901	0.023320	0.013116	0.029901	0.030174	0.045480	0.038301	0.068516	0.032415	0.015911	0.016882	0.019267	0.046463	0.034054	0.042973	0.079894	0.083741	0.023549	0.022879	0.020021	0.013878	0.017602	0.014879	0.014393	0.014030	0.013671	0.033746	0.019979	0.007074	0.009866	0.008847	0.007122	0.016035	0.008366	0.010864	0.016891	0.010917	0.036096	0.016070	0.016326	0.016498	0.016346	0.030324	0.018910	0.010582	0.010193	0.011809	0.009849	0.010312	0.010712	0.010869	0.023646	0.013190	0.037678
3.650000	0.048573	0.020917	0.026965	0.021746	0.015740	0.050059	0.025465	0.020851	0.023494	0.014312	0.031476	0.031783	0.045599	0.038133	0.069092	0.032721	0.016479	0.017778	0.020965	0.048089	0.035803	0.044641	0.078529	0.082719	0.022456	0.022527	0.018948	0.013145	0.016475	0.015041	0.013987	0.013326	0.013542	0.034905	0.019749	0.007402	0.010458	0.008896	0.007923	0.014296	0.008081	0.008510	0.016729	0.011593	0.036340	0.015966	0.016001	0.015972	0.015952	0.032104	0.018055	0.011117	0.010565	0.012384	0.010283	0.008901	0.010395	0.008967	0.024854	0.014536	0.038411
3.655000	0.047744	0.021830	0.027020	0.022029	0.015521	0.049159	0.024795	0.020646	0.023957	0.015151	0.032599	0.032408	0.045708	0.037865	0.069532	0.033254	0.017719	0.018584	0.021460	0.049012	0.036797	0.045039	0.077977	0.082357	0.020544	0.021930	0.017381	0.012690	0.015359	0.015401	0.014308	0.013403	0.014102	0.036011	0.020178	0.008404	0.011434	0.009924	0.009251	0.013739	0.008178	0.007920	0.016567	0.011351	0.035922	0.015613	0.016467	0.016967	0.016191	0.032530	0.018467	0.011860	0.011470	0.013469	0.011072	0.008271	0.009350	0.007810	0.024666	0.014702	0.039027
3.660000	0.046592	0.021759	0.027332	0.022519	0.015520	0.048438	0.024302	0.020133	0.023580	0.015591	0.033320	0.033366	0.045025	0.037565	0.069916	0.033377	0.018495	0.019113	0.022253	0.049576	0.037782	0.045492	0.077321	0.081493	0.020566	0.021006	0.016297	0.012114	0.014768	0.016336	0.015119	0.014405	0.014877	0.037930	0.021601	0.009421	0.013134	0.011745	0.011080	0.013103	0.007874	0.007993	0.016602	0.011353	0.035399	0.015621	0.016543	0.017250	0.015959	0.033469	0.018842	0.012270	0.012127	0.013892	0.011621	0.008006	0.008872	0.006807	0.024080	0.014944	0.039348
3.665000	0.045714	0.022039	0.028021	0.022615	0.015334	0.047852	0.024403	0.019589	0.023435	0.016073	0.034059	0.033858	0.045359	0.037130	0.070908	0.032942	0.018736	0.019343	0.022924	0.050159	0.039039	0.045907	0.076526	0.080742	0.017435	0.020069	0.015696	0.011323	0.014610	0.016659	0.015617	0.014578	0.015550	0.040022	0.023010	0.010466	0.014110	0.012218	0.011716	0.012843	0.008459	0.007740	0.015926	0.010524	0.034950	0.015975	0.017435	0.017060	0.015966	0.034794	0.019766	0.012524	0.012426	0.014093	0.011795	0.008145	0.009010	0.006503	0.023194	0.015202	0.039462
3.670000	0.045294	0.021838	0.027823	0.023073	0.015069	0.047581	0.023445	0.019041	0.022580	0.015795	0.034537	0.034740	0.044742	0.037657	0.071216	0.032816	0.019767	0.019564	0.023214	0.050529	0.040651	0.044956	0.076207	0.080069	0.019250	0.018620	0.014732	0.011098	0.013981	0.017549	0.016546	0.015491	0.016362	0.040736	0.024412	0.011324	0.014886	0.013143	0.012884	0.013058	0.008268	0.009173	0.015713	0.009685	0.033738	0.016033	0.017653	0.017358	0.016013	0.034611	0.021154	0.012881	0.012955	0.014742	0.012282	0.008451	0.008704	0.007462	0.022270	0.014656	0.039135
3.675000	0.044429	0.022347	0.028018	0.023041	0.014568	0.047029	0.023574	0.018395	0.021929	0.015947	0.035000	0.035112	0.044758	0.037604	0.071867	0.032415	0.020316	0.020086	0.023711	0.050979	0.041814	0.044614	0.076033	0.079675	0.017431	0.017609	0.014500	0.011214	0.013906	0.017076	0.016152	0.015151	0.016038	0.040498	0.024976	0.011004	0.014247	0.012938	0.012713	0.013767	0.008760	0.009766	0.014728	0.008939	0.033961	0.016237	0.017824	0.017591	0.016274	0.035045	0.022543	0.013351	0.013215	0.015044	0.012669	0.008634	0.008606	0.008578	0.021479	0.014706	0.038270
3.680000	0.043858	0.022373	0.027955	0.023019	0.014468	0.046462	0.023242	0.017556	0.021220	0.016032	0.035332	0.035304	0.044051	0.038243	0.072843	0.032133	0.020585	0.020350	0.024129	0.051244	0.043002	0.044228	0.076333	0.079081	0.015098	0.016904	0.014054	0.010638	0.013865	0.017408	0.016275	0.015360	0.016193	0.040225	0.025722	0.011294	0.013943	0.012676	0.012909	0.014356	0.008473	0.011200	0.014326	0.008456	0.033114	0.016339	0.017536	0.017291	0.016381	0.035028	0.023779	0.013650	0.013134	0.015112	0.012989	0.009152	0.008069	0.009802	0.020580	0.014852	0.037729
3.685000	0.043451	0.021805	0.028256	0.022888	0.014448	0.045913	0.022968	0.016807	0.020084	0.016142	0.035623	0.035637	0.043124	0.038458	0.073378	0.031758	0.020705	0.020578	0.024509	0.051390	0.043564	0.044137	0.076181	0.078883	0.015779	0.015687	0.013395	0.010741	0.013319	0.018485	0.016861	0.015748	0.016572	0.040679	0.027069	0.011965	0.013576	0.013017	0.012909	0.015556	0.007969	0.013419	0.014274	0.007164	0.032383	0.016486	0.017721	0.017381	0.016648	0.034562	0.024573	0.013773	0.013075	0.015103	0.013316	0.009769	0.007569	0.011221	0.019168	0.014623	0.037200
3.690000	0.043452	0.023358	0.028352	0.022842	0.014406	0.045781	0.022675	0.016002	0.019127	0.015948	0.035718	0.035543	0.042972	0.038881	0.074282	0.031628	0.021179	0.020606	0.024471	0.051610	0.044365	0.043431	0.076720	0.078853	0.015543	0.015833	0.013748	0.011105	0.013158	0.019525	0.017438	0.016534	0.017254	0.041114	0.027637	0.012524	0.013239	0.013401	0.013345	0.016654	0.007487	0.016033	0.014427	0.007217	0.031562	0.016633	0.017781	0.017493	0.016832	0.034334	0.025359	0.013899	0.012830	0.015182	0.013326	0.010499	0.007226	0.012427	0.018847	0.014821	0.036624
3.695000	0.043458	0.022775	0.028218	0.022601	0.014310	0.045496	0.021866	0.015372	0.018086	0.015830	0.035746	0.036007	0.043004	0.039242	0.075026	0.031706	0.021498	0.020989	0.024746	0.051946	0.044354	0.043019	0.077196	0.078839	0.014653	0.016205	0.013692	0.011305	0.013147	0.020300	0.017992	0.016991	0.017628	0.040791	0.027947	0.012495	0.012615	0.013127	0.013167	0.018328	0.006976	0.018250	0.014307	0.007595	0.031836	0.017026	0.018088	0.017657	0.017005	0.033890	0.025660	0.013847	0.012528	0.014959	0.013217	0.011164	0.006824	0.013463	0.018283	0.014771	0.036377
3.700000	0.043554	0.022150	0.028593	0.022148	0.014633	0.045291	0.021449	0.014546	0.016707	0.015830	0.035755	0.036067	0.043169	0.039760	0.075907	0.031797	0.021655	0.021368	0.024787	0.052302	0.044443	0.042218	0.077585	0.079021	0.015132	0.016037	0.013758	0.011533	0.012977	0.021619	0.018605	0.018303	0.018386	0.040188	0.028409	0.012384	0.012356	0.012866	0.012911	0.019010	0.006996	0.020070	0.014955	0.008628	0.031650	0.017705	0.018413	0.017994	0.017278	0.033862	0.025848	0.013760	0.012284	0.014716	0.013201	0.011553	0.006160	0.014537	0.018315	0.014818	0.036312
3.705000	0.043654	0.023135	0.028192	0.021945	0.014723	0.045043	0.020939	0.014123	0.016081	0.015845	0.035675	0.036646	0.042885	0.040679	0.076180	0.032007	0.021811	0.021386	0.024933	0.052304	0.044788	0.042210	0.077953	0.078921	0.014519	0.016441	0.013961	0.011759	0.012930	0.022862	0.019408	0.019372	0.018739	0.039407	0.028968	0.011934	0.012027	0.012747	0.012311	0.019348	0.006458	0.021429	0.015375	0.009549	0.031556	0.018079	0.018670	0.018174	0.017466	0.033814	0.025429	0.013529	0.011937	0.014567	0.013081	0.011657	0.006016	0.014999	0.017650	0.014918	0.036540
3.710000	0.043700	0.022951	0.028482	0.021590	0.014225	0.044848	0.020916	0.014015	0.015310	0.015844	0.035623	0.036733	0.043661	0.040960	0.076597	0.032325	0.021942	0.021612	0.024964	0.052608	0.043416	0.042174	0.078052	0.079093	0.014595	0.017089	0.014011	0.011975	0.012880	0.023419	0.020344	0.020959	0.019646	0.038399	0.029382	0.011790	0.012118	0.012562	0.011898	0.020528	0.006090	0.022164	0.015935	0.010394	0.031655	0.018762	0.018886	0.018777	0.017547	0.033569	0.025345	0.013427	0.011702	0.014402	0.012921	0.011613	0.005848	0.015049	0.017816	0.014955	0.037041
3.715000	0.043813	0.023260	0.028294	0.021589	0.014347	0.044518	0.020284	0.013736	0.014600	0.015957	0.035607	0.036981	0.043421	0.041293	0.076849	0.032681	0.022381	0.021807	0.024953	0.052783	0.043993	0.042354	0.078195	0.079080	0.014836	0.017329	0.014348	0.012046	0.013462	0.023665	0.020858	0.021460	0.019876	0.037169	0.029577	0.011265	0.012191	0.012510	0.011253	0.019796	0.005919	0.020938	0.015989	0.010638	0.031980	0.019104	0.019152	0.018924	0.017712	0.033350	0.025187	0.012978	0.011202	0.014092	0.012680	0.011014	0.006378	0.012894	0.017087	0.014756	0.037558
3.720000	0.043769	0.024283	0.027423	0.021396	0.014023	0.044239	0.019954	0.013766	0.013968	0.016458	0.035963	0.037460	0.043861	0.041939	0.075741	0.033267	0.022970	0.022523	0.025014	0.052975	0.043998	0.042033	0.078538	0.079216	0.015257	0.018309	0.014106	0.012068	0.013108	0.023412	0.020907	0.022033	0.019823	0.036718	0.029006	0.010914	0.012223	0.012297	0.010840	0.019542	0.005984	0.020713	0.016434	0.010819	0.031922	0.019272	0.019536	0.019363	0.018136	0.032388	0.024605	0.012757	0.011507	0.014004	0.012198	0.009851	0.006233	0.011562	0.017839	0.014062	0.037746
3.725000	0.043766	0.024472	0.027853	0.021339	0.013860	0.043889	0.019923	0.014392	0.014280	0.016569	0.035798	0.037495	0.044420	0.041806	0.076745	0.033272	0.022879	0.022439	0.025070	0.053323	0.043532	0.042896	0.078134	0.078953	0.015688	0.018745	0.014429	0.012052	0.013444	0.023199	0.020839	0.022097	0.019645	0.035563	0.029324	0.010689	0.012394	0.012219	0.010246	0.018676	0.006291	0.019563	0.016277	0.010575	0.031650	0.018215	0.018522	0.018462	0.017334	0.032732	0.023825	0.012150	0.010669	0.013471	0.011784	0.009250	0.006970	0.010497	0.018529	0.014374	0.037807
3.730000	0.043357	0.024668	0.026918	0.021169	0.013496	0.043366	0.019448	0.015048	0.014409	0.016802	0.036091	0.037894	0.044173	0.042337	0.076329	0.033813	0.023610	0.022932	0.025332	0.053733	0.043259	0.043261	0.078216	0.078718	0.015980	0.018776	0.014282	0.011974	0.013391	0.022627	0.020633	0.022110	0.019441	0.034986	0.028401	0.010170	0.012738	0.011961	0.009843	0.017650	0.006391	0.017967	0.016055	0.010311	0.031682	0.017362	0.018056	0.017814	0.016817	0.032432	0.022708	0.011527	0.010456	0.013141	0.011315	0.008254	0.007330	0.009000	0.018740	0.014629	0.038021
3.735000	0.042762	0.025038	0.026964	0.021014	0.012893	0.042771	0.019542	0.015557	0.015166	0.017511	0.036618	0.038172	0.044927	0.042053	0.076309	0.033873	0.024102	0.023251	0.025544	0.054284	0.043995	0.043909	0.077515	0.078470	0.016178	0.019452	0.014186	0.011977	0.013240	0.021820	0.019782	0.021499	0.018738	0.034987	0.027626	0.009907	0.012448	0.011756	0.009460	0.016951	0.006560	0.017209	0.015978	0.010082	0.031668	0.016008	0.017015	0.017145	0.016169	0.032211	0.021588	0.011027	0.010338	0.012831	0.011119	0.007806	0.007568	0.008555	0.018677	0.014906	0.038978
3.740000	0.042447	0.024744	0.026637	0.021101	0.012569	0.042293	0.019443	0.016179	0.015721	0.017830	0.037020	0.038880	0.044553	0.042126	0.076032	0.034350	0.024709	0.023826	0.025874	0.054499	0.044495	0.044221	0.077348	0.078465	0.016167	0.019540	0.014147	0.011806	0.013374	0.021066	0.019208	0.019711	0.018383	0.034265	0.026782	0.009465	0.012533	0.011353	0.008895	0.016329	0.006720	0.016065	0.015632	0.010061	0.031238	0.015318	0.016614	0.016211	0.015618	0.032017	0.020421	0.010776	0.010462	0.012648	0.010868	0.007528	0.007947	0.007661	0.018725	0.015245	0.039930
3.745000	0.041702	0.024603	0.026639	0.021163	0.012517	0.041580	0.019838	0.016910	0.016548	0.018262	0.037707	0.039588	0.045281	0.041990	0.075841	0.034549	0.025371	0.024320	0.026295	0.055185	0.045167	0.044413	0.077250	0.078086	0.016116	0.019527	0.014100	0.011912	0.013167	0.020204	0.018586	0.019403	0.017559	0.033695	0.025771	0.009036	0.012604	0.011132	0.008551	0.016067	0.006878	0.014912	0.016153	0.009608	0.031799	0.014408	0.015719	0.015667	0.014889	0.031759	0.019367	0.010257	0.010669	0.012755	0.010473	0.007915	0.008397	0.007089	0.018265	0.015952	0.040956
3.750000	0.040977	0.024486	0.026013	0.021002	0.012719	0.040920	0.020149	0.017799	0.017571	0.018990	0.038342	0.040170	0.045678	0.041693	0.075586	0.034662	0.025977	0.024749	0.026760	0.055723	0.046000	0.044581	0.076665	0.078279	0.015985	0.019315	0.013953	0.011930	0.013069	0.019363	0.017638	0.017858	0.017025	0.033674	0.024793	0.008628	0.012526	0.010841	0.008211	0.015531	0.007056	0.014242	0.015908	0.009878	0.032168	0.013884	0.015421	0.015040	0.014439	0.031495	0.018514	0.010019	0.010923	0.013084	0.010480	0.008086	0.009240	0.006826	0.017778	0.016391	0.042090
3.755000	0.040212	0.024163	0.025717	0.020769	0.012865	0.040212	0.020589	0.018632	0.018708	0.019674	0.039094	0.040934	0.045370	0.041857	0.075616	0.034803	0.026514	0.025091	0.027271	0.056455	0.047037	0.044912	0.076130	0.077968	0.016173	0.019217	0.013905	0.011589	0.012723	0.018747	0.017070	0.017235	0.016414	0.033826	0.023951	0.008129	0.012376	0.010817	0.008169	0.014985	0.007436	0.013821	0.015252	0.010221	0.032795	0.013349	0.015124	0.015013	0.014180	0.031330	0.017756	0.009996	0.011065	0.013376	0.010519	0.008212	0.009319	0.006517	0.017401	0.016896	0.043016
3.760000	0.039589	0.024532	0.025628	0.020620	0.012982	0.039515	0.020492	0.019405	0.019691	0.020279	0.039932	0.041847	0.045798	0.041972	0.075467	0.034910	0.027270	0.025650	0.027795	0.057089	0.047283	0.044938	0.076081	0.077877	0.015445	0.018879	0.013684	0.011426	0.012626	0.017826	0.016516	0.016526	0.015813	0.033642	0.022960	0.007901	0.012510	0.010613	0.008247	0.014584	0.007977	0.013194	0.015526	0.010349	0.033414	0.013018	0.014597	0.014612	0.014037	0.031125	0.016938	0.009687	0.011292	0.013493	0.010459	0.008550	0.009907	0.006223	0.017061	0.017397	0.043585
3.765000	0.038994	0.024611	0.025368	0.020399	0.013269	0.038843	0.021071	0.020176	0.020932	0.020873	0.040467	0.042442	0.046156	0.041912	0.075512	0.035146	0.027598	0.026198	0.028513	0.057556	0.048528	0.044917	0.075764	0.077798	0.016294	0.018439	0.013294	0.011426	0.012097	0.017602	0.016069	0.016221	0.015752	0.033923	0.022629	0.007692	0.012183	0.010534	0.008276	0.014203	0.008590	0.012756	0.014289	0.010718	0.033918	0.012961	0.014600	0.014674	0.013784	0.031131	0.016678	0.009818	0.011108	0.013441	0.010551	0.008729	0.010403	0.005934	0.016599	0.017837	0.044180
3.770000	0.038535	0.024524	0.025000	0.020464	0.013705	0.038004	0.021329	0.021037	0.021522	0.021451	0.041178	0.043203	0.046294	0.042788	0.074966	0.035458	0.027925	0.026638	0.029163	0.058305	0.048983	0.045017	0.075668	0.077744	0.015639	0.018016	0.013086	0.011202	0.012009	0.017316	0.015714	0.015998	0.015354	0.033706	0.022164	0.007562	0.012500	0.010539	0.008007	0.013646	0.008911	0.012573	0.014140	0.011007	0.034366	0.012761	0.014228	0.014412	0.013706	0.031086	0.016348	0.009361	0.011327	0.013686	0.010855	0.008868	0.010992	0.005652	0.016280	0.018157	0.044291
3.775000	0.038226	0.025041	0.025030	0.020025	0.013932	0.037444	0.021160	0.021625	0.022699	0.022061	0.041675	0.043432	0.045797	0.042740	0.074930	0.035533	0.028521	0.026978	0.029605	0.058748	0.049668	0.045070	0.075456	0.077592	0.015135	0.017889	0.012785	0.011095	0.011749	0.016737	0.015652	0.015519	0.015108	0.034071	0.022133	0.007162	0.012114	0.010097	0.007966	0.013619	0.009543	0.012150	0.014453	0.011513	0.034720	0.012398	0.014154	0.014058	0.013313	0.031563	0.016245	0.009356	0.010644	0.013371	0.010806	0.008992	0.011004	0.006037	0.015237	0.018623	0.044295
3.780000	0.037921	0.025350	0.025065	0.019897	0.014154	0.036977	0.021840	0.022339	0.023246	0.022608	0.042214	0.043963	0.046711	0.042600	0.074525	0.035816	0.028757	0.027468	0.030121	0.059452	0.049732	0.045354	0.075084	0.077838	0.015052	0.017530	0.012277	0.010753	0.011587	0.016787	0.015734	0.016124	0.015321	0.033615	0.022271	0.007309	0.012236	0.010437	0.008249	0.013535	0.009827	0.012628	0.013830	0.011896	0.034697	0.012314	0.013821	0.013685	0.013043	0.031592	0.016395	0.009345	0.010307	0.013160	0.010980	0.008960	0.011067	0.006273	0.014830	0.018965	0.044198
3.785000	0.037639	0.024956	0.024895	0.019707	0.014135	0.036540	0.021702	0.022647	0.023978	0.022997	0.042566	0.044174	0.046223	0.042545	0.074611	0.035904	0.029233	0.027928	0.030757	0.059894	0.050868	0.045090	0.075284	0.077536	0.015149	0.017031	0.012293	0.010877	0.011311	0.016090	0.015314	0.015530	0.014843	0.033614	0.022528	0.006816	0.011718	0.010149	0.008031	0.013608	0.010545	0.013147	0.013868	0.012833	0.035096	0.012203	0.013760	0.013548	0.012921	0.031922	0.016508	0.009277	0.010086	0.013172	0.010886	0.008973	0.010980	0.006659	0.014688	0.019035	0.043816
3.790000	0.037551	0.025869	0.025004	0.019460	0.014456	0.036097	0.021985	0.023229	0.024525	0.023559	0.043147	0.044626	0.046398	0.042740	0.074358	0.036072	0.029438	0.028195	0.031179	0.059965	0.051297	0.045318	0.074976	0.077759	0.014603	0.016838	0.011947	0.010572	0.011169	0.016614	0.015406	0.015781	0.014885	0.033509	0.022584	0.006970	0.011447	0.010093	0.008213	0.013861	0.010689	0.014351	0.013678	0.013411	0.034889	0.011956	0.013475	0.013346	0.012593	0.031965	0.016728	0.009089	0.009577	0.012822	0.010878	0.008876	0.010754	0.007344	0.013995	0.019569	0.043510
3.795000	0.037404	0.026111	0.025182	0.019414	0.014759	0.035806	0.022035	0.023318	0.024812	0.023839	0.043435	0.044899	0.046507	0.043029	0.074261	0.036260	0.030156	0.028548	0.031609	0.060581	0.051661	0.044968	0.075492	0.077262	0.013898	0.016666	0.012011	0.010432	0.011300	0.016411	0.015573	0.016064	0.014849	0.033238	0.022801	0.006721	0.011128	0.010031	0.008089	0.014183	0.011424	0.014802	0.014254	0.013970	0.035017	0.011768	0.013039	0.013041	0.012309	0.031650	0.016784	0.008852	0.009542	0.012515	0.010425	0.008802	0.010855	0.007835	0.013553	0.019999	0.043285
3.800000	0.037460	0.026317	0.024913	0.019404	0.014756	0.035534	0.022153	0.023308	0.024853	0.024019	0.043624	0.045180	0.046621	0.043392	0.073952	0.036540	0.030188	0.028902	0.032034	0.060975	0.052149	0.045064	0.075387	0.077224	0.014151	0.016291	0.011916	0.010351	0.011209	0.016642	0.015870	0.015889	0.015206	0.032295	0.023179	0.006655	0.011466	0.010355	0.007851	0.014237	0.011728	0.015727	0.013435	0.014806	0.035203	0.011548	0.012840	0.012521	0.012249	0.031071	0.016652	0.008613	0.009328	0.012299	0.010219	0.008911	0.010511	0.008768	0.012910	0.020219	0.043023
3.805000	0.037324	0.026764	0.025157	0.019344	0.014946	0.035370	0.022629	0.023385	0.024732	0.024121	0.043716	0.045282	0.046915	0.043612	0.073966	0.036553	0.030393	0.029060	0.032307	0.061256	0.052365	0.045216	0.075324	0.077035	0.013849	0.016306	0.011807	0.010339	0.011310	0.017414	0.016309	0.017018	0.015398	0.031799	0.023392	0.006852	0.011510	0.010271	0.007487	0.014786	0.011932	0.016488	0.014534	0.015373	0.035154	0.011461	0.012714	0.012372	0.012060	0.030503	0.016800	0.008150	0.009174	0.011861	0.009781	0.008902	0.010330	0.009604	0.012061	0.020545	0.042631
3.810000	0.037313	0.026960	0.025187	0.019274	0.014986	0.035347	0.022213	0.023393	0.024544	0.024187	0.043758	0.045405	0.047000	0.043695	0.073644	0.036645	0.030551	0.029199	0.032536	0.061392	0.052703	0.045305	0.075359	0.076959	0.013765	0.016284	0.011661	0.010376	0.011308	0.017282	0.016497	0.017265	0.015631	0.031288	0.023770	0.006911	0.011623	0.010549	0.007507	0.015139	0.012052	0.017623	0.014406	0.016073	0.034983	0.011442	0.012506	0.012239	0.012068	0.029931	0.017051	0.007966	0.008958	0.011557	0.009161	0.009094	0.009914	0.010474	0.011952	0.020477	0.042271
3.815000	0.037381	0.027025	0.025233	0.019230	0.014951	0.035166	0.022360	0.023405	0.024176	0.024221	0.043896	0.045683	0.046937	0.043721	0.073721	0.036828	0.030679	0.029349	0.032823	0.061396	0.052781	0.045207	0.075337	0.076883	0.013502	0.016314	0.011555	0.010358	0.011370	0.017815	0.017126	0.018022	0.015972	0.030606	0.024069	0.007073	0.012096	0.010869	0.007640	0.015397	0.012935	0.018431	0.013795	0.016833	0.034923	0.011447	0.012325	0.012262	0.011974	0.029226	0.017204	0.007494	0.008951	0.011139	0.008594	0.009449	0.010026	0.011307	0.011690	0.020824	0.041911
