Coordinates
version=1
nRows=112
nColumns=40
inDegrees=yes

Units are S.I. units (second, meters, Newtons, ...)
If the header above contains a line with 'inDegrees', this indicates whether rotational values are in degrees (yes) or radians (no).

endheader
time	pelvis_tilt	pelvis_list	pelvis_rotation	pelvis_tx	pelvis_ty	pelvis_tz	hip_flexion_r	hip_adduction_r	hip_rotation_r	knee_angle_r	knee_angle_r_beta	ankle_angle_r	subtalar_angle_r	mtp_angle_r	hip_flexion_l	hip_adduction_l	hip_rotation_l	knee_angle_l	knee_angle_l_beta	ankle_angle_l	subtalar_angle_l	mtp_angle_l	lumbar_extension	lumbar_bending	lumbar_rotation	arm_flex_r	arm_add_r	arm_rot_r	elbow_flex_r	pro_sup_r	wrist_flex_r	wrist_dev_r	arm_flex_l	arm_add_l	arm_rot_l	elbow_flex_l	pro_sup_l	wrist_flex_l	wrist_dev_l
      3.26000000	    -44.32891518	      6.53703898	      0.37723734	     -0.42757766	      0.60193160	     -0.94597751	    111.06253831	    -17.62875202	      5.02739776	     89.64327746	      1.56457034	     25.35617546	      0.00000000	      0.00000000	    104.11635259	    -10.43276699	     -4.91525883	     89.51122622	      1.56226561	     32.82106073	      0.00000000	      0.00000000	    -26.66974033	     -2.53569355	     -8.63576021	      2.47136065	    -50.59062335	     65.95822912	     95.66818602	     85.73025257	      0.00000000	      0.00000000	     -1.61652112	    -53.93785952	     68.72340404	     93.72626112	     87.15983488	      0.00000000	      0.00000000
      3.26500000	    -44.48184387	      6.57534050	      0.42354879	     -0.42692798	      0.60185822	     -0.94617313	    111.19812886	    -17.65510612	      5.09499332	     89.65572217	      1.56478755	     25.25833903	      0.00000000	      0.00000000	    104.21447677	    -10.35483210	     -4.93948309	     89.51971824	      1.56241383	     32.83765600	      0.00000000	      0.00000000	    -26.48054914	     -2.50614600	     -8.74527730	      2.88450497	    -50.62966491	     66.61777557	     95.64956062	     82.85935946	      0.00000000	      0.00000000	     -1.68193927	    -53.88866152	     68.56198164	     93.54414030	     87.56638454	      0.00000000	      0.00000000
      3.27000000	    -44.44741174	      6.41859372	      0.40321361	     -0.42600215	      0.60196692	     -0.94596418	    111.02732142	    -17.61526110	      4.99403224	     89.69849125	      1.56553401	     25.34512229	      0.00000000	      0.00000000	    104.16964967	    -10.35672591	     -4.73957515	     89.57772100	      1.56342617	     32.81070312	      0.00000000	      0.00000000	    -26.37788035	     -2.39406755	     -8.68850572	      3.64193286	    -50.75349306	     67.89059104	     95.78520675	     78.97323978	      0.00000000	      0.00000000	     -1.18045924	    -53.88044076	     69.38655741	     93.48842850	     87.41569518	      0.00000000	      0.00000000
      3.27500000	    -44.32417914	      6.55085649	      0.43243673	     -0.42474176	      0.60240324	     -0.94609009	    110.85222137	    -17.61941995	      5.18620538	     89.71990087	      1.56590767	     25.55152261	      0.00000000	      0.00000000	    103.86171934	    -10.29699279	     -4.89694710	     89.55512040	      1.56303171	     33.01139823	      0.00000000	      0.00000000	    -26.41996735	     -2.47424518	     -8.62149605	      3.60620544	    -50.74126282	     67.19014237	     95.70595382	     85.70379405	      0.00000000	      0.00000000	     -0.63944369	    -53.84660558	     69.91612502	     93.38860267	     87.13375052	      0.00000000	      0.00000000
      3.28000000	    -44.03449043	      6.49613733	      0.42041843	     -0.42300519	      0.60320151	     -0.94586959	    110.38015311	    -17.62786356	      5.15816246	     89.76932572	      1.56677030	     25.71124061	      0.00000000	      0.00000000	    103.42585151	    -10.26918232	     -4.84184207	     89.59696738	      1.56376208	     33.16165471	      0.00000000	      0.00000000	    -26.56584564	     -2.43500564	     -8.55464598	      3.84529148	    -50.67001480	     67.36894857	     95.63139602	     85.71882247	      0.00000000	      0.00000000	     -0.39369978	    -54.07509056	     69.97540199	     93.51977764	     87.15536179	      0.00000000	      0.00000000
      3.28500000	    -43.87763729	      6.45812842	      0.43858907	     -0.42161301	      0.60400296	     -0.94571828	    110.03925135	    -17.59467356	      5.20621595	     89.75703694	      1.56655582	     25.86147350	      0.00000000	      0.00000000	    103.12407420	    -10.20668866	     -4.79215099	     89.55344584	      1.56300249	     33.22674420	      0.00000000	      0.00000000	    -26.53659883	     -2.37325879	     -8.59823961	      4.39722411	    -50.67190696	     67.91815499	     95.59130709	     85.58975621	      0.00000000	      0.00000000	      0.04300398	    -53.89061289	     70.34952187	     93.51644123	     87.26149613	      0.00000000	      0.00000000
      3.29000000	    -43.80207298	      6.34971807	      0.51330910	     -0.42037962	      0.60469731	     -0.94551361	    109.78204664	    -17.60100974	      5.19980850	     89.72490596	      1.56599503	     25.91440417	      0.00000000	      0.00000000	    102.92245237	    -10.06989573	     -4.64522778	     89.47930587	      1.56170850	     33.25848747	      0.00000000	      0.00000000	    -26.35099494	     -2.28500282	     -8.63884997	      4.85759314	    -50.63014795	     68.38661971	     95.48786378	     85.68460780	      0.00000000	      0.00000000	      0.24233022	    -53.97032480	     70.56530430	     93.52299275	     87.19829806	      0.00000000	      0.00000000
      3.29500000	    -43.19580086	      6.36753250	      0.33043732	     -0.41776170	      0.60636561	     -0.94478094	    108.88908244	    -17.40697471	      5.19854168	     89.76730066	      1.56673496	     26.10528575	      0.00000000	      0.00000000	    102.04199291	    -10.25916852	     -4.69607574	     89.52128513	      1.56244118	     33.42392910	      0.00000000	      0.00000000	    -26.75417506	     -2.39839272	     -8.53968272	      5.10423048	    -50.40344972	     68.46446781	     95.17736682	     85.69925697	      0.00000000	      0.00000000	      0.46860266	    -53.83847238	     70.62693300	     93.21862649	     87.19352858	      0.00000000	      0.00000000
      3.30000000	    -43.16633887	      6.35776191	      0.36762546	     -0.41657221	      0.60712279	     -0.94468708	    108.73002859	    -17.37176661	      5.22257921	     89.77320862	      1.56683807	     26.09595447	      0.00000000	      0.00000000	    101.87989893	    -10.18789524	     -4.69126563	     89.51296251	      1.56229592	     33.41207648	      0.00000000	      0.00000000	    -26.42833212	     -2.40991766	     -8.56617148	      5.13599265	    -50.41955592	     68.44182583	     95.18226644	     85.69861875	      0.00000000	      0.00000000	      0.49021345	    -53.85724475	     70.62068828	     93.21146414	     87.19259728	      0.00000000	      0.00000000
      3.30500000	    -42.82365248	      6.36452249	      0.31563949	     -0.41446064	      0.60906022	     -0.94409137	    108.03722929	    -17.15800427	      5.37943838	     89.59628354	      1.56375015	     26.19641988	      0.00000000	      0.00000000	    101.17056576	    -10.08458559	     -4.54320039	     89.21731566	      1.55713591	     33.50360252	      0.00000000	      0.00000000	    -26.48951315	     -2.47745116	     -8.57346275	      5.44470487	    -50.21149736	     68.48850401	     94.90687260	     85.70453113	      0.00000000	      0.00000000	      0.77199984	    -53.88268215	     70.66622613	     93.06585963	     87.19521000	      0.00000000	      0.00000000
      3.31000000	    -42.41585875	      6.48403664	      0.47365793	     -0.41226159	      0.61080083	     -0.94434079	    107.44069665	    -17.30805067	      5.58653004	     89.59361877	      1.56370364	     26.51396508	      0.00000000	      0.00000000	    100.41093300	     -9.78724833	     -4.71037556	     89.07385456	      1.55463204	     33.81314066	      0.00000000	      0.00000000	    -26.49830221	     -2.52705077	     -8.82746887	      5.81501302	    -50.08964245	     68.81814196	     94.57538834	     85.74272469	      0.00000000	      0.00000000	      1.08079956	    -53.75850323	     71.01712129	     92.64420416	     87.19525385	      0.00000000	      0.00000000
      3.31500000	    -42.13567049	      6.51244272	      0.23420537	     -0.41022840	      0.61255112	     -0.94342549	    106.83262348	    -16.89987559	      5.64478785	     89.47340058	      1.56160543	     26.51184598	      0.00000000	      0.00000000	     99.82406082	     -9.94771724	     -4.59320926	     88.91108989	      1.55179126	     33.81980562	      0.00000000	      0.00000000	    -26.33392632	     -2.70179251	     -8.70300710	      6.01691596	    -49.85310405	     68.79538568	     94.43345546	     85.72858379	      0.00000000	      0.00000000	      1.16555388	    -53.71223422	     71.05704435	     92.58271777	     87.18735997	      0.00000000	      0.00000000
      3.32000000	    -41.36829709	      6.58217224	      0.21280249	     -0.40714660	      0.61557114	     -0.94319784	    105.63230870	    -16.89063982	      5.76429066	     89.29607412	      1.55851050	     26.64623801	      0.00000000	      0.00000000	     98.57384738	     -9.85111450	     -4.74946777	     88.68580619	      1.54785932	     33.89676808	      0.00000000	      0.00000000	    -26.72809748	     -2.76945057	     -8.77836532	      6.19874026	    -49.64797448	     68.83222118	     93.91270252	     85.72377917	      0.00000000	      0.00000000	      1.40012088	    -53.56804465	     71.06269369	     92.28473216	     87.17709105	      0.00000000	      0.00000000
      3.32500000	    -41.44518787	      6.64816567	      0.31329734	     -0.40594398	      0.61681634	     -0.94327630	    105.50776891	    -16.79455113	      5.98170716	     89.17089855	      1.55632578	     26.83459012	      0.00000000	      0.00000000	     98.39345595	     -9.61095252	     -4.71527856	     88.47957000	      1.54425982	     34.04820165	      0.00000000	      0.00000000	    -26.05190881	     -2.84960976	     -8.89515458	      6.25551502	    -49.59846739	     68.85876017	     93.77911250	     85.74255083	      0.00000000	      0.00000000	      1.42555851	    -53.69313158	     71.09829858	     92.13933811	     87.16767976	      0.00000000	      0.00000000
      3.33000000	    -40.34581307	      6.52695372	     -0.46440038	     -0.40185839	      0.62030950	     -0.94100015	    103.72531021	    -15.97175798	      5.66196454	     89.00336526	      1.55340177	     27.08226659	      0.00000000	      0.00000000	     96.80217223	    -10.48680698	     -4.67647947	     88.49963617	      1.54461004	     34.35033810	      0.00000000	      0.00000000	    -26.62771310	     -3.12542769	     -8.30808860	      6.47146241	    -49.10049852	     68.86775954	     93.00905891	     85.76566930	      0.00000000	      0.00000000	      1.51552778	    -53.52143234	     70.98458335	     91.60626639	     87.14694542	      0.00000000	      0.00000000
      3.33500000	    -40.05257971	      6.53390326	     -0.51510543	     -0.39957368	      0.62289545	     -0.94059159	    103.01471367	    -15.77105275	      5.76614059	     88.78204660	      1.54953903	     27.13901402	      0.00000000	      0.00000000	     96.06344688	    -10.38529495	     -4.60124039	     88.12270969	      1.53803143	     34.34489141	      0.00000000	      0.00000000	    -26.31572183	     -3.19110898	     -8.35317174	      6.52225137	    -48.95885183	     68.75982276	     92.86238090	     85.76128084	      0.00000000	      0.00000000	      1.47234099	    -53.48371438	     70.97693613	     91.47412131	     87.14245042	      0.00000000	      0.00000000
      3.34000000	    -39.66127369	      6.59995586	     -0.53110163	     -0.39703214	      0.62575551	     -0.94036555	    102.17359962	    -15.65439592	      5.89795631	     88.49768812	      1.54457604	     27.24526382	      0.00000000	      0.00000000	     95.19638071	    -10.19563279	     -4.62328523	     87.77543879	      1.53197041	     34.40199702	      0.00000000	      0.00000000	    -26.06815444	     -3.29553544	     -8.39595141	      6.50694266	    -48.73336229	     68.59730367	     92.44490240	     85.74708315	      0.00000000	      0.00000000	      1.49879329	    -53.36712206	     70.81588991	     91.29659519	     87.12588291	      0.00000000	      0.00000000
      3.34500000	    -38.88023589	      6.73345184	     -0.71075533	     -0.39361735	      0.62919993	     -0.93960673	    100.91583836	    -15.46583335	      6.00994477	     88.33960184	      1.54181691	     27.63636583	      0.00000000	      0.00000000	     93.81280457	    -10.31136790	     -4.88137406	     87.50474355	      1.52724589	     34.75782471	      0.00000000	      0.00000000	    -26.19263677	     -3.56276336	     -8.39891531	      6.39191701	    -48.31067031	     68.09994094	     91.81499234	     85.68566165	      0.00000000	      0.00000000	      1.32590686	    -53.36250938	     70.39904465	     90.92650620	     87.09724504	      0.00000000	      0.00000000
      3.35000000	    -38.64950393	      6.72640140	     -0.70335894	     -0.39123813	      0.63211643	     -0.93932857	    100.21023199	    -15.31973642	      6.10976385	     88.00860399	      1.53603991	     27.58430087	      0.00000000	      0.00000000	     93.11430074	    -10.10534601	     -4.77489007	     87.07908234	      1.51981670	     34.66747006	      0.00000000	      0.00000000	    -25.68147462	     -3.59626147	     -8.43550810	      6.25626123	    -48.16656484	     67.97400486	     91.62325839	     85.68007888	      0.00000000	      0.00000000	      1.18735718	    -53.23405131	     70.29189064	     90.79882575	     87.08719643	      0.00000000	      0.00000000
      3.35500000	    -37.76655938	      6.87105612	     -0.87671835	     -0.38749130	      0.63632840	     -0.93854872	     98.76416346	    -15.16655948	      6.20845451	     87.72874988	      1.53115553	     27.76950374	      0.00000000	      0.00000000	     91.53122527	    -10.15045534	     -5.03745799	     86.67483324	      1.51276122	     34.85958573	      0.00000000	      0.00000000	    -25.84766520	     -3.84681782	     -8.39186570	      6.02190326	    -47.66943919	     67.44927992	     90.80769749	     85.67223783	      0.00000000	      0.00000000	      1.07209194	    -53.16156227	     69.68162137	     90.34847661	     87.05792574	      0.00000000	      0.00000000
      3.36000000	    -38.01858236	      6.47800000	     -0.96974446	     -0.38574175	      0.63849243	     -0.93770726	     98.38679093	    -14.77373370	      5.85423922	     87.32282817	      1.52407086	     27.84689440	      0.00000000	      0.00000000	     91.53302114	    -10.21033903	     -4.50270550	     86.30968480	      1.50638818	     34.78945512	      0.00000000	      0.00000000	    -24.68291469	     -3.58621722	     -8.15132537	      5.39261898	    -47.49759573	     66.56451416	     90.50803837	     85.69137177	      0.00000000	      0.00000000	      0.30175762	    -52.96052614	     68.71097639	     89.99805363	     87.05176545	      0.00000000	      0.00000000
      3.36500000	    -36.84355868	      6.81591263	     -0.98724439	     -0.38145768	      0.64377273	     -0.93757516	     96.65460240	    -14.91249952	      6.14333171	     86.98328672	      1.51814475	     27.81426611	      0.00000000	      0.00000000	     89.47201868	     -9.91888064	     -4.96323288	     85.72597307	      1.49620048	     34.71712077	      0.00000000	      0.00000000	    -25.15188355	     -3.91333387	     -8.37365349	      5.29000266	    -47.13314836	     66.18432439	     90.02000266	     85.67709823	      0.00000000	      0.00000000	      0.25386469	    -52.85527409	     68.29473454	     89.66691876	     87.03744509	      0.00000000	      0.00000000
      3.37000000	    -35.92962259	      6.81026376	     -1.22266105	     -0.37762914	      0.64816998	     -0.93650118	     95.10061611	    -14.67570733	      6.06038768	     86.69732626	      1.51315380	     28.06382261	      0.00000000	      0.00000000	     87.87626081	    -10.08226094	     -5.10284392	     85.33738995	      1.48941843	     34.90724425	      0.00000000	      0.00000000	    -25.20684795	     -4.23932876	     -8.22588869	      4.71585532	    -46.70186728	     65.39100533	     89.42562146	     85.65553256	      0.00000000	      0.00000000	     -0.40900003	    -55.64878535	     67.88786751	     98.34656634	     87.45265746	      0.00000000	      0.00000000
      3.37500000	    -35.54788798	      6.86304881	     -1.39408330	     -0.37470454	      0.65202899	     -0.93581137	     94.13281123	    -14.38698674	      6.12469484	     86.22222975	      1.50486180	     27.91516652	      0.00000000	      0.00000000	     86.87261581	    -10.10238060	     -5.18219099	     84.76196945	      1.47937545	     34.78996662	      0.00000000	      0.00000000	    -24.59932170	     -4.36948233	     -8.10105619	      4.40548301	    -46.50172766	     64.96146136	     89.17114488	     85.64068516	      0.00000000	      0.00000000	     -0.67996639	    -55.49491387	     67.51313850	     98.01927906	     87.46120680	      0.00000000	      0.00000000
      3.38000000	    -34.56431964	      6.88542630	     -1.49476859	     -0.37067990	      0.65707071	     -0.93533791	     92.44875323	    -14.36581202	      6.09195154	     85.81085239	      1.49768191	     28.06181123	      0.00000000	      0.00000000	     85.12499889	     -9.99787941	     -5.33901913	     84.19618693	      1.46950068	     34.92762007	      0.00000000	      0.00000000	    -24.72639180	     -4.45785694	     -8.04057918	      3.49754131	    -46.19483638	     63.41270448	     88.81888911	     85.59992108	      0.00000000	      0.00000000	     -1.47607063	    -55.29315855	     66.09466804	     97.73790335	     87.42737426	      0.00000000	      0.00000000
      3.38500000	    -33.89671969	      6.81076143	     -1.59925300	     -0.36708321	      0.66176458	     -0.93467024	     91.09245165	    -14.24723772	      5.94875024	     85.37844699	      1.49013501	     27.84105873	      0.00000000	      0.00000000	     83.78950353	     -9.98976351	     -5.38749883	     83.63959602	      1.45978634	     34.70903549	      0.00000000	      0.00000000	    -24.37667367	     -4.48182474	     -7.95807023	      3.00665099	    -45.88867411	     62.72176619	     88.44526525	     85.58920411	      0.00000000	      0.00000000	     -1.94471113	    -55.04719639	     65.37652214	     97.30910798	     87.43048618	      0.00000000	      0.00000000
      3.39000000	    -33.11184193	      6.92171763	     -1.67705224	     -0.36311161	      0.66680410	     -0.93420827	     89.64416443	    -14.24586050	      5.97898685	     84.93063427	      1.48231920	     27.84543600	      0.00000000	      0.00000000	     82.18779471	     -9.81333088	     -5.56756741	     82.95690822	      1.44787119	     34.67170672	      0.00000000	      0.00000000	    -24.20002048	     -4.66338106	     -7.99099837	      1.97517909	    -45.59003267	     61.10081601	     88.31456039	     85.62596796	      0.00000000	      0.00000000	     -3.25360177	    -54.86854185	     63.59631446	     97.06352857	     87.46936254	      0.00000000	      0.00000000
      3.39500000	    -32.59306715	      7.02623626	     -1.64658003	     -0.35983946	      0.67142661	     -0.93421219	     88.54681291	    -14.34514465	      6.04822985	     84.43562493	      1.47367966	     27.47953740	      0.00000000	      0.00000000	     81.00743889	     -9.53164243	     -5.68571700	     82.31446339	      1.43665841	     34.30343159	      0.00000000	      0.00000000	    -23.56612884	     -4.76142552	     -8.03079904	      1.54286169	    -45.47988447	     60.57685326	     88.22963895	     85.62530493	      0.00000000	      0.00000000	     -3.66451756	    -54.64830120	     63.00571426	     96.81386958	     87.44410195	      0.00000000	      0.00000000
      3.40000000	    -31.56005494	      6.81165038	     -1.78115345	     -0.35561695	      0.67715495	     -0.93349290	     86.63450880	    -14.23870450	      5.73840576	     83.90757094	      1.46446338	     27.35751013	      0.00000000	      0.00000000	     79.22330786	     -9.57760388	     -5.66491489	     81.69821358	      1.42590282	     34.10720157	      0.00000000	      0.00000000	    -23.56147125	     -4.64234323	     -7.88547083	      0.73080356	    -45.27996994	     59.34909149	     88.05876361	     85.61036072	      0.00000000	      0.00000000	     -4.53636462	    -54.37773647	     61.69331697	     96.59503838	     87.40503750	      0.00000000	      0.00000000
      3.40500000	    -30.54638793	      6.68683271	     -2.06667872	     -0.35128890	      0.68304839	     -0.93249026	     84.75938068	    -13.98955007	      5.57625384	     83.24307181	      1.45286568	     27.12728239	      0.00000000	      0.00000000	     77.37865323	     -9.74383472	     -5.69783686	     81.01144716	      1.41391648	     33.79534189	      0.00000000	      0.00000000	    -23.45568214	     -4.68721433	     -7.61272359	     -0.04654393	    -45.09597998	     58.09396490	     88.01595661	     85.63946724	      0.00000000	      0.00000000	     -5.43844303	    -54.14142921	     60.32897648	     96.46103077	     87.38068483	      0.00000000	      0.00000000
      3.41000000	    -29.49739103	      6.83238908	     -1.91224826	     -0.34683858	      0.68900942	     -0.93286285	     82.99118535	    -14.43565679	      5.56585547	     82.73532504	      1.44400383	     26.88808570	      0.00000000	      0.00000000	     75.47295203	     -9.19236625	     -5.82810599	     80.22606636	      1.40020900	     33.49273440	      0.00000000	      0.00000000	    -23.38332371	     -4.76007986	     -7.85575665	     -1.03476468	    -45.00434500	     56.70967635	     88.25455079	     85.65880772	      0.00000000	      0.00000000	     -6.46670989	    -53.91102993	     58.90590346	     96.47964077	     87.36121347	      0.00000000	      0.00000000
      3.41500000	    -29.06645449	      6.50664373	     -2.47280885	     -0.34369114	      0.69401563	     -0.93117524	     81.74328733	    -13.61211843	      5.35601960	     81.97997619	      1.43082051	     26.46340842	      0.00000000	      0.00000000	     74.43365584	     -9.85464178	     -5.73599459	     79.64260218	      1.39002563	     33.14027661	      0.00000000	      0.00000000	    -22.62616108	     -4.72812149	     -7.17475599	     -2.44935712	    -44.87571878	     54.78487022	     88.65884998	     85.69349232	      0.00000000	      0.00000000	     -8.28889351	    -53.73332183	     56.49590486	     96.81759449	     87.36243379	      0.00000000	      0.00000000
      3.42000000	    -27.94957344	      6.19232806	     -2.90258566	     -0.33920532	      0.70033841	     -0.92971192	     79.68314243	    -13.14913183	      5.03114068	     81.27618870	      1.41853710	     26.07633606	      0.00000000	      0.00000000	     72.53427188	    -10.31422060	     -5.72871261	     79.01527268	      1.37907667	     32.66125522	      0.00000000	      0.00000000	    -22.51791104	     -4.65598183	     -6.74269837	     -3.23932935	    -44.77019763	     53.80833103	     88.90219748	     85.70002049	      0.00000000	      0.00000000	     -9.25900218	    -53.63339924	     55.25684943	     97.06123432	     87.35680101	      0.00000000	      0.00000000
      3.42500000	    -27.18369126	      6.24732180	     -2.49270731	     -0.33526568	      0.70663052	     -0.93080598	     78.12066236	    -13.81185529	      4.92104865	     80.55819128	      1.40600568	     25.65068988	      0.00000000	      0.00000000	     70.95105896	     -9.47908040	     -5.60957622	     77.99123204	      1.36120379	     32.21963796	      0.00000000	      0.00000000	    -22.18783673	     -4.48970910	     -7.13137380	     -4.66227434	    -44.78749913	     51.83695170	     89.57094228	     85.70193506	      0.00000000	      0.00000000	    -10.98146067	    -53.22805287	     52.98591764	     97.39556723	     87.35183971	      0.00000000	      0.00000000
      3.43000000	    -27.12659266	      6.03644337	     -2.24086120	     -0.33244421	      0.71155222	     -0.93135625	     77.34298523	    -14.02126060	      4.63306727	     79.84687111	      1.39359080	     24.80850242	      0.00000000	      0.00000000	     70.39192946	     -9.09584639	     -5.22435280	     77.22163625	      1.34777181	     31.32879081	      0.00000000	      0.00000000	    -20.91928568	     -4.14961197	     -7.21014602	     -5.57775500	    -45.15503237	     51.02363192	     90.48226805	     85.71780644	      0.00000000	      0.00000000	    -11.88799851	    -53.14518882	     52.08065314	     97.95800472	     87.33492992	      0.00000000	      0.00000000
      3.43500000	    -25.80213466	      6.06647684	     -2.69283956	     -0.32769577	      0.71898487	     -0.93041740	     75.12460363	    -13.79356394	      4.59470031	     78.96043658	      1.37811960	     24.18882704	      0.00000000	      0.00000000	     68.04535955	     -9.35810632	     -5.68426042	     76.31020323	      1.33186430	     30.77668982	      0.00000000	      0.00000000	    -21.04961097	     -4.34967646	     -6.84843845	     -6.49502336	    -45.20720141	     49.94105493	     91.06877911	     85.71309349	      0.00000000	      0.00000000	    -12.84084690	    -53.15392040	     50.95217589	     98.43522544	     87.32634526	      0.00000000	      0.00000000
      3.44000000	    -25.83202261	      5.61658485	     -2.47917124	     -0.32476556	      0.72403575	     -0.93072623	     74.27500376	    -13.82934047	      4.00876852	     78.13076725	      1.36363914	     23.50376856	      0.00000000	      0.00000000	     67.59608625	     -9.20570726	     -5.12256709	     75.54140720	      1.31844628	     30.09692014	      0.00000000	      0.00000000	    -19.77797714	     -3.76764446	     -6.70106795	     -8.47387875	    -45.48179203	     47.67537361	     92.34804671	     85.69277908	      0.00000000	      0.00000000	    -14.68505256	    -52.94392866	     48.80368915	     99.29835453	     87.31791013	      0.00000000	      0.00000000
      3.44500000	    -24.21566661	      5.69456124	     -2.82801003	     -0.31967763	      0.73269249	     -0.93018450	     71.65430148	    -13.84632228	      3.92767029	     77.09466784	      1.34555579	     22.73240503	      0.00000000	      0.00000000	     64.78068621	     -9.26224398	     -5.64110787	     74.34692803	      1.29759868	     29.35035693	      0.00000000	      0.00000000	    -20.26024087	     -3.96085646	     -6.48253679	     -9.23950328	    -45.79938177	     46.96250706	     93.29736064	     85.70717779	      0.00000000	      0.00000000	    -15.39328103	    -53.01426685	     48.08465217	     99.83375307	     87.31293441	      0.00000000	      0.00000000
      3.45000000	    -23.70360599	      5.56392747	     -2.72094800	     -0.31606020	      0.73948793	     -0.93050989	     70.19961193	    -14.04586771	      3.55818668	     76.04474679	      1.32723121	     22.00086851	      0.00000000	      0.00000000	     63.43540139	     -8.97399323	     -5.51895579	     73.18048229	      1.27724036	     28.57452481	      0.00000000	      0.00000000	    -19.51706752	     -3.73671713	     -6.46230283	    -10.23436962	    -46.30199551	     46.11532963	     94.56926503	     85.70170479	      0.00000000	      0.00000000	    -16.26408703	    -53.19085419	     47.39566562	    100.74964647	     87.29332972	      0.00000000	      0.00000000
      3.45500000	    -23.51805254	      5.19408688	     -2.87209565	     -0.31287179	      0.74557264	     -0.93004526	     69.09645496	    -13.77914139	      3.04189727	     75.00020140	      1.30900045	     21.07431469	      0.00000000	      0.00000000	     62.56351723	     -9.26417520	     -5.40979477	     72.26554583	      1.26127171	     27.64519012	      0.00000000	      0.00000000	    -18.55084466	     -3.35234185	     -5.95545269	    -12.66390663	    -46.72374965	     43.46967435	     96.34817969	     85.63747937	      0.00000000	      0.00000000	    -18.26208847	    -53.18875836	     45.16505638	    101.84091698	     87.27536607	      0.00000000	      0.00000000
      3.46000000	    -23.16137147	      5.15931313	     -2.96688961	     -0.30940769	      0.75261708	     -0.92998648	     67.79457316	    -13.77291806	      2.81826672	     73.77359945	      1.28759221	     20.25430089	      0.00000000	      0.00000000	     61.27776352	     -9.16614931	     -5.53181081	     70.94651155	      1.23825022	     26.80154513	      0.00000000	      0.00000000	    -17.59368399	     -3.31988556	     -5.72672727	    -13.43597018	    -47.44171821	     43.13389406	     97.59715196	     85.65276935	      0.00000000	      0.00000000	    -18.92457208	    -53.50352896	     44.86778325	    102.67767440	     87.27599377	      0.00000000	      0.00000000
      3.46500000	    -21.18152990	      5.27504282	     -3.22175715	     -0.30365056	      0.76291878	     -0.92980235	     64.59135262	    -14.09868060	      2.49254753	     72.45832404	      1.26463633	     19.39302736	      0.00000000	      0.00000000	     57.81415149	     -9.02377850	     -6.18834874	     69.34859814	      1.21036137	     26.01813527	      0.00000000	      0.00000000	    -18.65800163	     -3.46219842	     -5.44790619	    -15.52618829	    -47.86084208	     40.80138445	     99.29516820	     85.61078139	      0.00000000	      0.00000000	    -20.42138359	    -53.61646636	     43.06680769	    103.62467017	     87.28358688	      0.00000000	      0.00000000
      3.47000000	    -20.78683294	      5.37526707	     -3.43860610	     -0.30007911	      0.77064761	     -0.92963114	     63.26527526	    -14.14455203	      2.29116294	     71.07613973	      1.24051266	     18.16877735	      0.00000000	      0.00000000	     56.35452559	     -8.94726892	     -6.56070155	     67.87391653	      1.18462332	     24.85517904	      0.00000000	      0.00000000	    -17.84215487	     -3.56796470	     -5.13506000	    -16.66461320	    -48.74718017	     40.05121451	    100.94916086	     85.61085510	      0.00000000	      0.00000000	    -21.40070444	    -54.09785414	     42.52597336	    104.55074253	     87.26608441	      0.00000000	      0.00000000
      3.47500000	    -19.79273282	      5.31869842	     -3.35933361	     -0.29519460	      0.78006353	     -0.93014427	     60.92911433	    -14.54816708	      1.61161618	     69.48236590	      1.21269606	     17.09664990	      0.00000000	      0.00000000	     54.05518351	     -8.61377176	     -6.77893312	     66.08881129	      1.15346736	     23.85856638	      0.00000000	      0.00000000	    -17.79516973	     -3.39272344	     -5.04933448	    -18.50046705	    -49.42066779	     38.26680449	    102.50967555	     85.56102288	      0.00000000	      0.00000000	    -22.64265689	    -54.26787645	     41.40590380	    105.30072458	     87.26565108	      0.00000000	      0.00000000
      3.48000000	    -19.38875028	      5.30714918	     -3.17086353	     -0.29142652	      0.78861548	     -0.93085931	     59.32813067	    -14.95762878	      0.97693582	     67.85776010	      1.18434134	     15.81271543	      0.00000000	      0.00000000	     52.53160166	     -8.17458754	     -6.79639583	     64.29561551	      1.12217019	     22.58201615	      0.00000000	      0.00000000	    -17.08722634	     -3.21973633	     -5.07314862	    -19.79448958	    -50.42278671	     37.36458640	    104.11934021	     85.53873220	      0.00000000	      0.00000000	    -23.62394619	    -54.65931814	     40.79091057	    106.09907754	     87.25334327	      0.00000000	      0.00000000
      3.48500000	    -18.62616774	      5.35719316	     -3.00216737	     -0.28690664	      0.79835889	     -0.93156290	     57.14978037	    -15.43991320	      0.28989416	     66.00052085	      1.15192640	     14.55597670	      0.00000000	      0.00000000	     50.41678538	     -7.66695743	     -6.94299227	     62.24612565	      1.08639984	     21.18514477	      0.00000000	      0.00000000	    -16.76463008	     -3.12769576	     -5.16463037	    -20.88498221	    -51.43903869	     36.60412658	    105.65640526	     85.47360884	      0.00000000	      0.00000000	    -24.40487619	    -55.00222807	     40.31353743	    106.70534227	     87.25090854	      0.00000000	      0.00000000
      3.49000000	    -18.17932933	      5.60603920	     -2.85629685	     -0.28294511	      0.80804476	     -0.93226658	     55.38246801	    -15.94635245	     -0.20670129	     64.01515570	      1.11727524	     13.28039016	      0.00000000	      0.00000000	     48.56498294	     -7.00314104	     -7.13941125	     59.93025128	      1.04598021	     19.44015177	      0.00000000	      0.00000000	    -16.13753623	     -3.25878331	     -5.25270259	    -21.88810962	    -52.38698099	     35.95701432	    107.02152091	     85.44590457	      0.00000000	      0.00000000	    -25.17339304	    -55.41729492	     39.85091201	    107.34810944	     87.24436469	      0.00000000	      0.00000000
      3.49500000	    -17.20403685	      5.66179732	     -2.62788377	     -0.27820122	      0.81893507	     -0.93301604	     52.74857486	    -16.51200151	     -1.18146937	     61.82522873	      1.07905380	     11.96846912	      0.00000000	      0.00000000	     46.07382216	     -6.45163702	     -7.34551257	     57.55752668	      1.00456835	     17.89126924	      0.00000000	      0.00000000	    -16.20377959	     -3.17281720	     -5.30523259	    -23.77088110	    -53.14476778	     34.11053690	    108.37838918	     85.34086228	      0.00000000	      0.00000000	    -26.37296729	    -55.60428648	     38.56389460	    107.86664017	     87.24816508	      0.00000000	      0.00000000
      3.50000000	    -16.92067149	      5.87113723	     -2.55668117	     -0.27437101	      0.82902691	     -0.93343880	     51.02663260	    -16.84431477	     -1.75469334	     59.57765365	      1.03982622	     10.47339299	      0.00000000	      0.00000000	     44.34509809	     -5.90907440	     -7.58298016	     55.05778792	      0.96093968	     15.99982304	      0.00000000	      0.00000000	    -15.40999952	     -3.29613758	     -5.35805199	    -24.48836095	    -54.18740630	     33.76120989	    109.70508337	     85.32627815	      0.00000000	      0.00000000	    -26.87015624	    -56.00755998	     38.41831571	    108.33395505	     87.26046299	      0.00000000	      0.00000000
      3.50500000	    -16.16610068	      6.06427453	     -2.61652436	     -0.27009259	      0.84003761	     -0.93338589	     48.71425998	    -17.11086119	     -2.45313459	     57.18831712	      0.99812443	      8.61814261	      0.00000000	      0.00000000	     41.96656238	     -5.50947131	     -8.11437223	     52.39240009	      0.91441988	     13.87581265	      0.00000000	      0.00000000	    -15.23636482	     -3.47259749	     -5.33528720	    -25.46409611	    -55.09359646	     33.00341367	    110.78092340	     85.27549542	      0.00000000	      0.00000000	    -27.49321385	    -56.30487771	     37.92385459	    108.62290825	     87.26245380	      0.00000000	      0.00000000
      3.51000000	    -15.80053298	      6.20423296	     -2.56259623	     -0.26603220	      0.85077003	     -0.93348240	     46.70804865	    -17.34866413	     -3.30140594	     54.64490814	      0.95373357	      6.87172647	      0.00000000	      0.00000000	     40.01044783	     -5.05468210	     -8.43958282	     49.61444993	      0.86593551	     11.78942367	      0.00000000	      0.00000000	    -14.65176579	     -3.57792399	     -5.36471816	    -26.59413150	    -55.86608501	     32.00633922	    111.77669401	     85.21397572	      0.00000000	      0.00000000	    -28.07200341	    -56.68502336	     37.56643636	    108.98011052	     87.28236697	      0.00000000	      0.00000000
      3.51500000	    -15.68183916	      6.09502316	     -2.46365005	     -0.26239386	      0.86152167	     -0.93351022	     44.80678699	    -17.22222843	     -4.11960285	     51.85479626	      0.90503693	      5.00474324	      0.00000000	      0.00000000	     38.38355042	     -4.77894408	     -8.41223892	     46.80629806	      0.81692401	      9.26488197	      0.00000000	      0.00000000	    -13.82026905	     -3.38202242	     -5.39123227	    -27.25550770	    -56.76055513	     31.52768492	    112.73582438	     85.20839607	      0.00000000	      0.00000000	    -28.42696709	    -56.86016688	     37.45134863	    109.17073609	     87.28982205	      0.00000000	      0.00000000
      3.52000000	    -15.27243219	      5.90339147	     -2.33985233	     -0.25841360	      0.87306204	     -0.93345601	     42.44083889	    -17.09075283	     -5.25744099	     48.87092417	      0.85295854	      2.70597977	      0.00000000	      0.00000000	     36.36826246	     -4.57089671	     -8.44073664	     43.83341263	      0.76503737	      6.48336933	      0.00000000	      0.00000000	    -13.36897076	     -3.11238452	     -5.49351595	    -27.99661978	    -57.52072948	     30.95461395	    113.30308084	     85.14066098	      0.00000000	      0.00000000	    -28.64127274	    -56.95928209	     37.38635998	    109.01422422	     87.29282548	      0.00000000	      0.00000000
      3.52500000	    -15.01454949	      5.60860926	     -2.21956899	     -0.25431951	      0.88463054	     -0.93324260	     40.11947254	    -16.76300342	     -6.47746077	     45.67303336	      0.79714481	      0.33012846	      0.00000000	      0.00000000	     34.45605443	     -4.48968766	     -8.48097907	     40.73467642	      0.71095422	      3.73890171	      0.00000000	      0.00000000	    -12.76786869	     -2.71226722	     -4.22204865	    -32.57739317	    -56.93543811	     26.39233008	    114.11938032	     84.91310975	      0.00000000	      0.00000000	    -25.05364483	    -57.92623967	     41.20270008	    108.71696281	     87.30237581	      0.00000000	      0.00000000
      3.53000000	    -15.00502641	      5.23825708	     -2.11713225	     -0.25060216	      0.89619471	     -0.93282769	     38.03119946	    -16.14063412	     -7.33499121	     42.30453158	      0.73835336	     -2.54233801	      0.00000000	      0.00000000	     32.80641607	     -4.49357685	     -8.36918084	     37.53666806	      0.65513845	      0.57425440	      0.00000000	      0.00000000	    -11.89427966	     -2.29303703	     -4.32235484	    -32.89896783	    -57.51842127	     26.16895465	    114.43636448	     84.95088572	      0.00000000	      0.00000000	    -25.09161787	    -57.77651536	     41.23055855	    108.44704541	     87.28201776	      0.00000000	      0.00000000
      3.53500000	    -14.58253842	      4.99038205	     -2.13255984	     -0.24598346	      0.90857902	     -0.93241040	     35.42682661	    -15.61676712	     -8.29613222	     38.69476696	      0.67535109	     -5.65933539	      0.00000000	      0.00000000	     30.53727302	     -4.39496894	     -8.49778904	     34.10081167	      0.59517144	     -2.92586047	      0.00000000	      0.00000000	    -11.44263335	     -2.00537619	     -4.30183357	    -33.16781234	    -57.99937531	     25.85326937	    114.31344545	     85.06160510	      0.00000000	      0.00000000	    -25.01654790	    -57.48215925	     41.27692027	    107.82274229	     87.26628837	      0.00000000	      0.00000000
      3.54000000	    -14.49772461	      4.60766526	     -2.06927982	     -0.24174780	      0.92076704	     -0.93194259	     33.13976300	    -14.87843912	     -9.24441795	     34.93004354	      0.60964427	     -9.07047387	      0.00000000	      0.00000000	     28.64938394	     -4.41222360	     -8.53258336	     30.55219948	      0.53323647	     -6.76811679	      0.00000000	      0.00000000	    -10.67964720	     -1.55796103	     -4.33019485	    -33.44236206	    -58.24298112	     25.62602074	    114.18914037	     85.14853624	      0.00000000	      0.00000000	    -24.92740283	    -57.01661158	     41.34014371	    107.14818104	     87.26424403	      0.00000000	      0.00000000
      3.54500000	    -14.23578358	      4.24252685	     -1.95970116	     -0.23741517	      0.93327052	     -0.93139347	     30.63786836	    -14.15516491	    -10.27326617	     31.01109532	      0.54124572	    -13.07176576	      0.00000000	      0.00000000	     26.53513539	     -4.39417077	     -8.62006557	     26.85783238	      0.46875761	    -11.18706967	      0.00000000	      0.00000000	    -10.12916723	     -1.13695095	     -4.40680188	    -33.71193353	    -58.34685043	     25.48205050	    113.80392698	     85.25019699	      0.00000000	      0.00000000	    -24.66476987	    -56.56772787	     41.45897995	    106.39960896	     87.26529243	      0.00000000	      0.00000000
      3.55000000	    -14.08341701	      3.82989564	     -2.00356701	     -0.23290373	      0.94567773	     -0.93058895	     28.29016132	    -13.20712354	    -11.10392248	     26.95851948	      0.47051493	    -17.15412702	      0.00000000	      0.00000000	     24.47979319	     -4.50787503	     -8.97446205	     22.99537793	      0.40134506	    -15.79460024	      0.00000000	      0.00000000	     -9.43497452	     -0.68705221	     -4.30552112	    -33.87685050	    -58.23044516	     25.39051624	    113.33063074	     85.36040146	      0.00000000	      0.00000000	    -24.35182769	    -56.01437389	     41.65050216	    105.62665063	     87.24522355	      0.00000000	      0.00000000
      3.55500000	    -14.13672625	      3.41206573	     -1.85243647	     -0.22872497	      0.95805572	     -0.93022645	     26.18227953	    -12.31376295	    -12.01708300	     22.81015572	      0.39811232	    -21.92121352	      0.00000000	      0.00000000	     22.83407225	     -4.50699620	     -8.95636251	     19.16026224	      0.33440966	    -21.36892960	      0.00000000	      0.00000000	     -8.56477419	     -0.16714798	     -4.33947487	    -34.04914141	    -57.91149268	     25.21124732	    112.56022737	     85.44257912	      0.00000000	      0.00000000	    -24.06188767	    -55.26459395	     41.54199693	    104.66206615	     87.22188199	      0.00000000	      0.00000000
      3.56000000	    -13.93902512	      3.11761506	     -1.87820513	     -0.22399841	      0.97065038	     -0.92959407	     23.88316281	    -11.47829585	    -12.90021733	     18.66824655	      0.32582237	    -26.91631795	      0.00000000	      0.00000000	     20.78523808	     -4.47103608	     -9.50069747	     15.10384468	      0.26361182	    -27.24289217	      0.00000000	      0.00000000	     -7.92579892	      0.18323517	     -4.22234104	    -34.16169919	    -57.39550480	     25.14319821	    111.63267903	     85.53872668	      0.00000000	      0.00000000	    -23.83522240	    -54.51216490	     41.48380550	    103.74302528	     87.19938151	      0.00000000	      0.00000000
      3.56500000	    -13.60615919	      2.91522904	     -1.88590185	     -0.21911825	      0.98345577	     -0.92912350	     21.42287514	    -10.66533764	    -13.45785010	     14.39365175	      0.25121661	    -31.63368730	      0.00000000	      0.00000000	     18.42348988	     -4.24484195	     -9.89988251	     10.56270999	      0.18435407	    -32.86302923	      0.00000000	      0.00000000	     -7.46388971	      0.45240329	     -4.12555002	    -34.21591525	    -56.80484978	     25.28691988	    110.67471618	     85.70033275	      0.00000000	      0.00000000	    -23.50351198	    -53.89735871	     41.46269224	    102.90948186	     87.16273705	      0.00000000	      0.00000000
      3.57000000	    -13.63606944	      2.59327685	     -1.87267591	     -0.21463288	      0.99580502	     -0.92855040	     19.65162923	     -9.81405113	    -14.78934956	     10.67485708	      0.18631140	    -35.79146970	      0.00000000	      0.00000000	     16.89394644	     -4.29503664	    -10.83530403	      7.07158972	      0.12342252	    -37.11902995	      0.00000000	      0.00000000	     -6.63215318	      0.84906416	     -3.98881550	    -34.23283948	    -55.84666840	     25.32771260	    109.33770486	     85.75985516	      0.00000000	      0.00000000	    -23.36751055	    -52.95393314	     41.08512533	    101.91806444	     87.13392131	      0.00000000	      0.00000000
      3.57500000	    -13.34328782	      2.40788550	     -1.87168263	     -0.20997140	      1.00841267	     -0.92805765	     17.53882549	     -9.05972024	    -15.91940566	      7.15807259	      0.12493193	    -38.03378016	      0.00000000	      0.00000000	     14.96254977	     -4.11923178	    -11.56865404	      3.73858980	      0.06525070	    -38.56343948	      0.00000000	      0.00000000	     -6.13437133	      1.08547951	     -3.91096447	    -34.06375953	    -54.95275129	     25.58648363	    108.13497930	     85.83373632	      0.00000000	      0.00000000	    -23.24531770	    -52.28094522	     40.86909846	    101.21032787	     87.14551785	      0.00000000	      0.00000000
      3.58000000	    -13.31134288	      2.25071098	     -1.77433250	     -0.20587807	      1.02093031	     -0.92795452	     16.04838302	     -8.42456372	    -18.00393018	      4.48159604	      0.07821861	    -38.60070605	      0.00000000	      0.00000000	     13.80406953	     -3.93166326	    -13.21335972	      1.46345512	      0.02554211	    -38.67774584	      0.00000000	      0.00000000	     -5.44168831	      1.33981794	     -3.92942383	    -33.72296906	    -53.88472180	     25.89253750	    106.67414526	     85.87746192	      0.00000000	      0.00000000	    -23.07686423	    -51.44322006	     40.58959364	    100.38504611	     87.12543009	      0.00000000	      0.00000000
      3.58500000	    -13.51182174	      1.98828124	     -1.88654166	     -0.20172123	      1.03310057	     -0.92718709	     15.04249933	     -7.60302117	    -20.64646000	      2.27279323	      0.03966773	    -38.32288904	      0.00000000	      0.00000000	     13.46819620	     -4.08351868	    -16.11672109	      0.62594510	      0.01092480	    -38.04065617	      0.00000000	      0.00000000	     -4.45063217	      1.65144190	     -3.65261636	    -33.51279108	    -52.58812221	     26.12912372	    104.92300035	     85.87620020	      0.00000000	      0.00000000	    -23.03654689	    -50.70063135	     40.29487738	     99.53010725	     87.09490899	      0.00000000	      0.00000000
      3.59000000	    -13.43838583	      1.72348815	     -1.78740322	     -0.19814350	      1.04545733	     -0.92706936	     14.21129453	     -6.98596694	    -24.08787035	      1.29741458	      0.02264416	    -38.11358200	      0.00000000	      0.00000000	     13.04294447	     -4.13670250	    -19.44204266	      0.46303601	      0.00808150	    -36.81170879	      0.00000000	      0.00000000	     -3.89203691	      2.00247231	     -3.67119910	    -32.94350411	    -51.30581672	     26.48092711	    103.40770821	     85.88750074	      0.00000000	      0.00000000	    -22.88089945	    -49.94404966	     39.93246173	     98.81489010	     87.08723524	      0.00000000	      0.00000000
      3.59500000	    -13.67098629	      1.54246758	     -1.98937143	     -0.19501396	      1.05694023	     -0.92644782	     14.12056966	     -6.43587040	    -26.78807062	      1.15778679	      0.02020719	    -37.28629774	      0.00000000	      0.00000000	     12.91831150	     -4.18414576	    -22.66979006	      0.44150047	      0.00770564	    -35.51078418	      0.00000000	      0.00000000	     -3.00176936	      2.22113924	     -4.10279345	    -30.79446860	    -50.66410238	     28.63780932	    101.73276154	     85.92243670	      0.00000000	      0.00000000	    -24.53548732	    -48.78617968	     37.77668275	     98.29224769	     87.13984387	      0.00000000	      0.00000000
      3.60000000	    -14.07308501	      1.30856511	     -1.88022601	     -0.19270117	      1.06772032	     -0.92657137	     14.29843137	     -5.97729877	    -29.03720487	      1.35919543	      0.02372244	    -36.22601338	      0.00000000	      0.00000000	     13.05894091	     -4.17695839	    -25.35518732	      0.52904433	      0.00923357	    -34.72806860	      0.00000000	      0.00000000	     -2.01868927	      2.56301624	     -4.05957004	    -30.47384423	    -49.30056946	     28.65394171	    100.16551798	     85.81699205	      0.00000000	      0.00000000	    -24.39459603	    -48.24840969	     37.59220918	     97.75962254	     87.07420789	      0.00000000	      0.00000000
      3.60500000	    -14.32940676	      1.23199494	     -1.61889502	     -0.19089728	      1.07845100	     -0.92677636	     14.47321115	     -5.83007172	    -31.25827987	      1.93217257	      0.03372277	    -35.80069001	      0.00000000	      0.00000000	     13.15511032	     -3.98385901	    -27.64821015	      0.65425262	      0.01141886	    -34.92536025	      0.00000000	      0.00000000	     -1.25253598	      2.70112201	     -4.24155075	    -29.89479321	    -48.02070448	     28.89924532	     98.78482622	     85.78109235	      0.00000000	      0.00000000	    -24.11908570	    -47.93348696	     37.63708731	     97.30052163	     87.11188472	      0.00000000	      0.00000000
      3.61000000	    -14.02094129	      0.91219300	     -0.84540827	     -0.18819523	      1.08987317	     -0.92797068	     13.73583260	     -5.54893677	    -33.16106293	      2.34681256	      0.04095961	    -36.02389910	      0.00000000	      0.00000000	     12.66510348	     -3.91431656	    -29.13984030	      0.93340235	      0.01629094	    -35.89237070	      0.00000000	      0.00000000	     -1.03945362	      3.11691217	     -4.89688011	    -29.40522136	    -46.61247102	     28.84949348	     97.11083407	     85.76261402	      0.00000000	      0.00000000	    -23.84764561	    -47.48266436	     37.67933015	     96.66892899	     87.14048963	      0.00000000	      0.00000000
      3.61500000	    -14.08689671	      0.93220831	     -0.41520566	     -0.18735340	      1.10063048	     -0.92837025	     13.78717597	     -5.61717812	    -34.40762939	      3.22521139	      0.05629056	    -36.68261324	      0.00000000	      0.00000000	     12.73996570	     -3.70953755	    -30.30155490	      1.49896901	      0.02616194	    -37.56214952	      0.00000000	      0.00000000	     -0.63804982	      3.11957735	     -5.22413999	    -28.66294861	    -45.27059763	     29.03640796	     95.58819622	     85.74433168	      0.00000000	      0.00000000	    -23.46260477	    -47.30379520	     37.81323440	     96.18103874	     87.18034542	      0.00000000	      0.00000000
      3.62000000	    -13.98726843	      1.16491873	     -0.22879657	     -0.18632091	      1.11113129	     -0.92842203	     13.74075142	     -5.89373759	    -34.72107116	      4.31460794	      0.07530411	    -37.42600943	      0.00000000	      0.00000000	     12.66635107	     -3.40391083	    -31.23571289	      2.52301579	      0.04403493	    -38.47744548	      0.00000000	      0.00000000	     -0.41232796	      2.84306643	     -5.37634915	    -27.77304091	    -43.94376500	     29.39935748	     94.05128060	     85.70844573	      0.00000000	      0.00000000	    -23.04780561	    -47.26084142	     38.08537536	     95.78288162	     87.22010067	      0.00000000	      0.00000000
      3.62500000	    -13.77605665	      1.16955211	     -0.01034152	     -0.18554368	      1.12140503	     -0.92852916	     13.58038179	     -5.87333425	    -34.23316331	      5.36501324	      0.09363715	    -37.92281677	      0.00000000	      0.00000000	     12.59034282	     -3.38204376	    -31.40288278	      3.81774372	      0.06663220	    -38.92917276	      0.00000000	      0.00000000	     -0.39592467	      2.84498391	     -5.56846791	    -27.07535868	    -42.76904403	     29.48342104	     92.83880002	     85.64613685	      0.00000000	      0.00000000	    -22.77985992	    -47.10411748	     38.23409647	     95.36515445	     87.23754485	      0.00000000	      0.00000000
      3.63000000	    -14.42130336	      1.02623457	      0.51050348	     -0.18646190	      1.12991090	     -0.92902333	     14.52206755	     -5.81800879	    -33.61041307	      6.66459293	      0.11631909	    -38.16169678	      0.00000000	      0.00000000	     13.88137812	     -3.57779169	    -30.74433585	      5.73836662	      0.10015339	    -39.02197592	      0.00000000	      0.00000000	      0.48685376	      2.99113141	     -6.11416789	    -26.15662112	    -41.76370256	     29.98525005	     91.46949857	     85.56875028	      0.00000000	      0.00000000	    -22.27921271	    -47.15974285	     38.82716584	     95.05604873	     87.27297276	      0.00000000	      0.00000000
      3.63500000	    -13.77268930	      1.53983317	     -0.09242384	     -0.18463043	      1.13984091	     -0.92763556	     14.04635737	     -6.01033115	    -31.76860766	      7.65212832	      0.13355483	    -38.32109733	      0.00000000	      0.00000000	     13.01637423	     -3.12966575	    -31.02882422	      6.70277314	      0.11698546	    -39.12452120	      0.00000000	      0.00000000	      0.05558259	      2.39166105	     -5.58596135	    -25.40208083	    -40.70596709	     30.42628119	     90.03315312	     85.52596169	      0.00000000	      0.00000000	    -22.12934096	    -47.24592667	     39.17540871	     94.66948078	     87.28250254	      0.00000000	      0.00000000
      3.64000000	    -13.26024643	      1.81409680	     -0.33775816	     -0.18378537	      1.14905650	     -0.92693683	     13.69240859	     -5.98787732	    -29.65548014	      8.47316609	      0.14788465	    -38.38665861	      0.00000000	      0.00000000	     12.45326113	     -2.76221146	    -30.25737453	      7.55201923	      0.13180760	    -39.14949441	      0.00000000	      0.00000000	     -0.32823050	      2.08213990	     -5.42618743	    -24.69029689	    -40.01420389	     31.00111555	     88.89685861	     85.56208151	      0.00000000	      0.00000000	    -21.75580113	    -47.35214887	     39.75495073	     94.35374065	     87.29564177	      0.00000000	      0.00000000
      3.64500000	    -12.73485901	      1.79159525	     -0.08229518	     -0.18267512	      1.15806953	     -0.92703577	     13.07765562	     -5.68866494	    -28.07530313	      8.89772021	      0.15529451	    -38.43866189	      0.00000000	      0.00000000	     11.88527183	     -2.50454701	    -28.57394484	      8.11985037	      0.14171812	    -39.15808444	      0.00000000	      0.00000000	     -0.69174442	      2.10792533	     -5.83659978	    -23.99635165	    -39.47764981	     31.55787251	     87.86057945	     85.61814301	      0.00000000	      0.00000000	    -21.35251764	    -47.40450232	     40.46703977	     93.89852984	     87.30709296	      0.00000000	      0.00000000
      3.65000000	    -12.14803129	      1.70914476	      0.06385063	     -0.18136028	      1.16692744	     -0.92686659	     12.47642470	     -5.35327717	    -26.84837406	      9.42300292	      0.16446243	    -38.60095053	      0.00000000	      0.00000000	     11.21674237	     -2.36099516	    -27.50249921	      8.62620001	      0.15055559	    -39.18523996	      0.00000000	      0.00000000	     -1.15255825	      2.22471406	     -6.15103933	    -23.57855736	    -39.07750586	     31.83726703	     87.19772562	     85.64557465	      0.00000000	      0.00000000	    -21.18351705	    -47.36310520	     40.92272526	     93.38286270	     87.31107933	      0.00000000	      0.00000000
      3.65500000	    -11.72487430	      1.32631600	      0.39648761	     -0.18003724	      1.17530119	     -0.92668970	     11.51994635	     -4.38239103	    -24.90544378	      8.71532681	      0.15211115	    -38.63992963	      0.00000000	      0.00000000	     10.56502894	     -2.38181422	    -25.37486318	      8.57301508	      0.14962734	    -39.17428537	      0.00000000	      0.00000000	     -1.27324509	      2.62764393	     -6.58542034	    -22.70350799	    -38.93759103	     33.23647632	     86.25364970	     85.81705551	      0.00000000	      0.00000000	    -20.37848904	    -47.38926406	     42.39340343	     92.72583080	     87.30754585	      0.00000000	      0.00000000
      3.66000000	    -11.33596069	      0.92346332	      0.69120207	     -0.17858291	      1.18326517	     -0.92675459	     10.75017296	     -3.56640347	    -23.73071692	      8.31932212	      0.14519956	    -38.73084294	      0.00000000	      0.00000000	      9.97820424	     -2.48400927	    -23.83678076	      8.59733666	      0.15005183	    -39.15603406	      0.00000000	      0.00000000	     -1.39932000	      3.10127232	     -7.01401766	    -22.18105081	    -38.90301475	     34.16630952	     85.67900088	     85.94229526	      0.00000000	      0.00000000	    -19.86326229	    -47.29839178	     43.49593474	     92.01605639	     87.28426280	      0.00000000	      0.00000000
      3.66500000	    -10.75507237	      0.86346752	      0.61332378	     -0.17661973	      1.19136762	     -0.92648420	      9.92447750	     -3.18576182	    -22.80335189	      8.20447120	      0.14319504	    -38.73336528	      0.00000000	      0.00000000	      9.06190327	     -2.29611999	    -23.17210320	      8.52680500	      0.14882082	    -39.13325255	      0.00000000	      0.00000000	     -1.73491149	      3.24090648	     -7.04707908	    -21.81159385	    -38.74628166	     34.77608235	     85.07858654	     86.00121871	      0.00000000	      0.00000000	    -19.55564377	    -47.05686170	     44.15274707	     91.17184457	     87.26159367	      0.00000000	      0.00000000
      3.67000000	    -10.39068228	      0.59695746	      0.85857488	     -0.17473158	      1.19894712	     -0.92648949	      8.93938863	     -2.49017482	    -22.01251848	      7.24939124	      0.12652575	    -38.78749594	      0.00000000	      0.00000000	      8.19416338	     -2.22756656	    -22.20356945	      7.89446423	      0.13778439	    -39.12436918	      0.00000000	      0.00000000	     -1.69847749	      3.55161162	     -7.44622857	    -21.19088990	    -38.90592717	     36.16249423	     84.60280648	     86.10519234	      0.00000000	      0.00000000	    -18.84245958	    -47.04168500	     45.73476665	     90.53262361	     87.25055251	      0.00000000	      0.00000000
      3.67500000	     -9.50203965	      1.04238563	      0.67904094	     -0.17211359	      1.20725571	     -0.92633112	      7.59394214	     -2.68610385	    -21.66056006	      6.77631893	      0.11826908	    -38.72530636	      0.00000000	      0.00000000	      6.53387055	     -1.43928088	    -22.52491396	      7.03646867	      0.12280955	    -39.12060139	      0.00000000	      0.00000000	     -2.28026185	      3.13760044	     -7.43321467	    -20.70018039	    -38.75169246	     36.96990121	     83.96709903	     86.15102573	      0.00000000	      0.00000000	    -18.39676825	    -46.85548384	     46.64507720	     89.74269486	     87.22546711	      0.00000000	      0.00000000
      3.68000000	     -9.03186738	      1.13574149	      0.46353208	     -0.16944494	      1.21464245	     -0.92604268	      6.71877626	     -2.55400358	    -21.71502222	      6.34260527	      0.11069935	    -38.65067449	      0.00000000	      0.00000000	      5.39509411	     -1.11387289	    -23.16334923	      6.34691584	      0.11077458	    -39.07251868	      0.00000000	      0.00000000	     -2.33670538	      3.11388284	     -7.35675825	    -20.42338979	    -38.74805673	     37.61541433	     83.46592761	     86.17396398	      0.00000000	      0.00000000	    -18.14194822	    -46.52932116	     47.40567620	     88.81940454	     87.20876125	      0.00000000	      0.00000000
      3.68500000	     -8.84457232	      1.11619647	      0.69735518	     -0.16739672	      1.22133637	     -0.92621573	      6.14913229	     -2.39704512	    -22.40137593	      5.96604963	      0.10412721	    -38.40334475	      0.00000000	      0.00000000	      4.79589896	     -0.96827443	    -23.72710493	      5.94567794	      0.10377166	    -38.90027979	      0.00000000	      0.00000000	     -2.11375576	      3.21197191	     -7.72730437	    -20.26732362	    -38.65590608	     37.87747068	     83.20367938	     86.18184377	      0.00000000	      0.00000000	    -18.00074743	    -46.22839184	     47.83496460	     88.11680167	     87.20401566	      0.00000000	      0.00000000
      3.69000000	     -8.41608658	      1.07514953	      0.46067010	     -0.16512294	      1.22798805	     -0.92561727	      5.47474877	     -2.22585348	    -23.25731493	      5.81346866	      0.10146417	    -38.35392744	      0.00000000	      0.00000000	      3.79285485	     -0.91371625	    -24.91927475	      5.44168226	      0.09497527	    -38.83018587	      0.00000000	      0.00000000	     -2.12796261	      3.30868646	     -7.58196478	    -20.01290926	    -38.67392675	     38.40857889	     82.94945532	     86.19426390	      0.00000000	      0.00000000	    -17.73959131	    -45.93994862	     48.27734614	     87.41532216	     87.16073830	      0.00000000	      0.00000000
      3.69500000	     -8.02277236	      1.16141097	      0.26166706	     -0.16304366	      1.23463386	     -0.92546752	      4.86715241	     -2.25647776	    -24.14516900	      5.74713996	      0.10030651	    -38.25110411	      0.00000000	      0.00000000	      2.90855456	     -0.72047718	    -26.43792347	      5.05285121	      0.08818889	    -38.74568510	      0.00000000	      0.00000000	     -2.15612884	      3.30261465	     -7.51394531	    -19.80654984	    -38.64396005	     38.67030837	     82.72683876	     86.18799944	      0.00000000	      0.00000000	    -17.56820818	    -45.57040646	     48.50699300	     86.76553785	     87.13884795	      0.00000000	      0.00000000
      3.70000000	     -7.76434437	      1.20172377	      0.23643111	     -0.16120857	      1.24081825	     -0.92578806	      4.44321874	     -2.31853391	    -25.21811974	      5.83364100	      0.10181624	    -38.11824471	      0.00000000	      0.00000000	      2.27571737	     -0.57589054	    -27.93015422	      4.87132861	      0.08502072	    -38.64526268	      0.00000000	      0.00000000	     -2.04440570	      3.39512574	     -7.58568506	    -19.74370441	    -38.64587687	     38.67021281	     82.66946776	     86.17515405	      0.00000000	      0.00000000	    -17.47617390	    -45.14519862	     48.55093145	     86.11192878	     87.12262638	      0.00000000	      0.00000000
      3.70500000	     -7.37351963	      1.24691257	      0.10896017	     -0.15926170	      1.24697457	     -0.92594378	      3.91356781	     -2.39203932	    -26.17944615	      6.02902710	      0.10522637	    -38.09494753	      0.00000000	      0.00000000	      1.50261254	     -0.47264244	    -29.49685991	      4.76264708	      0.08312387	    -38.50323961	      0.00000000	      0.00000000	     -2.07569878	      3.47262846	     -7.57444838	    -19.76870062	    -38.63166948	     38.44063353	     82.68289475	     86.12965228	      0.00000000	      0.00000000	    -17.47539538	    -44.76861022	     48.45819834	     85.62328528	     87.12027008	      0.00000000	      0.00000000
      3.71000000	     -7.07066756	      1.15905678	      0.08536813	     -0.15779991	      1.25276705	     -0.92639049	      3.53476776	     -2.36149652	    -27.12379090	      6.29220735	      0.10981974	    -38.07975890	      0.00000000	      0.00000000	      0.91550977	     -0.50989347	    -30.64190161	      4.75877182	      0.08305624	    -38.35567497	      0.00000000	      0.00000000	     -2.09244375	      3.71738854	     -7.65534002	    -19.79219481	    -38.67100995	     38.14312778	     82.84322244	     86.10068868	      0.00000000	      0.00000000	    -17.38936322	    -44.33151287	     48.27702997	     85.11786084	     87.11613104	      0.00000000	      0.00000000
      3.71500000	     -6.74265129	      1.16832377	     -0.17049474	     -0.15586886	      1.25833047	     -0.92682520	      3.16372362	     -2.45949089	    -27.58161600	      6.67447171	      0.11649151	    -38.14523925	      0.00000000	      0.00000000	      0.22953489	     -0.43065566	    -31.90515190	      4.76883542	      0.08323188	    -38.24910258	      0.00000000	      0.00000000	     -2.09171946	      3.87153042	     -7.47970632	    -19.98011819	    -38.84022477	     37.78021613	     83.15336237	     86.08290982	      0.00000000	      0.00000000	    -17.43759335	    -43.88454268	     48.01951043	     84.66141258	     87.13085151	      0.00000000	      0.00000000
      3.72000000	     -6.72163054	      1.17295846	     -0.21699330	     -0.15477246	      1.26337427	     -0.92697037	      3.04527993	     -2.44333827	    -27.55393347	      6.74136925	      0.11765909	    -38.18125207	      0.00000000	      0.00000000	     -0.00398145	     -0.39904948	    -31.92259870	      4.83957413	      0.08446650	    -38.27571910	      0.00000000	      0.00000000	     -1.77681178	      3.94704326	     -7.52378118	    -19.93624603	    -38.83015505	     37.71764503	     83.17581095	     86.07877183	      0.00000000	      0.00000000	    -17.38932023	    -43.84081550	     47.97916439	     84.66567284	     87.12887911	      0.00000000	      0.00000000
      3.72500000	     -6.31528331	      1.05597630	     -0.37576483	     -0.15390428	      1.26861899	     -0.92723966	      2.79069589	     -2.40213940	    -26.80263422	      7.37736031	      0.12875923	    -38.29498771	      0.00000000	      0.00000000	     -0.51477024	     -0.58374108	    -32.33564731	      5.26759249	      0.09193683	    -38.28786234	      0.00000000	      0.00000000	     -2.08610356	      4.23563220	     -7.48329710	    -20.10714695	    -38.94534175	     36.97531316	     83.69282347	     86.05301083	      0.00000000	      0.00000000	    -17.39718598	    -43.29648789	     47.45107952	     84.10193876	     87.12894793	      0.00000000	      0.00000000
      3.73000000	     -6.16551445	      0.97113254	     -0.34165489	     -0.15289889	      1.27341171	     -0.92746293	      2.66916110	     -2.32768903	    -26.23978667	      7.75866455	      0.13541424	    -38.53704015	      0.00000000	      0.00000000	     -0.77453472	     -0.70897752	    -32.15195107	      5.56159611	      0.09706816	    -38.43298789	      0.00000000	      0.00000000	     -1.99852347	      4.39910899	     -7.63156101	    -20.12452009	    -38.97776793	     36.71058848	     83.83416059	     86.04278149	      0.00000000	      0.00000000	    -17.40085585	    -43.12681953	     47.34102654	     84.00597557	     87.13748860	      0.00000000	      0.00000000
      3.73500000	     -6.12941157	      0.77653685	     -0.40484123	     -0.15207919	      1.27775973	     -0.92739807	      2.68931067	     -2.07858432	    -25.02397161	      8.09211808	      0.14123410	    -38.55728898	      0.00000000	      0.00000000	     -0.80110373	     -1.03186970	    -31.52333907	      6.13097103	      0.10700563	    -38.40536469	      0.00000000	      0.00000000	     -1.86852446	      4.70488608	     -7.57486653	    -20.50599929	    -39.02547397	     36.06028082	     84.39045477	     86.04328989	      0.00000000	      0.00000000	    -17.51613213	    -42.83825705	     46.77517603	     83.71721865	     87.15633304	      0.00000000	      0.00000000
      3.74000000	     -5.91054450	      0.69576183	     -0.41573177	     -0.15128973	      1.28217320	     -0.92752433	      2.57967539	     -2.02900190	    -24.46419490	      8.56295213	      0.14945171	    -38.78270313	      0.00000000	      0.00000000	     -1.07405055	     -1.18316288	    -31.10890560	      6.52188262	      0.11382833	    -38.54895736	      0.00000000	      0.00000000	     -1.93681087	      4.85286676	     -7.64033681	    -20.46035349	    -39.08830990	     35.90586324	     84.51818033	     86.04560996	      0.00000000	      0.00000000	    -17.47490275	    -42.73710916	     46.72493528	     83.65041028	     87.16598491	      0.00000000	      0.00000000
      3.74500000	     -5.77041550	      0.54339702	     -0.40693280	     -0.15040412	      1.28626525	     -0.92752365	      2.53756172	     -1.88706672	    -23.89028720	      9.01250512	      0.15729789	    -38.89097051	      0.00000000	      0.00000000	     -1.24666837	     -1.41948913	    -30.55247288	      6.88153104	      0.12010537	    -38.56822723	      0.00000000	      0.00000000	     -1.89267464	      5.07447004	     -7.70038190	    -20.55892330	    -39.18388714	     35.79529031	     84.73989380	     86.05189200	      0.00000000	      0.00000000	    -17.44095058	    -42.62438848	     46.63774500	     83.55169043	     87.16512280	      0.00000000	      0.00000000
      3.75000000	     -5.72506040	      0.42052268	     -0.45818135	     -0.14967443	      1.28997125	     -0.92749484	      2.61698820	     -1.78489978	    -23.35289847	      9.44365492	      0.16482287	    -38.93531440	      0.00000000	      0.00000000	     -1.23672847	     -1.66606740	    -29.87887508	      7.44648377	      0.12996566	    -38.64526379	      0.00000000	      0.00000000	     -1.77780634	      5.27865384	     -7.68622471	    -20.67666220	    -39.29893017	     35.67445681	     85.05979415	     86.06540614	      0.00000000	      0.00000000	    -17.42512806	    -42.53255237	     46.57500835	     83.44597025	     87.17636947	      0.00000000	      0.00000000
      3.75500000	     -5.84109226	      0.29812053	     -0.47458494	     -0.14902600	      1.29321401	     -0.92743883	      2.84283995	     -1.67639032	    -22.91258968	      9.79210495	      0.17090447	    -38.95508039	      0.00000000	      0.00000000	     -1.02042279	     -1.94559698	    -29.25174572	      8.04612263	      0.14043133	    -38.56176948	      0.00000000	      0.00000000	     -1.47770565	      5.47632449	     -7.68977455	    -20.87667055	    -39.41878831	     35.49869807	     85.35966403	     86.08151323	      0.00000000	      0.00000000	    -17.41239105	    -42.45030281	     46.61126740	     83.33459693	     87.19780001	      0.00000000	      0.00000000
      3.76000000	     -5.73695958	      0.27338218	     -0.56077623	     -0.14813765	      1.29650007	     -0.92730995	      2.82342632	     -1.70537397	    -22.71201824	     10.10738159	      0.17640709	    -39.05467985	      0.00000000	      0.00000000	     -1.16003061	     -2.06658890	    -29.01342700	      8.37275464	      0.14613214	    -38.69000995	      0.00000000	      0.00000000	     -1.41722870	      5.54985196	     -7.62986368	    -20.95785838	    -39.51250807	     35.50344944	     85.43838777	     86.08924211	      0.00000000	      0.00000000	    -17.39670796	    -42.43949270	     46.66301538	     83.29160535	     87.19756258	      0.00000000	      0.00000000
      3.76500000	     -5.82946991	      0.22056970	     -0.44134341	     -0.14772457	      1.29928122	     -0.92738891	      3.03556110	     -1.72917450	    -22.70598160	     10.43238937	      0.18207954	    -39.04686326	      0.00000000	      0.00000000	     -0.90231273	     -2.31246058	    -28.62011320	      9.01339056	      0.15731334	    -38.73511159	      0.00000000	      0.00000000	     -1.18044552	      5.64618881	     -7.72601922	    -21.08056848	    -39.58142139	     35.45751580	     85.58393649	     86.09984017	      0.00000000	      0.00000000	    -17.31875746	    -42.46386254	     46.80555930	     83.25439887	     87.20978326	      0.00000000	      0.00000000
      3.77000000	     -5.78474678	      0.23468123	     -0.58764408	     -0.14665356	      1.30196852	     -0.92720497	      2.98693514	     -1.79567238	    -22.65493933	     10.50747668	      0.18339006	    -39.08575484	      0.00000000	      0.00000000	     -1.07874145	     -2.37361066	    -28.59548241	      9.12274028	      0.15922185	    -38.78885899	      0.00000000	      0.00000000	     -1.03496521	      5.67538384	     -7.64746654	    -21.15423129	    -39.64967763	     35.47753574	     85.57319194	     86.10211474	      0.00000000	      0.00000000	    -17.47292434	    -42.45629683	     46.91950634	     83.21700743	     87.21718472	      0.00000000	      0.00000000
      3.77500000	     -5.68168106	      0.29013814	     -0.71037365	     -0.14598050	      1.30445264	     -0.92708113	      2.96594204	     -1.96286873	    -22.44925720	     10.75657781	      0.18773770	    -39.07312689	      0.00000000	      0.00000000	     -1.11330756	     -2.51046406	    -28.88392911	      9.63091773	      0.16809122	    -38.81000033	      0.00000000	      0.00000000	     -1.00380566	      5.67411483	     -7.47287231	    -21.22765998	    -39.83541425	     35.59691889	     85.76201561	     86.11164063	      0.00000000	      0.00000000	    -17.26617699	    -42.50427827	     47.24329655	     83.14141284	     87.24926023	      0.00000000	      0.00000000
      3.78000000	     -5.65992883	      0.31413876	     -0.73863129	     -0.14523392	      1.30657392	     -0.92710065	      2.92904776	     -2.07726357	    -22.44439178	     10.75808266	      0.18776396	    -39.07616149	      0.00000000	      0.00000000	     -1.23953579	     -2.57250162	    -28.86755651	      9.67429287	      0.16884826	    -38.83379572	      0.00000000	      0.00000000	     -0.87144768	      5.70323209	     -7.46829708	    -21.25545911	    -39.86324630	     35.60231821	     85.75383098	     86.11193629	      0.00000000	      0.00000000	    -17.26883404	    -42.51060503	     47.24107479	     83.14049560	     87.24821623	      0.00000000	      0.00000000
      3.78500000	     -5.34899106	      0.56028348	     -0.73489229	     -0.14441297	      1.30885858	     -0.92722115	      2.56361358	     -2.46576115	    -22.56627917	     10.74942946	      0.18761294	    -39.05651981	      0.00000000	      0.00000000	     -1.54488488	     -2.47125887	    -28.92281506	     10.00331933	      0.17459086	    -38.86821413	      0.00000000	      0.00000000	     -1.08372639	      5.47762992	     -7.44131928	    -21.32110615	    -39.97524134	     35.70144806	     85.81975739	     86.11602554	      0.00000000	      0.00000000	    -17.20620369	    -42.55443064	     47.34345261	     83.06825113	     87.25095232	      0.00000000	      0.00000000
      3.79000000	     -5.31806376	      0.58141950	     -0.80918918	     -0.14354982	      1.31047436	     -0.92712129	      2.49819900	     -2.60539097	    -22.57784776	     10.74165392	      0.18747723	    -39.04347694	      0.00000000	      0.00000000	     -1.67820348	     -2.57179795	    -28.93660321	     10.02717129	      0.17500715	    -38.85919945	      0.00000000	      0.00000000	     -0.93125297	      5.51797114	     -7.39687327	    -21.34203530	    -40.01625966	     35.70694462	     85.80634277	     86.11600230	      0.00000000	      0.00000000	    -17.24712652	    -42.56175743	     47.36234898	     83.06873842	     87.25152706	      0.00000000	      0.00000000
      3.79500000	     -4.93467225	      0.66428333	     -0.90127761	     -0.14241086	      1.31229659	     -0.92710919	      1.99595243	     -2.84147360	    -22.97410165	     10.63163848	      0.18555710	    -38.99862949	      0.00000000	      0.00000000	     -2.18511580	     -2.62883569	    -29.44438124	     10.12231249	      0.17666768	    -38.76451849	      0.00000000	      0.00000000	     -1.20672692	      5.47852586	     -7.23934060	    -21.45276562	    -40.20405344	     35.82992753	     85.85319898	     86.11779297	      0.00000000	      0.00000000	    -17.23842082	    -42.57402189	     47.40030340	     83.09098123	     87.24508726	      0.00000000	      0.00000000
      3.80000000	     -4.55251418	      0.76585987	     -0.87267540	     -0.14159463	      1.31390290	     -0.92725853	      1.48237125	     -3.10301044	    -23.35183444	     10.48730145	      0.18303794	    -38.97723873	      0.00000000	      0.00000000	     -2.71552664	     -2.64154004	    -29.81169174	     10.03837023	      0.17520261	    -38.75370300	      0.00000000	      0.00000000	     -1.49941540	      5.41527425	     -7.33437969	    -21.33524224	    -40.26977480	     35.96937009	     85.87294267	     85.99893007	      0.00000000	      0.00000000	    -17.36372946	    -42.60345596	     47.25555157	     83.18207221	     87.29287564	      0.00000000	      0.00000000
      3.80500000	     -4.23979130	      0.78472750	     -0.98464524	     -0.14056364	      1.31503495	     -0.92713031	      1.08673297	     -3.27828846	    -23.63686047	     10.42646167	      0.18197609	    -38.94278986	      0.00000000	      0.00000000	     -3.16185194	     -2.75307003	    -30.34259906	      9.97437314	      0.17408565	    -38.68161828	      0.00000000	      0.00000000	     -1.71426186	      5.45885385	     -7.18620530	    -21.45353637	    -40.37499084	     35.89038228	     85.98403074	     85.94699820	      0.00000000	      0.00000000	    -17.42316768	    -42.59693664	     47.17478853	     83.22362385	     87.38527082	      0.00000000	      0.00000000
      3.81000000	     -3.95337839	      0.86247657	     -1.05132298	     -0.13966179	      1.31594606	     -0.92710671	      0.73722472	     -3.54463422	    -24.02565950	     10.39376010	      0.18140534	    -38.88082387	      0.00000000	      0.00000000	     -3.56481961	     -2.80290151	    -30.62590839	      9.94386240	      0.17355314	    -38.59768553	      0.00000000	      0.00000000	     -1.89622953	      5.43163843	     -7.09093794	    -21.51602396	    -40.43816359	     35.85899808	     86.05805304	     86.00495963	      0.00000000	      0.00000000	    -17.45209481	    -42.61873173	     47.14943369	     83.30198639	     87.30501193	      0.00000000	      0.00000000
      3.81500000	     -3.67579000	      0.93121448	     -1.11547611	     -0.13890580	      1.31666436	     -0.92712103	      0.46596624	     -3.82779157	    -24.51392791	     10.49120357	      0.18310604	    -38.84736586	      0.00000000	      0.00000000	     -3.94019851	     -2.84548463	    -30.99088827	      9.86453793	      0.17216867	    -38.51131500	      0.00000000	      0.00000000	     -2.09774104	      5.42520756	     -7.04587529	    -21.44973605	    -40.52648977	     35.95623790	     86.11692919	     85.82436583	      0.00000000	      0.00000000	    -17.50158703	    -42.62218866	     47.05876772	     83.31853470	     87.39113907	      0.00000000	      0.00000000
