Model Marker Errors from IK
version=1
nRows=651
nColumns=4
inDegrees=no
endheader
time	total_squared_error	marker_error_RMS	marker_error_max
      1.25000000	      0.03368673	      0.02369484	      0.06117955
      1.25500000	      0.03374557	      0.02371553	      0.06147306
      1.26000000	      0.03383111	      0.02374556	      0.06168342
      1.26500000	      0.03392865	      0.02377977	      0.06174625
      1.27000000	      0.03405031	      0.02382237	      0.06187298
      1.27500000	      0.03420008	      0.02387470	      0.06216312
      1.28000000	      0.03423579	      0.02388716	      0.06235190
      1.28500000	      0.03445181	      0.02396240	      0.06257196
      1.29000000	      0.03466303	      0.02403575	      0.06280609
      1.29500000	      0.03480808	      0.02408599	      0.06305093
      1.30000000	      0.03504980	      0.02416947	      0.06328734
      1.30500000	      0.03509797	      0.02418607	      0.06360068
      1.31000000	      0.03526376	      0.02424313	      0.06379247
      1.31500000	      0.03549899	      0.02432385	      0.06420204
      1.32000000	      0.03571854	      0.02439895	      0.06457731
      1.32500000	      0.03620979	      0.02456617	      0.06506899
      1.33000000	      0.03624978	      0.02457973	      0.06537569
      1.33500000	      0.03653361	      0.02467577	      0.06559546
      1.34000000	      0.03673148	      0.02474250	      0.06612731
      1.34500000	      0.03691428	      0.02480399	      0.06643471
      1.35000000	      0.03719726	      0.02489888	      0.06693594
      1.35500000	      0.03754873	      0.02501624	      0.06733381
      1.36000000	      0.03770394	      0.02506789	      0.06735980
      1.36500000	      0.03788955	      0.02512951	      0.06769657
      1.37000000	      0.03776548	      0.02508834	      0.06782956
      1.37500000	      0.03831100	      0.02526889	      0.06833836
      1.38000000	      0.03869390	      0.02539485	      0.06873816
      1.38500000	      0.03891923	      0.02546868	      0.06948823
      1.39000000	      0.03910564	      0.02552960	      0.06934356
      1.39500000	      0.03960143	      0.02569093	      0.06963635
      1.40000000	      0.03984406	      0.02576951	      0.06999399
      1.40500000	      0.04011182	      0.02585595	      0.07034533
      1.41000000	      0.04017929	      0.02587769	      0.07041823
      1.41500000	      0.04059067	      0.02600983	      0.07091662
      1.42000000	      0.04098906	      0.02613716	      0.07113338
      1.42500000	      0.04114147	      0.02618571	      0.07148631
      1.43000000	      0.04120629	      0.02620633	      0.07166955
      1.43500000	      0.04154170	      0.02631277	      0.07191522
      1.44000000	      0.04196549	      0.02644664	      0.07204335
      1.44500000	      0.04219482	      0.02651881	      0.07275207
      1.45000000	      0.04236050	      0.02657082	      0.07271975
      1.45500000	      0.04240627	      0.02658517	      0.07287755
      1.46000000	      0.04274728	      0.02669185	      0.07314134
      1.46500000	      0.04309174	      0.02679917	      0.07357044
      1.47000000	      0.04330059	      0.02686404	      0.07388293
      1.47500000	      0.04381279	      0.02702246	      0.07425022
      1.48000000	      0.04384989	      0.02703390	      0.07444607
      1.48500000	      0.04421289	      0.02714556	      0.07461464
      1.49000000	      0.04474088	      0.02730717	      0.07544195
      1.49500000	      0.04509872	      0.02741615	      0.07577517
      1.50000000	      0.04548172	      0.02753232	      0.07600121
      1.50500000	      0.04594771	      0.02767300	      0.07633843
      1.51000000	      0.04633542	      0.02778951	      0.07710723
      1.51500000	      0.04679922	      0.02792825	      0.07738586
      1.52000000	      0.04736645	      0.02809699	      0.07761370
      1.52500000	      0.04761903	      0.02817180	      0.07801910
      1.53000000	      0.04833662	      0.02838328	      0.07870229
      1.53500000	      0.04870207	      0.02849037	      0.07886637
      1.54000000	      0.04921177	      0.02863907	      0.07912989
      1.54500000	      0.04961003	      0.02875472	      0.07962608
      1.55000000	      0.04964675	      0.02876536	      0.07945154
      1.55500000	      0.05054896	      0.02902555	      0.08013058
      1.56000000	      0.05109967	      0.02918324	      0.08076123
      1.56500000	      0.05158017	      0.02932012	      0.08105154
      1.57000000	      0.05204302	      0.02945138	      0.08134922
      1.57500000	      0.05255828	      0.02959681	      0.08177641
      1.58000000	      0.05314168	      0.02976062	      0.08210861
      1.58500000	      0.05392021	      0.02997783	      0.08259682
      1.59000000	      0.05422347	      0.03006201	      0.08267825
      1.59500000	      0.05473874	      0.03020451	      0.08374056
      1.60000000	      0.05507159	      0.03029620	      0.08337421
      1.60500000	      0.05552447	      0.03042052	      0.08379870
      1.61000000	      0.05665791	      0.03072944	      0.08393426
      1.61500000	      0.05654018	      0.03069750	      0.08435894
      1.62000000	      0.05662720	      0.03072111	      0.08471522
      1.62500000	      0.05744518	      0.03094220	      0.08479895
      1.63000000	      0.05770116	      0.03101106	      0.08513991
      1.63500000	      0.05812830	      0.03112563	      0.08531039
      1.64000000	      0.05797144	      0.03108361	      0.08517595
      1.64500000	      0.05814343	      0.03112968	      0.08619884
      1.65000000	      0.05875145	      0.03129203	      0.08568162
      1.65500000	      0.05901298	      0.03136160	      0.08581265
      1.66000000	      0.05885550	      0.03131972	      0.08584023
      1.66500000	      0.05951026	      0.03149345	      0.08613283
      1.67000000	      0.06029794	      0.03170119	      0.08650603
      1.67500000	      0.06021129	      0.03167841	      0.08665849
      1.68000000	      0.06054833	      0.03176694	      0.08700951
      1.68500000	      0.06090103	      0.03185933	      0.08730586
      1.69000000	      0.06215089	      0.03218459	      0.08770823
      1.69500000	      0.06165072	      0.03205483	      0.08780666
      1.70000000	      0.06214221	      0.03218235	      0.08825879
      1.70500000	      0.06313208	      0.03243765	      0.08840164
      1.71000000	      0.06327724	      0.03247492	      0.08842354
      1.71500000	      0.06389518	      0.03263311	      0.08982132
      1.72000000	      0.06437661	      0.03275582	      0.08908134
      1.72500000	      0.06486882	      0.03288080	      0.08937350
      1.73000000	      0.06478475	      0.03285949	      0.08953539
      1.73500000	      0.06474507	      0.03284942	      0.08939064
      1.74000000	      0.06489844	      0.03288831	      0.08944395
      1.74500000	      0.06556520	      0.03305682	      0.09098572
      1.75000000	      0.06667733	      0.03333600	      0.09000632
      1.75500000	      0.06594152	      0.03315155	      0.09008846
      1.76000000	      0.06636433	      0.03325766	      0.09096727
      1.76500000	      0.06716797	      0.03345843	      0.09060345
      1.77000000	      0.06740437	      0.03351725	      0.09070486
      1.77500000	      0.06766696	      0.03358247	      0.09116771
      1.78000000	      0.06800817	      0.03366704	      0.09191012
      1.78500000	      0.06817433	      0.03370814	      0.09228181
      1.79000000	      0.06864547	      0.03382442	      0.09127031
      1.79500000	      0.06961271	      0.03406188	      0.09159455
      1.80000000	      0.06926582	      0.03397691	      0.09176156
      1.80500000	      0.06961230	      0.03406178	      0.09193209
      1.81000000	      0.07025757	      0.03421929	      0.09241484
      1.81500000	      0.07015567	      0.03419446	      0.09234832
      1.82000000	      0.07122837	      0.03445489	      0.09288578
      1.82500000	      0.07166396	      0.03456008	      0.09368623
      1.83000000	      0.07225270	      0.03470175	      0.09492847
      1.83500000	      0.07241312	      0.03474026	      0.09359785
      1.84000000	      0.07265716	      0.03479874	      0.09397211
      1.84500000	      0.07366601	      0.03503950	      0.09418737
      1.85000000	      0.07295153	      0.03486917	      0.09409921
      1.85500000	      0.07412060	      0.03514745	      0.09426741
      1.86000000	      0.07413178	      0.03515010	      0.09456639
      1.86500000	      0.07435074	      0.03520197	      0.09478581
      1.87000000	      0.07445278	      0.03522612	      0.09480369
      1.87500000	      0.07460340	      0.03526174	      0.09489087
      1.88000000	      0.07506762	      0.03537127	      0.09600984
      1.88500000	      0.07556816	      0.03548900	      0.09521245
      1.89000000	      0.07656720	      0.03572282	      0.09556344
      1.89500000	      0.07627302	      0.03565413	      0.09640384
      1.90000000	      0.07650632	      0.03570862	      0.09592943
      1.90500000	      0.07751783	      0.03594390	      0.09619092
      1.91000000	      0.07791962	      0.03603693	      0.09670763
      1.91500000	      0.07760642	      0.03596443	      0.09663360
      1.92000000	      0.07770942	      0.03598829	      0.09642207
      1.92500000	      0.07879874	      0.03623965	      0.09704666
      1.93000000	      0.07873257	      0.03622443	      0.09698408
      1.93500000	      0.07949124	      0.03639854	      0.09795024
      1.94000000	      0.07933230	      0.03636214	      0.09750579
      1.94500000	      0.08011434	      0.03654092	      0.09816931
      1.95000000	      0.08039540	      0.03660496	      0.09874543
      1.95500000	      0.08055241	      0.03664069	      0.09790463
      1.96000000	      0.08126716	      0.03680289	      0.09824970
      1.96500000	      0.08141062	      0.03683536	      0.09923026
      1.97000000	      0.08169282	      0.03689915	      0.09842135
      1.97500000	      0.08216655	      0.03700598	      0.09922525
      1.98000000	      0.08242556	      0.03706426	      0.09890326
      1.98500000	      0.08248484	      0.03707759	      0.09897575
      1.99000000	      0.08293805	      0.03717931	      0.09992123
      1.99500000	      0.08296985	      0.03718643	      0.09906300
      2.00000000	      0.08250835	      0.03708287	      0.09902445
      2.00500000	      0.08343266	      0.03729000	      0.09941588
      2.01000000	      0.08323703	      0.03724626	      0.09937530
      2.01500000	      0.08296909	      0.03718626	      0.09925357
      2.02000000	      0.08421178	      0.03746371	      0.09962363
      2.02500000	      0.08453019	      0.03753447	      0.10013693
      2.03000000	      0.08462465	      0.03755544	      0.10015336
      2.03500000	      0.08488232	      0.03761257	      0.10017213
      2.04000000	      0.08559690	      0.03777056	      0.10208429
      2.04500000	      0.08547687	      0.03774407	      0.10042905
      2.05000000	      0.08600478	      0.03786044	      0.10099377
      2.05500000	      0.08659431	      0.03798998	      0.10122884
      2.06000000	      0.08727111	      0.03813815	      0.10263607
      2.06500000	      0.08728200	      0.03814053	      0.10160348
      2.07000000	      0.08784794	      0.03826398	      0.10167911
      2.07500000	      0.08845812	      0.03839664	      0.10346092
      2.08000000	      0.08837122	      0.03837778	      0.10199915
      2.08500000	      0.08927608	      0.03857376	      0.10356174
      2.09000000	      0.08937530	      0.03859519	      0.10273714
      2.09500000	      0.08942948	      0.03860688	      0.10276671
      2.10000000	      0.08982230	      0.03869158	      0.10293717
      2.10500000	      0.09021784	      0.03877668	      0.10334034
      2.11000000	      0.09064693	      0.03886878	      0.10331772
      2.11500000	      0.09093040	      0.03892951	      0.10354271
      2.12000000	      0.09178883	      0.03911283	      0.10397959
      2.12500000	      0.09182593	      0.03912074	      0.10438730
      2.13000000	      0.09214188	      0.03918798	      0.10409951
      2.13500000	      0.09303614	      0.03937769	      0.10602984
      2.14000000	      0.09288713	      0.03934614	      0.10470077
      2.14500000	      0.09332365	      0.03943849	      0.10490676
      2.15000000	      0.09386292	      0.03955227	      0.10485580
      2.15500000	      0.09443900	      0.03967346	      0.10508729
      2.16000000	      0.09480539	      0.03975034	      0.10592905
      2.16500000	      0.09521545	      0.03983622	      0.10570745
      2.17000000	      0.09516245	      0.03982513	      0.10559983
      2.17500000	      0.09548028	      0.03989158	      0.10562561
      2.18000000	      0.09601065	      0.04000222	      0.10579839
      2.18500000	      0.09716114	      0.04024118	      0.10894597
      2.19000000	      0.09623130	      0.04004816	      0.10619862
      2.19500000	      0.09593812	      0.03998711	      0.10593233
      2.20000000	      0.09667240	      0.04013984	      0.10667295
      2.20500000	      0.09640738	      0.04008478	      0.10610540
      2.21000000	      0.09641011	      0.04008535	      0.10728417
      2.21500000	      0.09661722	      0.04012838	      0.10654985
      2.22000000	      0.09682007	      0.04017048	      0.10633907
      2.22500000	      0.09682567	      0.04017165	      0.10659376
      2.23000000	      0.09653749	      0.04011182	      0.10648279
      2.23500000	      0.09701852	      0.04021163	      0.10687287
      2.24000000	      0.09687075	      0.04018100	      0.10684448
      2.24500000	      0.09703296	      0.04021462	      0.10660609
      2.25000000	      0.09781162	      0.04037566	      0.10977063
      2.25500000	      0.09713403	      0.04023556	      0.10685774
      2.26000000	      0.09694623	      0.04019665	      0.10665545
      2.26500000	      0.09716771	      0.04024254	      0.10695761
      2.27000000	      0.09744893	      0.04030073	      0.10685202
      2.27500000	      0.09720246	      0.04024973	      0.10739520
      2.28000000	      0.09775723	      0.04036443	      0.10697014
      2.28500000	      0.09793031	      0.04040015	      0.10748895
      2.29000000	      0.09868609	      0.04055574	      0.11018922
      2.29500000	      0.09795801	      0.04040586	      0.10714042
      2.30000000	      0.09813759	      0.04044288	      0.10772238
      2.30500000	      0.09778966	      0.04037112	      0.10711564
      2.31000000	      0.09775776	      0.04036454	      0.10707542
      2.31500000	      0.09804466	      0.04042373	      0.10700734
      2.32000000	      0.09768554	      0.04034963	      0.10725646
      2.32500000	      0.09808409	      0.04043185	      0.10717785
      2.33000000	      0.09829974	      0.04047628	      0.10717907
      2.33500000	      0.09821221	      0.04045825	      0.10727464
      2.34000000	      0.09855944	      0.04052971	      0.10757999
      2.34500000	      0.09869471	      0.04055751	      0.10745200
      2.35000000	      0.09880810	      0.04058080	      0.10745939
      2.35500000	      0.09894741	      0.04060940	      0.10761037
      2.36000000	      0.09923846	      0.04066908	      0.10762720
      2.36500000	      0.09933978	      0.04068984	      0.10793609
      2.37000000	      0.09984629	      0.04079344	      0.10803057
      2.37500000	      0.10009479	      0.04084417	      0.10820394
      2.38000000	      0.10036810	      0.04089990	      0.10985290
      2.38500000	      0.10013208	      0.04085178	      0.10821272
      2.39000000	      0.10031637	      0.04088936	      0.10809795
      2.39500000	      0.10043520	      0.04091357	      0.10819308
      2.40000000	      0.10028394	      0.04088275	      0.10837645
      2.40500000	      0.10057084	      0.04094119	      0.10838585
      2.41000000	      0.10086496	      0.04100101	      0.10856148
      2.41500000	      0.10113275	      0.04105540	      0.10885566
      2.42000000	      0.10130202	      0.04108974	      0.10872407
      2.42500000	      0.10169972	      0.04117032	      0.10883894
      2.43000000	      0.10213212	      0.04125775	      0.10916458
      2.43500000	      0.10274508	      0.04138137	      0.10933930
      2.44000000	      0.10303179	      0.04143907	      0.10945780
      2.44500000	      0.10325042	      0.04148301	      0.10965518
      2.45000000	      0.10393592	      0.04162049	      0.11055324
      2.45500000	      0.10416735	      0.04166680	      0.11022865
      2.46000000	      0.10461116	      0.04175547	      0.11051682
      2.46500000	      0.10521231	      0.04187527	      0.11128364
      2.47000000	      0.10527758	      0.04188826	      0.11087887
      2.47500000	      0.10642279	      0.04211548	      0.11401149
      2.48000000	      0.10551305	      0.04193508	      0.11093719
      2.48500000	      0.10576630	      0.04198537	      0.11110356
      2.49000000	      0.10598535	      0.04202883	      0.11121369
      2.49500000	      0.10649641	      0.04213004	      0.11202313
      2.50000000	      0.10659095	      0.04214873	      0.11138839
      2.50500000	      0.10666703	      0.04216377	      0.11143784
      2.51000000	      0.10645312	      0.04212148	      0.11155499
      2.51500000	      0.10659731	      0.04214999	      0.11158748
      2.52000000	      0.10676788	      0.04218370	      0.11170045
      2.52500000	      0.10685796	      0.04220149	      0.11177805
      2.53000000	      0.10761970	      0.04235164	      0.11456911
      2.53500000	      0.10681378	      0.04219277	      0.11172612
      2.54000000	      0.10696086	      0.04222181	      0.11168145
      2.54500000	      0.10720206	      0.04226939	      0.11330692
      2.55000000	      0.10633293	      0.04209769	      0.11152634
      2.55500000	      0.10636656	      0.04210435	      0.11145409
      2.56000000	      0.10701456	      0.04223241	      0.11318150
      2.56500000	      0.10620790	      0.04207293	      0.11171194
      2.57000000	      0.10601550	      0.04203481	      0.11145424
      2.57500000	      0.10674116	      0.04217842	      0.11310365
      2.58000000	      0.10612265	      0.04205604	      0.11152322
      2.58500000	      0.10598666	      0.04202909	      0.11138008
      2.59000000	      0.10614278	      0.04206003	      0.11149979
      2.59500000	      0.10618774	      0.04206894	      0.11141615
      2.60000000	      0.10617489	      0.04206639	      0.11159965
      2.60500000	      0.10652820	      0.04213633	      0.11171430
      2.61000000	      0.10640564	      0.04211208	      0.11170109
      2.61500000	      0.10630863	      0.04209288	      0.11166902
      2.62000000	      0.10689163	      0.04220814	      0.11404896
      2.62500000	      0.10646758	      0.04212434	      0.11175892
      2.63000000	      0.10595887	      0.04202358	      0.11192477
      2.63500000	      0.10632072	      0.04209527	      0.11285792
      2.64000000	      0.10627035	      0.04208530	      0.11183902
      2.64500000	      0.10599951	      0.04203164	      0.11194951
      2.65000000	      0.10618946	      0.04206928	      0.11180496
      2.65500000	      0.10613681	      0.04205885	      0.11159466
      2.66000000	      0.10591280	      0.04201444	      0.11289653
      2.66500000	      0.10554647	      0.04194172	      0.11143166
      2.67000000	      0.10606272	      0.04204417	      0.11220606
      2.67500000	      0.10581038	      0.04199412	      0.11140465
      2.68000000	      0.10555299	      0.04194301	      0.11145967
      2.68500000	      0.10536040	      0.04190473	      0.11123590
      2.69000000	      0.10582634	      0.04199729	      0.11305028
      2.69500000	      0.10541349	      0.04191529	      0.11174549
      2.70000000	      0.10535246	      0.04190315	      0.11196460
      2.70500000	      0.10575600	      0.04198333	      0.11389357
      2.71000000	      0.10529055	      0.04189084	      0.11125870
      2.71500000	      0.10516400	      0.04186566	      0.11129038
      2.72000000	      0.10519887	      0.04187260	      0.11124092
      2.72500000	      0.10502131	      0.04183725	      0.11132306
      2.73000000	      0.10533132	      0.04189895	      0.11253299
      2.73500000	      0.10500029	      0.04183306	      0.11330846
      2.74000000	      0.10425304	      0.04168394	      0.11096700
      2.74500000	      0.10425982	      0.04168529	      0.11089710
      2.75000000	      0.10401260	      0.04163584	      0.11068011
      2.75500000	      0.10417799	      0.04166893	      0.11072532
      2.76000000	      0.10445693	      0.04172468	      0.11222078
      2.76500000	      0.10401166	      0.04163565	      0.11076843
      2.77000000	      0.10422198	      0.04167773	      0.11096744
      2.77500000	      0.10384550	      0.04160238	      0.11108758
      2.78000000	      0.10404721	      0.04164277	      0.11081341
      2.78500000	      0.10440212	      0.04171373	      0.11183835
      2.79000000	      0.10398158	      0.04162963	      0.11079053
      2.79500000	      0.10468645	      0.04177049	      0.11200375
      2.80000000	      0.10474728	      0.04178263	      0.11352474
      2.80500000	      0.10517222	      0.04186729	      0.11398118
      2.81000000	      0.10412950	      0.04165923	      0.11093497
      2.81500000	      0.10405793	      0.04164491	      0.11101036
      2.82000000	      0.10422097	      0.04167753	      0.11231808
      2.82500000	      0.10384527	      0.04160234	      0.11086009
      2.83000000	      0.10364698	      0.04156260	      0.11078652
      2.83500000	      0.10457467	      0.04174819	      0.11404512
      2.84000000	      0.10370851	      0.04157493	      0.11067839
      2.84500000	      0.10421561	      0.04167645	      0.11284877
      2.85000000	      0.10355322	      0.04154380	      0.11037516
      2.85500000	      0.10362282	      0.04155775	      0.11041546
      2.86000000	      0.10361496	      0.04155618	      0.11040158
      2.86500000	      0.10442041	      0.04171738	      0.11365578
      2.87000000	      0.10356291	      0.04154574	      0.11052156
      2.87500000	      0.10373466	      0.04158017	      0.11109453
      2.88000000	      0.10350882	      0.04153489	      0.11068642
      2.88500000	      0.10337136	      0.04150730	      0.11047668
      2.89000000	      0.10363927	      0.04156105	      0.11164031
      2.89500000	      0.10345727	      0.04152454	      0.11042936
      2.90000000	      0.10350825	      0.04153477	      0.11036861
      2.90500000	      0.10366607	      0.04156643	      0.11060407
      2.91000000	      0.10448524	      0.04173033	      0.11297366
      2.91500000	      0.10475534	      0.04178424	      0.11372932
      2.92000000	      0.10395267	      0.04162385	      0.11072609
      2.92500000	      0.10410409	      0.04165415	      0.11085339
      2.93000000	      0.10443711	      0.04172072	      0.11096113
      2.93500000	      0.10459733	      0.04175271	      0.11098664
      2.94000000	      0.10481281	      0.04179570	      0.11109547
      2.94500000	      0.10564275	      0.04196084	      0.11351323
      2.95000000	      0.10522522	      0.04187784	      0.11128304
      2.95500000	      0.10574661	      0.04198147	      0.11271348
      2.96000000	      0.10618162	      0.04206773	      0.11372830
      2.96500000	      0.10674058	      0.04217831	      0.11512029
      2.97000000	      0.10698186	      0.04222595	      0.11572478
      2.97500000	      0.10601550	      0.04203481	      0.11129558
      2.98000000	      0.10608933	      0.04204944	      0.11149247
      2.98500000	      0.10607938	      0.04204747	      0.11143523
      2.99000000	      0.10608855	      0.04204929	      0.11134512
      2.99500000	      0.10656848	      0.04214429	      0.11291380
      3.00000000	      0.10619687	      0.04207075	      0.11135553
      3.00500000	      0.10627869	      0.04208695	      0.11142198
      3.01000000	      0.10607134	      0.04204588	      0.11139087
      3.01500000	      0.10657563	      0.04214571	      0.11300739
      3.02000000	      0.10618697	      0.04206879	      0.11135982
      3.02500000	      0.10634953	      0.04210098	      0.11144440
      3.03000000	      0.10645347	      0.04212155	      0.11157305
      3.03500000	      0.10587370	      0.04200668	      0.11139317
      3.04000000	      0.10625099	      0.04208147	      0.11160227
      3.04500000	      0.10632713	      0.04209654	      0.11164628
      3.05000000	      0.10641714	      0.04211436	      0.11176589
      3.05500000	      0.10689536	      0.04220888	      0.11294972
      3.06000000	      0.10693310	      0.04221633	      0.11191319
      3.06500000	      0.10708605	      0.04224651	      0.11198220
      3.07000000	      0.10760288	      0.04234833	      0.11316735
      3.07500000	      0.10746751	      0.04232169	      0.11207118
      3.08000000	      0.10760667	      0.04234908	      0.11213495
      3.08500000	      0.10789122	      0.04240504	      0.11214113
      3.09000000	      0.10796487	      0.04241951	      0.11226560
      3.09500000	      0.10833092	      0.04249136	      0.11322513
      3.10000000	      0.10826527	      0.04247848	      0.11222423
      3.10500000	      0.10830977	      0.04248721	      0.11235508
      3.11000000	      0.10810219	      0.04244647	      0.11227865
      3.11500000	      0.10865038	      0.04255396	      0.11435544
      3.12000000	      0.10821217	      0.04246806	      0.11223551
      3.12500000	      0.10820107	      0.04246588	      0.11221799
      3.13000000	      0.10827341	      0.04248008	      0.11221164
      3.13500000	      0.10827674	      0.04248073	      0.11230794
      3.14000000	      0.10846051	      0.04251676	      0.11236318
      3.14500000	      0.10923778	      0.04266884	      0.11557296
      3.15000000	      0.10850266	      0.04252502	      0.11240045
      3.15500000	      0.10856478	      0.04253720	      0.11249944
      3.16000000	      0.10859165	      0.04254246	      0.11261091
      3.16500000	      0.10855208	      0.04253471	      0.11246260
      3.17000000	      0.10923232	      0.04266777	      0.11514374
      3.17500000	      0.10919375	      0.04266024	      0.11559842
      3.18000000	      0.10834260	      0.04249365	      0.11237817
      3.18500000	      0.10827574	      0.04248053	      0.11241849
      3.19000000	      0.10815431	      0.04245671	      0.11240290
      3.19500000	      0.10776385	      0.04238000	      0.11218401
      3.20000000	      0.10799007	      0.04242446	      0.11225459
      3.20500000	      0.10849913	      0.04252433	      0.11510536
      3.21000000	      0.10774925	      0.04237713	      0.11212181
      3.21500000	      0.10793844	      0.04241431	      0.11211009
      3.22000000	      0.10843377	      0.04251152	      0.11400474
      3.22500000	      0.10798930	      0.04242431	      0.11230425
      3.23000000	      0.10803342	      0.04243297	      0.11226094
      3.23500000	      0.10914455	      0.04265063	      0.11567488
      3.24000000	      0.10839103	      0.04250314	      0.11237357
      3.24500000	      0.10849943	      0.04252439	      0.11256610
      3.25000000	      0.10806131	      0.04243845	      0.11241333
      3.25500000	      0.10859429	      0.04254298	      0.11253697
      3.26000000	      0.10875231	      0.04257392	      0.11252081
      3.26500000	      0.10859019	      0.04254217	      0.11261053
      3.27000000	      0.10891485	      0.04260572	      0.11361716
      3.27500000	      0.10921144	      0.04266369	      0.11508540
      3.28000000	      0.10965567	      0.04275037	      0.11612744
      3.28500000	      0.10857134	      0.04253848	      0.11227991
      3.29000000	      0.10842694	      0.04251018	      0.11229827
      3.29500000	      0.10785200	      0.04239733	      0.11197386
      3.30000000	      0.10775137	      0.04237754	      0.11206363
      3.30500000	      0.10778579	      0.04238431	      0.11190407
      3.31000000	      0.10839090	      0.04250312	      0.11431084
      3.31500000	      0.10748264	      0.04232467	      0.11196398
      3.32000000	      0.10723167	      0.04227522	      0.11181417
      3.32500000	      0.10709277	      0.04224783	      0.11172386
      3.33000000	      0.10695546	      0.04222074	      0.11173440
      3.33500000	      0.10677166	      0.04218445	      0.11182456
      3.34000000	      0.10678084	      0.04218626	      0.11174432
      3.34500000	      0.10742016	      0.04231236	      0.11459489
      3.35000000	      0.10647099	      0.04212501	      0.11163480
      3.35500000	      0.10637688	      0.04210639	      0.11147838
      3.36000000	      0.10625799	      0.04208285	      0.11139258
      3.36500000	      0.10583409	      0.04199883	      0.11142396
      3.37000000	      0.10559002	      0.04195037	      0.11123178
      3.37500000	      0.10544012	      0.04192058	      0.11126382
      3.38000000	      0.10539841	      0.04191229	      0.11104062
      3.38500000	      0.10513940	      0.04186076	      0.11110962
      3.39000000	      0.10479527	      0.04179220	      0.11085770
      3.39500000	      0.10448512	      0.04173031	      0.11041381
      3.40000000	      0.10424657	      0.04168264	      0.11047183
      3.40500000	      0.10388738	      0.04161077	      0.11038806
      3.41000000	      0.10349329	      0.04153177	      0.11014874
      3.41500000	      0.10338784	      0.04151061	      0.10997375
      3.42000000	      0.10260096	      0.04135234	      0.10983600
      3.42500000	      0.10247307	      0.04132656	      0.10976914
      3.43000000	      0.10224035	      0.04127961	      0.10955278
      3.43500000	      0.10169106	      0.04116857	      0.10951629
      3.44000000	      0.10147522	      0.04112485	      0.10933535
      3.44500000	      0.10132520	      0.04109444	      0.10908270
      3.45000000	      0.10070113	      0.04096770	      0.10906094
      3.45500000	      0.10047901	      0.04092249	      0.10896249
      3.46000000	      0.10042645	      0.04091179	      0.10883884
      3.46500000	      0.10004140	      0.04083328	      0.10874740
      3.47000000	      0.09990215	      0.04080485	      0.10848384
      3.47500000	      0.09951488	      0.04072568	      0.10836682
      3.48000000	      0.09953969	      0.04073076	      0.10844681
      3.48500000	      0.09927994	      0.04067758	      0.10825401
      3.49000000	      0.09901902	      0.04062409	      0.10833063
      3.49500000	      0.09884639	      0.04058867	      0.10820329
      3.50000000	      0.09862701	      0.04054360	      0.10813745
      3.50500000	      0.09828736	      0.04047373	      0.10796820
      3.51000000	      0.09856258	      0.04053035	      0.10789445
      3.51500000	      0.09773369	      0.04035957	      0.10783791
      3.52000000	      0.09770693	      0.04035404	      0.10752692
      3.52500000	      0.09715867	      0.04024066	      0.10716795
      3.53000000	      0.09697001	      0.04020158	      0.10702509
      3.53500000	      0.09650098	      0.04010423	      0.10675457
      3.54000000	      0.09614979	      0.04003119	      0.10663019
      3.54500000	      0.09571870	      0.03994135	      0.10642910
      3.55000000	      0.09561825	      0.03992039	      0.10657234
      3.55500000	      0.09522209	      0.03983761	      0.10619108
      3.56000000	      0.09491960	      0.03977428	      0.10629800
      3.56500000	      0.09471705	      0.03973182	      0.10595109
      3.57000000	      0.09433210	      0.03965100	      0.10570608
      3.57500000	      0.09423971	      0.03963158	      0.10566323
      3.58000000	      0.09390461	      0.03956105	      0.10569726
      3.58500000	      0.09340806	      0.03945632	      0.10545211
      3.59000000	      0.09313999	      0.03939966	      0.10536955
      3.59500000	      0.09286548	      0.03934156	      0.10541845
      3.60000000	      0.09282511	      0.03933300	      0.10523938
      3.60500000	      0.09237511	      0.03923755	      0.10538531
      3.61000000	      0.09228254	      0.03921788	      0.10546200
      3.61500000	      0.09208007	      0.03917484	      0.10557314
      3.62000000	      0.09245226	      0.03925393	      0.10468701
      3.62500000	      0.09228110	      0.03921758	      0.10489020
      3.63000000	      0.09212657	      0.03918473	      0.10449345
      3.63500000	      0.09144995	      0.03904057	      0.10458662
      3.64000000	      0.09140137	      0.03903019	      0.10477894
      3.64500000	      0.09103380	      0.03895164	      0.10440245
      3.65000000	      0.09015438	      0.03876304	      0.10413429
      3.65500000	      0.08980677	      0.03868823	      0.10416711
      3.66000000	      0.09015110	      0.03876233	      0.10419615
      3.66500000	      0.08982684	      0.03869256	      0.10386425
      3.67000000	      0.08889615	      0.03849159	      0.10387771
      3.67500000	      0.08877816	      0.03846604	      0.10373510
      3.68000000	      0.08833216	      0.03836929	      0.10351438
      3.68500000	      0.08801905	      0.03830123	      0.10348637
      3.69000000	      0.08780452	      0.03825452	      0.10343201
      3.69500000	      0.08771527	      0.03823508	      0.10347040
      3.70000000	      0.08737962	      0.03816185	      0.10328858
      3.70500000	      0.08701843	      0.03808290	      0.10304923
      3.71000000	      0.08686188	      0.03804863	      0.10308461
      3.71500000	      0.08680832	      0.03803689	      0.10298619
      3.72000000	      0.08639291	      0.03794577	      0.10284984
      3.72500000	      0.08621185	      0.03790599	      0.10267922
      3.73000000	      0.08601763	      0.03786327	      0.10241784
      3.73500000	      0.08570426	      0.03779424	      0.10234585
      3.74000000	      0.08540355	      0.03772787	      0.10248848
      3.74500000	      0.08530004	      0.03770500	      0.10220170
      3.75000000	      0.08492508	      0.03762204	      0.10202257
      3.75500000	      0.08459194	      0.03754818	      0.10184450
      3.76000000	      0.08435402	      0.03749534	      0.10188007
      3.76500000	      0.08415192	      0.03745039	      0.10180104
      3.77000000	      0.08386645	      0.03738682	      0.10169199
      3.77500000	      0.08369082	      0.03734765	      0.10154006
      3.78000000	      0.08342368	      0.03728800	      0.10149419
      3.78500000	      0.08309392	      0.03721423	      0.10141878
      3.79000000	      0.08278594	      0.03714520	      0.10122539
      3.79500000	      0.08230583	      0.03703733	      0.10111387
      3.80000000	      0.08193062	      0.03695281	      0.10098416
      3.80500000	      0.08176386	      0.03691519	      0.10075692
      3.81000000	      0.08157160	      0.03687176	      0.10082314
      3.81500000	      0.08109966	      0.03676494	      0.10061138
      3.82000000	      0.08071035	      0.03667659	      0.10029850
      3.82500000	      0.08023239	      0.03656783	      0.10019994
      3.83000000	      0.08006076	      0.03652870	      0.10000769
      3.83500000	      0.08000862	      0.03651680	      0.09990795
      3.84000000	      0.07995001	      0.03650343	      0.09993366
      3.84500000	      0.07904329	      0.03629584	      0.09953924
      3.85000000	      0.07873405	      0.03622477	      0.09930388
      3.85500000	      0.07861784	      0.03619803	      0.09930525
      3.86000000	      0.07802964	      0.03606236	      0.09912232
      3.86500000	      0.07782486	      0.03601501	      0.09879079
      3.87000000	      0.07756598	      0.03595506	      0.09867239
      3.87500000	      0.07704670	      0.03583450	      0.09845346
      3.88000000	      0.07676046	      0.03576788	      0.09827325
      3.88500000	      0.07644169	      0.03569353	      0.09813476
      3.89000000	      0.07619518	      0.03563593	      0.09803460
      3.89500000	      0.07590670	      0.03556841	      0.09790693
      3.90000000	      0.07578048	      0.03553882	      0.09769493
      3.90500000	      0.07546827	      0.03546554	      0.09755971
      3.91000000	      0.07522147	      0.03540750	      0.09739041
      3.91500000	      0.07463592	      0.03526942	      0.09710548
      3.92000000	      0.07439147	      0.03521161	      0.09711398
      3.92500000	      0.07422146	      0.03517136	      0.09699751
      3.93000000	      0.07365930	      0.03503791	      0.09684156
      3.93500000	      0.07375803	      0.03506138	      0.09680999
      3.94000000	      0.07318536	      0.03492501	      0.09649866
      3.94500000	      0.07309047	      0.03490236	      0.09642684
      3.95000000	      0.07262389	      0.03479078	      0.09625414
      3.95500000	      0.07245485	      0.03475026	      0.09586928
      3.96000000	      0.07209765	      0.03466450	      0.09584429
      3.96500000	      0.07185308	      0.03460565	      0.09559672
      3.97000000	      0.07139483	      0.03449513	      0.09528499
      3.97500000	      0.07092720	      0.03438197	      0.09496927
      3.98000000	      0.07054871	      0.03429011	      0.09484224
      3.98500000	      0.06996591	      0.03414818	      0.09453128
      3.99000000	      0.06955488	      0.03404773	      0.09434564
      3.99500000	      0.06881779	      0.03386685	      0.09374629
      4.00000000	      0.06858884	      0.03381046	      0.09370213
      4.00500000	      0.06841345	      0.03376720	      0.09351017
      4.01000000	      0.06782391	      0.03362140	      0.09320831
      4.01500000	      0.06760529	      0.03356717	      0.09286556
      4.02000000	      0.06703075	      0.03342423	      0.09275999
      4.02500000	      0.06655823	      0.03330621	      0.09259779
      4.03000000	      0.06616746	      0.03320830	      0.09214186
      4.03500000	      0.06550032	      0.03304046	      0.09171878
      4.04000000	      0.06530836	      0.03299201	      0.09190125
      4.04500000	      0.06508515	      0.03293558	      0.09149750
      4.05000000	      0.06454881	      0.03279960	      0.09124020
      4.05500000	      0.06399012	      0.03265734	      0.09065445
      4.06000000	      0.06361156	      0.03256060	      0.09076104
      4.06500000	      0.06320013	      0.03245513	      0.09029336
      4.07000000	      0.06290540	      0.03237937	      0.09018782
      4.07500000	      0.06243755	      0.03225873	      0.08980878
      4.08000000	      0.06183663	      0.03210312	      0.08956115
      4.08500000	      0.06148665	      0.03201215	      0.08930725
      4.09000000	      0.06104167	      0.03189610	      0.08887981
      4.09500000	      0.06057165	      0.03177306	      0.08863614
      4.10000000	      0.06012130	      0.03165473	      0.08845849
      4.10500000	      0.06008586	      0.03164540	      0.08831315
      4.11000000	      0.05965179	      0.03153088	      0.08820439
      4.11500000	      0.05888372	      0.03132723	      0.08769246
      4.12000000	      0.05849917	      0.03122477	      0.08730517
      4.12500000	      0.05803453	      0.03110052	      0.08701452
      4.13000000	      0.05739638	      0.03092905	      0.08670135
      4.13500000	      0.05702307	      0.03082831	      0.08641205
      4.14000000	      0.05646865	      0.03067807	      0.08615216
      4.14500000	      0.05603473	      0.03055998	      0.08562039
      4.15000000	      0.05573425	      0.03047793	      0.08567441
      4.15500000	      0.05558671	      0.03043756	      0.08561519
      4.16000000	      0.05483382	      0.03023073	      0.08527496
      4.16500000	      0.05442885	      0.03011889	      0.08482896
      4.17000000	      0.05395847	      0.02998846	      0.08459085
      4.17500000	      0.05357875	      0.02988276	      0.08426615
      4.18000000	      0.05316297	      0.02976658	      0.08416361
      4.18500000	      0.05263295	      0.02961783	      0.08357688
      4.19000000	      0.05227915	      0.02951812	      0.08339859
      4.19500000	      0.05170360	      0.02935518	      0.08309128
      4.20000000	      0.05073750	      0.02907963	      0.08241049
      4.20500000	      0.05089943	      0.02912600	      0.08249856
      4.21000000	      0.05036157	      0.02897170	      0.08202258
      4.21500000	      0.04955267	      0.02873809	      0.08157966
      4.22000000	      0.04906633	      0.02859672	      0.08129348
      4.22500000	      0.04853558	      0.02844163	      0.08088976
      4.23000000	      0.04828122	      0.02836701	      0.08070927
      4.23500000	      0.04761492	      0.02817059	      0.08017054
      4.24000000	      0.04731418	      0.02808148	      0.07989074
      4.24500000	      0.04674941	      0.02791338	      0.07961033
      4.25000000	      0.04602626	      0.02769665	      0.07939699
      4.25500000	      0.04584841	      0.02764308	      0.07899626
      4.26000000	      0.04585677	      0.02764561	      0.07909472
      4.26500000	      0.04531299	      0.02748120	      0.07879290
      4.27000000	      0.04544035	      0.02751980	      0.07877531
      4.27500000	      0.04492785	      0.02736416	      0.07853810
      4.28000000	      0.04449333	      0.02723152	      0.07834871
      4.28500000	      0.04433284	      0.02718236	      0.07815921
      4.29000000	      0.04387175	      0.02704063	      0.07810139
      4.29500000	      0.04384256	      0.02703164	      0.07788634
      4.30000000	      0.04357419	      0.02694878	      0.07769660
      4.30500000	      0.04356551	      0.02694609	      0.07759859
      4.31000000	      0.04340753	      0.02689719	      0.07740649
      4.31500000	      0.04325450	      0.02684974	      0.07789779
      4.32000000	      0.04293103	      0.02674915	      0.07685352
      4.32500000	      0.04280388	      0.02670951	      0.07676019
      4.33000000	      0.04266336	      0.02666563	      0.07655126
      4.33500000	      0.04227622	      0.02654437	      0.07638768
      4.34000000	      0.04220574	      0.02652223	      0.07611753
      4.34500000	      0.04191764	      0.02643156	      0.07583490
      4.35000000	      0.04189970	      0.02642590	      0.07576819
      4.35500000	      0.04163121	      0.02634110	      0.07553711
      4.36000000	      0.04151473	      0.02630422	      0.07543727
      4.36500000	      0.04131688	      0.02624147	      0.07524760
      4.37000000	      0.04111940	      0.02617868	      0.07509357
      4.37500000	      0.04091953	      0.02611498	      0.07474735
      4.38000000	      0.04072789	      0.02605375	      0.07443716
      4.38500000	      0.04048117	      0.02597472	      0.07426826
      4.39000000	      0.04040873	      0.02595147	      0.07419886
      4.39500000	      0.04020173	      0.02588492	      0.07391217
      4.40000000	      0.03996433	      0.02580837	      0.07374058
      4.40500000	      0.03973583	      0.02573449	      0.07346063
      4.41000000	      0.03970632	      0.02572493	      0.07334453
      4.41500000	      0.03942698	      0.02563428	      0.07295357
      4.42000000	      0.03906859	      0.02551751	      0.07263531
      4.42500000	      0.03886852	      0.02545209	      0.07241465
      4.43000000	      0.03863478	      0.02537544	      0.07212291
      4.43500000	      0.03854380	      0.02534554	      0.07190305
      4.44000000	      0.03836993	      0.02528832	      0.07164001
      4.44500000	      0.03823943	      0.02524527	      0.07154922
      4.45000000	      0.03792784	      0.02514221	      0.07124690
      4.45500000	      0.03780174	      0.02510038	      0.07093998
      4.46000000	      0.03757979	      0.02502658	      0.07062301
      4.46500000	      0.03737749	      0.02495913	      0.07054402
      4.47000000	      0.03712493	      0.02487466	      0.07038182
      4.47500000	      0.03703461	      0.02484438	      0.07028630
      4.48000000	      0.03693366	      0.02481050	      0.07017338
      4.48500000	      0.03691375	      0.02480381	      0.07019098
      4.49000000	      0.03684077	      0.02477928	      0.06989850
      4.49500000	      0.03648483	      0.02465929	      0.06963409
      4.50000000	      0.03626778	      0.02458583	      0.06953461
