name analog
datacolumns 19
datarows 613
range 0.255 0.5610000000000003
endheader
time	ground_force_vx	ground_force_vy	ground_force_vz	ground_force_px	ground_force_py	ground_force_pz	l_ground_force_vx	l_ground_force_vy	l_ground_force_vz	l_ground_force_px	l_ground_force_py	l_ground_force_pz	ground_torque_x	ground_torque_y	ground_torque_z	l_ground_torque_x	l_ground_torque_y	l_ground_torque_z
0.255	-0.0	-0.0	-0.0	-11.491692543029783	-8.242840766906738	-857.8089599609375	-0.0	-0.0	-0.0	-0.0	-0.0	-0.0	-0.0	-0.0	-0.0	-0.0	-0.0	-0.0
0.2555	-0.0	-0.0	-0.0	-12.462982177734377	-8.101134300231934	-856.2130126953125	-0.0	-0.0	-0.0	-0.0	-0.0	-0.0	-0.0	-0.0	-0.0	-0.0	-0.0	-0.0
0.256	-0.0	-0.0	-0.0	-13.434666633605955	-7.576084136962891	-856.0994873046875	-0.0	-0.0	-0.0	-0.0	-0.0	-0.0	-0.0	-0.0	-0.0	-0.0	-0.0	-0.0
0.2565	-0.0	-0.0	-0.0	-14.470788955688477	-7.416492938995361	-857.5949096679688	-0.0	-0.0	-0.0	-0.0	-0.0	-0.0	-0.0	-0.0	-0.0	-0.0	-0.0	-0.0
0.257	-0.0	-0.0	-0.0	-14.567999839782717	-7.121289253234863	-855.3323974609375	-0.0	-0.0	-0.0	-0.0	-0.0	-0.0	-0.0	-0.0	-0.0	-0.0	-0.0	-0.0
0.2575	-0.0	-0.0	-0.0	-14.273681640625	-6.729238510131836	-852.3646850585938	-0.0	-0.0	-0.0	-0.0	-0.0	-0.0	-0.0	-0.0	-0.0	-0.0	-0.0	-0.0
0.258	-0.0	-0.0	-0.0	-13.229974746704102	-5.865115642547607	-851.8699951171875	-0.0	-0.0	-0.0	-0.0	-0.0	-0.0	-0.0	-0.0	-0.0	-0.0	-0.0	-0.0
0.2585	-0.0	-0.0	-0.0	-11.605928421020508	-5.303857326507568	-851.2701416015625	-0.0	-0.0	-0.0	-0.0	-0.0	-0.0	-0.0	-0.0	-0.0	-0.0	-0.0	-0.0
0.259	-0.0	-0.0	-0.0	-9.742514610290527	-4.734094619750977	-848.4520874023438	-0.0	-0.0	-0.0	-0.0	-0.0	-0.0	-0.0	-0.0	-0.0	-0.0	-0.0	-0.0
0.2595	-0.0	-0.0	-0.0	-7.528862476348877	-4.351076126098633	-847.3209228515625	-0.0	-0.0	-0.0	-0.0	-0.0	-0.0	-0.0	-0.0	-0.0	-0.0	-0.0	-0.0
0.26	-0.0	-0.0	-0.0	-5.084999084472656	-3.5891175270080566	-844.5919799804688	-0.0	-0.0	-0.0	-0.0	-0.0	-0.0	-0.0	-0.0	-0.0	-0.0	-0.0	-0.0
0.2605	-0.0	-0.0	-0.0	-2.7966108322143555	-3.088506937026977	-842.9024047851562	-0.0	-0.0	-0.0	-0.0	-0.0	-0.0	-0.0	-0.0	-0.0	-0.0	-0.0	-0.0
0.261	-0.0	-0.0	-0.0	-1.062949299812317	-2.077186107635498	-842.4418334960938	-0.0	-0.0	-0.0	-0.0	-0.0	-0.0	-0.0	-0.0	-0.0	-0.0	-0.0	-0.0
0.2615	-0.0	-0.0	-0.0	0.4807302951812744	-1.5424587726593018	-838.7730102539062	-0.0	-0.0	-0.0	-0.0	-0.0	-0.0	-0.0	-0.0	-0.0	-0.0	-0.0	-0.0
0.262	-0.0	-0.0	-0.0	1.612968683242798	-1.0695648193359375	-834.7008666992188	-0.0	-0.0	-0.0	-0.0	-0.0	-0.0	-0.0	-0.0	-0.0	-0.0	-0.0	-0.0
0.2625	-0.0	-0.0	-0.0	1.955642819404602	-0.5551830530166626	-831.6834106445312	-0.0	-0.0	-0.0	-0.0	-0.0	-0.0	-0.0	-0.0	-0.0	-0.0	-0.0	-0.0
0.263	-0.0	-0.0	-0.0	2.230262756347656	0.7679328322410583	-828.7506713867188	-0.0	-0.0	-0.0	-0.0	-0.0	-0.0	-0.0	-0.0	-0.0	-0.0	-0.0	-0.0
0.2635	-0.0	-0.0	-0.0	3.279839277267456	2.084099054336548	-827.2564697265625	-0.0	-0.0	-0.0	-0.0	-0.0	-0.0	-0.0	-0.0	-0.0	-0.0	-0.0	-0.0
0.264	-0.0	-0.0	-0.0	5.4142374992370605	3.2978248596191406	-825.7093505859375	-0.0	-0.0	-0.0	-0.0	-0.0	-0.0	-0.0	-0.0	-0.0	-0.0	-0.0	-0.0
0.2645	-0.0	-0.0	-0.0	6.675442695617676	5.163401126861572	-822.361328125	-0.0	-0.0	-0.0	-0.0	-0.0	-0.0	-0.0	-0.0	-0.0	-0.0	-0.0	-0.0
0.265	-0.0	-0.0	-0.0	7.281523704528809	6.54022741317749	-819.6207885742188	-0.0	-0.0	-0.0	-0.0	-0.0	-0.0	-0.0	-0.0	-0.0	-0.0	-0.0	-0.0
0.2655	-0.0	-0.0	-0.0	7.376680850982666	8.85750675201416	-814.6298828125	-0.0	-0.0	-0.0	-0.0	-0.0	-0.0	-0.0	-0.0	-0.0	-0.0	-0.0	-0.0
0.266	-0.0	-0.0	-0.0	7.226051330566406	11.453332901000977	-815.2940063476562	-0.0	-0.0	-0.0	-0.0	-0.0	-0.0	-0.0	-0.0	-0.0	-0.0	-0.0	-0.0
0.2665	-0.0	-0.0	-0.0	7.2035322189331055	13.352469444274902	-813.020263671875	-0.0	-0.0	-0.0	-0.0	-0.0	-0.0	-0.0	-0.0	-0.0	-0.0	-0.0	-0.0
0.267	-0.0	-0.0	-0.0	6.958419799804688	15.13464069366455	-810.063232421875	-0.0	-0.0	-0.0	-0.0	-0.0	-0.0	-0.0	-0.0	-0.0	-0.0	-0.0	-0.0
0.2675	-0.0	-0.0	-0.0	6.774984359741211	16.28282356262207	-807.9447631835938	-0.0	-0.0	-0.0	-0.0	-0.0	-0.0	-0.0	-0.0	-0.0	-0.0	-0.0	-0.0
0.268	-0.0	-0.0	-0.0	6.596729278564453	16.60634994506836	-805.5113525390625	-0.0	-0.0	-0.0	-0.0	-0.0	-0.0	-0.0	-0.0	-0.0	-0.0	-0.0	-0.0
0.2685	-0.0	-0.0	-0.0	6.77076530456543	16.87381935119629	-805.1021118164062	-0.0	-0.0	-0.0	-0.0	-0.0	-0.0	-0.0	-0.0	-0.0	-0.0	-0.0	-0.0
0.269	-0.0	-0.0	-0.0	7.352371215820312	17.43248176574707	-806.9986572265625	-0.0	-0.0	-0.0	-0.0	-0.0	-0.0	-0.0	-0.0	-0.0	-0.0	-0.0	-0.0
0.2695	-0.0	-0.0	-0.0	8.2441987991333	16.967321395874023	-811.6243286132812	-0.0	-0.0	-0.0	-0.0	-0.0	-0.0	-0.0	-0.0	-0.0	-0.0	-0.0	-0.0
0.27	-0.0	-0.0	-0.0	9.817181587219238	15.561407089233398	-818.381591796875	-0.0	-0.0	-0.0	-0.0	-0.0	-0.0	-0.0	-0.0	-0.0	-0.0	-0.0	-0.0
0.2705	-0.0	-0.0	-0.0	12.071868896484377	14.710372924804688	-824.4498901367188	-0.0	-0.0	-0.0	-0.0	-0.0	-0.0	-0.0	-0.0	-0.0	-0.0	-0.0	-0.0
0.271	-0.0	-0.0	-0.0	14.6875638961792	13.430195808410645	-830.9339599609375	-0.0	-0.0	-0.0	-0.0	-0.0	-0.0	-0.0	-0.0	-0.0	-0.0	-0.0	-0.0
0.2715	-0.0	-0.0	-0.0	16.8001708984375	11.465827941894531	-839.2822875976562	-0.0	-0.0	-0.0	-0.0	-0.0	-0.0	-0.0	-0.0	-0.0	-0.0	-0.0	-0.0
0.272	-0.0	-0.0	-0.0	19.15160369873047	9.046483039855955	-846.2191162109375	-0.0	-0.0	-0.0	-0.0	-0.0	-0.0	-0.0	-0.0	-0.0	-0.0	-0.0	-0.0
0.2725	-0.0	-0.0	-0.0	20.101099014282227	6.44309139251709	-855.060546875	-0.0	-0.0	-0.0	-0.0	-0.0	-0.0	-0.0	-0.0	-0.0	-0.0	-0.0	-0.0
0.273	-0.0	-0.0	-0.0	21.17449760437012	4.15755033493042	-860.107177734375	-0.0	-0.0	-0.0	-0.0	-0.0	-0.0	-0.0	-0.0	-0.0	-0.0	-0.0	-0.0
0.2735	-0.0	-0.0	-0.0	21.709644317626957	2.254467248916626	-864.50146484375	-0.0	-0.0	-0.0	-0.0	-0.0	-0.0	-0.0	-0.0	-0.0	-0.0	-0.0	-0.0
0.274	-0.0	-0.0	-0.0	21.6154842376709	1.1923978328704834	-868.8226318359375	-0.0	-0.0	-0.0	-0.0	-0.0	-0.0	-0.0	-0.0	-0.0	-0.0	-0.0	-0.0
0.2745	-0.0	-0.0	-0.0	21.17189216613769	0.7687896490097046	-872.7076416015625	-0.0	-0.0	-0.0	-0.0	-0.0	-0.0	-0.0	-0.0	-0.0	-0.0	-0.0	-0.0
0.275	-0.0	-0.0	-0.0	19.53710174560547	1.3389678001403809	-872.838623046875	-0.0	-0.0	-0.0	-0.0	-0.0	-0.0	-0.0	-0.0	-0.0	-0.0	-0.0	-0.0
0.2755	-0.0	-0.0	-0.0	16.676963806152344	2.497450113296509	-871.4174194335938	-0.0	-0.0	-0.0	-0.0	-0.0	-0.0	-0.0	-0.0	-0.0	-0.0	-0.0	-0.0
0.276	-0.0	-0.0	-0.0	13.112326622009276	3.9217376708984375	-868.4566040039062	-0.0	-0.0	-0.0	-0.0	-0.0	-0.0	-0.0	-0.0	-0.0	-0.0	-0.0	-0.0
0.2765	-0.0	-0.0	-0.0	10.13656520843506	5.439724445343018	-867.7740478515625	-0.0	-0.0	-0.0	-0.0	-0.0	-0.0	-0.0	-0.0	-0.0	-0.0	-0.0	-0.0
0.277	-0.0	-0.0	-0.0	7.967926979064941	5.765310287475586	-865.6486206054688	-0.0	-0.0	-0.0	-0.0	-0.0	-0.0	-0.0	-0.0	-0.0	-0.0	-0.0	-0.0
0.2775	-0.0	-0.0	-0.0	6.067307949066162	6.208756446838379	-865.4151000976562	-0.0	-0.0	-0.0	-0.0	-0.0	-0.0	-0.0	-0.0	-0.0	-0.0	-0.0	-0.0
0.278	-0.0	-0.0	-0.0	3.388477087020874	5.643911361694336	-865.5242919921875	-0.0	-0.0	-0.0	-0.0	-0.0	-0.0	-0.0	-0.0	-0.0	-0.0	-0.0	-0.0
0.2785	-0.0	-0.0	-0.0	0.5642408132553101	6.091525554656982	-864.9376220703125	-0.0	-0.0	-0.0	-0.0	-0.0	-0.0	-0.0	-0.0	-0.0	-0.0	-0.0	-0.0
0.279	-0.0	-0.0	-0.0	-1.8434298038482664	5.644417762756348	-866.58935546875	-0.0	-0.0	-0.0	-0.0	-0.0	-0.0	-0.0	-0.0	-0.0	-0.0	-0.0	-0.0
0.2795	-0.0	-0.0	-0.0	-3.538398504257202	4.902172088623047	-867.175537109375	-0.0	-0.0	-0.0	-0.0	-0.0	-0.0	-0.0	-0.0	-0.0	-0.0	-0.0	-0.0
0.28	-0.0	-0.0	-0.0	-5.144487380981445	4.486215591430664	-867.6453247070312	-0.0	-0.0	-0.0	-0.0	-0.0	-0.0	-0.0	-0.0	-0.0	-0.0	-0.0	-0.0
0.2805	-0.0	-0.0	-0.0	-6.720355987548828	4.605239868164063	-869.1768188476562	-0.0	-0.0	-0.0	-0.0	-0.0	-0.0	-0.0	-0.0	-0.0	-0.0	-0.0	-0.0
0.281	-0.0	-0.0	-0.0	-8.326454162597656	4.694061756134033	-869.29248046875	-0.0	-0.0	-0.0	-0.0	-0.0	-0.0	-0.0	-0.0	-0.0	-0.0	-0.0	-0.0
0.28150000000000003	-0.0	-0.0	-0.0	-8.832426071166992	3.8924176692962646	-870.9463500976562	-0.0	-0.0	-0.0	-0.0	-0.0	-0.0	-0.0	-0.0	-0.0	-0.0	-0.0	-0.0
0.28200000000000003	-0.0	-0.0	-0.0	-9.161125183105469	2.792208194732666	-874.0015869140625	-0.0	-0.0	-0.0	-0.0	-0.0	-0.0	-0.0	-0.0	-0.0	-0.0	-0.0	-0.0
0.28250000000000003	-0.0	-0.0	-0.0	-9.455305099487305	2.1110997200012207	-876.3584594726562	-0.0	-0.0	-0.0	-0.0	-0.0	-0.0	-0.0	-0.0	-0.0	-0.0	-0.0	-0.0
0.28300000000000003	-0.0	-0.0	-0.0	-10.614852905273438	0.9804344177246094	-879.9956665039062	-0.0	-0.0	-0.0	-0.0	-0.0	-0.0	-0.0	-0.0	-0.0	-0.0	-0.0	-0.0
0.28350000000000003	-0.0	-0.0	-0.0	-10.823269844055176	0.9776217937469482	-882.7162475585938	-0.0	-0.0	-0.0	-0.0	-0.0	-0.0	-0.0	-0.0	-0.0	-0.0	-0.0	-0.0
0.28400000000000003	-0.0	-0.0	-0.0	-10.378680229187012	0.2084948122501373	-886.5003051757812	-0.0	-0.0	-0.0	-0.0	-0.0	-0.0	-0.0	-0.0	-0.0	-0.0	-0.0	-0.0
0.28450000000000003	-0.0	-0.0	-0.0	-9.334959983825684	0.3529149293899536	-891.0586547851562	-0.0	-0.0	-0.0	-0.0	-0.0	-0.0	-0.0	-0.0	-0.0	-0.0	-0.0	-0.0
0.28500000000000003	-0.0	-0.0	-0.0	-8.949457168579102	0.6562826633453369	-892.02001953125	-0.0	-0.0	-0.0	-0.0	-0.0	-0.0	-0.0	-0.0	-0.0	-0.0	-0.0	-0.0
0.28550000000000003	-0.0	-0.0	-0.0	-9.39539909362793	0.9521645307540894	-893.3126220703125	-0.0	-0.0	-0.0	-0.0	-0.0	-0.0	-0.0	-0.0	-0.0	-0.0	-0.0	-0.0
0.28600000000000003	-0.0	-0.0	-0.0	-10.289743423461914	2.5823895931243896	-893.5263061523438	-0.0	-0.0	-0.0	-0.0	-0.0	-0.0	-0.0	-0.0	-0.0	-0.0	-0.0	-0.0
0.28650000000000003	-0.0	-0.0	-0.0	-11.864997863769531	3.738309144973755	-892.84912109375	-0.0	-0.0	-0.0	-0.0	-0.0	-0.0	-0.0	-0.0	-0.0	-0.0	-0.0	-0.0
0.28700000000000003	-0.0	-0.0	-0.0	-13.172493934631348	4.659869194030762	-890.6978149414062	-0.0	-0.0	-0.0	-0.0	-0.0	-0.0	-0.0	-0.0	-0.0	-0.0	-0.0	-0.0
0.28750000000000003	-0.0	-0.0	-0.0	-14.09824562072754	5.854884624481201	-890.2804565429688	-0.0	-0.0	-0.0	-0.0	-0.0	-0.0	-0.0	-0.0	-0.0	-0.0	-0.0	-0.0
0.28800000000000003	-0.0	-0.0	-0.0	-15.790260314941406	6.291143894195557	-889.08837890625	-0.0	-0.0	-0.0	-0.0	-0.0	-0.0	-0.0	-0.0	-0.0	-0.0	-0.0	-0.0
0.28850000000000003	-0.0	-0.0	-0.0	-16.744112014770508	7.192122459411621	-890.1221313476562	-0.0	-0.0	-0.0	-0.0	-0.0	-0.0	-0.0	-0.0	-0.0	-0.0	-0.0	-0.0
0.28900000000000003	-0.0	-0.0	-0.0	-16.977352142333984	9.293320655822754	-889.796875	-0.0	-0.0	-0.0	-0.0	-0.0	-0.0	-0.0	-0.0	-0.0	-0.0	-0.0	-0.0
0.28950000000000004	-0.0	-0.0	-0.0	-17.869346618652344	11.141300201416016	-888.7529907226562	-0.0	-0.0	-0.0	-0.0	-0.0	-0.0	-0.0	-0.0	-0.0	-0.0	-0.0	-0.0
0.29000000000000004	-0.0	-0.0	-0.0	-18.792356491088867	13.206460952758787	-888.0330200195312	-0.0	-0.0	-0.0	-0.0	-0.0	-0.0	-0.0	-0.0	-0.0	-0.0	-0.0	-0.0
0.29050000000000004	-0.0	-0.0	-0.0	-18.559947967529297	14.90755558013916	-889.8901977539062	-0.0	-0.0	-0.0	-0.0	-0.0	-0.0	-0.0	-0.0	-0.0	-0.0	-0.0	-0.0
0.29100000000000004	-0.0	-0.0	-0.0	-18.64935111999512	16.13260269165039	-884.1845703125	-0.0	-0.0	-0.0	-0.0	-0.0	-0.0	-0.0	-0.0	-0.0	-0.0	-0.0	-0.0
0.29150000000000004	-0.0	-0.0	-0.0	-19.16656494140625	17.43832778930664	-886.517822265625	-0.0	-0.0	-0.0	-0.0	-0.0	-0.0	-0.0	-0.0	-0.0	-0.0	-0.0	-0.0
0.29200000000000004	-0.0	-0.0	-0.0	-19.9205265045166	18.512563705444336	-886.692138671875	-0.0	-0.0	-0.0	-0.0	-0.0	-0.0	-0.0	-0.0	-0.0	-0.0	-0.0	-0.0
0.29250000000000004	-0.0	-0.0	-0.0	-19.74691390991211	19.27361297607422	-887.10302734375	-0.0	-0.0	-0.0	-0.0	-0.0	-0.0	-0.0	-0.0	-0.0	-0.0	-0.0	-0.0
0.29300000000000004	-0.0	-0.0	-0.0	-19.337533950805664	19.23103904724121	-889.30712890625	-0.0	-0.0	-0.0	-0.0	-0.0	-0.0	-0.0	-0.0	-0.0	-0.0	-0.0	-0.0
0.29350000000000004	-0.0	-0.0	-0.0	-17.784400939941406	19.996692657470703	-890.5950927734375	-0.0	-0.0	-0.0	-0.0	-0.0	-0.0	-0.0	-0.0	-0.0	-0.0	-0.0	-0.0
0.29400000000000004	-0.0	-0.0	-0.0	-16.8087158203125	20.31063842773437	-893.7953491210938	-0.0	-0.0	-0.0	-0.0	-0.0	-0.0	-0.0	-0.0	-0.0	-0.0	-0.0	-0.0
0.29450000000000004	-0.0	-0.0	-0.0	-15.470812797546388	19.69781875610352	-893.5679321289062	-0.0	-0.0	-0.0	-0.0	-0.0	-0.0	-0.0	-0.0	-0.0	-0.0	-0.0	-0.0
0.29500000000000004	-0.0	-0.0	-0.0	-14.44616985321045	19.131349563598636	-894.6282348632812	-0.0	-0.0	-0.0	-0.0	-0.0	-0.0	-0.0	-0.0	-0.0	-0.0	-0.0	-0.0
0.29550000000000004	-0.0	-0.0	-0.0	-13.216516494750977	17.85783576965332	-896.6995239257812	-0.0	-0.0	-0.0	-0.0	-0.0	-0.0	-0.0	-0.0	-0.0	-0.0	-0.0	-0.0
0.29600000000000004	-0.0	-0.0	-0.0	-11.4697904586792	16.10711097717285	-896.8248901367188	-0.0	-0.0	-0.0	-0.0	-0.0	-0.0	-0.0	-0.0	-0.0	-0.0	-0.0	-0.0
0.29650000000000004	-0.0	-0.0	-0.0	-10.074223518371582	13.897784233093262	-898.8428955078125	-0.0	-0.0	-0.0	-0.0	-0.0	-0.0	-0.0	-0.0	-0.0	-0.0	-0.0	-0.0
0.29700000000000004	-0.0	-0.0	-0.0	-7.863984107971191	11.191755294799805	-901.3418579101562	-0.0	-0.0	-0.0	-0.0	-0.0	-0.0	-0.0	-0.0	-0.0	-0.0	-0.0	-0.0
0.29750000000000004	-0.0	-0.0	-0.0	-5.462527751922607	8.124645233154297	-904.5661010742188	-0.0	-0.0	-0.0	-0.0	-0.0	-0.0	-0.0	-0.0	-0.0	-0.0	-0.0	-0.0
0.29800000000000004	-0.0	-0.0	-0.0	-3.56842041015625	6.545724391937256	-907.3616943359376	-0.0	-0.0	-0.0	-0.0	-0.0	-0.0	-0.0	-0.0	-0.0	-0.0	-0.0	-0.0
0.29850000000000004	-0.0	-0.0	-0.0	-2.076698303222656	5.33030366897583	-908.8303833007812	-0.0	-0.0	-0.0	-0.0	-0.0	-0.0	-0.0	-0.0	-0.0	-0.0	-0.0	-0.0
0.29900000000000004	-0.0	-0.0	-0.0	-0.4460525512695312	4.852757453918457	-911.1744995117188	-0.0	-0.0	-0.0	-0.0	-0.0	-0.0	-0.0	-0.0	-0.0	-0.0	-0.0	-0.0
0.29950000000000004	-0.0	-0.0	-0.0	0.6567835211753845	4.027724266052246	-912.0690307617188	-0.0	-0.0	-0.0	-0.0	-0.0	-0.0	-0.0	-0.0	-0.0	-0.0	-0.0	-0.0
0.30000000000000004	-0.0	-0.0	-0.0	0.7381468415260315	3.970619201660156	-912.6824951171876	-0.0	-0.0	-0.0	-0.0	-0.0	-0.0	-0.0	-0.0	-0.0	-0.0	-0.0	-0.0
0.30050000000000004	-0.0	-0.0	-0.0	0.2919396758079529	4.432233810424805	-910.5300903320312	-0.0	-0.0	-0.0	-0.0	-0.0	-0.0	-0.0	-0.0	-0.0	-0.0	-0.0	-0.0
0.30100000000000005	-0.0	-0.0	-0.0	-1.4757640361785889	4.237481117248535	-908.8606567382812	-0.0	-0.0	-0.0	-0.0	-0.0	-0.0	-0.0	-0.0	-0.0	-0.0	-0.0	-0.0
0.30150000000000005	-0.0	-0.0	-0.0	-2.6678407192230225	3.4591517448425293	-906.450439453125	-0.0	-0.0	-0.0	-0.0	-0.0	-0.0	-0.0	-0.0	-0.0	-0.0	-0.0	-0.0
0.30200000000000005	-0.0	-0.0	-0.0	-3.910036325454712	2.043485641479492	-905.6480712890624	-0.0	-0.0	-0.0	-0.0	-0.0	-0.0	-0.0	-0.0	-0.0	-0.0	-0.0	-0.0
0.30250000000000005	-0.0	-0.0	-0.0	-5.263420104980469	1.1438010931015017	-903.9169311523438	-0.0	-0.0	-0.0	-0.0	-0.0	-0.0	-0.0	-0.0	-0.0	-0.0	-0.0	-0.0
0.30300000000000005	-0.0	-0.0	-0.0	-5.76591682434082	0.0508963763713836	-902.8216552734376	-0.0	-0.0	-0.0	-0.0	-0.0	-0.0	-0.0	-0.0	-0.0	-0.0	-0.0	-0.0
0.30350000000000005	-0.0	-0.0	-0.0	-5.751604080200195	-0.8349795341491699	-901.4451904296876	-0.0	-0.0	-0.0	-0.0	-0.0	-0.0	-0.0	-0.0	-0.0	-0.0	-0.0	-0.0
0.30400000000000005	-0.0	-0.0	-0.0	-5.911322593688965	-2.9692132472991943	-902.0589599609376	-0.0	-0.0	-0.0	-0.0	-0.0	-0.0	-0.0	-0.0	-0.0	-0.0	-0.0	-0.0
0.30450000000000005	-0.0	-0.0	-0.0	-6.591884136199951	-4.475889682769775	-903.0810546875	-0.0	-0.0	-0.0	-0.0	-0.0	-0.0	-0.0	-0.0	-0.0	-0.0	-0.0	-0.0
0.30500000000000005	-0.0	-0.0	-0.0	-6.922010898590088	-6.328258514404297	-902.76708984375	-0.0	-0.0	-0.0	-0.0	-0.0	-0.0	-0.0	-0.0	-0.0	-0.0	-0.0	-0.0
0.30550000000000005	-0.0	-0.0	-0.0	-6.736862182617188	-7.496994495391846	-904.7160034179688	-0.0	-0.0	-0.0	-0.0	-0.0	-0.0	-0.0	-0.0	-0.0	-0.0	-0.0	-0.0
0.30600000000000005	-0.0	-0.0	-0.0	-6.433438777923584	-8.11086654663086	-905.5533447265624	-0.0	-0.0	-0.0	-0.0	-0.0	-0.0	-0.0	-0.0	-0.0	-0.0	-0.0	-0.0
0.30650000000000005	-0.0	-0.0	-0.0	-6.178279876708984	-9.750219345092772	-906.259765625	-0.0	-0.0	-0.0	-0.0	-0.0	-0.0	-0.0	-0.0	-0.0	-0.0	-0.0	-0.0
0.30700000000000005	-0.0	-0.0	-0.0	-6.578950881958008	-12.009997367858888	-907.3192138671876	-0.0	-0.0	-0.0	-0.0	-0.0	-0.0	-0.0	-0.0	-0.0	-0.0	-0.0	-0.0
0.30750000000000005	-0.0	-0.0	-0.0	-8.419892311096191	-15.252903938293455	-906.7880859375	-0.0	-0.0	-0.0	-0.0	-0.0	-0.0	-0.0	-0.0	-0.0	-0.0	-0.0	-0.0
0.30800000000000005	-0.0	-0.0	-0.0	-9.411858558654783	-18.461320877075195	-907.6724853515624	-0.0	-0.0	-0.0	-0.0	-0.0	-0.0	-0.0	-0.0	-0.0	-0.0	-0.0	-0.0
0.30850000000000005	-0.0	-0.0	-0.0	-8.397059440612793	-21.290904998779297	-908.202880859375	-0.0	-0.0	-0.0	-0.0	-0.0	-0.0	-0.0	-0.0	-0.0	-0.0	-0.0	-0.0
0.30900000000000005	-0.0	-0.0	-0.0	-6.802923202514648	-23.20660400390625	-908.3334350585938	-0.0	-0.0	-0.0	-0.0	-0.0	-0.0	-0.0	-0.0	-0.0	-0.0	-0.0	-0.0
0.30950000000000005	-0.0	-0.0	-0.0	-5.073371410369873	-24.15433883666992	-909.6174926757812	-0.0	-0.0	-0.0	-0.0	-0.0	-0.0	-0.0	-0.0	-0.0	-0.0	-0.0	-0.0
0.31000000000000005	-0.0	-0.0	-0.0	-4.448666095733643	-24.1107177734375	-907.6724853515624	-0.0	-0.0	-0.0	-0.0	-0.0	-0.0	-0.0	-0.0	-0.0	-0.0	-0.0	-0.0
0.31050000000000005	-0.0	-0.0	-0.0	-4.248350620269775	-23.37384796142578	-905.9542236328124	-0.0	-0.0	-0.0	-0.0	-0.0	-0.0	-0.0	-0.0	-0.0	-0.0	-0.0	-0.0
0.31100000000000005	-0.0	-0.0	-0.0	-5.417357444763184	-23.02010536193848	-904.0552368164062	-0.0	-0.0	-0.0	-0.0	-0.0	-0.0	-0.0	-0.0	-0.0	-0.0	-0.0	-0.0
0.31150000000000005	-0.0	-0.0	-0.0	-7.277915477752685	-22.337875366210938	-902.2406005859376	-0.0	-0.0	-0.0	-0.0	-0.0	-0.0	-0.0	-0.0	-0.0	-0.0	-0.0	-0.0
0.31200000000000006	-0.0	-0.0	-0.0	-9.677355766296388	-21.803028106689453	-897.783447265625	-0.0	-0.0	-0.0	-0.0	-0.0	-0.0	-0.0	-0.0	-0.0	-0.0	-0.0	-0.0
0.31250000000000006	-0.0	-0.0	-0.0	-11.69486141204834	-20.82710075378418	-895.0089111328125	-0.0	-0.0	-0.0	-0.0	-0.0	-0.0	-0.0	-0.0	-0.0	-0.0	-0.0	-0.0
0.31300000000000006	-0.0	-0.0	-0.0	-14.20551586151123	-19.43042755126953	-888.87060546875	-0.0	-0.0	-0.0	-0.0	-0.0	-0.0	-0.0	-0.0	-0.0	-0.0	-0.0	-0.0
0.31350000000000006	-0.0	-0.0	-0.0	-16.38831329345703	-17.626909255981445	-885.2869873046875	-0.0	-0.0	-0.0	-0.0	-0.0	-0.0	-0.0	-0.0	-0.0	-0.0	-0.0	-0.0
0.31400000000000006	-0.0	-0.0	-0.0	-19.22180938720703	-15.706485748291016	-879.9599609375	-0.0	-0.0	-0.0	-0.0	-0.0	-0.0	-0.0	-0.0	-0.0	-0.0	-0.0	-0.0
0.31450000000000006	-0.0	-0.0	-0.0	-21.69178771972656	-13.36294651031494	-875.6148071289062	-0.0	-0.0	-0.0	-0.0	-0.0	-0.0	-0.0	-0.0	-0.0	-0.0	-0.0	-0.0
0.31500000000000006	-0.0	-0.0	-0.0	-23.963281631469727	-11.600764274597168	-872.4356689453125	-0.0	-0.0	-0.0	-0.0	-0.0	-0.0	-0.0	-0.0	-0.0	-0.0	-0.0	-0.0
0.31550000000000006	-0.0	-0.0	-0.0	-25.698978424072266	-10.065388679504396	-869.8570556640625	-0.0	-0.0	-0.0	-0.0	-0.0	-0.0	-0.0	-0.0	-0.0	-0.0	-0.0	-0.0
0.31600000000000006	-0.0	-0.0	-0.0	-26.337373733520508	-8.303311347961426	-866.1336669921875	-0.0	-0.0	-0.0	-0.0	-0.0	-0.0	-0.0	-0.0	-0.0	-0.0	-0.0	-0.0
0.31650000000000006	-0.0	-0.0	-0.0	-27.730039596557617	-6.822841167449951	-864.1516723632812	-0.0	-0.0	-0.0	-0.0	-0.0	-0.0	-0.0	-0.0	-0.0	-0.0	-0.0	-0.0
0.31700000000000006	-0.0	-0.0	-0.0	-27.986740112304688	-5.025881767272949	-860.3038330078125	-0.0	-0.0	-0.0	-0.0	-0.0	-0.0	-0.0	-0.0	-0.0	-0.0	-0.0	-0.0
0.31750000000000006	-0.0	-0.0	-0.0	-28.60190773010254	-4.045502185821533	-859.1495361328125	-0.0	-0.0	-0.0	-0.0	-0.0	-0.0	-0.0	-0.0	-0.0	-0.0	-0.0	-0.0
0.31800000000000006	-0.0	-0.0	-0.0	-27.620515823364254	-3.4563779830932617	-858.5209350585938	-0.0	-0.0	-0.0	-0.0	-0.0	-0.0	-0.0	-0.0	-0.0	-0.0	-0.0	-0.0
0.31850000000000006	-0.0	-0.0	-0.0	-26.22350311279297	-3.065209150314331	-860.0533447265625	-0.0	-0.0	-0.0	-0.0	-0.0	-0.0	-0.0	-0.0	-0.0	-0.0	-0.0	-0.0
0.31900000000000006	-0.0	-0.0	-0.0	-24.31553077697754	-2.639072895050049	-860.1312255859375	-0.0	-0.0	-0.0	-0.0	-0.0	-0.0	-0.0	-0.0	-0.0	-0.0	-0.0	-0.0
0.31950000000000006	-0.0	-0.0	-0.0	-21.414247512817383	-2.4993736743927	-861.39111328125	-0.0	-0.0	-0.0	-0.0	-0.0	-0.0	-0.0	-0.0	-0.0	-0.0	-0.0	-0.0
0.32000000000000006	-0.0	-0.0	-0.0	-18.90921974182129	-2.444896697998047	-861.0391845703125	-0.0	-0.0	-0.0	-0.0	-0.0	-0.0	-0.0	-0.0	-0.0	-0.0	-0.0	-0.0
0.32050000000000006	-0.0	-0.0	-0.0	-16.41473388671875	-2.355457305908203	-861.68359375	-0.0	-0.0	-0.0	-0.0	-0.0	-0.0	-0.0	-0.0	-0.0	-0.0	-0.0	-0.0
0.32100000000000006	-0.0	-0.0	-0.0	-14.343952178955078	-1.8528151512146	-861.8231811523438	-0.0	-0.0	-0.0	-0.0	-0.0	-0.0	-0.0	-0.0	-0.0	-0.0	-0.0	-0.0
0.32150000000000006	-0.0	-0.0	-0.0	-12.362600326538086	0.1831979155540466	-859.3515625	-0.0	-0.0	-0.0	-0.0	-0.0	-0.0	-0.0	-0.0	-0.0	-0.0	-0.0	-0.0
0.32200000000000006	-0.0	-0.0	-0.0	-11.68657684326172	1.531793475151062	-856.8062744140625	-0.0	-0.0	-0.0	-0.0	-0.0	-0.0	-0.0	-0.0	-0.0	-0.0	-0.0	-0.0
0.32250000000000006	-0.0	-0.0	-0.0	-10.738825798034668	4.439752578735352	-853.3561401367188	-0.0	-0.0	-0.0	-0.0	-0.0	-0.0	-0.0	-0.0	-0.0	-0.0	-0.0	-0.0
0.32300000000000006	-0.0	-0.0	-0.0	-10.846840858459473	5.186522006988525	-849.6837158203125	-0.0	-0.0	-0.0	-0.0	-0.0	-0.0	-0.0	-0.0	-0.0	-0.0	-0.0	-0.0
0.32350000000000007	-0.0	-0.0	-0.0	-12.168092727661133	5.72150993347168	-845.6531982421875	-0.0	-0.0	-0.0	-0.0	-0.0	-0.0	-0.0	-0.0	-0.0	-0.0	-0.0	-0.0
0.32400000000000007	-0.0	-0.0	-0.0	-13.54265308380127	5.900763511657715	-844.9503784179688	-0.0	-0.0	-0.0	-0.0	-0.0	-0.0	-0.0	-0.0	-0.0	-0.0	-0.0	-0.0
0.32450000000000007	-0.0	-0.0	-0.0	-15.362668991088867	5.757470607757568	-843.3240966796875	-0.0	-0.0	-0.0	-0.0	-0.0	-0.0	-0.0	-0.0	-0.0	-0.0	-0.0	-0.0
0.32500000000000007	-0.0	-0.0	-0.0	-15.21946144104004	5.740096569061279	-843.2525024414062	-0.0	-0.0	-0.0	-0.0	-0.0	-0.0	-0.0	-0.0	-0.0	-0.0	-0.0	-0.0
0.32550000000000007	-0.0	-0.0	-0.0	-13.934773445129396	5.526237964630127	-842.3335571289062	-0.0	-0.0	-0.0	-0.0	-0.0	-0.0	-0.0	-0.0	-0.0	-0.0	-0.0	-0.0
0.32600000000000007	-0.0	-0.0	-0.0	-13.06106662750244	5.348363399505615	-842.757080078125	-0.0	-0.0	-0.0	-0.0	-0.0	-0.0	-0.0	-0.0	-0.0	-0.0	-0.0	-0.0
0.32650000000000007	-0.0	-0.0	-0.0	-11.846641540527344	4.955479145050049	-845.7899169921875	-0.0	-0.0	-0.0	-0.0	-0.0	-0.0	-0.0	-0.0	-0.0	-0.0	-0.0	-0.0
0.32700000000000007	-0.0	-0.0	-0.0	-12.08051872253418	5.1522088050842285	-844.3797607421875	-0.0	-0.0	-0.0	-0.0	-0.0	-0.0	-0.0	-0.0	-0.0	-0.0	-0.0	-0.0
0.32750000000000007	-0.0	-0.0	-0.0	-11.56137752532959	4.86773681640625	-847.0679931640625	-0.0	-0.0	-0.0	-0.0	-0.0	-0.0	-0.0	-0.0	-0.0	-0.0	-0.0	-0.0
0.32800000000000007	-0.0	-0.0	-0.0	-11.62973690032959	4.010868072509766	-845.7982788085938	-0.0	-0.0	-0.0	-0.0	-0.0	-0.0	-0.0	-0.0	-0.0	-0.0	-0.0	-0.0
0.32850000000000007	-0.0	-0.0	-0.0	-11.291378021240234	2.3770997524261475	-846.0761108398438	-0.0	-0.0	-0.0	-0.0	-0.0	-0.0	-0.0	-0.0	-0.0	-0.0	-0.0	-0.0
0.32900000000000007	-0.0	-0.0	-0.0	-11.01158046722412	0.3010429739952087	-847.9085083007812	-0.0	-0.0	-0.0	-0.0	-0.0	-0.0	-0.0	-0.0	-0.0	-0.0	-0.0	-0.0
0.32950000000000007	-0.0	-0.0	-0.0	-9.905145645141602	-3.205918312072754	-849.2542724609375	-0.0	-0.0	-0.0	-0.0	-0.0	-0.0	-0.0	-0.0	-0.0	-0.0	-0.0	-0.0
0.33000000000000007	-0.0	-0.0	-0.0	-8.904475212097168	-6.985293865203857	-851.0980224609375	-0.0	-0.0	-0.0	-0.0	-0.0	-0.0	-0.0	-0.0	-0.0	-0.0	-0.0	-0.0
0.33050000000000007	-0.0	-0.0	-0.0	-8.280128479003906	-10.302778244018556	-854.6303100585938	-0.0	-0.0	-0.0	-0.0	-0.0	-0.0	-0.0	-0.0	-0.0	-0.0	-0.0	-0.0
0.33100000000000007	-0.0	-0.0	-0.0	-6.634219169616699	-12.24727725982666	-855.77001953125	-0.0	-0.0	-0.0	-0.0	-0.0	-0.0	-0.0	-0.0	-0.0	-0.0	-0.0	-0.0
0.3315000000000001	-0.0	-0.0	-0.0	-4.748485565185547	-13.993473052978516	-856.7340698242188	-0.0	-0.0	-0.0	-0.0	-0.0	-0.0	-0.0	-0.0	-0.0	-0.0	-0.0	-0.0
0.3320000000000001	-0.0	-0.0	-0.0	-3.0857913494110107	-14.770689010620115	-858.0188598632812	-0.0	-0.0	-0.0	-0.0	-0.0	-0.0	-0.0	-0.0	-0.0	-0.0	-0.0	-0.0
0.3325000000000001	-0.0	-0.0	-0.0	-2.14105224609375	-15.419559478759766	-859.5140380859375	-0.0	-0.0	-0.0	-0.0	-0.0	-0.0	-0.0	-0.0	-0.0	-0.0	-0.0	-0.0
0.3330000000000001	-0.0	-0.0	-0.0	-2.2511799335479736	-16.788070678710938	-860.2634887695312	-0.0	-0.0	-0.0	-0.0	-0.0	-0.0	-0.0	-0.0	-0.0	-0.0	-0.0	-0.0
0.3335000000000001	-0.0	-0.0	-0.0	-2.608189821243286	-17.54302215576172	-863.2338256835938	-0.0	-0.0	-0.0	-0.0	-0.0	-0.0	-0.0	-0.0	-0.0	-0.0	-0.0	-0.0
0.3340000000000001	-0.0	-0.0	-0.0	-3.5994715690612797	-18.413183212280277	-863.58642578125	-0.0	-0.0	-0.0	-0.0	-0.0	-0.0	-0.0	-0.0	-0.0	-0.0	-0.0	-0.0
0.3345000000000001	-0.0	-0.0	-0.0	-5.189608097076416	-19.209190368652344	-861.6129150390625	-0.0	-0.0	-0.0	-0.0	-0.0	-0.0	-0.0	-0.0	-0.0	-0.0	-0.0	-0.0
0.3350000000000001	-0.0	-0.0	-0.0	-6.542906761169434	-18.84345245361328	-860.6040649414062	-0.0	-0.0	-0.0	-0.0	-0.0	-0.0	-0.0	-0.0	-0.0	-0.0	-0.0	-0.0
0.3355000000000001	-0.0	-0.0	-0.0	-9.077567100524902	-18.50888442993164	-859.146484375	-0.0	-0.0	-0.0	-0.0	-0.0	-0.0	-0.0	-0.0	-0.0	-0.0	-0.0	-0.0
0.3360000000000001	-0.0	-0.0	-0.0	-10.891657829284668	-17.729907989501953	-856.40185546875	-0.0	-0.0	-0.0	-0.0	-0.0	-0.0	-0.0	-0.0	-0.0	-0.0	-0.0	-0.0
0.3365000000000001	-0.0	-0.0	-0.0	-13.552563667297363	-16.98676872253418	-854.1068115234375	-0.0	-0.0	-0.0	-0.0	-0.0	-0.0	-0.0	-0.0	-0.0	-0.0	-0.0	-0.0
0.3370000000000001	-0.0	-0.0	-0.0	-14.742227554321287	-17.083581924438477	-852.5180053710938	-0.0	-0.0	-0.0	-0.0	-0.0	-0.0	-0.0	-0.0	-0.0	-0.0	-0.0	-0.0
0.3375000000000001	-0.0	-0.0	-0.0	-16.667734146118164	-17.30591583251953	-851.8382568359375	-0.0	-0.0	-0.0	-0.0	-0.0	-0.0	-0.0	-0.0	-0.0	-0.0	-0.0	-0.0
0.3380000000000001	-0.0	-0.0	-0.0	-17.617900848388672	-17.975414276123047	-852.1658935546875	-0.0	-0.0	-0.0	-0.0	-0.0	-0.0	-0.0	-0.0	-0.0	-0.0	-0.0	-0.0
0.3385000000000001	-0.0	-0.0	-0.0	-18.50962257385254	-19.49088478088379	-852.4281616210938	-0.0	-0.0	-0.0	-0.0	-0.0	-0.0	-0.0	-0.0	-0.0	-0.0	-0.0	-0.0
0.3390000000000001	-0.0	-0.0	-0.0	-18.067073822021484	-20.43927574157715	-851.2557373046875	-0.0	-0.0	-0.0	-0.0	-0.0	-0.0	-0.0	-0.0	-0.0	-0.0	-0.0	-0.0
0.3395000000000001	-0.0	-0.0	-0.0	-17.66836929321289	-21.45228385925293	-851.7213134765625	-0.0	-0.0	-0.0	-0.0	-0.0	-0.0	-0.0	-0.0	-0.0	-0.0	-0.0	-0.0
0.3400000000000001	-0.0	-0.0	-0.0	-16.170772552490234	-23.16419792175293	-851.5720825195312	-0.0	-0.0	-0.0	-0.0	-0.0	-0.0	-0.0	-0.0	-0.0	-0.0	-0.0	-0.0
0.3405000000000001	-0.0	-0.0	-0.0	-15.207192420959473	-24.754369735717773	-851.6660766601562	-0.0	-0.0	-0.0	-0.0	-0.0	-0.0	-0.0	-0.0	-0.0	-0.0	-0.0	-0.0
0.3410000000000001	-0.0	-0.0	-0.0	-13.086562156677246	-25.936946868896484	-851.7747192382812	-0.0	-0.0	-0.0	-0.0	-0.0	-0.0	-0.0	-0.0	-0.0	-0.0	-0.0	-0.0
0.3415000000000001	-0.0	-0.0	-0.0	-12.121976852416992	-27.006511688232425	-849.9965209960938	-0.0	-0.0	-0.0	-0.0	-0.0	-0.0	-0.0	-0.0	-0.0	-0.0	-0.0	-0.0
0.3420000000000001	-0.0	-0.0	-0.0	-10.83475112915039	-27.160329818725582	-849.6009521484375	-0.0	-0.0	-0.0	-0.0	-0.0	-0.0	-0.0	-0.0	-0.0	-0.0	-0.0	-0.0
0.3425000000000001	-0.0	-0.0	-0.0	-10.004876136779783	-27.43887710571289	-844.6484375	-0.0	-0.0	-0.0	-0.0	-0.0	-0.0	-0.0	-0.0	-0.0	-0.0	-0.0	-0.0
0.3430000000000001	-0.0	-0.0	-0.0	-9.188682556152344	-26.5856876373291	-841.7261962890625	-0.0	-0.0	-0.0	-0.0	-0.0	-0.0	-0.0	-0.0	-0.0	-0.0	-0.0	-0.0
0.3435000000000001	-0.0	-0.0	-0.0	-9.201716423034668	-25.52934837341309	-840.11181640625	-0.0	-0.0	-0.0	-0.0	-0.0	-0.0	-0.0	-0.0	-0.0	-0.0	-0.0	-0.0
0.3440000000000001	-0.0	-0.0	-0.0	-8.462091445922852	-25.1857852935791	-840.417236328125	-0.0	-0.0	-0.0	-0.0	-0.0	-0.0	-0.0	-0.0	-0.0	-0.0	-0.0	-0.0
0.3445000000000001	-0.0	-0.0	-0.0	-7.812267780303955	-24.752769470214844	-838.0455322265625	-0.0	-0.0	-0.0	-0.0	-0.0	-0.0	-0.0	-0.0	-0.0	-0.0	-0.0	-0.0
0.3450000000000001	-0.0	-0.0	-0.0	-6.410157203674316	-24.21820831298828	-836.6332397460938	-0.0	-0.0	-0.0	-0.0	-0.0	-0.0	-0.0	-0.0	-0.0	-0.0	-0.0	-0.0
0.3455000000000001	-0.0	-0.0	-0.0	-5.072466850280762	-22.53821182250977	-833.2040405273438	-0.0	-0.0	-0.0	-0.0	-0.0	-0.0	-0.0	-0.0	-0.0	-0.0	-0.0	-0.0
0.3460000000000001	-0.0	-0.0	-0.0	-4.422109127044678	-21.352914810180664	-828.76123046875	-0.0	-0.0	-0.0	-0.0	-0.0	-0.0	-0.0	-0.0	-0.0	-0.0	-0.0	-0.0
0.3465000000000001	-0.0	-0.0	-0.0	-4.024997234344482	-19.4688720703125	-825.9423828125	-0.0	-0.0	-0.0	-0.0	-0.0	-0.0	-0.0	-0.0	-0.0	-0.0	-0.0	-0.0
0.3470000000000001	-0.0	-0.0	-0.0	-3.669750928878784	-17.876699447631836	-824.5704956054688	-0.0	-0.0	-0.0	-0.0	-0.0	-0.0	-0.0	-0.0	-0.0	-0.0	-0.0	-0.0
0.3475000000000001	-0.0	-0.0	-0.0	-3.8360519409179688	-15.968975067138672	-821.3436889648438	-0.0	-0.0	-0.0	-0.0	-0.0	-0.0	-0.0	-0.0	-0.0	-0.0	-0.0	-0.0
0.3480000000000001	-0.0	-0.0	-0.0	-4.588404178619385	-14.31440544128418	-819.3304443359375	-0.0	-0.0	-0.0	-0.0	-0.0	-0.0	-0.0	-0.0	-0.0	-0.0	-0.0	-0.0
0.3485000000000001	-0.0	-0.0	-0.0	-4.844394207000732	-12.582680702209473	-813.7265625	-0.0	-0.0	-0.0	-0.0	-0.0	-0.0	-0.0	-0.0	-0.0	-0.0	-0.0	-0.0
0.3490000000000001	-0.0	-0.0	-0.0	-5.70947265625	-10.889524459838867	-809.2269897460938	-0.0	-0.0	-0.0	-0.0	-0.0	-0.0	-0.0	-0.0	-0.0	-0.0	-0.0	-0.0
0.3495000000000001	-0.0	-0.0	-0.0	-5.185689449310303	-9.680805206298828	-806.9077758789062	-0.0	-0.0	-0.0	-0.0	-0.0	-0.0	-0.0	-0.0	-0.0	-0.0	-0.0	-0.0
0.3500000000000001	-0.0	-0.0	-0.0	-4.783391952514648	-9.347376823425291	-803.0218505859375	-0.0	-0.0	-0.0	-0.0	-0.0	-0.0	-0.0	-0.0	-0.0	-0.0	-0.0	-0.0
0.3505000000000001	-0.0	-0.0	-0.0	-3.8638601303100586	-9.53695297241211	-800.217041015625	-0.0	-0.0	-0.0	-0.0	-0.0	-0.0	-0.0	-0.0	-0.0	-0.0	-0.0	-0.0
0.3510000000000001	-0.0	-0.0	-0.0	-2.9940860271453857	-8.879865646362305	-799.5555419921875	-0.0	-0.0	-0.0	-0.0	-0.0	-0.0	-0.0	-0.0	-0.0	-0.0	-0.0	-0.0
0.3515000000000001	-0.0	-0.0	-0.0	-1.5557175874710083	-8.456465721130371	-795.472900390625	-0.0	-0.0	-0.0	-0.0	-0.0	-0.0	-0.0	-0.0	-0.0	-0.0	-0.0	-0.0
0.3520000000000001	-0.0	-0.0	-0.0	-0.5961024761199951	-7.515299320220947	-792.1663818359375	-0.0	-0.0	-0.0	-0.0	-0.0	-0.0	-0.0	-0.0	-0.0	-0.0	-0.0	-0.0
0.3525000000000001	-0.0	-0.0	-0.0	-0.0998786762356758	-7.034041404724121	-789.0327758789062	-0.0	-0.0	-0.0	-0.0	-0.0	-0.0	-0.0	-0.0	-0.0	-0.0	-0.0	-0.0
0.3530000000000001	-0.0	-0.0	-0.0	0.4882162809371948	-6.645480632781982	-785.5750122070312	-0.0	-0.0	-0.0	-0.0	-0.0	-0.0	-0.0	-0.0	-0.0	-0.0	-0.0	-0.0
0.3535000000000001	-0.0	-0.0	-0.0	1.9626312255859373	-6.496098041534424	-782.5733642578125	-0.0	-0.0	-0.0	-0.0	-0.0	-0.0	-0.0	-0.0	-0.0	-0.0	-0.0	-0.0
0.3540000000000001	-0.0	-0.0	-0.0	2.7844412326812744	-5.704345703125	-779.896240234375	-0.0	-0.0	-0.0	-0.0	-0.0	-0.0	-0.0	-0.0	-0.0	-0.0	-0.0	-0.0
0.3545000000000001	-0.0	-0.0	-0.0	4.361166000366211	-5.20905876159668	-777.5457153320312	-0.0	-0.0	-0.0	-0.0	-0.0	-0.0	-0.0	-0.0	-0.0	-0.0	-0.0	-0.0
0.3550000000000001	-0.0	-0.0	-0.0	5.798683166503906	-3.545196771621704	-775.8192749023438	-0.0	-0.0	-0.0	-0.0	-0.0	-0.0	-0.0	-0.0	-0.0	-0.0	-0.0	-0.0
0.3555000000000001	-0.0	-0.0	-0.0	7.10706090927124	-2.2183854579925537	-776.1325073242188	-0.0	-0.0	-0.0	-0.0	-0.0	-0.0	-0.0	-0.0	-0.0	-0.0	-0.0	-0.0
0.3560000000000001	-0.0	-0.0	-0.0	8.217824935913086	-0.4755957126617431	-775.6604614257812	-0.0	-0.0	-0.0	-0.0	-0.0	-0.0	-0.0	-0.0	-0.0	-0.0	-0.0	-0.0
0.3565000000000001	-0.0	-0.0	-0.0	8.940254211425781	1.5344032049179075	-774.9583129882812	-0.0	-0.0	-0.0	-0.0	-0.0	-0.0	-0.0	-0.0	-0.0	-0.0	-0.0	-0.0
0.3570000000000001	-0.0	-0.0	-0.0	9.15831470489502	3.138530731201172	-771.4652099609375	-0.0	-0.0	-0.0	-0.0	-0.0	-0.0	-0.0	-0.0	-0.0	-0.0	-0.0	-0.0
0.3575000000000001	-0.0	-0.0	-0.0	8.564208984375	4.942050933837891	-769.1421508789062	-0.0	-0.0	-0.0	-0.0	-0.0	-0.0	-0.0	-0.0	-0.0	-0.0	-0.0	-0.0
0.3580000000000001	-0.0	-0.0	-0.0	7.832071304321289	6.853822231292725	-764.7929077148438	-0.0	-0.0	-0.0	-0.0	-0.0	-0.0	-0.0	-0.0	-0.0	-0.0	-0.0	-0.0
0.3585000000000001	-0.0	-0.0	-0.0	7.078586101531982	8.90029525756836	-762.0902709960938	-0.0	-0.0	-0.0	-0.0	-0.0	-0.0	-0.0	-0.0	-0.0	-0.0	-0.0	-0.0
0.3590000000000001	-0.0	-0.0	-0.0	6.106435298919678	11.190345764160156	-759.3013305664062	-0.0	-0.0	-0.0	-0.0	-0.0	-0.0	-0.0	-0.0	-0.0	-0.0	-0.0	-0.0
0.3595000000000001	-0.0	-0.0	-0.0	5.830036640167236	13.921996116638184	-756.6705932617188	-0.0	-0.0	-0.0	-0.0	-0.0	-0.0	-0.0	-0.0	-0.0	-0.0	-0.0	-0.0
0.3600000000000001	-0.0	-0.0	-0.0	5.490799903869629	15.290213584899902	-752.3422241210938	-0.0	-0.0	-0.0	-0.0	-0.0	-0.0	-0.0	-0.0	-0.0	-0.0	-0.0	-0.0
0.3605000000000001	-0.0	-0.0	-0.0	6.429276943206787	15.629569053649902	-745.5628662109375	-0.0	-0.0	-0.0	-0.0	-0.0	-0.0	-0.0	-0.0	-0.0	-0.0	-0.0	-0.0
0.3610000000000001	-0.0	-0.0	-0.0	7.104898929595947	15.143733978271484	-743.7634887695312	-0.0	-0.0	-0.0	-0.0	-0.0	-0.0	-0.0	-0.0	-0.0	-0.0	-0.0	-0.0
0.3615000000000001	-0.0	-0.0	-0.0	7.7279839515686035	14.42247486114502	-744.2490844726562	-0.0	-0.0	-0.0	-0.0	-0.0	-0.0	-0.0	-0.0	-0.0	-0.0	-0.0	-0.0
0.3620000000000001	-0.0	-0.0	-0.0	9.86185073852539	13.491000175476074	-742.4798583984375	-0.0	-0.0	-0.0	-0.0	-0.0	-0.0	-0.0	-0.0	-0.0	-0.0	-0.0	-0.0
0.3625000000000001	-0.0	-0.0	-0.0	11.297205924987791	11.635539054870604	-742.4160766601562	-0.0	-0.0	-0.0	-0.0	-0.0	-0.0	-0.0	-0.0	-0.0	-0.0	-0.0	-0.0
0.3630000000000001	-0.0	-0.0	-0.0	12.95136260986328	10.590692520141602	-742.2901611328125	-0.0	-0.0	-0.0	-0.0	-0.0	-0.0	-0.0	-0.0	-0.0	-0.0	-0.0	-0.0
0.3635000000000001	-0.0	-0.0	-0.0	14.647884368896484	9.697868347167969	-740.6799926757812	-0.0	-0.0	-0.0	-0.0	-0.0	-0.0	-0.0	-0.0	-0.0	-0.0	-0.0	-0.0
0.3640000000000001	-0.0	-0.0	-0.0	15.652615547180176	9.64903450012207	-739.0441284179688	-0.0	-0.0	-0.0	-0.0	-0.0	-0.0	-0.0	-0.0	-0.0	-0.0	-0.0	-0.0
0.3645000000000001	-0.0	-0.0	-0.0	16.4072322845459	10.31330108642578	-738.77978515625	-0.0	-0.0	-0.0	-0.0	-0.0	-0.0	-0.0	-0.0	-0.0	-0.0	-0.0	-0.0
0.3650000000000001	-0.0	-0.0	-0.0	16.002197265625	10.784778594970703	-736.8075561523438	-0.0	-0.0	-0.0	-0.0	-0.0	-0.0	-0.0	-0.0	-0.0	-0.0	-0.0	-0.0
0.3655000000000001	-0.0	-0.0	-0.0	16.106138229370117	10.057183265686035	-736.9531860351562	-0.0	-0.0	-0.0	-0.0	-0.0	-0.0	-0.0	-0.0	-0.0	-0.0	-0.0	-0.0
0.3660000000000001	-0.0	-0.0	-0.0	14.684094429016112	9.310565948486328	-735.483154296875	-0.0	-0.0	-0.0	-0.0	-0.0	-0.0	-0.0	-0.0	-0.0	-0.0	-0.0	-0.0
0.3665000000000001	-0.0	-0.0	-0.0	13.477787971496582	7.185489177703857	-734.7216186523438	-0.0	-0.0	-0.0	-0.0	-0.0	-0.0	-0.0	-0.0	-0.0	-0.0	-0.0	-0.0
0.3670000000000001	-0.0	-0.0	-0.0	11.42581558227539	5.642620086669922	-731.3814697265625	-0.0	-0.0	-0.0	-0.0	-0.0	-0.0	-0.0	-0.0	-0.0	-0.0	-0.0	-0.0
0.3675000000000001	-0.0	-0.0	-0.0	9.847657203674316	4.244607925415039	-731.2723999023438	-0.0	-0.0	-0.0	-0.0	-0.0	-0.0	-0.0	-0.0	-0.0	-0.0	-0.0	-0.0
0.3680000000000001	-0.0	-0.0	-0.0	8.268538475036621	2.845552444458008	-729.3428344726562	-0.0	-0.0	-0.0	-0.0	-0.0	-0.0	-0.0	-0.0	-0.0	-0.0	-0.0	-0.0
0.3685000000000001	-0.0	-0.0	-0.0	7.295846462249756	1.4454843997955322	-726.3273315429688	-0.0	-0.0	-0.0	-0.0	-0.0	-0.0	-0.0	-0.0	-0.0	-0.0	-0.0	-0.0
0.3690000000000001	-0.0	-0.0	-0.0	6.700498580932617	0.7958347797393799	-723.76611328125	-0.0	-0.0	-0.0	-0.0	-0.0	-0.0	-0.0	-0.0	-0.0	-0.0	-0.0	-0.0
0.3695000000000001	-0.0	-0.0	-0.0	6.435625076293945	0.2673912048339844	-720.1339111328125	-0.0	-0.0	-0.0	-0.0	-0.0	-0.0	-0.0	-0.0	-0.0	-0.0	-0.0	-0.0
0.3700000000000001	-0.0	-0.0	-0.0	6.970578670501709	-1.0756388902664185	-720.085693359375	-0.0	-0.0	-0.0	-0.0	-0.0	-0.0	-0.0	-0.0	-0.0	-0.0	-0.0	-0.0
0.3705000000000001	-0.0	-0.0	-0.0	6.827580451965332	-1.651885986328125	-717.7088012695312	-0.0	-0.0	-0.0	-0.0	-0.0	-0.0	-0.0	-0.0	-0.0	-0.0	-0.0	-0.0
0.3710000000000001	-0.0	-0.0	-0.0	5.959640502929688	-2.209867000579834	-715.2852783203125	-0.0	-0.0	-0.0	-0.0	-0.0	-0.0	-0.0	-0.0	-0.0	-0.0	-0.0	-0.0
0.3715000000000001	-0.0	-0.0	-0.0	5.70947265625	-2.946985244750977	-715.069091796875	-0.0	-0.0	-0.0	-0.0	-0.0	-0.0	-0.0	-0.0	-0.0	-0.0	-0.0	-0.0
0.3720000000000001	-0.0	-0.0	-0.0	5.525474548339844	-4.765690326690674	-715.001708984375	-0.0	-0.0	-0.0	-0.0	-0.0	-0.0	-0.0	-0.0	-0.0	-0.0	-0.0	-0.0
0.3725000000000001	-0.0	-0.0	-0.0	6.155525207519531	-8.163558006286621	-717.70458984375	-0.0	-0.0	-0.0	-0.0	-0.0	-0.0	-0.0	-0.0	-0.0	-0.0	-0.0	-0.0
0.3730000000000001	-0.0	-0.0	-0.0	6.60687255859375	-12.347206115722656	-721.7337036132812	-0.0	-0.0	-0.0	-0.0	-0.0	-0.0	-0.0	-0.0	-0.0	-0.0	-0.0	-0.0
0.3735000000000001	-0.0	-0.0	-0.0	8.249380111694336	-15.351150512695312	-725.7847900390625	-0.0	-0.0	-0.0	-0.0	-0.0	-0.0	-0.0	-0.0	-0.0	-0.0	-0.0	-0.0
0.3740000000000001	-0.0	-0.0	-0.0	9.996607780456545	-17.816028594970703	-728.7569580078125	-0.0	-0.0	-0.0	-0.0	-0.0	-0.0	-0.0	-0.0	-0.0	-0.0	-0.0	-0.0
0.3745000000000001	-0.0	-0.0	-0.0	10.536646842956545	-19.66550064086914	-731.1018676757812	-0.0	-0.0	-0.0	-0.0	-0.0	-0.0	-0.0	-0.0	-0.0	-0.0	-0.0	-0.0
0.3750000000000001	-0.0	-0.0	-0.0	10.029025077819824	-20.47211265563965	-734.2799682617188	-0.0	-0.0	-0.0	-0.0	-0.0	-0.0	-0.0	-0.0	-0.0	-0.0	-0.0	-0.0
0.3755000000000001	-0.0	-0.0	-0.0	9.14639663696289	-21.38666343688965	-736.1943969726562	-0.0	-0.0	-0.0	-0.0	-0.0	-0.0	-0.0	-0.0	-0.0	-0.0	-0.0	-0.0
0.3760000000000001	-0.0	-0.0	-0.0	8.695769309997559	-22.095325469970703	-736.0090942382812	-0.0	-0.0	-0.0	-0.0	-0.0	-0.0	-0.0	-0.0	-0.0	-0.0	-0.0	-0.0
0.3765000000000001	-0.0	-0.0	-0.0	7.268478393554687	-22.418472290039062	-736.0269775390625	-0.0	-0.0	-0.0	-0.0	-0.0	-0.0	-0.0	-0.0	-0.0	-0.0	-0.0	-0.0
0.3770000000000001	-0.0	-0.0	-0.0	5.127481460571289	-22.44813346862793	-737.3892822265625	-0.0	-0.0	-0.0	-0.0	-0.0	-0.0	-0.0	-0.0	-0.0	-0.0	-0.0	-0.0
0.3775000000000001	-0.0	-0.0	-0.0	4.273833751678467	-22.592491149902344	-738.9390258789062	-0.0	-0.0	-0.0	-0.0	-0.0	-0.0	-0.0	-0.0	-0.0	-0.0	-0.0	-0.0
0.3780000000000001	-0.0	-0.0	-0.0	2.761544942855835	-22.64309883117676	-739.5745239257812	-0.0	-0.0	-0.0	-0.0	-0.0	-0.0	-0.0	-0.0	-0.0	-0.0	-0.0	-0.0
0.3785000000000001	-0.0	-0.0	-0.0	1.95877742767334	-23.456697463989254	-739.497802734375	-0.0	-0.0	-0.0	-0.0	-0.0	-0.0	-0.0	-0.0	-0.0	-0.0	-0.0	-0.0
0.3790000000000001	-0.0	-0.0	-0.0	2.269284248352051	-23.92965316772461	-739.72802734375	-0.0	-0.0	-0.0	-0.0	-0.0	-0.0	-0.0	-0.0	-0.0	-0.0	-0.0	-0.0
0.3795000000000001	-0.0	-0.0	-0.0	1.955452799797058	-24.51444625854492	-736.9170532226562	-0.0	-0.0	-0.0	-0.0	-0.0	-0.0	-0.0	-0.0	-0.0	-0.0	-0.0	-0.0
0.3800000000000001	-0.0	-0.0	-0.0	1.1099119186401367	-24.38237953186035	-737.0865478515625	-0.0	-0.0	-0.0	-0.0	-0.0	-0.0	-0.0	-0.0	-0.0	-0.0	-0.0	-0.0
0.3805000000000001	-0.0	-0.0	-0.0	0.4889952838420868	-24.32927703857422	-736.0269775390625	-0.0	-0.0	-0.0	-0.0	-0.0	-0.0	-0.0	-0.0	-0.0	-0.0	-0.0	-0.0
0.3810000000000001	-0.0	-0.0	-0.0	-0.2580408155918121	-23.315584182739254	-733.5167846679688	-0.0	-0.0	-0.0	-0.0	-0.0	-0.0	-0.0	-0.0	-0.0	-0.0	-0.0	-0.0
0.3815000000000001	-0.0	-0.0	-0.0	-1.2858341932296753	-22.00595474243164	-731.4111328125	-0.0	-0.0	-0.0	-0.0	-0.0	-0.0	-0.0	-0.0	-0.0	-0.0	-0.0	-0.0
0.3820000000000001	-0.0	-0.0	-0.0	-2.532235145568848	-20.26105117797852	-729.1574096679688	-0.0	-0.0	-0.0	-0.0	-0.0	-0.0	-0.0	-0.0	-0.0	-0.0	-0.0	-0.0
0.3825000000000001	-0.0	-0.0	-0.0	-3.838857412338257	-17.961177825927734	-727.015380859375	-0.0	-0.0	-0.0	-0.0	-0.0	-0.0	-0.0	-0.0	-0.0	-0.0	-0.0	-0.0
0.3830000000000001	-0.0	-0.0	-0.0	-4.820041179656982	-16.038129806518555	-725.1101684570312	-0.0	-0.0	-0.0	-0.0	-0.0	-0.0	-0.0	-0.0	-0.0	-0.0	-0.0	-0.0
0.3835000000000001	-0.0	-0.0	-0.0	-6.16568660736084	-13.412856101989746	-723.453857421875	-0.0	-0.0	-0.0	-0.0	-0.0	-0.0	-0.0	-0.0	-0.0	-0.0	-0.0	-0.0
0.3840000000000001	-0.0	-0.0	-0.0	-6.6425628662109375	-11.454462051391602	-722.7875366210938	-0.0	-0.0	-0.0	-0.0	-0.0	-0.0	-0.0	-0.0	-0.0	-0.0	-0.0	-0.0
0.3845000000000001	-0.0	-0.0	-0.0	-7.40221357345581	-11.100120544433594	-722.4251098632812	-0.0	-0.0	-0.0	-0.0	-0.0	-0.0	-0.0	-0.0	-0.0	-0.0	-0.0	-0.0
0.3850000000000001	-0.0	-0.0	-0.0	-8.4814453125	-10.291340827941896	-722.6146240234375	-0.0	-0.0	-0.0	-0.0	-0.0	-0.0	-0.0	-0.0	-0.0	-0.0	-0.0	-0.0
0.3855000000000001	-0.0	-0.0	-0.0	-8.292499542236328	-9.00217056274414	-721.3901977539062	-0.0	-0.0	-0.0	-0.0	-0.0	-0.0	-0.0	-0.0	-0.0	-0.0	-0.0	-0.0
0.3860000000000001	-0.0	-0.0	-0.0	-8.562324523925781	-7.976229667663574	-722.4332885742188	-0.0	-0.0	-0.0	-0.0	-0.0	-0.0	-0.0	-0.0	-0.0	-0.0	-0.0	-0.0
0.3865000000000001	-0.0	-0.0	-0.0	-9.053988456726074	-6.361411094665527	-721.892822265625	-0.0	-0.0	-0.0	-0.0	-0.0	-0.0	-0.0	-0.0	-0.0	-0.0	-0.0	-0.0
0.3870000000000001	-0.0	-0.0	-0.0	-9.767738342285156	-5.344576358795166	-720.146728515625	-0.0	-0.0	-0.0	-0.0	-0.0	-0.0	-0.0	-0.0	-0.0	-0.0	-0.0	-0.0
0.3875000000000001	-0.0	-0.0	-0.0	-9.902366638183594	-4.943008899688721	-719.5952758789062	-0.0	-0.0	-0.0	-0.0	-0.0	-0.0	-0.0	-0.0	-0.0	-0.0	-0.0	-0.0
0.3880000000000001	-0.0	-0.0	-0.0	-10.797237396240234	-4.588143348693848	-716.0750732421875	-0.0	-0.0	-0.0	-0.0	-0.0	-0.0	-0.0	-0.0	-0.0	-0.0	-0.0	-0.0
0.3885000000000001	-0.0	-0.0	-0.0	-11.107322692871094	-4.187901496887207	-714.1298828125	-0.0	-0.0	-0.0	-0.0	-0.0	-0.0	-0.0	-0.0	-0.0	-0.0	-0.0	-0.0
0.3890000000000001	-0.0	-0.0	-0.0	-10.524638175964355	-3.1217637062072754	-711.1212768554688	-0.0	-0.0	-0.0	-0.0	-0.0	-0.0	-0.0	-0.0	-0.0	-0.0	-0.0	-0.0
0.3895000000000001	-0.0	-0.0	-0.0	-9.990586280822754	-2.407510995864868	-708.117919921875	-0.0	-0.0	-0.0	-0.0	-0.0	-0.0	-0.0	-0.0	-0.0	-0.0	-0.0	-0.0
0.3900000000000001	-0.0	-0.0	-0.0	-9.94739055633545	-0.9804344177246094	-707.4227294921875	-0.0	-0.0	-0.0	-0.0	-0.0	-0.0	-0.0	-0.0	-0.0	-0.0	-0.0	-0.0
0.3905000000000001	-0.0	-0.0	-0.0	-10.439757347106934	1.2478256225585938	-706.1903076171875	-0.0	-0.0	-0.0	-0.0	-0.0	-0.0	-0.0	-0.0	-0.0	-0.0	-0.0	-0.0
0.3910000000000001	-0.0	-0.0	-0.0	-10.123950958251951	3.47493314743042	-709.3585205078125	-0.0	-0.0	-0.0	-0.0	-0.0	-0.0	-0.0	-0.0	-0.0	-0.0	-0.0	-0.0
0.3915000000000001	-0.0	-0.0	-0.0	-9.145187377929688	4.7256855964660645	-710.4188232421875	-0.0	-0.0	-0.0	-0.0	-0.0	-0.0	-0.0	-0.0	-0.0	-0.0	-0.0	-0.0
0.3920000000000001	-0.0	-0.0	-0.0	-9.190354347229004	5.971736907958984	-710.4234619140625	-0.0	-0.0	-0.0	-0.0	-0.0	-0.0	-0.0	-0.0	-0.0	-0.0	-0.0	-0.0
0.3925000000000001	-0.0	-0.0	-0.0	-9.412158012390137	7.220459938049316	-708.3034057617188	-0.0	-0.0	-0.0	-0.0	-0.0	-0.0	-0.0	-0.0	-0.0	-0.0	-0.0	-0.0
0.3930000000000001	-0.0	-0.0	-0.0	-9.857787132263184	7.709909915924072	-707.5967407226562	-0.0	-0.0	-0.0	-0.0	-0.0	-0.0	-0.0	-0.0	-0.0	-0.0	-0.0	-0.0
0.3935000000000001	-0.0	-0.0	-0.0	-10.571416854858398	8.779315948486328	-706.7128295898438	-0.0	-0.0	-0.0	-0.0	-0.0	-0.0	-0.0	-0.0	-0.0	-0.0	-0.0	-0.0
0.39400000000000013	-0.0	-0.0	-0.0	-10.48191738128662	9.759673118591309	-706.3573608398438	-0.0	-0.0	-0.0	-0.0	-0.0	-0.0	-0.0	-0.0	-0.0	-0.0	-0.0	-0.0
0.39450000000000013	-0.0	-0.0	-0.0	-11.016990661621094	10.33946418762207	-707.0689086914062	-0.0	-0.0	-0.0	-0.0	-0.0	-0.0	-0.0	-0.0	-0.0	-0.0	-0.0	-0.0
0.39500000000000013	-0.0	-0.0	-0.0	-12.401673316955566	11.319090843200684	-708.3032836914062	-0.0	-0.0	-0.0	-0.0	-0.0	-0.0	-0.0	-0.0	-0.0	-0.0	-0.0	-0.0
0.39550000000000013	-0.0	-0.0	-0.0	-13.918648719787598	11.98713493347168	-710.4298095703125	-0.0	-0.0	-0.0	-0.0	-0.0	-0.0	-0.0	-0.0	-0.0	-0.0	-0.0	-0.0
0.39600000000000013	-0.0	-0.0	-0.0	-15.122251510620115	12.78985595703125	-714.1298828125	-0.0	-0.0	-0.0	-0.0	-0.0	-0.0	-0.0	-0.0	-0.0	-0.0	-0.0	-0.0
0.39650000000000013	-0.0	-0.0	-0.0	-16.593154907226562	13.238032341003418	-716.7769775390625	-0.0	-0.0	-0.0	-0.0	-0.0	-0.0	-0.0	-0.0	-0.0	-0.0	-0.0	-0.0
0.39700000000000013	-0.0	-0.0	-0.0	-17.308828353881836	13.68101978302002	-720.6696166992188	-0.0	-0.0	-0.0	-0.0	-0.0	-0.0	-0.0	-0.0	-0.0	-0.0	-0.0	-0.0
0.39750000000000013	-0.0	-0.0	-0.0	-16.951101303100586	13.638054847717283	-723.6613159179688	-0.0	-0.0	-0.0	-0.0	-0.0	-0.0	-0.0	-0.0	-0.0	-0.0	-0.0	-0.0
0.39800000000000013	-0.0	-0.0	-0.0	-16.949996948242188	12.746905326843262	-726.4711303710938	-0.0	-0.0	-0.0	-0.0	-0.0	-0.0	-0.0	-0.0	-0.0	-0.0	-0.0	-0.0
0.39850000000000013	-0.0	-0.0	-0.0	-16.32413673400879	12.741493225097656	-727.8873901367188	-0.0	-0.0	-0.0	-0.0	-0.0	-0.0	-0.0	-0.0	-0.0	-0.0	-0.0	-0.0
0.39900000000000013	-0.0	-0.0	-0.0	-16.057891845703125	12.528132438659668	-729.8553466796875	-0.0	-0.0	-0.0	-0.0	-0.0	-0.0	-0.0	-0.0	-0.0	-0.0	-0.0	-0.0
0.39950000000000013	-0.0	-0.0	-0.0	-15.165786743164062	11.274170875549316	-734.6207885742188	-0.0	-0.0	-0.0	-0.0	-0.0	-0.0	-0.0	-0.0	-0.0	-0.0	-0.0	-0.0
0.40000000000000013	-0.0	-0.0	-0.0	-14.137225151062012	11.006725311279297	-735.1405639648438	-0.0	-0.0	-0.0	-0.0	-0.0	-0.0	-0.0	-0.0	-0.0	-0.0	-0.0	-0.0
0.40050000000000013	-0.0	-0.0	-0.0	-12.312965393066406	9.893474578857422	-736.7333984375	-0.0	-0.0	-0.0	-0.0	-0.0	-0.0	-0.0	-0.0	-0.0	-0.0	-0.0	-0.0
0.40100000000000013	-0.0	-0.0	-0.0	-11.147229194641112	8.823909759521484	-736.7333984375	-0.0	-0.0	-0.0	-0.0	-0.0	-0.0	-0.0	-0.0	-0.0	-0.0	-0.0	-0.0
0.40150000000000013	-0.0	-0.0	-0.0	-10.65958023071289	7.3564839363098145	-737.284423828125	-0.0	-0.0	-0.0	-0.0	-0.0	-0.0	-0.0	-0.0	-0.0	-0.0	-0.0	-0.0
0.40200000000000014	-0.0	-0.0	-0.0	-9.547831535339355	6.241433143615723	-738.3272705078125	-0.0	-0.0	-0.0	-0.0	-0.0	-0.0	-0.0	-0.0	-0.0	-0.0	-0.0	-0.0
0.40250000000000014	-0.0	-0.0	-0.0	-8.515953063964844	4.548081874847412	-738.1461181640625	-0.0	-0.0	-0.0	-0.0	-0.0	-0.0	-0.0	-0.0	-0.0	-0.0	-0.0	-0.0
0.40300000000000014	-0.0	-0.0	-0.0	-7.723125457763672	3.34623646736145	-738.3480224609375	-0.0	-0.0	-0.0	-0.0	-0.0	-0.0	-0.0	-0.0	-0.0	-0.0	-0.0	-0.0
0.40350000000000014	-0.0	-0.0	-0.0	-7.628847599029541	2.052694797515869	-738.6918334960938	-0.0	-0.0	-0.0	-0.0	-0.0	-0.0	-0.0	-0.0	-0.0	-0.0	-0.0	-0.0
0.40400000000000014	-0.0	-0.0	-0.0	-7.936927795410156	0.8481414318084717	-740.8226928710938	-0.0	-0.0	-0.0	-0.0	-0.0	-0.0	-0.0	-0.0	-0.0	-0.0	-0.0	-0.0
0.40450000000000014	-0.0	-0.0	-0.0	-7.499607563018799	0.13813516497612	-740.9949340820312	-0.0	-0.0	-0.0	-0.0	-0.0	-0.0	-0.0	-0.0	-0.0	-0.0	-0.0	-0.0
0.40500000000000014	-0.0	-0.0	-0.0	-7.6690144538879395	-0.5316957235336304	-741.8116455078125	-0.0	-0.0	-0.0	-0.0	-0.0	-0.0	-0.0	-0.0	-0.0	-0.0	-0.0	-0.0
0.40550000000000014	-0.0	-0.0	-0.0	-8.425592422485352	-0.8053715229034424	-742.5291137695312	-0.0	-0.0	-0.0	-0.0	-0.0	-0.0	-0.0	-0.0	-0.0	-0.0	-0.0	-0.0
0.40600000000000014	-0.0	-0.0	-0.0	-8.927762031555176	-0.8778945207595825	-743.823486328125	-0.0	-0.0	-0.0	-0.0	-0.0	-0.0	-0.0	-0.0	-0.0	-0.0	-0.0	-0.0
0.40650000000000014	-0.0	-0.0	-0.0	-9.710015296936035	-0.3993470966815948	-743.4575805664062	-0.0	-0.0	-0.0	-0.0	-0.0	-0.0	-0.0	-0.0	-0.0	-0.0	-0.0	-0.0
0.40700000000000014	-0.0	-0.0	-0.0	-11.15854549407959	0.7485771179199219	-745.5485229492188	-0.0	-0.0	-0.0	-0.0	-0.0	-0.0	-0.0	-0.0	-0.0	-0.0	-0.0	-0.0
0.40750000000000014	-0.0	-0.0	-0.0	-11.81851863861084	2.306159019470215	-743.2894897460938	-0.0	-0.0	-0.0	-0.0	-0.0	-0.0	-0.0	-0.0	-0.0	-0.0	-0.0	-0.0
0.40800000000000014	-0.0	-0.0	-0.0	-11.69432544708252	3.061451196670532	-743.6280517578125	-0.0	-0.0	-0.0	-0.0	-0.0	-0.0	-0.0	-0.0	-0.0	-0.0	-0.0	-0.0
0.40850000000000014	-0.0	-0.0	-0.0	-12.939553260803224	4.359339237213135	-745.779296875	-0.0	-0.0	-0.0	-0.0	-0.0	-0.0	-0.0	-0.0	-0.0	-0.0	-0.0	-0.0
0.40900000000000014	-0.0	-0.0	-0.0	-13.389853477478027	5.975872039794922	-746.1172485351562	-0.0	-0.0	-0.0	-0.0	-0.0	-0.0	-0.0	-0.0	-0.0	-0.0	-0.0	-0.0
0.40950000000000014	-0.0	-0.0	-0.0	-13.751163482666016	7.215317726135254	-747.0764770507812	-0.0	-0.0	-0.0	-0.0	-0.0	-0.0	-0.0	-0.0	-0.0	-0.0	-0.0	-0.0
0.41000000000000014	-0.0	-0.0	-0.0	-13.105138778686523	8.09766960144043	-746.8077392578125	-0.0	-0.0	-0.0	-0.0	-0.0	-0.0	-0.0	-0.0	-0.0	-0.0	-0.0	-0.0
0.41050000000000014	-0.0	-0.0	-0.0	-12.672423362731934	9.011223793029783	-746.6403198242188	-0.0	-0.0	-0.0	-0.0	-0.0	-0.0	-0.0	-0.0	-0.0	-0.0	-0.0	-0.0
0.41100000000000014	-0.0	-0.0	-0.0	-12.489471435546877	10.123291015625	-747.681884765625	-0.0	-0.0	-0.0	-0.0	-0.0	-0.0	-0.0	-0.0	-0.0	-0.0	-0.0	-0.0
0.41150000000000014	-0.0	-0.0	-0.0	-12.090421676635742	10.639104843139648	-747.681884765625	-0.0	-0.0	-0.0	-0.0	-0.0	-0.0	-0.0	-0.0	-0.0	-0.0	-0.0	-0.0
0.41200000000000014	-0.0	-0.0	-0.0	-11.597366333007812	10.831802368164062	-747.1229248046875	-0.0	-0.0	-0.0	-0.0	-0.0	-0.0	-0.0	-0.0	-0.0	-0.0	-0.0	-0.0
0.41250000000000014	-0.0	-0.0	-0.0	-10.85684585571289	10.705792427062988	-746.2691650390625	-0.0	-0.0	-0.0	-0.0	-0.0	-0.0	-0.0	-0.0	-0.0	-0.0	-0.0	-0.0
0.41300000000000014	-0.0	-0.0	-0.0	-9.235882759094238	10.837121963500977	-744.9386596679688	-0.0	-0.0	-0.0	-0.0	-0.0	-0.0	-0.0	-0.0	-0.0	-0.0	-0.0	-0.0
0.41350000000000015	-0.0	-0.0	-0.0	-7.588193893432617	10.55930519104004	-742.840576171875	-0.0	-0.0	-0.0	-0.0	-0.0	-0.0	-0.0	-0.0	-0.0	-0.0	-0.0	-0.0
0.41400000000000015	-0.0	-0.0	-0.0	-5.9825592041015625	10.219056129455566	-741.0794677734375	-0.0	-0.0	-0.0	-0.0	-0.0	-0.0	-0.0	-0.0	-0.0	-0.0	-0.0	-0.0
0.41450000000000015	-0.0	-0.0	-0.0	-4.223545074462891	9.762567520141602	-739.1393432617188	-0.0	-0.0	-0.0	-0.0	-0.0	-0.0	-0.0	-0.0	-0.0	-0.0	-0.0	-0.0
0.41500000000000015	-0.0	-0.0	-0.0	-3.312223434448242	8.95474910736084	-736.7559814453125	-0.0	-0.0	-0.0	-0.0	-0.0	-0.0	-0.0	-0.0	-0.0	-0.0	-0.0	-0.0
0.41550000000000015	-0.0	-0.0	-0.0	-1.6291898488998413	7.932605743408203	-734.2147216796875	-0.0	-0.0	-0.0	-0.0	-0.0	-0.0	-0.0	-0.0	-0.0	-0.0	-0.0	-0.0
0.41600000000000015	-0.0	-0.0	-0.0	-0.6364274621009827	6.149997711181641	-732.82470703125	-0.0	-0.0	-0.0	-0.0	-0.0	-0.0	-0.0	-0.0	-0.0	-0.0	-0.0	-0.0
0.41650000000000015	-0.0	-0.0	-0.0	0.1246184706687927	4.9681782722473145	-729.8827514648438	-0.0	-0.0	-0.0	-0.0	-0.0	-0.0	-0.0	-0.0	-0.0	-0.0	-0.0	-0.0
0.41700000000000015	-0.0	-0.0	-0.0	0.8693451881408691	3.708265542984009	-726.1132202148438	-0.0	-0.0	-0.0	-0.0	-0.0	-0.0	-0.0	-0.0	-0.0	-0.0	-0.0	-0.0
0.41750000000000015	-0.0	-0.0	-0.0	2.016763687133789	1.7602529525756836	-725.31787109375	-0.0	-0.0	-0.0	-0.0	-0.0	-0.0	-0.0	-0.0	-0.0	-0.0	-0.0	-0.0
0.41800000000000015	-0.0	-0.0	-0.0	3.294282913208008	0.8346746563911438	-724.9404907226562	-0.0	-0.0	-0.0	-0.0	-0.0	-0.0	-0.0	-0.0	-0.0	-0.0	-0.0	-0.0
0.41850000000000015	-0.0	-0.0	-0.0	3.931895732879639	-3.1475610733032227	-725.81103515625	-0.0	-0.0	-0.0	-0.0	-0.0	-0.0	-0.0	-0.0	-0.0	-0.0	-0.0	-0.0
0.41900000000000015	-0.0	-0.0	-0.0	3.307555913925171	-7.864377021789551	-735.7006225585938	-0.0	-0.0	-0.0	-0.0	-0.0	-0.0	-0.0	-0.0	-0.0	-0.0	-0.0	-0.0
0.41950000000000015	-0.0	-0.0	-0.0	1.7911077737808228	-11.10707187652588	-745.698486328125	-0.0	-0.0	-0.0	-0.0	-0.0	-0.0	-0.0	-0.0	-0.0	-0.0	-0.0	-0.0
0.42000000000000015	-0.0	-0.0	-0.0	1.2148782014846802	-14.418071746826172	-758.8209838867188	-0.0	-0.0	-0.0	-0.0	-0.0	-0.0	-0.0	-0.0	-0.0	-0.0	-0.0	-0.0
0.42050000000000015	-0.0	-0.0	-0.0	0.6993265151977539	-17.674453735351562	-769.5791015625	-0.0	-0.0	-0.0	-0.0	-0.0	-0.0	-0.0	-0.0	-0.0	-0.0	-0.0	-0.0
0.42100000000000015	-0.0	-0.0	-0.0	-0.2266709208488464	-19.79423141479492	-780.1923828125	-0.0	-0.0	-0.0	-0.0	-0.0	-0.0	-0.0	-0.0	-0.0	-0.0	-0.0	-0.0
0.42150000000000015	-0.0	-0.0	-0.0	-0.4051469266414642	-20.84912109375	-792.5357666015625	-0.0	-0.0	-0.0	-0.0	-0.0	-0.0	-0.0	-0.0	-0.0	-0.0	-0.0	-0.0
0.42200000000000015	-0.0	-0.0	-0.0	0.0816566422581672	-20.507539749145508	-801.101806640625	-0.0	-0.0	-0.0	-0.0	-0.0	-0.0	-0.0	-0.0	-0.0	-0.0	-0.0	-0.0
0.42250000000000015	-0.0	-0.0	-0.0	0.8436594605445862	-19.86073112487793	-808.3984985351562	-0.0	-0.0	-0.0	-0.0	-0.0	-0.0	-0.0	-0.0	-0.0	-0.0	-0.0	-0.0
0.42300000000000015	-0.0	-0.0	-0.0	1.508763313293457	-18.44999313354492	-810.2257080078125	-0.0	-0.0	-0.0	-0.0	-0.0	-0.0	-0.0	-0.0	-0.0	-0.0	-0.0	-0.0
0.42350000000000015	-0.0	-0.0	-0.0	2.6763153076171875	-16.456466674804688	-813.1495971679688	-0.0	-0.0	-0.0	-0.0	-0.0	-0.0	-0.0	-0.0	-0.0	-0.0	-0.0	-0.0
0.42400000000000015	-0.0	-0.0	-0.0	3.365832805633545	-13.62890338897705	-813.984130859375	-0.0	-0.0	-0.0	-0.0	-0.0	-0.0	-0.0	-0.0	-0.0	-0.0	-0.0	-0.0
0.42450000000000015	-0.0	-0.0	-0.0	4.1359734535217285	-11.093183517456056	-816.32666015625	-0.0	-0.0	-0.0	-0.0	-0.0	-0.0	-0.0	-0.0	-0.0	-0.0	-0.0	-0.0
0.42500000000000016	-0.0	-0.0	-0.0	4.753168106079102	-7.486953735351562	-816.7120971679688	-0.0	-0.0	-0.0	-0.0	-0.0	-0.0	-0.0	-0.0	-0.0	-0.0	-0.0	-0.0
0.42550000000000016	-0.0	-0.0	-0.0	5.766748428344727	-5.105751514434815	-820.210205078125	-0.0	-0.0	-0.0	-0.0	-0.0	-0.0	-0.0	-0.0	-0.0	-0.0	-0.0	-0.0
0.42600000000000016	-0.0	-0.0	-0.0	6.218930721282959	-2.5128390789031982	-824.8687744140625	-0.0	-0.0	-0.0	-0.0	-0.0	-0.0	-0.0	-0.0	-0.0	-0.0	-0.0	-0.0
0.42650000000000016	-0.0	-0.0	-0.0	6.851751804351807	-0.169539988040924	-829.61962890625	-0.0	-0.0	-0.0	-0.0	-0.0	-0.0	-0.0	-0.0	-0.0	-0.0	-0.0	-0.0
0.42700000000000016	-0.0	-0.0	-0.0	7.096667289733887	1.212403416633606	-831.420654296875	-0.0	-0.0	-0.0	-0.0	-0.0	-0.0	-0.0	-0.0	-0.0	-0.0	-0.0	-0.0
0.42750000000000016	-0.0	-0.0	-0.0	6.891329765319824	2.081085443496704	-833.239013671875	-0.0	-0.0	-0.0	-0.0	-0.0	-0.0	-0.0	-0.0	-0.0	-0.0	-0.0	-0.0
0.42800000000000016	-0.0	-0.0	-0.0	6.6598639488220215	3.525207042694092	-833.540771484375	-0.0	-0.0	-0.0	-0.0	-0.0	-0.0	-0.0	-0.0	-0.0	-0.0	-0.0	-0.0
0.42850000000000016	-0.0	-0.0	-0.0	5.549602508544922	4.475054264068604	-832.8717041015625	-0.0	-0.0	-0.0	-0.0	-0.0	-0.0	-0.0	-0.0	-0.0	-0.0	-0.0	-0.0
0.42900000000000016	-0.0	-0.0	-0.0	5.641403675079346	5.514339447021484	-832.5659790039062	-0.0	-0.0	-0.0	-0.0	-0.0	-0.0	-0.0	-0.0	-0.0	-0.0	-0.0	-0.0
0.42950000000000016	-0.0	-0.0	-0.0	5.70947265625	6.476183891296387	-832.5203247070312	-0.0	-0.0	-0.0	-0.0	-0.0	-0.0	-0.0	-0.0	-0.0	-0.0	-0.0	-0.0
0.43000000000000016	-0.0	-0.0	-0.0	5.540701389312744	7.188278198242188	-831.7005615234375	-0.0	-0.0	-0.0	-0.0	-0.0	-0.0	-0.0	-0.0	-0.0	-0.0	-0.0	-0.0
0.43050000000000016	-0.0	-0.0	-0.0	5.411900520324707	7.734809398651123	-829.5422973632812	-0.0	-0.0	-0.0	-0.0	-0.0	-0.0	-0.0	-0.0	-0.0	-0.0	-0.0	-0.0
0.43100000000000016	-0.0	-0.0	-0.0	5.233681678771973	7.734540462493896	-826.0093383789062	-0.0	-0.0	-0.0	-0.0	-0.0	-0.0	-0.0	-0.0	-0.0	-0.0	-0.0	-0.0
0.43150000000000016	-0.0	-0.0	-0.0	5.1742095947265625	7.556020736694336	-825.2645874023438	-0.0	-0.0	-0.0	-0.0	-0.0	-0.0	-0.0	-0.0	-0.0	-0.0	-0.0	-0.0
0.43200000000000016	-0.0	-0.0	-0.0	4.6106367111206055	7.218493461608887	-822.1669311523438	-0.0	-0.0	-0.0	-0.0	-0.0	-0.0	-0.0	-0.0	-0.0	-0.0	-0.0	-0.0
0.43250000000000016	-0.0	-0.0	-0.0	3.7159273624420166	6.8236236572265625	-822.6306762695312	-0.0	-0.0	-0.0	-0.0	-0.0	-0.0	-0.0	-0.0	-0.0	-0.0	-0.0	-0.0
0.43300000000000016	-0.0	-0.0	-0.0	3.3691365718841557	6.359524726867676	-821.5791015625	-0.0	-0.0	-0.0	-0.0	-0.0	-0.0	-0.0	-0.0	-0.0	-0.0	-0.0	-0.0
0.43350000000000016	-0.0	-0.0	-0.0	2.689687013626098	5.633450984954834	-823.220703125	-0.0	-0.0	-0.0	-0.0	-0.0	-0.0	-0.0	-0.0	-0.0	-0.0	-0.0	-0.0
0.43400000000000016	-0.0	-0.0	-0.0	2.2802159786224365	5.162399768829346	-824.519775390625	-0.0	-0.0	-0.0	-0.0	-0.0	-0.0	-0.0	-0.0	-0.0	-0.0	-0.0	-0.0
0.43450000000000016	-0.0	-0.0	-0.0	2.391134738922119	4.912984848022461	-827.6986083984375	-0.0	-0.0	-0.0	-0.0	-0.0	-0.0	-0.0	-0.0	-0.0	-0.0	-0.0	-0.0
0.43500000000000016	-0.0	-0.0	-0.0	1.88437819480896	4.874028205871582	-829.861328125	-0.0	-0.0	-0.0	-0.0	-0.0	-0.0	-0.0	-0.0	-0.0	-0.0	-0.0	-0.0
0.43550000000000016	-0.0	-0.0	-0.0	1.6617389917373655	5.041406154632568	-830.3260498046875	-0.0	-0.0	-0.0	-0.0	-0.0	-0.0	-0.0	-0.0	-0.0	-0.0	-0.0	-0.0
0.43600000000000017	-0.0	-0.0	-0.0	1.276732087135315	5.286453723907471	-831.673095703125	-0.0	-0.0	-0.0	-0.0	-0.0	-0.0	-0.0	-0.0	-0.0	-0.0	-0.0	-0.0
0.43650000000000017	-0.0	-0.0	-0.0	1.0591579675674438	5.576329231262207	-832.7792358398438	-0.0	-0.0	-0.0	-0.0	-0.0	-0.0	-0.0	-0.0	-0.0	-0.0	-0.0	-0.0
0.43700000000000017	-0.0	-0.0	-0.0	0.8691486716270447	5.564916133880615	-828.913330078125	-0.0	-0.0	-0.0	-0.0	-0.0	-0.0	-0.0	-0.0	-0.0	-0.0	-0.0	-0.0
0.43750000000000017	-0.0	-0.0	-0.0	0.0388114340603351	6.227550983428955	-826.9478759765625	-0.0	-0.0	-0.0	-0.0	-0.0	-0.0	-0.0	-0.0	-0.0	-0.0	-0.0	-0.0
0.43800000000000017	-0.0	-0.0	-0.0	-0.4495600163936615	6.48305606842041	-823.8758544921875	-0.0	-0.0	-0.0	-0.0	-0.0	-0.0	-0.0	-0.0	-0.0	-0.0	-0.0	-0.0
0.43850000000000017	-0.0	-0.0	-0.0	-0.449114590883255	6.812546253204346	-820.5309448242188	-0.0	-0.0	-0.0	-0.0	-0.0	-0.0	-0.0	-0.0	-0.0	-0.0	-0.0	-0.0
0.43900000000000017	-0.0	-0.0	-0.0	-1.007914423942566	6.711355209350586	-814.93896484375	-0.0	-0.0	-0.0	-0.0	-0.0	-0.0	-0.0	-0.0	-0.0	-0.0	-0.0	-0.0
0.43950000000000017	-0.0	-0.0	-0.0	-1.070526123046875	6.607771873474121	-812.1047973632812	-0.0	-0.0	-0.0	-0.0	-0.0	-0.0	-0.0	-0.0	-0.0	-0.0	-0.0	-0.0
0.44000000000000017	-0.0	-0.0	-0.0	-1.058283805847168	6.137766361236572	-805.9566650390625	-0.0	-0.0	-0.0	-0.0	-0.0	-0.0	-0.0	-0.0	-0.0	-0.0	-0.0	-0.0
0.44050000000000017	-0.0	-0.0	-0.0	-0.6752772927284241	5.615215301513672	-801.8705444335938	-0.0	-0.0	-0.0	-0.0	-0.0	-0.0	-0.0	-0.0	-0.0	-0.0	-0.0	-0.0
0.44100000000000017	-0.0	-0.0	-0.0	-0.1784210205078125	5.195358276367188	-797.3284912109375	-0.0	-0.0	-0.0	-0.0	-0.0	-0.0	-0.0	-0.0	-0.0	-0.0	-0.0	-0.0
0.44150000000000017	-0.0	-0.0	-0.0	0.3311887681484222	4.82566499710083	-792.1826171875	-0.0	-0.0	-0.0	-0.0	-0.0	-0.0	-0.0	-0.0	-0.0	-0.0	-0.0	-0.0
0.44200000000000017	-0.0	-0.0	-0.0	0.9303157329559326	4.125397205352783	-789.1552734375	-0.0	-0.0	-0.0	-0.0	-0.0	-0.0	-0.0	-0.0	-0.0	-0.0	-0.0	-0.0
0.44250000000000017	-0.0	-0.0	-0.0	1.7836084365844729	3.577519416809082	-785.5256958007812	-0.0	-0.0	-0.0	-0.0	-0.0	-0.0	-0.0	-0.0	-0.0	-0.0	-0.0	-0.0
0.44300000000000017	-0.0	-0.0	-0.0	2.3455772399902344	2.5217318534851074	-781.7896118164062	-0.0	-0.0	-0.0	-0.0	-0.0	-0.0	-0.0	-0.0	-0.0	-0.0	-0.0	-0.0
0.44350000000000017	-0.0	-0.0	-0.0	3.1735637187957764	2.07481050491333	-778.5130004882812	-0.0	-0.0	-0.0	-0.0	-0.0	-0.0	-0.0	-0.0	-0.0	-0.0	-0.0	-0.0
0.4440000000000002	-0.0	-0.0	-0.0	3.826582908630371	1.8357212543487549	-779.41552734375	-0.0	-0.0	-0.0	-0.0	-0.0	-0.0	-0.0	-0.0	-0.0	-0.0	-0.0	-0.0
0.4445000000000002	-0.0	-0.0	-0.0	3.657630920410156	1.5286495685577393	-778.055419921875	-0.0	-0.0	-0.0	-0.0	-0.0	-0.0	-0.0	-0.0	-0.0	-0.0	-0.0	-0.0
0.4450000000000002	-0.0	-0.0	-0.0	3.527705192565918	0.7750544548034668	-776.2472534179688	-0.0	-0.0	-0.0	-0.0	-0.0	-0.0	-0.0	-0.0	-0.0	-0.0	-0.0	-0.0
0.4455000000000002	-0.0	-0.0	-0.0	3.877097845077514	0.6343037486076355	-772.1055297851562	-0.0	-0.0	-0.0	-0.0	-0.0	-0.0	-0.0	-0.0	-0.0	-0.0	-0.0	-0.0
0.4460000000000002	-0.0	-0.0	-0.0	3.4276864528656006	0.0138241499662399	-770.638671875	-0.0	-0.0	-0.0	-0.0	-0.0	-0.0	-0.0	-0.0	-0.0	-0.0	-0.0	-0.0
0.4465000000000002	-0.0	-0.0	-0.0	3.116936683654785	-0.7742722630500793	-769.0769653320312	-0.0	-0.0	-0.0	-0.0	-0.0	-0.0	-0.0	-0.0	-0.0	-0.0	-0.0	-0.0
0.4470000000000002	-0.0	-0.0	-0.0	1.7325555086135864	-2.5050010681152344	-771.49365234375	-0.0	-0.0	-0.0	-0.0	-0.0	-0.0	-0.0	-0.0	-0.0	-0.0	-0.0	-0.0
0.4475000000000002	-0.0	-0.0	-0.0	-0.0607560575008392	-4.329931735992432	-775.915771484375	-0.0	-0.0	-0.0	-0.0	-0.0	-0.0	-0.0	-0.0	-0.0	-0.0	-0.0	-0.0
0.4480000000000002	-0.0	-0.0	-0.0	-1.7380627393722534	-5.296088218688965	-781.43896484375	-0.0	-0.0	-0.0	-0.0	-0.0	-0.0	-0.0	-0.0	-0.0	-0.0	-0.0	-0.0
0.4485000000000002	-0.0	-0.0	-0.0	-1.6949996948242188	-6.247453689575195	-784.6509399414062	-0.0	-0.0	-0.0	-0.0	-0.0	-0.0	-0.0	-0.0	-0.0	-0.0	-0.0	-0.0
0.4490000000000002	-0.0	-0.0	-0.0	-2.074519634246826	-7.10777473449707	-788.5350952148438	-0.0	-0.0	-0.0	-0.0	-0.0	-0.0	-0.0	-0.0	-0.0	-0.0	-0.0	-0.0
0.4495000000000002	-0.0	-0.0	-0.0	-1.925390124320984	-8.341050148010254	-791.1539306640625	-0.0	-0.0	-0.0	-0.0	-0.0	-0.0	-0.0	-0.0	-0.0	-0.0	-0.0	-0.0
0.4500000000000002	-0.0	-0.0	-0.0	-1.122572898864746	-8.39312744140625	-796.1854248046875	-0.0	-0.0	-0.0	-0.0	-0.0	-0.0	-0.0	-0.0	-0.0	-0.0	-0.0	-0.0
0.4505000000000002	-0.0	-0.0	-0.0	-0.7878851294517517	-8.541522979736328	-797.7459716796875	-0.0	-0.0	-0.0	-0.0	-0.0	-0.0	-0.0	-0.0	-0.0	-0.0	-0.0	-0.0
0.4510000000000002	-0.0	-0.0	-0.0	-0.71368408203125	-9.00217056274414	-799.68603515625	-0.0	-0.0	-0.0	-0.0	-0.0	-0.0	-0.0	-0.0	-0.0	-0.0	-0.0	-0.0
0.4515000000000002	-0.0	-0.0	-0.0	0.1414529234170913	-8.913040161132812	-800.8052978515625	-0.0	-0.0	-0.0	-0.0	-0.0	-0.0	-0.0	-0.0	-0.0	-0.0	-0.0	-0.0
0.4520000000000002	-0.0	-0.0	-0.0	0.3876432776451111	-8.756264686584473	-801.3411254882812	-0.0	-0.0	-0.0	-0.0	-0.0	-0.0	-0.0	-0.0	-0.0	-0.0	-0.0	-0.0
0.4525000000000002	-0.0	-0.0	-0.0	1.3324403762817385	-8.316092491149902	-804.60546875	-0.0	-0.0	-0.0	-0.0	-0.0	-0.0	-0.0	-0.0	-0.0	-0.0	-0.0	-0.0
0.4530000000000002	-0.0	-0.0	-0.0	1.5533509254455566	-7.869997501373291	-806.7249755859375	-0.0	-0.0	-0.0	-0.0	-0.0	-0.0	-0.0	-0.0	-0.0	-0.0	-0.0	-0.0
0.4535000000000002	-0.0	-0.0	-0.0	1.8734207153320312	-7.874999046325684	-808.0132446289062	-0.0	-0.0	-0.0	-0.0	-0.0	-0.0	-0.0	-0.0	-0.0	-0.0	-0.0	-0.0
0.4540000000000002	-0.0	-0.0	-0.0	2.3035426139831543	-7.486953735351562	-809.3623046875	-0.0	-0.0	-0.0	-0.0	-0.0	-0.0	-0.0	-0.0	-0.0	-0.0	-0.0	-0.0
0.4545000000000002	-0.0	-0.0	-0.0	2.8226218223571777	-7.402281284332275	-810.113525390625	-0.0	-0.0	-0.0	-0.0	-0.0	-0.0	-0.0	-0.0	-0.0	-0.0	-0.0	-0.0
0.4550000000000002	-0.0	-0.0	-0.0	2.7493321895599365	-6.437685489654541	-808.5734252929688	-0.0	-0.0	-0.0	-0.0	-0.0	-0.0	-0.0	-0.0	-0.0	-0.0	-0.0	-0.0
0.4555000000000002	-0.0	-0.0	-0.0	3.357356071472168	-4.77283239364624	-806.792236328125	-0.0	-0.0	-0.0	-0.0	-0.0	-0.0	-0.0	-0.0	-0.0	-0.0	-0.0	-0.0
0.4560000000000002	-0.0	-0.0	-0.0	3.611769199371338	-4.512783050537109	-804.9622192382812	-0.0	-0.0	-0.0	-0.0	-0.0	-0.0	-0.0	-0.0	-0.0	-0.0	-0.0	-0.0
0.4565000000000002	-0.0	-0.0	-0.0	3.693934679031372	-4.149763107299805	-802.0716552734375	-0.0	-0.0	-0.0	-0.0	-0.0	-0.0	-0.0	-0.0	-0.0	-0.0	-0.0	-0.0
0.4570000000000002	-0.0	-0.0	-0.0	3.730128765106201	-3.776872158050537	-800.8685913085938	-0.0	-0.0	-0.0	-0.0	-0.0	-0.0	-0.0	-0.0	-0.0	-0.0	-0.0	-0.0
0.4575000000000002	-0.0	-0.0	-0.0	3.368082284927368	-3.155725240707397	-798.2330322265625	-0.0	-0.0	-0.0	-0.0	-0.0	-0.0	-0.0	-0.0	-0.0	-0.0	-0.0	-0.0
0.4580000000000002	-0.0	-0.0	-0.0	2.854736328125	-3.603458404541016	-795.8659057617188	-0.0	-0.0	-0.0	-0.0	-0.0	-0.0	-0.0	-0.0	-0.0	-0.0	-0.0	-0.0
0.4585000000000002	-0.0	-0.0	-0.0	2.3555262088775635	-4.511472225189209	-798.3367309570312	-0.0	-0.0	-0.0	-0.0	-0.0	-0.0	-0.0	-0.0	-0.0	-0.0	-0.0	-0.0
0.4590000000000002	-0.0	-0.0	-0.0	2.2115187644958496	-5.29614782333374	-798.1065063476562	-0.0	-0.0	-0.0	-0.0	-0.0	-0.0	-0.0	-0.0	-0.0	-0.0	-0.0	-0.0
0.4595000000000002	-0.0	-0.0	-0.0	1.9626312255859373	-6.0608673095703125	-797.058349609375	-0.0	-0.0	-0.0	-0.0	-0.0	-0.0	-0.0	-0.0	-0.0	-0.0	-0.0	-0.0
0.4600000000000002	-0.0	-0.0	-0.0	1.7317755222320557	-6.934708595275879	-797.0579223632812	-0.0	-0.0	-0.0	-0.0	-0.0	-0.0	-0.0	-0.0	-0.0	-0.0	-0.0	-0.0
0.4605000000000002	-0.0	-0.0	-0.0	1.7307885885238647	-7.718588352203369	-798.5377807617188	-0.0	-0.0	-0.0	-0.0	-0.0	-0.0	-0.0	-0.0	-0.0	-0.0	-0.0	-0.0
0.4610000000000002	-0.0	-0.0	-0.0	2.3376457691192627	-7.98645544052124	-799.8814697265625	-0.0	-0.0	-0.0	-0.0	-0.0	-0.0	-0.0	-0.0	-0.0	-0.0	-0.0	-0.0
0.4615000000000002	-0.0	-0.0	-0.0	2.4800925254821777	-8.413896560668945	-799.6701049804688	-0.0	-0.0	-0.0	-0.0	-0.0	-0.0	-0.0	-0.0	-0.0	-0.0	-0.0	-0.0
0.4620000000000002	-0.0	-0.0	-0.0	2.818689107894897	-8.913040161132812	-801.0103149414062	-0.0	-0.0	-0.0	-0.0	-0.0	-0.0	-0.0	-0.0	-0.0	-0.0	-0.0	-0.0
0.4625000000000002	-0.0	-0.0	-0.0	2.8902664184570312	-9.249889373779297	-799.1712646484375	-0.0	-0.0	-0.0	-0.0	-0.0	-0.0	-0.0	-0.0	-0.0	-0.0	-0.0	-0.0
0.4630000000000002	-0.0	-0.0	-0.0	2.9256601333618164	-9.46498203277588	-800.0973510742188	-0.0	-0.0	-0.0	-0.0	-0.0	-0.0	-0.0	-0.0	-0.0	-0.0	-0.0	-0.0
0.4635000000000002	-0.0	-0.0	-0.0	3.229992628097534	-9.304927825927734	-798.399658203125	-0.0	-0.0	-0.0	-0.0	-0.0	-0.0	-0.0	-0.0	-0.0	-0.0	-0.0	-0.0
0.4640000000000002	-0.0	-0.0	-0.0	3.512798309326172	-9.308354377746582	-797.2005615234375	-0.0	-0.0	-0.0	-0.0	-0.0	-0.0	-0.0	-0.0	-0.0	-0.0	-0.0	-0.0
0.4645000000000002	-0.0	-0.0	-0.0	3.3007888793945312	-9.112110137939451	-794.6463623046875	-0.0	-0.0	-0.0	-0.0	-0.0	-0.0	-0.0	-0.0	-0.0	-0.0	-0.0	-0.0
0.4650000000000002	-0.0	-0.0	-0.0	3.014352560043335	-9.32352066040039	-795.008056640625	-0.0	-0.0	-0.0	-0.0	-0.0	-0.0	-0.0	-0.0	-0.0	-0.0	-0.0	-0.0
0.4655000000000002	-0.0	-0.0	-0.0	3.5873353481292725	-8.661867141723633	-791.3477172851562	-0.0	-0.0	-0.0	-0.0	-0.0	-0.0	-0.0	-0.0	-0.0	-0.0	-0.0	-0.0
0.4660000000000002	-0.0	-0.0	-0.0	3.3869309425354004	-8.464322090148926	-789.5081176757812	-0.0	-0.0	-0.0	-0.0	-0.0	-0.0	-0.0	-0.0	-0.0	-0.0	-0.0	-0.0
0.4665000000000002	-0.0	-0.0	-0.0	3.7276453971862793	-8.760722160339355	-788.0070190429688	-0.0	-0.0	-0.0	-0.0	-0.0	-0.0	-0.0	-0.0	-0.0	-0.0	-0.0	-0.0
0.4670000000000002	-0.0	-0.0	-0.0	4.607735633850098	-8.50229549407959	-786.3934326171875	-0.0	-0.0	-0.0	-0.0	-0.0	-0.0	-0.0	-0.0	-0.0	-0.0	-0.0	-0.0
0.4675000000000002	-0.0	-0.0	-0.0	3.990965604782105	-9.13750171661377	-786.6537475585938	-0.0	-0.0	-0.0	-0.0	-0.0	-0.0	-0.0	-0.0	-0.0	-0.0	-0.0	-0.0
0.4680000000000002	-0.0	-0.0	-0.0	3.6619932651519775	-9.76520538330078	-787.806640625	-0.0	-0.0	-0.0	-0.0	-0.0	-0.0	-0.0	-0.0	-0.0	-0.0	-0.0	-0.0
0.4685000000000002	-0.0	-0.0	-0.0	3.1421093940734863	-10.948060035705566	-788.9446411132812	-0.0	-0.0	-0.0	-0.0	-0.0	-0.0	-0.0	-0.0	-0.0	-0.0	-0.0	-0.0
0.4690000000000002	-0.0	-0.0	-0.0	2.929118156433105	-10.764945030212402	-789.2199096679688	-0.0	-0.0	-0.0	-0.0	-0.0	-0.0	-0.0	-0.0	-0.0	-0.0	-0.0	-0.0
0.4695000000000002	-0.0	-0.0	-0.0	2.2995121479034424	-11.33950424194336	-792.1035766601562	-0.0	-0.0	-0.0	-0.0	-0.0	-0.0	-0.0	-0.0	-0.0	-0.0	-0.0	-0.0
0.4700000000000002	-0.0	-0.0	-0.0	1.3871368169784546	-11.190235137939451	-794.1648559570312	-0.0	-0.0	-0.0	-0.0	-0.0	-0.0	-0.0	-0.0	-0.0	-0.0	-0.0	-0.0
0.4705000000000002	-0.0	-0.0	-0.0	0.4947785139083862	-11.058164596557615	-795.5541381835938	-0.0	-0.0	-0.0	-0.0	-0.0	-0.0	-0.0	-0.0	-0.0	-0.0	-0.0	-0.0
0.4710000000000002	-0.0	-0.0	-0.0	-0.4600857198238373	-10.887929916381836	-796.476318359375	-0.0	-0.0	-0.0	-0.0	-0.0	-0.0	-0.0	-0.0	-0.0	-0.0	-0.0	-0.0
0.4715000000000002	-0.0	-0.0	-0.0	-1.228435754776001	-10.503561973571776	-797.5350341796875	-0.0	-0.0	-0.0	-0.0	-0.0	-0.0	-0.0	-0.0	-0.0	-0.0	-0.0	-0.0
0.4720000000000002	-0.0	-0.0	-0.0	-1.022555947303772	-10.058073043823242	-799.1104736328125	-0.0	-0.0	-0.0	-0.0	-0.0	-0.0	-0.0	-0.0	-0.0	-0.0	-0.0	-0.0
0.4725000000000002	-0.0	-0.0	-0.0	-2.196044921875	-9.851962089538574	-798.67529296875	-0.0	-0.0	-0.0	-0.0	-0.0	-0.0	-0.0	-0.0	-0.0	-0.0	-0.0	-0.0
0.4730000000000002	-0.0	-0.0	-0.0	-2.201713800430298	-10.13998317718506	-798.3218383789062	-0.0	-0.0	-0.0	-0.0	-0.0	-0.0	-0.0	-0.0	-0.0	-0.0	-0.0	-0.0
0.4735000000000002	-0.0	-0.0	-0.0	-2.9570348262786865	-10.37319564819336	-800.8770751953125	-0.0	-0.0	-0.0	-0.0	-0.0	-0.0	-0.0	-0.0	-0.0	-0.0	-0.0	-0.0
0.4740000000000002	-0.0	-0.0	-0.0	-3.576730251312256	-10.182012557983398	-802.4068603515625	-0.0	-0.0	-0.0	-0.0	-0.0	-0.0	-0.0	-0.0	-0.0	-0.0	-0.0	-0.0
0.4745000000000002	-0.0	-0.0	-0.0	-3.211578369140625	-10.156827926635742	-804.1064453125	-0.0	-0.0	-0.0	-0.0	-0.0	-0.0	-0.0	-0.0	-0.0	-0.0	-0.0	-0.0
0.4750000000000002	-0.0	-0.0	-0.0	-3.3685693740844727	-10.169827461242676	-805.37060546875	-0.0	-0.0	-0.0	-0.0	-0.0	-0.0	-0.0	-0.0	-0.0	-0.0	-0.0	-0.0
0.4755000000000002	-0.0	-0.0	-0.0	-3.2885189056396484	-9.838140487670898	-806.7601318359375	-0.0	-0.0	-0.0	-0.0	-0.0	-0.0	-0.0	-0.0	-0.0	-0.0	-0.0	-0.0
0.4760000000000002	-0.0	-0.0	-0.0	-3.1223678588867188	-9.358692169189451	-806.529296875	-0.0	-0.0	-0.0	-0.0	-0.0	-0.0	-0.0	-0.0	-0.0	-0.0	-0.0	-0.0
0.4765000000000002	-0.0	-0.0	-0.0	-3.2571468353271484	-8.611984252929688	-808.1151123046875	-0.0	-0.0	-0.0	-0.0	-0.0	-0.0	-0.0	-0.0	-0.0	-0.0	-0.0	-0.0
0.4770000000000002	-0.0	-0.0	-0.0	-2.8986313343048096	-8.356329917907715	-807.6300048828125	-0.0	-0.0	-0.0	-0.0	-0.0	-0.0	-0.0	-0.0	-0.0	-0.0	-0.0	-0.0
0.4775000000000002	-0.0	-0.0	-0.0	-2.642738580703736	-7.888531684875488	-808.5162353515625	-0.0	-0.0	-0.0	-0.0	-0.0	-0.0	-0.0	-0.0	-0.0	-0.0	-0.0	-0.0
0.4780000000000002	-0.0	-0.0	-0.0	-2.4866063594818115	-8.121780395507812	-807.546630859375	-0.0	-0.0	-0.0	-0.0	-0.0	-0.0	-0.0	-0.0	-0.0	-0.0	-0.0	-0.0
0.4785000000000002	-0.0	-0.0	-0.0	-2.074038505554199	-7.865793228149414	-809.0912475585938	-0.0	-0.0	-0.0	-0.0	-0.0	-0.0	-0.0	-0.0	-0.0	-0.0	-0.0	-0.0
0.4790000000000002	-0.0	-0.0	-0.0	-2.25273871421814	-7.66590690612793	-809.7985229492188	-0.0	-0.0	-0.0	-0.0	-0.0	-0.0	-0.0	-0.0	-0.0	-0.0	-0.0	-0.0
0.4795000000000002	-0.0	-0.0	-0.0	-2.397982597351074	-7.530919551849365	-812.6199340820312	-0.0	-0.0	-0.0	-0.0	-0.0	-0.0	-0.0	-0.0	-0.0	-0.0	-0.0	-0.0
0.4800000000000002	-0.0	-0.0	-0.0	-2.83366060256958	-7.532336235046387	-812.708740234375	-0.0	-0.0	-0.0	-0.0	-0.0	-0.0	-0.0	-0.0	-0.0	-0.0	-0.0	-0.0
0.4805000000000002	-0.0	-0.0	-0.0	-2.900468587875366	-6.840195178985596	-814.4329833984375	-0.0	-0.0	-0.0	-0.0	-0.0	-0.0	-0.0	-0.0	-0.0	-0.0	-0.0	-0.0
0.4810000000000002	-0.0	-0.0	-0.0	-3.0101640224456787	-6.552464485168457	-814.1198120117188	-0.0	-0.0	-0.0	-0.0	-0.0	-0.0	-0.0	-0.0	-0.0	-0.0	-0.0	-0.0
0.4815000000000002	-0.0	-0.0	-0.0	-3.1884753704071045	-6.219244003295898	-815.1265869140625	-0.0	-0.0	-0.0	-0.0	-0.0	-0.0	-0.0	-0.0	-0.0	-0.0	-0.0	-0.0
0.4820000000000002	-0.0	-0.0	-0.0	-2.924508810043335	-6.024104595184326	-816.3294067382812	-0.0	-0.0	-0.0	-0.0	-0.0	-0.0	-0.0	-0.0	-0.0	-0.0	-0.0	-0.0
0.4825000000000002	-0.0	-0.0	-0.0	-3.2583460807800293	-5.723387718200684	-816.9051513671875	-0.0	-0.0	-0.0	-0.0	-0.0	-0.0	-0.0	-0.0	-0.0	-0.0	-0.0	-0.0
0.4830000000000002	-0.0	-0.0	-0.0	-2.662116050720215	-5.455582618713379	-815.9387817382812	-0.0	-0.0	-0.0	-0.0	-0.0	-0.0	-0.0	-0.0	-0.0	-0.0	-0.0	-0.0
0.4835000000000002	-0.0	-0.0	-0.0	-2.8875176906585693	-5.014929294586182	-818.5774536132812	-0.0	-0.0	-0.0	-0.0	-0.0	-0.0	-0.0	-0.0	-0.0	-0.0	-0.0	-0.0
0.4840000000000002	-0.0	-0.0	-0.0	-2.7238645553588867	-4.80410623550415	-816.9051513671875	-0.0	-0.0	-0.0	-0.0	-0.0	-0.0	-0.0	-0.0	-0.0	-0.0	-0.0	-0.0
0.4845000000000002	-0.0	-0.0	-0.0	-2.3999722003936768	-3.758680820465088	-816.6812133789062	-0.0	-0.0	-0.0	-0.0	-0.0	-0.0	-0.0	-0.0	-0.0	-0.0	-0.0	-0.0
0.4850000000000002	-0.0	-0.0	-0.0	-1.833890080451965	-3.200155019760132	-817.7341918945312	-0.0	-0.0	-0.0	-0.0	-0.0	-0.0	-0.0	-0.0	-0.0	-0.0	-0.0	-0.0
0.4855000000000002	-0.0	-0.0	-0.0	-1.9783989191055296	-2.3823933601379395	-813.0533447265625	-0.0	-0.0	-0.0	-0.0	-0.0	-0.0	-0.0	-0.0	-0.0	-0.0	-0.0	-0.0
0.4860000000000002	-0.0	-0.0	-0.0	-1.630092978477478	-2.0985631942749023	-811.6714477539062	-0.0	-0.0	-0.0	-0.0	-0.0	-0.0	-0.0	-0.0	-0.0	-0.0	-0.0	-0.0
0.4865000000000002	-0.0	-0.0	-0.0	-1.3540784120559692	-1.6287552118301392	-808.3658447265625	-0.0	-0.0	-0.0	-0.0	-0.0	-0.0	-0.0	-0.0	-0.0	-0.0	-0.0	-0.0
0.4870000000000002	-0.0	-0.0	-0.0	-1.2334414720535278	-1.668931484222412	-808.6541137695312	-0.0	-0.0	-0.0	-0.0	-0.0	-0.0	-0.0	-0.0	-0.0	-0.0	-0.0	-0.0
0.4875000000000002	-0.0	-0.0	-0.0	-0.5675211548805237	-1.45831561088562	-806.7906494140625	-0.0	-0.0	-0.0	-0.0	-0.0	-0.0	-0.0	-0.0	-0.0	-0.0	-0.0	-0.0
0.4880000000000002	-0.0	-0.0	-0.0	-0.9813156127929688	-1.2330925464630127	-804.190673828125	-0.0	-0.0	-0.0	-0.0	-0.0	-0.0	-0.0	-0.0	-0.0	-0.0	-0.0	-0.0
0.4885000000000002	-0.0	-0.0	-0.0	-0.5424043536186218	-1.475993514060974	-802.1705322265625	-0.0	-0.0	-0.0	-0.0	-0.0	-0.0	-0.0	-0.0	-0.0	-0.0	-0.0	-0.0
0.4890000000000002	-0.0	-0.0	-0.0	-0.4390749335289001	-1.3689899444580078	-800.134765625	-0.0	-0.0	-0.0	-0.0	-0.0	-0.0	-0.0	-0.0	-0.0	-0.0	-0.0	-0.0
0.4895000000000002	-0.0	-0.0	-0.0	-0.0823969468474388	-0.6626995205879211	-798.3403930664062	-0.0	-0.0	-0.0	-0.0	-0.0	-0.0	-0.0	-0.0	-0.0	-0.0	-0.0	-0.0
0.4900000000000002	-0.0	-0.0	-0.0	-0.2422824949026107	-1.024511218070984	-796.1679077148438	-0.0	-0.0	-0.0	-0.0	-0.0	-0.0	-0.0	-0.0	-0.0	-0.0	-0.0	-0.0
0.4905000000000002	-0.0	-0.0	-0.0	0.0063009560108184	-1.190533995628357	-793.3176879882812	-0.0	-0.0	-0.0	-0.0	-0.0	-0.0	-0.0	-0.0	-0.0	-0.0	-0.0	-0.0
0.4910000000000002	-0.0	-0.0	-0.0	0.0953941121697425	-0.5091909766197205	-793.0148315429688	-0.0	-0.0	-0.0	-0.0	-0.0	-0.0	-0.0	-0.0	-0.0	-0.0	-0.0	-0.0
0.4915000000000002	-0.0	-0.0	-0.0	-0.2041613012552261	-0.6436405181884766	-791.123046875	-0.0	-0.0	-0.0	-0.0	-0.0	-0.0	-0.0	-0.0	-0.0	-0.0	-0.0	-0.0
0.4920000000000002	-0.0	-0.0	-0.0	-0.0	-0.9287814497947692	-789.1294555664062	-0.0	-0.0	-0.0	-0.0	-0.0	-0.0	-0.0	-0.0	-0.0	-0.0	-0.0	-0.0
0.4925000000000002	-0.0	-0.0	-0.0	-0.0892105102539062	-1.8401637077331543	-788.9818115234375	-0.0	-0.0	-0.0	-0.0	-0.0	-0.0	-0.0	-0.0	-0.0	-0.0	-0.0	-0.0
0.4930000000000002	-0.0	-0.0	-0.0	-0.1784210205078125	-2.930494785308838	-787.9872436523438	-0.0	-0.0	-0.0	-0.0	-0.0	-0.0	-0.0	-0.0	-0.0	-0.0	-0.0	-0.0
0.4935000000000002	-0.0	-0.0	-0.0	-0.4775377810001373	-3.7487173080444336	-789.3156127929688	-0.0	-0.0	-0.0	-0.0	-0.0	-0.0	-0.0	-0.0	-0.0	-0.0	-0.0	-0.0
0.4940000000000002	-0.0	-0.0	-0.0	-0.5616576671600342	-4.870792388916016	-790.5211791992188	-0.0	-0.0	-0.0	-0.0	-0.0	-0.0	-0.0	-0.0	-0.0	-0.0	-0.0	-0.0
0.4945000000000002	-0.0	-0.0	-0.0	-1.0440056324005127	-5.851289749145508	-792.1826171875	-0.0	-0.0	-0.0	-0.0	-0.0	-0.0	-0.0	-0.0	-0.0	-0.0	-0.0	-0.0
0.4950000000000002	-0.0	-0.0	-0.0	-1.6057891845703125	-6.57362699508667	-797.0216064453125	-0.0	-0.0	-0.0	-0.0	-0.0	-0.0	-0.0	-0.0	-0.0	-0.0	-0.0	-0.0
0.4955000000000002	-0.0	-0.0	-0.0	-1.632573485374451	-7.192802429199219	-799.2286376953125	-0.0	-0.0	-0.0	-0.0	-0.0	-0.0	-0.0	-0.0	-0.0	-0.0	-0.0	-0.0
0.4960000000000002	-0.0	-0.0	-0.0	-1.3650681972503662	-7.281806468963623	-800.7654418945312	-0.0	-0.0	-0.0	-0.0	-0.0	-0.0	-0.0	-0.0	-0.0	-0.0	-0.0	-0.0
0.4965000000000002	-0.0	-0.0	-0.0	-1.3962955474853516	-6.867044925689697	-803.0557861328125	-0.0	-0.0	-0.0	-0.0	-0.0	-0.0	-0.0	-0.0	-0.0	-0.0	-0.0	-0.0
0.4970000000000002	-0.0	-0.0	-0.0	-0.779564380645752	-7.064610958099365	-803.5299682617188	-0.0	-0.0	-0.0	-0.0	-0.0	-0.0	-0.0	-0.0	-0.0	-0.0	-0.0	-0.0
0.4975000000000002	-0.0	-0.0	-0.0	-0.9193885326385498	-6.863040924072266	-803.8521118164062	-0.0	-0.0	-0.0	-0.0	-0.0	-0.0	-0.0	-0.0	-0.0	-0.0	-0.0	-0.0
0.4980000000000002	-0.0	-0.0	-0.0	-0.8646671175956726	-6.173965930938721	-804.6798095703125	-0.0	-0.0	-0.0	-0.0	-0.0	-0.0	-0.0	-0.0	-0.0	-0.0	-0.0	-0.0
0.4985000000000002	-0.0	-0.0	-0.0	-0.7445071339607239	-5.790220260620117	-804.4089965820312	-0.0	-0.0	-0.0	-0.0	-0.0	-0.0	-0.0	-0.0	-0.0	-0.0	-0.0	-0.0
0.4990000000000002	-0.0	-0.0	-0.0	-0.6890304088592529	-5.080432891845703	-802.8997192382812	-0.0	-0.0	-0.0	-0.0	-0.0	-0.0	-0.0	-0.0	-0.0	-0.0	-0.0	-0.0
0.4995000000000002	-0.0	-0.0	-0.0	-0.8642762899398804	-4.395193576812744	-801.8626098632812	-0.0	-0.0	-0.0	-0.0	-0.0	-0.0	-0.0	-0.0	-0.0	-0.0	-0.0	-0.0
0.5000000000000002	-0.0	-0.0	-0.0	-1.4499086141586304	-3.562519788742065	-800.54833984375	-0.0	-0.0	-0.0	-0.0	-0.0	-0.0	-0.0	-0.0	-0.0	-0.0	-0.0	-0.0
0.5005000000000002	-0.0	-0.0	-0.0	-0.9862491488456726	-3.0535717010498047	-800.1749877929688	-0.0	-0.0	-0.0	-0.0	-0.0	-0.0	-0.0	-0.0	-0.0	-0.0	-0.0	-0.0
0.5010000000000002	-0.0	-0.0	-0.0	-1.3968725204467771	-2.4347147941589355	-799.599365234375	-0.0	-0.0	-0.0	-0.0	-0.0	-0.0	-0.0	-0.0	-0.0	-0.0	-0.0	-0.0
0.5015000000000003	-0.0	-0.0	-0.0	-1.4840242862701416	-2.523953914642334	-799.7114868164062	-0.0	-0.0	-0.0	-0.0	-0.0	-0.0	-0.0	-0.0	-0.0	-0.0	-0.0	-0.0
0.5020000000000002	-0.0	-0.0	-0.0	-1.0990087985992432	-1.8736180067062376	-799.7195434570312	-0.0	-0.0	-0.0	-0.0	-0.0	-0.0	-0.0	-0.0	-0.0	-0.0	-0.0	-0.0
0.5025000000000002	-0.0	-0.0	-0.0	-1.2792479991912842	-1.515216827392578	-800.1924438476562	-0.0	-0.0	-0.0	-0.0	-0.0	-0.0	-0.0	-0.0	-0.0	-0.0	-0.0	-0.0
0.5030000000000002	-0.0	-0.0	-0.0	-1.15825355052948	-1.725163459777832	-801.4732666015625	-0.0	-0.0	-0.0	-0.0	-0.0	-0.0	-0.0	-0.0	-0.0	-0.0	-0.0	-0.0
0.5035000000000003	-0.0	-0.0	-0.0	-0.982611894607544	-1.246530532836914	-800.6691284179688	-0.0	-0.0	-0.0	-0.0	-0.0	-0.0	-0.0	-0.0	-0.0	-0.0	-0.0	-0.0
0.5040000000000002	-0.0	-0.0	-0.0	-1.0426340103149414	-1.2489314079284668	-802.314453125	-0.0	-0.0	-0.0	-0.0	-0.0	-0.0	-0.0	-0.0	-0.0	-0.0	-0.0	-0.0
0.5045000000000002	-0.0	-0.0	-0.0	-0.8028945922851562	-0.5939112901687622	-802.305908203125	-0.0	-0.0	-0.0	-0.0	-0.0	-0.0	-0.0	-0.0	-0.0	-0.0	-0.0	-0.0
0.5050000000000002	-0.0	-0.0	-0.0	-0.3868158757686615	0.4741781651973724	-802.074462890625	-0.0	-0.0	-0.0	-0.0	-0.0	-0.0	-0.0	-0.0	-0.0	-0.0	-0.0	-0.0
0.5055000000000003	-0.0	-0.0	-0.0	-0.5352630615234375	0.4755435883998871	-800.189453125	-0.0	-0.0	-0.0	-0.0	-0.0	-0.0	-0.0	-0.0	-0.0	-0.0	-0.0	-0.0
0.5060000000000002	-0.0	-0.0	-0.0	-0.7133710980415344	0.5944111347198486	-798.0672607421875	-0.0	-0.0	-0.0	-0.0	-0.0	-0.0	-0.0	-0.0	-0.0	-0.0	-0.0	-0.0
0.5065000000000002	-0.0	-0.0	-0.0	-0.7435851097106934	-0.0	-796.5386352539062	-0.0	-0.0	-0.0	-0.0	-0.0	-0.0	-0.0	-0.0	-0.0	-0.0	-0.0	-0.0
0.5070000000000002	-0.0	-0.0	-0.0	-0.8326889872550964	-1.1288412809371948	-795.4788208007812	-0.0	-0.0	-0.0	-0.0	-0.0	-0.0	-0.0	-0.0	-0.0	-0.0	-0.0	-0.0
0.5075000000000003	-0.0	-0.0	-0.0	-1.0417004823684692	-2.732877254486084	-795.5938110351562	-0.0	-0.0	-0.0	-0.0	-0.0	-0.0	-0.0	-0.0	-0.0	-0.0	-0.0	-0.0
0.5080000000000002	-0.0	-0.0	-0.0	-0.9808774590492249	-3.5639028549194336	-795.2457885742188	-0.0	-0.0	-0.0	-0.0	-0.0	-0.0	-0.0	-0.0	-0.0	-0.0	-0.0	-0.0
0.5085000000000002	-0.0	-0.0	-0.0	-1.2187635898590088	-5.526754379272461	-795.244384765625	-0.0	-0.0	-0.0	-0.0	-0.0	-0.0	-0.0	-0.0	-0.0	-0.0	-0.0	-0.0
0.5090000000000002	-0.0	-0.0	-0.0	-1.396198272705078	-6.328258514404297	-795.9544067382812	-0.0	-0.0	-0.0	-0.0	-0.0	-0.0	-0.0	-0.0	-0.0	-0.0	-0.0	-0.0
0.5095000000000003	-0.0	-0.0	-0.0	-1.098897933959961	-6.922801971435547	-794.4180297851562	-0.0	-0.0	-0.0	-0.0	-0.0	-0.0	-0.0	-0.0	-0.0	-0.0	-0.0	-0.0
0.5100000000000002	-0.0	-0.0	-0.0	-0.4179898798465729	-7.723798274993896	-793.7163696289062	-0.0	-0.0	-0.0	-0.0	-0.0	-0.0	-0.0	-0.0	-0.0	-0.0	-0.0	-0.0
0.5105000000000002	-0.0	-0.0	-0.0	0.776530921459198	-8.052409172058105	-789.6989135742188	-0.0	-0.0	-0.0	-0.0	-0.0	-0.0	-0.0	-0.0	-0.0	-0.0	-0.0	-0.0
0.5110000000000002	-0.0	-0.0	-0.0	1.3381576538085938	-8.25831413269043	-789.9479370117188	-0.0	-0.0	-0.0	-0.0	-0.0	-0.0	-0.0	-0.0	-0.0	-0.0	-0.0	-0.0
0.5115000000000003	-0.0	-0.0	-0.0	1.966315984725952	-8.849325180053711	-788.1823120117188	-0.0	-0.0	-0.0	-0.0	-0.0	-0.0	-0.0	-0.0	-0.0	-0.0	-0.0	-0.0
0.5120000000000002	-0.0	-0.0	-0.0	2.051841735839844	-8.942082405090332	-786.7698364257812	-0.0	-0.0	-0.0	-0.0	-0.0	-0.0	-0.0	-0.0	-0.0	-0.0	-0.0	-0.0
0.5125000000000002	-0.0	-0.0	-0.0	2.34622573852539	-9.476787567138672	-787.8297119140625	-0.0	-0.0	-0.0	-0.0	-0.0	-0.0	-0.0	-0.0	-0.0	-0.0	-0.0	-0.0
0.5130000000000002	-0.0	-0.0	-0.0	2.68117356300354	-10.04526138305664	-787.572021484375	-0.0	-0.0	-0.0	-0.0	-0.0	-0.0	-0.0	-0.0	-0.0	-0.0	-0.0	-0.0
0.5135000000000003	-0.0	-0.0	-0.0	2.5608270168304443	-10.39941120147705	-791.704833984375	-0.0	-0.0	-0.0	-0.0	-0.0	-0.0	-0.0	-0.0	-0.0	-0.0	-0.0	-0.0
0.5140000000000002	-0.0	-0.0	-0.0	1.9338364601135252	-10.643757820129396	-792.5357666015625	-0.0	-0.0	-0.0	-0.0	-0.0	-0.0	-0.0	-0.0	-0.0	-0.0	-0.0	-0.0
0.5145000000000002	-0.0	-0.0	-0.0	1.2489471435546875	-10.485668182373049	-794.984130859375	-0.0	-0.0	-0.0	-0.0	-0.0	-0.0	-0.0	-0.0	-0.0	-0.0	-0.0	-0.0
0.5150000000000002	-0.0	-0.0	-0.0	0.4428254961967468	-10.8771333694458	-797.7200317382812	-0.0	-0.0	-0.0	-0.0	-0.0	-0.0	-0.0	-0.0	-0.0	-0.0	-0.0	-0.0
0.5155000000000003	-0.0	-0.0	-0.0	0.3350699543952942	-11.141300201416016	-800.658935546875	-0.0	-0.0	-0.0	-0.0	-0.0	-0.0	-0.0	-0.0	-0.0	-0.0	-0.0	-0.0
0.5160000000000002	-0.0	-0.0	-0.0	-0.0856069922447204	-10.877509117126465	-802.6935424804688	-0.0	-0.0	-0.0	-0.0	-0.0	-0.0	-0.0	-0.0	-0.0	-0.0	-0.0	-0.0
0.5165000000000002	-0.0	-0.0	-0.0	0.3360543847084045	-10.906173706054688	-803.34130859375	-0.0	-0.0	-0.0	-0.0	-0.0	-0.0	-0.0	-0.0	-0.0	-0.0	-0.0	-0.0
0.5170000000000002	-0.0	-0.0	-0.0	-0.1744221001863479	-10.6996431350708	-803.9341430664062	-0.0	-0.0	-0.0	-0.0	-0.0	-0.0	-0.0	-0.0	-0.0	-0.0	-0.0	-0.0
0.5175000000000003	-0.0	-0.0	-0.0	-0.1784210205078125	-9.950121879577637	-804.5603637695312	-0.0	-0.0	-0.0	-0.0	-0.0	-0.0	-0.0	-0.0	-0.0	-0.0	-0.0	-0.0
0.5180000000000002	-0.0	-0.0	-0.0	-0.3002985119819641	-9.874011039733888	-803.260498046875	-0.0	-0.0	-0.0	-0.0	-0.0	-0.0	-0.0	-0.0	-0.0	-0.0	-0.0	-0.0
0.5185000000000002	-0.0	-0.0	-0.0	-0.356842041015625	-9.269561767578123	-802.8715209960938	-0.0	-0.0	-0.0	-0.0	-0.0	-0.0	-0.0	-0.0	-0.0	-0.0	-0.0	-0.0
0.5190000000000002	-0.0	-0.0	-0.0	-0.6951370239257812	-8.232901573181152	-802.9818115234375	-0.0	-0.0	-0.0	-0.0	-0.0	-0.0	-0.0	-0.0	-0.0	-0.0	-0.0	-0.0
0.5195000000000003	-0.0	-0.0	-0.0	-0.3898998498916626	-7.3367438316345215	-802.5556640625	-0.0	-0.0	-0.0	-0.0	-0.0	-0.0	-0.0	-0.0	-0.0	-0.0	-0.0	-0.0
0.5200000000000002	-0.0	-0.0	-0.0	-0.3951973915100097	-6.272282600402832	-801.9607543945312	-0.0	-0.0	-0.0	-0.0	-0.0	-0.0	-0.0	-0.0	-0.0	-0.0	-0.0	-0.0
0.5205000000000002	-0.0	-0.0	-0.0	-0.7524258494377136	-5.687231063842773	-799.556640625	-0.0	-0.0	-0.0	-0.0	-0.0	-0.0	-0.0	-0.0	-0.0	-0.0	-0.0	-0.0
0.5210000000000002	-0.0	-0.0	-0.0	-0.0892105102539062	-5.11941385269165	-799.2681884765625	-0.0	-0.0	-0.0	-0.0	-0.0	-0.0	-0.0	-0.0	-0.0	-0.0	-0.0	-0.0
0.5215000000000003	-0.0	-0.0	-0.0	0.3069216012954712	-4.317513942718506	-799.2462158203125	-0.0	-0.0	-0.0	-0.0	-0.0	-0.0	-0.0	-0.0	-0.0	-0.0	-0.0	-0.0
0.5220000000000002	-0.0	-0.0	-0.0	0.1229232102632522	-4.133680820465088	-798.979248046875	-0.0	-0.0	-0.0	-0.0	-0.0	-0.0	-0.0	-0.0	-0.0	-0.0	-0.0	-0.0
0.5225000000000002	-0.0	-0.0	-0.0	0.6583135724067688	-3.826457977294922	-798.6981811523438	-0.0	-0.0	-0.0	-0.0	-0.0	-0.0	-0.0	-0.0	-0.0	-0.0	-0.0	-0.0
0.5230000000000002	-0.0	-0.0	-0.0	0.4120718240737915	-4.167899131774902	-800.2216186523438	-0.0	-0.0	-0.0	-0.0	-0.0	-0.0	-0.0	-0.0	-0.0	-0.0	-0.0	-0.0
0.5235000000000003	-0.0	-0.0	-0.0	0.6861310601234436	-4.127526760101318	-799.978515625	-0.0	-0.0	-0.0	-0.0	-0.0	-0.0	-0.0	-0.0	-0.0	-0.0	-0.0	-0.0
0.5240000000000002	-0.0	-0.0	-0.0	0.6110445261001587	-4.545650482177734	-801.500732421875	-0.0	-0.0	-0.0	-0.0	-0.0	-0.0	-0.0	-0.0	-0.0	-0.0	-0.0	-0.0
0.5245000000000002	-0.0	-0.0	-0.0	0.6380021572113037	-4.394786357879639	-804.3267822265625	-0.0	-0.0	-0.0	-0.0	-0.0	-0.0	-0.0	-0.0	-0.0	-0.0	-0.0	-0.0
0.5250000000000002	-0.0	-0.0	-0.0	0.6863259673118591	-4.634780883789063	-802.2600708007812	-0.0	-0.0	-0.0	-0.0	-0.0	-0.0	-0.0	-0.0	-0.0	-0.0	-0.0	-0.0
0.5255000000000003	-0.0	-0.0	-0.0	1.3381576538085938	-4.030852794647217	-804.212158203125	-0.0	-0.0	-0.0	-0.0	-0.0	-0.0	-0.0	-0.0	-0.0	-0.0	-0.0	-0.0
0.5260000000000002	-0.0	-0.0	-0.0	1.3729162216186523	-4.236005783081055	-805.4658203125	-0.0	-0.0	-0.0	-0.0	-0.0	-0.0	-0.0	-0.0	-0.0	-0.0	-0.0	-0.0
0.5265000000000002	-0.0	-0.0	-0.0	1.5591862201690674	-3.894599437713623	-805.926025390625	-0.0	-0.0	-0.0	-0.0	-0.0	-0.0	-0.0	-0.0	-0.0	-0.0	-0.0	-0.0
0.5270000000000002	-0.0	-0.0	-0.0	1.6758414506912231	-3.80553936958313	-805.433349609375	-0.0	-0.0	-0.0	-0.0	-0.0	-0.0	-0.0	-0.0	-0.0	-0.0	-0.0	-0.0
0.5275000000000003	-0.0	-0.0	-0.0	1.8193597793579104	-3.4490795135498047	-803.8696899414062	-0.0	-0.0	-0.0	-0.0	-0.0	-0.0	-0.0	-0.0	-0.0	-0.0	-0.0	-0.0
0.5280000000000002	-0.0	-0.0	-0.0	1.6493736505508425	-3.0490756034851074	-805.0038452148438	-0.0	-0.0	-0.0	-0.0	-0.0	-0.0	-0.0	-0.0	-0.0	-0.0	-0.0	-0.0
0.5285000000000002	-0.0	-0.0	-0.0	1.6143295764923096	-3.325958490371704	-803.5570678710938	-0.0	-0.0	-0.0	-0.0	-0.0	-0.0	-0.0	-0.0	-0.0	-0.0	-0.0	-0.0
0.5290000000000002	-0.0	-0.0	-0.0	1.5165786743164062	-3.012318849563598	-802.2123413085938	-0.0	-0.0	-0.0	-0.0	-0.0	-0.0	-0.0	-0.0	-0.0	-0.0	-0.0	-0.0
0.5295000000000003	-0.0	-0.0	-0.0	1.0884385108947754	-2.73628568649292	-802.7428588867188	-0.0	-0.0	-0.0	-0.0	-0.0	-0.0	-0.0	-0.0	-0.0	-0.0	-0.0	-0.0
0.5300000000000002	-0.0	-0.0	-0.0	1.3029513359069824	-3.0310304164886475	-801.4349365234375	-0.0	-0.0	-0.0	-0.0	-0.0	-0.0	-0.0	-0.0	-0.0	-0.0	-0.0	-0.0
0.5305000000000002	-0.0	-0.0	-0.0	1.2501773834228516	-2.888070821762085	-802.0348510742188	-0.0	-0.0	-0.0	-0.0	-0.0	-0.0	-0.0	-0.0	-0.0	-0.0	-0.0	-0.0
0.5310000000000002	-0.0	-0.0	-0.0	0.9718122482299804	-3.030433654785156	-802.9208374023438	-0.0	-0.0	-0.0	-0.0	-0.0	-0.0	-0.0	-0.0	-0.0	-0.0	-0.0	-0.0
0.5315000000000003	-0.0	-0.0	-0.0	0.9645005464553832	-3.0833988189697266	-802.9213256835938	-0.0	-0.0	-0.0	-0.0	-0.0	-0.0	-0.0	-0.0	-0.0	-0.0	-0.0	-0.0
0.5320000000000003	-0.0	-0.0	-0.0	0.8392181396484375	-2.3339390754699707	-803.628173828125	-0.0	-0.0	-0.0	-0.0	-0.0	-0.0	-0.0	-0.0	-0.0	-0.0	-0.0	-0.0
0.5325000000000002	-0.0	-0.0	-0.0	0.6508398056030273	-2.1593353748321533	-802.6336059570312	-0.0	-0.0	-0.0	-0.0	-0.0	-0.0	-0.0	-0.0	-0.0	-0.0	-0.0	-0.0
0.5330000000000003	-0.0	-0.0	-0.0	0.7034077048301697	-2.049999237060547	-804.4804077148438	-0.0	-0.0	-0.0	-0.0	-0.0	-0.0	-0.0	-0.0	-0.0	-0.0	-0.0	-0.0
0.5335000000000003	-0.0	-0.0	-0.0	0.8867282867431641	-2.139129638671875	-804.6678466796875	-0.0	-0.0	-0.0	-0.0	-0.0	-0.0	-0.0	-0.0	-0.0	-0.0	-0.0	-0.0
0.5340000000000003	-0.0	-0.0	-0.0	0.8921051025390625	-2.065493106842041	-801.5302734375	-0.0	-0.0	-0.0	-0.0	-0.0	-0.0	-0.0	-0.0	-0.0	-0.0	-0.0	-0.0
0.5345000000000002	-0.0	-0.0	-0.0	1.055270791053772	-2.049999237060547	-802.4852294921875	-0.0	-0.0	-0.0	-0.0	-0.0	-0.0	-0.0	-0.0	-0.0	-0.0	-0.0	-0.0
0.5350000000000003	-0.0	-0.0	-0.0	1.1187198162078855	-2.617974042892456	-800.6151123046875	-0.0	-0.0	-0.0	-0.0	-0.0	-0.0	-0.0	-0.0	-0.0	-0.0	-0.0	-0.0
0.5355000000000003	-0.0	-0.0	-0.0	1.018559217453003	-2.4956512451171875	-800.967529296875	-0.0	-0.0	-0.0	-0.0	-0.0	-0.0	-0.0	-0.0	-0.0	-0.0	-0.0	-0.0
0.5360000000000003	-0.0	-0.0	-0.0	0.7251085638999939	-3.550724983215332	-802.0020751953125	-0.0	-0.0	-0.0	-0.0	-0.0	-0.0	-0.0	-0.0	-0.0	-0.0	-0.0	-0.0
0.5365000000000002	-0.0	-0.0	-0.0	1.2489471435546875	-3.5626795291900635	-801.5137939453125	-0.0	-0.0	-0.0	-0.0	-0.0	-0.0	-0.0	-0.0	-0.0	-0.0	-0.0	-0.0
0.5370000000000003	-0.0	-0.0	-0.0	1.6810575723648071	-3.5394511222839355	-801.4122314453125	-0.0	-0.0	-0.0	-0.0	-0.0	-0.0	-0.0	-0.0	-0.0	-0.0	-0.0	-0.0
0.5375000000000003	-0.0	-0.0	-0.0	1.351881504058838	-4.022867202758789	-802.9749755859375	-0.0	-0.0	-0.0	-0.0	-0.0	-0.0	-0.0	-0.0	-0.0	-0.0	-0.0	-0.0
0.5380000000000003	-0.0	-0.0	-0.0	1.5299932956695557	-3.8337793350219727	-803.0827026367188	-0.0	-0.0	-0.0	-0.0	-0.0	-0.0	-0.0	-0.0	-0.0	-0.0	-0.0	-0.0
0.5385000000000002	-0.0	-0.0	-0.0	1.975792407989502	-4.112419128417969	-801.2147216796875	-0.0	-0.0	-0.0	-0.0	-0.0	-0.0	-0.0	-0.0	-0.0	-0.0	-0.0	-0.0
0.5390000000000003	-0.0	-0.0	-0.0	2.4976606369018555	-4.1888957023620605	-801.8704833984375	-0.0	-0.0	-0.0	-0.0	-0.0	-0.0	-0.0	-0.0	-0.0	-0.0	-0.0	-0.0
0.5395000000000003	-0.0	-0.0	-0.0	2.3960506916046143	-4.17611837387085	-799.2462158203125	-0.0	-0.0	-0.0	-0.0	-0.0	-0.0	-0.0	-0.0	-0.0	-0.0	-0.0	-0.0
0.5400000000000003	-0.0	-0.0	-0.0	3.173180341720581	-4.710931301116943	-800.4063720703125	-0.0	-0.0	-0.0	-0.0	-0.0	-0.0	-0.0	-0.0	-0.0	-0.0	-0.0	-0.0
0.5405000000000002	-0.0	-0.0	-0.0	3.657630920410156	-4.851559638977051	-799.302978515625	-0.0	-0.0	-0.0	-0.0	-0.0	-0.0	-0.0	-0.0	-0.0	-0.0	-0.0	-0.0
0.5410000000000003	-0.0	-0.0	-0.0	4.256838798522949	-5.080432891845703	-799.4993286132812	-0.0	-0.0	-0.0	-0.0	-0.0	-0.0	-0.0	-0.0	-0.0	-0.0	-0.0	-0.0
0.5415000000000003	-0.0	-0.0	-0.0	4.563312530517578	-4.913796424865723	-797.987060546875	-0.0	-0.0	-0.0	-0.0	-0.0	-0.0	-0.0	-0.0	-0.0	-0.0	-0.0	-0.0
0.5420000000000003	-0.0	-0.0	-0.0	4.842501640319824	-5.183359146118164	-798.2960205078125	-0.0	-0.0	-0.0	-0.0	-0.0	-0.0	-0.0	-0.0	-0.0	-0.0	-0.0	-0.0
0.5425000000000002	-0.0	-0.0	-0.0	5.338632583618164	-4.952268600463867	-796.8178100585938	-0.0	-0.0	-0.0	-0.0	-0.0	-0.0	-0.0	-0.0	-0.0	-0.0	-0.0	-0.0
0.5430000000000003	-0.0	-0.0	-0.0	5.923682689666748	-5.194540977478027	-797.268798828125	-0.0	-0.0	-0.0	-0.0	-0.0	-0.0	-0.0	-0.0	-0.0	-0.0	-0.0	-0.0
0.5435000000000003	-0.0	-0.0	-0.0	6.487428188323975	-5.347824096679688	-795.4598999023438	-0.0	-0.0	-0.0	-0.0	-0.0	-0.0	-0.0	-0.0	-0.0	-0.0	-0.0	-0.0
0.5440000000000003	-0.0	-0.0	-0.0	6.779998779296875	-5.422410488128662	-794.9336547851562	-0.0	-0.0	-0.0	-0.0	-0.0	-0.0	-0.0	-0.0	-0.0	-0.0	-0.0	-0.0
0.5445000000000002	-0.0	-0.0	-0.0	6.611595630645752	-5.362599849700928	-796.1261596679688	-0.0	-0.0	-0.0	-0.0	-0.0	-0.0	-0.0	-0.0	-0.0	-0.0	-0.0	-0.0
0.5450000000000003	-0.0	-0.0	-0.0	6.844465255737305	-4.951615810394287	-795.2632446289062	-0.0	-0.0	-0.0	-0.0	-0.0	-0.0	-0.0	-0.0	-0.0	-0.0	-0.0	-0.0
0.5455000000000003	-0.0	-0.0	-0.0	6.516316890716553	-4.847246646881104	-795.421142578125	-0.0	-0.0	-0.0	-0.0	-0.0	-0.0	-0.0	-0.0	-0.0	-0.0	-0.0	-0.0
0.5460000000000003	-0.0	-0.0	-0.0	6.943045139312744	-5.28941535949707	-794.5574340820312	-0.0	-0.0	-0.0	-0.0	-0.0	-0.0	-0.0	-0.0	-0.0	-0.0	-0.0	-0.0
0.5465000000000002	-0.0	-0.0	-0.0	7.192518711090088	-5.566162109375	-793.3748779296875	-0.0	-0.0	-0.0	-0.0	-0.0	-0.0	-0.0	-0.0	-0.0	-0.0	-0.0	-0.0
0.5470000000000003	-0.0	-0.0	-0.0	6.933942317962647	-5.728801250457764	-794.2672729492188	-0.0	-0.0	-0.0	-0.0	-0.0	-0.0	-0.0	-0.0	-0.0	-0.0	-0.0	-0.0
0.5475000000000003	-0.0	-0.0	-0.0	6.901132583618164	-6.165945053100586	-794.4949951171875	-0.0	-0.0	-0.0	-0.0	-0.0	-0.0	-0.0	-0.0	-0.0	-0.0	-0.0	-0.0
0.5480000000000003	-0.0	-0.0	-0.0	7.177344799041748	-6.579259395599365	-797.0946655273438	-0.0	-0.0	-0.0	-0.0	-0.0	-0.0	-0.0	-0.0	-0.0	-0.0	-0.0	-0.0
0.5485000000000002	-0.0	-0.0	-0.0	7.574404239654541	-6.304004192352295	-796.5504760742188	-0.0	-0.0	-0.0	-0.0	-0.0	-0.0	-0.0	-0.0	-0.0	-0.0	-0.0	-0.0
0.5490000000000003	-0.0	-0.0	-0.0	7.705194473266602	-7.1634931564331055	-798.217041015625	-0.0	-0.0	-0.0	-0.0	-0.0	-0.0	-0.0	-0.0	-0.0	-0.0	-0.0	-0.0
0.5495000000000003	-0.0	-0.0	-0.0	7.843067169189453	-6.983767986297607	-800.4971313476562	-0.0	-0.0	-0.0	-0.0	-0.0	-0.0	-0.0	-0.0	-0.0	-0.0	-0.0	-0.0
0.5500000000000003	-0.0	-0.0	-0.0	8.200218200683594	-7.414749145507812	-802.453125	-0.0	-0.0	-0.0	-0.0	-0.0	-0.0	-0.0	-0.0	-0.0	-0.0	-0.0	-0.0
0.5505000000000002	-0.0	-0.0	-0.0	8.207366943359375	-6.270023345947266	-804.218017578125	-0.0	-0.0	-0.0	-0.0	-0.0	-0.0	-0.0	-0.0	-0.0	-0.0	-0.0	-0.0
0.5510000000000003	-0.0	-0.0	-0.0	8.052901268005371	-6.921632289886475	-804.38037109375	-0.0	-0.0	-0.0	-0.0	-0.0	-0.0	-0.0	-0.0	-0.0	-0.0	-0.0	-0.0
0.5515000000000003	-0.0	-0.0	-0.0	8.183472633361816	-6.500156879425049	-807.18017578125	-0.0	-0.0	-0.0	-0.0	-0.0	-0.0	-0.0	-0.0	-0.0	-0.0	-0.0	-0.0
0.5520000000000003	-0.0	-0.0	-0.0	8.088165283203125	-5.7281646728515625	-806.35546875	-0.0	-0.0	-0.0	-0.0	-0.0	-0.0	-0.0	-0.0	-0.0	-0.0	-0.0	-0.0
0.5525000000000002	-0.0	-0.0	-0.0	7.981420040130615	-5.270762920379639	-806.804931640625	-0.0	-0.0	-0.0	-0.0	-0.0	-0.0	-0.0	-0.0	-0.0	-0.0	-0.0	-0.0
0.5530000000000003	-0.0	-0.0	-0.0	7.701393127441406	-4.70023250579834	-807.6287231445312	-0.0	-0.0	-0.0	-0.0	-0.0	-0.0	-0.0	-0.0	-0.0	-0.0	-0.0	-0.0
0.5535000000000003	-0.0	-0.0	-0.0	8.060124397277832	-4.076374530792236	-805.7906494140625	-0.0	-0.0	-0.0	-0.0	-0.0	-0.0	-0.0	-0.0	-0.0	-0.0	-0.0	-0.0
0.5540000000000003	-0.0	-0.0	-0.0	7.569448471069336	-4.057961940765381	-805.6234741210938	-0.0	-0.0	-0.0	-0.0	-0.0	-0.0	-0.0	-0.0	-0.0	-0.0	-0.0	-0.0
0.5545000000000002	-0.0	-0.0	-0.0	7.348385810852051	-3.987384080886841	-803.2052001953125	-0.0	-0.0	-0.0	-0.0	-0.0	-0.0	-0.0	-0.0	-0.0	-0.0	-0.0	-0.0
0.5550000000000003	-0.0	-0.0	-0.0	7.465725421905518	-3.898325204849243	-804.7294921875	-0.0	-0.0	-0.0	-0.0	-0.0	-0.0	-0.0	-0.0	-0.0	-0.0	-0.0	-0.0
0.5555000000000003	-0.0	-0.0	-0.0	7.043349266052246	-3.662900686264038	-801.99609375	-0.0	-0.0	-0.0	-0.0	-0.0	-0.0	-0.0	-0.0	-0.0	-0.0	-0.0	-0.0
0.5560000000000003	-0.0	-0.0	-0.0	6.826618194580078	-3.565216064453125	-807.0765380859375	-0.0	-0.0	-0.0	-0.0	-0.0	-0.0	-0.0	-0.0	-0.0	-0.0	-0.0	-0.0
0.5565000000000002	-0.0	-0.0	-0.0	6.6712751388549805	-3.3442482948303223	-805.4342041015625	-0.0	-0.0	-0.0	-0.0	-0.0	-0.0	-0.0	-0.0	-0.0	-0.0	-0.0	-0.0
0.5570000000000003	-0.0	-0.0	-0.0	6.93524169921875	-3.875422716140747	-806.8187866210938	-0.0	-0.0	-0.0	-0.0	-0.0	-0.0	-0.0	-0.0	-0.0	-0.0	-0.0	-0.0
0.5575000000000003	-0.0	-0.0	-0.0	6.779998779296875	-3.3473093509674072	-806.6499633789062	-0.0	-0.0	-0.0	-0.0	-0.0	-0.0	-0.0	-0.0	-0.0	-0.0	-0.0	-0.0
0.5580000000000003	-0.0	-0.0	-0.0	7.203005313873291	-2.855143547058105	-805.774169921875	-0.0	-0.0	-0.0	-0.0	-0.0	-0.0	-0.0	-0.0	-0.0	-0.0	-0.0	-0.0
0.5585000000000002	-0.0	-0.0	-0.0	7.317982196807861	-2.9210591316223145	-806.3792114257812	-0.0	-0.0	-0.0	-0.0	-0.0	-0.0	-0.0	-0.0	-0.0	-0.0	-0.0	-0.0
0.5590000000000003	-0.0	-0.0	-0.0	6.9837646484375	-2.3173904418945312	-804.725341796875	-0.0	-0.0	-0.0	-0.0	-0.0	-0.0	-0.0	-0.0	-0.0	-0.0	-0.0	-0.0
0.5595000000000003	-0.0	-0.0	-0.0	7.139030933380127	-2.1869771480560303	-804.5439453125	-0.0	-0.0	-0.0	-0.0	-0.0	-0.0	-0.0	-0.0	-0.0	-0.0	-0.0	-0.0
0.5600000000000003	-0.0	-0.0	-0.0	7.582893371582031	-1.6934776306152344	-803.927734375	-0.0	-0.0	-0.0	-0.0	-0.0	-0.0	-0.0	-0.0	-0.0	-0.0	-0.0	-0.0
0.5605000000000002	-0.0	-0.0	-0.0	7.539119243621826	-1.2040908336639404	-803.1312255859375	-0.0	-0.0	-0.0	-0.0	-0.0	-0.0	-0.0	-0.0	-0.0	-0.0	-0.0	-0.0
0.5610000000000003	-0.0	-0.0	-0.0	7.38040828704834	-1.4473130702972412	-800.9280395507812	-0.0	-0.0	-0.0	-0.0	-0.0	-0.0	-0.0	-0.0	-0.0	-0.0	-0.0	-0.0
