Model Marker Errors from IK
version=1
nRows=129
nColumns=4
inDegrees=no
endheader
time	total_squared_error	marker_error_RMS	marker_error_max
      6.93500000	      0.10721679	      0.04192436	      0.16348799
      6.94000000	      0.10725392	      0.04193162	      0.16327165
      6.94500000	      0.10728837	      0.04193836	      0.16351601
      6.95000000	      0.10760645	      0.04200048	      0.16387362
      6.95500000	      0.10770685	      0.04202007	      0.16397920
      6.96000000	      0.10790841	      0.04205937	      0.16399200
      6.96500000	      0.10812069	      0.04210072	      0.16414178
      6.97000000	      0.10840154	      0.04215536	      0.16421570
      6.97500000	      0.10878816	      0.04223047	      0.16457284
      6.98000000	      0.10902260	      0.04227595	      0.16485539
      6.98500000	      0.10934091	      0.04233762	      0.16498188
      6.99000000	      0.10945975	      0.04236062	      0.16493647
      6.99500000	      0.10995496	      0.04245633	      0.16565949
      7.00000000	      0.11017794	      0.04249936	      0.16595478
      7.00500000	      0.11043065	      0.04254807	      0.16593437
      7.01000000	      0.11048560	      0.04255866	      0.16592861
      7.01500000	      0.11093846	      0.04264579	      0.16610676
      7.02000000	      0.11088779	      0.04263605	      0.16619987
      7.02500000	      0.11118969	      0.04269405	      0.16614483
      7.03000000	      0.11131201	      0.04271753	      0.16638661
      7.03500000	      0.11128340	      0.04271204	      0.16608335
      7.04000000	      0.11173894	      0.04279937	      0.16639606
      7.04500000	      0.11190529	      0.04283122	      0.16646640
      7.05000000	      0.11235001	      0.04291624	      0.16657267
      7.05500000	      0.11246381	      0.04293797	      0.16679955
      7.06000000	      0.11281538	      0.04300503	      0.16653175
      7.06500000	      0.11296007	      0.04303260	      0.16687140
      7.07000000	      0.11299492	      0.04303924	      0.16672951
      7.07500000	      0.11344609	      0.04312507	      0.16672802
      7.08000000	      0.11351849	      0.04313883	      0.16724017
      7.08500000	      0.11374334	      0.04318153	      0.16725438
      7.09000000	      0.11412716	      0.04325433	      0.16747988
      7.09500000	      0.11412984	      0.04325484	      0.16737172
      7.10000000	      0.11458444	      0.04334090	      0.16760220
      7.10500000	      0.11464360	      0.04335208	      0.16785515
      7.11000000	      0.11491616	      0.04340359	      0.16799508
      7.11500000	      0.11504771	      0.04342842	      0.16791493
      7.12000000	      0.11519170	      0.04345559	      0.16792282
      7.12500000	      0.11548606	      0.04351108	      0.16791304
      7.13000000	      0.11549158	      0.04351212	      0.16785433
      7.13500000	      0.11575169	      0.04356109	      0.16782263
      7.14000000	      0.11601076	      0.04360981	      0.16766835
      7.14500000	      0.11625968	      0.04365657	      0.16755253
      7.15000000	      0.11618068	      0.04364174	      0.16753262
      7.15500000	      0.11656943	      0.04371469	      0.16749947
      7.16000000	      0.11657493	      0.04371572	      0.16752128
      7.16500000	      0.11680234	      0.04375834	      0.16738148
      7.17000000	      0.11705667	      0.04380596	      0.16716710
      7.17500000	      0.11670681	      0.04374044	      0.16710966
      7.18000000	      0.11699495	      0.04379441	      0.16733302
      7.18500000	      0.11721025	      0.04383468	      0.16699212
      7.19000000	      0.11745950	      0.04388127	      0.16711131
      7.19500000	      0.11775698	      0.04393680	      0.16718282
      7.20000000	      0.11815296	      0.04401061	      0.16730974
      7.20500000	      0.11835922	      0.04404901	      0.16743464
      7.21000000	      0.11918149	      0.04420175	      0.16739389
      7.21500000	      0.11939144	      0.04424067	      0.16774903
      7.22000000	      0.12010624	      0.04437291	      0.16812279
      7.22500000	      0.12171404	      0.04466892	      0.16837949
      7.23000000	      0.12228737	      0.04477400	      0.16847838
      7.23500000	      0.12216192	      0.04475103	      0.16875960
      7.24000000	      0.12180484	      0.04468557	      0.16900737
      7.24500000	      0.12205407	      0.04473127	      0.16928285
      7.25000000	      0.12239114	      0.04479299	      0.16938415
      7.25500000	      0.12239753	      0.04479416	      0.16949240
      7.26000000	      0.12133654	      0.04459959	      0.16922179
      7.26500000	      0.12111984	      0.04455975	      0.16859438
      7.27000000	      0.12238714	      0.04479226	      0.16842372
      7.27500000	      0.12434473	      0.04514907	      0.16840266
      7.28000000	      0.12586373	      0.04542400	      0.16867777
      7.28500000	      0.12717978	      0.04566086	      0.16906787
      7.29000000	      0.12813913	      0.04583276	      0.16943321
      7.29500000	      0.12897946	      0.04598279	      0.16960786
      7.30000000	      0.12992858	      0.04615167	      0.17002748
      7.30500000	      0.13025184	      0.04620905	      0.16993024
      7.31000000	      0.13133052	      0.04639999	      0.17083060
      7.31500000	      0.13176546	      0.04647676	      0.17141691
      7.32000000	      0.13266713	      0.04663551	      0.17192242
      7.32500000	      0.13337563	      0.04675987	      0.17237471
      7.33000000	      0.13396422	      0.04686294	      0.17283467
      7.33500000	      0.13469731	      0.04699098	      0.17400062
      7.34000000	      0.13540244	      0.04711382	      0.17463220
      7.34500000	      0.13609014	      0.04723331	      0.17483231
      7.35000000	      0.13661543	      0.04732438	      0.17513714
      7.35500000	      0.13690138	      0.04737388	      0.17547063
      7.36000000	      0.13749820	      0.04747704	      0.17585089
      7.36500000	      0.13758673	      0.04749232	      0.17538833
      7.37000000	      0.13767423	      0.04750742	      0.17552648
      7.37500000	      0.13784081	      0.04753615	      0.17502576
      7.38000000	      0.13799210	      0.04756223	      0.17482006
      7.38500000	      0.13847236	      0.04764492	      0.17439700
      7.39000000	      0.13917968	      0.04776645	      0.17451935
      7.39500000	      0.13974540	      0.04786343	      0.17420082
      7.40000000	      0.14063033	      0.04801474	      0.17443255
      7.40500000	      0.14180043	      0.04821408	      0.17424271
      7.41000000	      0.14237154	      0.04831107	      0.17398485
      7.41500000	      0.14353387	      0.04850788	      0.17450592
      7.42000000	      0.14447143	      0.04866605	      0.17478476
      7.42500000	      0.14569979	      0.04887250	      0.17517834
      7.43000000	      0.14679787	      0.04905632	      0.17579191
      7.43500000	      0.14735825	      0.04914986	      0.17539630
      7.44000000	      0.14829446	      0.04930575	      0.17600877
      7.44500000	      0.14923070	      0.04946115	      0.17642860
      7.45000000	      0.15012153	      0.04960855	      0.17674055
      7.45500000	      0.15037284	      0.04965006	      0.17632063
      7.46000000	      0.15103910	      0.04975993	      0.17716918
      7.46500000	      0.15162137	      0.04985575	      0.17734222
      7.47000000	      0.15212663	      0.04993875	      0.17754490
      7.47500000	      0.15283128	      0.05005428	      0.17816524
      7.48000000	      0.15194598	      0.04990910	      0.17772615
      7.48500000	      0.15241874	      0.04998668	      0.17863141
      7.49000000	      0.15245664	      0.04999289	      0.17897811
      7.49500000	      0.15393521	      0.05023473	      0.17902976
      7.50000000	      0.15361156	      0.05018189	      0.17909568
      7.50500000	      0.15360977	      0.05018160	      0.17905818
      7.51000000	      0.15388919	      0.05022722	      0.17905702
      7.51500000	      0.15444995	      0.05031865	      0.17937535
      7.52000000	      0.15382342	      0.05021649	      0.17961040
      7.52500000	      0.15433598	      0.05030008	      0.17990894
      7.53000000	      0.15360359	      0.05018059	      0.17890740
      7.53500000	      0.15408109	      0.05025853	      0.18012533
      7.54000000	      0.15413037	      0.05026656	      0.17956506
      7.54500000	      0.15353077	      0.05016869	      0.18012586
      7.55000000	      0.15394889	      0.05023696	      0.18019997
      7.55500000	      0.15445055	      0.05031875	      0.18089894
      7.56000000	      0.15468127	      0.05035632	      0.18086903
      7.56500000	      0.15558131	      0.05050261	      0.18095334
      7.57000000	      0.15597159	      0.05056591	      0.18100293
      7.57500000	      0.15598197	      0.05056759	      0.18083444
