Model Marker Errors from IK
version=1
nRows=119
nColumns=4
inDegrees=no
endheader
time	total_squared_error	marker_error_RMS	marker_error_max
      4.81500000	      3.06435893	      0.22413253	      1.61527306
      4.82000000	      3.06357676	      0.22410393	      1.61498242
      4.82500000	      3.06296951	      0.22408171	      1.61415390
      4.83000000	      3.06196646	      0.22404502	      1.61410824
      4.83500000	      3.06115314	      0.22401526	      1.61384239
      4.84000000	      3.06047096	      0.22399030	      1.61374193
      4.84500000	      3.06006660	      0.22397550	      1.61314871
      4.85000000	      3.05822806	      0.22390821	      1.61325858
      4.85500000	      3.05784515	      0.22389419	      1.61300700
      4.86000000	      3.05726046	      0.22387279	      1.61290074
      4.86500000	      3.05714764	      0.22386865	      1.61310936
      4.87000000	      3.05678474	      0.22385537	      1.61275988
      4.87500000	      3.05659612	      0.22384846	      1.61271280
      4.88000000	      3.05647815	      0.22384414	      1.61269551
      4.88500000	      3.05654118	      0.22384645	      1.61283520
      4.89000000	      3.05642320	      0.22384213	      1.61296254
      4.89500000	      3.05831906	      0.22391154	      1.61351985
      4.90000000	      3.05663224	      0.22384978	      1.61317260
      4.90500000	      3.05697003	      0.22386215	      1.61343183
      4.91000000	      3.05610065	      0.22383032	      1.61315701
      4.91500000	      3.05667074	      0.22385119	      1.61306827
      4.92000000	      3.05706805	      0.22386574	      1.61303878
      4.92500000	      3.05614400	      0.22383190	      1.61303870
      4.93000000	      3.05653506	      0.22384622	      1.61302661
      4.93500000	      3.05572382	      0.22381652	      1.61251801
      4.94000000	      3.05625070	      0.22383581	      1.61261301
      4.94500000	      3.05250697	      0.22369868	      1.61146437
      4.95000000	      3.05264416	      0.22370370	      1.61136761
      4.95500000	      3.05231296	      0.22369157	      1.61105950
      4.96000000	      3.05272272	      0.22370658	      1.61118577
      4.96500000	      3.05170434	      0.22366926	      1.61114252
      4.97000000	      3.05328112	      0.22372704	      1.61130514
      4.97500000	      3.05169665	      0.22366898	      1.61092197
      4.98000000	      3.05079024	      0.22363576	      1.61100662
      4.98500000	      3.05271228	      0.22370620	      1.61142172
      4.99000000	      3.05155825	      0.22366391	      1.61128221
      4.99500000	      3.05277267	      0.22370841	      1.61144417
      5.00000000	      3.05446335	      0.22377035	      1.61142514
      5.00500000	      3.05807641	      0.22390266	      1.61189669
      5.01000000	      3.06090440	      0.22400616	      1.61251051
      5.01500000	      3.06622985	      0.22420094	      1.61368026
      5.02000000	      3.06797352	      0.22426468	      1.61405211
      5.02500000	      3.07081770	      0.22436861	      1.61418953
      5.03000000	      3.07093782	      0.22437300	      1.61440530
      5.03500000	      3.07074484	      0.22436595	      1.61436182
      5.04000000	      3.07238818	      0.22442598	      1.61460084
      5.04500000	      3.07418694	      0.22449166	      1.61538489
      5.05000000	      3.07749679	      0.22461248	      1.61623777
      5.05500000	      3.08042326	      0.22471925	      1.61695126
      5.06000000	      3.08327164	      0.22482312	      1.61771279
      5.06500000	      3.08601398	      0.22492308	      1.61852314
      5.07000000	      3.09060401	      0.22509029	      1.61959785
      5.07500000	      3.09658529	      0.22530800	      1.62125301
      5.08000000	      3.10452439	      0.22559664	      1.62346747
      5.08500000	      3.11342418	      0.22591977	      1.62582661
      5.09000000	      3.12096443	      0.22619317	      1.62781167
      5.09500000	      3.12785889	      0.22644287	      1.62942247
      5.10000000	      3.13459135	      0.22668644	      1.63083244
      5.10500000	      3.14017899	      0.22688840	      1.63187632
      5.11000000	      3.14490812	      0.22705918	      1.63264018
      5.11500000	      3.15011966	      0.22724724	      1.63373742
      5.12000000	      3.15400317	      0.22738727	      1.63464952
      5.12500000	      3.15678075	      0.22748737	      1.63537984
      5.13000000	      3.15857718	      0.22755209	      1.63615829
      5.13500000	      3.15844965	      0.22754750	      1.63641287
      5.14000000	      3.15605917	      0.22746137	      1.63607768
      5.14500000	      3.15605307	      0.22746115	      1.63665026
      5.15000000	      3.15180153	      0.22730789	      1.63601148
      5.15500000	      3.14900420	      0.22720700	      1.63545772
      5.16000000	      3.14802485	      0.22717166	      1.63530243
      5.16500000	      3.14727187	      0.22714449	      1.63532976
      5.17000000	      3.14786087	      0.22716575	      1.63553001
      5.17500000	      3.14823747	      0.22717934	      1.63549672
      5.18000000	      3.14706337	      0.22713697	      1.63530412
      5.18500000	      3.14849305	      0.22718856	      1.63560185
      5.19000000	      3.14929537	      0.22721750	      1.63594798
      5.19500000	      3.14928272	      0.22721705	      1.63552387
      5.20000000	      3.15021993	      0.22725085	      1.63551932
      5.20500000	      3.15106432	      0.22728131	      1.63529960
      5.21000000	      3.15183342	      0.22730904	      1.63537576
      5.21500000	      3.15320900	      0.22735864	      1.63615380
      5.22000000	      3.15414499	      0.22739238	      1.63625847
      5.22500000	      3.15425638	      0.22739640	      1.63677518
      5.23000000	      3.15320190	      0.22735838	      1.63678595
      5.23500000	      3.15239009	      0.22732911	      1.63705637
      5.24000000	      3.15288669	      0.22734702	      1.63756622
      5.24500000	      3.15241628	      0.22733006	      1.63785303
      5.25000000	      3.15063867	      0.22726595	      1.63789758
      5.25500000	      3.15034787	      0.22725547	      1.63826571
      5.26000000	      3.15121774	      0.22728684	      1.63889530
      5.26500000	      3.15141776	      0.22729405	      1.63918909
      5.27000000	      3.15008065	      0.22724583	      1.63915957
      5.27500000	      3.14903697	      0.22720818	      1.63922862
      5.28000000	      3.14942104	      0.22722203	      1.63973379
      5.28500000	      3.14790264	      0.22716725	      1.63958208
      5.29000000	      3.14664521	      0.22712188	      1.63920927
      5.29500000	      3.14576731	      0.22709019	      1.63945701
      5.30000000	      3.14505442	      0.22706446	      1.63944045
      5.30500000	      3.14342704	      0.22700571	      1.63927574
      5.31000000	      3.14205068	      0.22695600	      1.63902662
      5.31500000	      3.14072726	      0.22690820	      1.63873413
      5.32000000	      3.13923398	      0.22685425	      1.63851782
      5.32500000	      3.13802884	      0.22681070	      1.63824193
      5.33000000	      3.13834248	      0.22682204	      1.63831303
      5.33500000	      3.13811201	      0.22681371	      1.63826474
      5.34000000	      3.13667685	      0.22676184	      1.63760535
      5.34500000	      3.13602534	      0.22673829	      1.63733688
      5.35000000	      3.13616225	      0.22674324	      1.63719174
      5.35500000	      3.13529820	      0.22671200	      1.63682124
      5.36000000	      3.13573157	      0.22672767	      1.63670781
      5.36500000	      3.13571235	      0.22672697	      1.63654803
      5.37000000	      3.13564364	      0.22672449	      1.63636951
      5.37500000	      3.13677751	      0.22676548	      1.63660778
      5.38000000	      3.13737698	      0.22678715	      1.63666216
      5.38500000	      3.13692052	      0.22677065	      1.63649153
      5.39000000	      3.13710984	      0.22677749	      1.63649647
      5.39500000	      3.13655149	      0.22675731	      1.63623723
      5.40000000	      3.13666632	      0.22676146	      1.63613976
      5.40500000	      3.13646922	      0.22675433	      1.63646856
