Inverse Dynamics Generalized Forces
version=1
nRows=119
nColumns=40
inDegrees=no
endheader
time	pelvis_tilt_moment	pelvis_list_moment	pelvis_rotation_moment	pelvis_tx_force	pelvis_ty_force	pelvis_tz_force	hip_flexion_r_moment	hip_adduction_r_moment	hip_rotation_r_moment	hip_flexion_l_moment	hip_adduction_l_moment	hip_rotation_l_moment	lumbar_extension_moment	lumbar_bending_moment	lumbar_rotation_moment	knee_angle_r_moment	knee_angle_r_beta_force	knee_angle_l_moment	knee_angle_l_beta_force	arm_flex_r_moment	arm_add_r_moment	arm_rot_r_moment	arm_flex_l_moment	arm_add_l_moment	arm_rot_l_moment	ankle_angle_r_moment	ankle_angle_l_moment	elbow_flex_r_moment	elbow_flex_l_moment	subtalar_angle_r_moment	subtalar_angle_l_moment	pro_sup_r_moment	pro_sup_l_moment	mtp_angle_r_moment	mtp_angle_l_moment	wrist_flex_r_moment	wrist_dev_r_moment	wrist_flex_l_moment	wrist_dev_l_moment
      4.81500000	 -58566.37388566	-901684.59393432	-231411.31941205	    -63.13131322	    765.36315567	    967.60422091	 -46568.91104270	 -54475.78528294	 923870.19982233	     28.01487614	     -3.90747887	      0.76030108	     86.32626732	     12.71111585	      7.07203393	-150765.91867973	     -0.02266136	      5.31259455	     -0.02275821	     -3.27332201	     -7.89237791	      1.59500868	     -4.86784814	      6.21722745	      2.35581831	  85929.44769447	      0.97752995	      0.34704446	     -0.23361733	-459359.99885930	     -0.21582942	      0.04788682	      0.07470663	     -0.03671922	     -0.03656902	      0.02683200	      0.18365740	      0.26808766	      0.09508228
      4.82000000	 -63157.98331812	-927466.17681512	-237102.64176081	    -52.33774318	    828.94355866	    996.20335700	 -50010.59285321	 -57718.04512203	 950409.27520258	     28.40446383	     -3.81509561	      0.77876721	    102.50085364	     15.79731270	      7.18981560	-153178.96535443	     -0.02260073	      5.21389520	     -0.02260607	     -3.41042427	     -8.63527133	      1.55105880	     -5.27739984	      6.64812416	      2.42271577	  86767.47913549	      0.97081770	      0.41205024	     -0.13436286	-472707.09549886	     -0.21810109	      0.05106166	      0.07929668	     -0.03613986	     -0.03599231	      0.04066709	      0.17317152	      0.27893718	      0.08082173
      4.82500000	 -68665.24202330	-955369.20762545	-243264.36930668	    -42.67272080	    892.05608151	   1026.37546390	 -54287.47050836	 -61305.14962000	 979236.21443078	     28.81299283	     -3.72867340	      0.80187008	    118.48897728	     18.89229266	      7.29955859	-155246.57683413	     -0.02254587	      5.11862255	     -0.02247808	     -3.54499959	     -9.37161196	      1.50682169	     -5.68786137	      7.08342295	      2.49148947	  87153.31520625	      0.96495429	      0.47638979	     -0.03288300	-487205.98252389	     -0.22065965	      0.05416829	      0.08377485	     -0.03556926	     -0.03544734	      0.05433231	      0.16268510	      0.28985007	      0.06655894
      4.83000000	 -74945.64008062	-985358.14637217	-249653.70919618	    -34.38000480	    953.82151524	   1058.71808854	 -59247.23116003	 -65157.56575730	1010236.48764975	     29.23647515	     -3.65556629	      0.83071715	    134.05468889	     21.94867660	      7.39101443	-157089.02065911	     -0.02249989	      5.02989214	     -0.02238000	     -3.67535577	    -10.09262775	      1.46269092	     -6.09515618	      7.52371892	      2.56298720	  87184.38988812	      0.96030868	      0.53910992	      0.06987499	-502693.50347731	     -0.22357155	      0.05715116	      0.08804953	     -0.03503445	     -0.03496106	      0.06759887	      0.15229685	      0.30074139	      0.05252037
      4.83500000	 -81719.99384896	-1017498.66125533	-256136.02910662	    -27.53733129	   1013.48148745	   1093.87035218	 -64600.17131355	 -69296.42971020	1043386.41637721	     29.67067806	     -3.60285676	      0.86630950	    148.97901662	     24.92063472	      7.45560789	-158989.37414257	     -0.02246611	      4.95130727	     -0.02231705	     -3.79967734	    -10.78991864	      1.41898269	     -6.49524352	      7.96891273	      2.63780387	  87129.22339240	      0.95726737	      0.59943929	      0.17321372	-519143.38467804	     -0.22690996	      0.05996040	      0.09203053	     -0.03456488	     -0.03456220	      0.08027240	      0.14210190	      0.31152844	      0.03888095
      4.84000000	 -88932.47405561	-1052115.63577153	-263031.71529438	    -22.23147275	   1070.61935011	   1131.40373199	 -70278.78110942	 -74157.53697569	1079034.37913672	     30.11132048	     -3.57678618	      0.90930703	    163.06841421	     27.76481631	      7.48716660	-161105.39767634	     -0.02244798	      4.88677070	     -0.02229376	     -3.91624117	    -11.45580795	      1.37601469	     -6.88427368	      8.41823089	      2.71629969	  87199.09189081	      0.95621107	      0.65683846	      0.27664375	-537042.21425149	     -0.23073673	      0.06255534	      0.09563498	     -0.03419115	     -0.03427996	      0.09220149	      0.13220015	      0.32213919	      0.02576563
      4.84500000	 -96498.38255464	-1089198.13188333	-270549.27022740	    -18.48690599	   1124.88062140	   1170.47069192	 -76193.32890408	 -80142.29051288	1117172.60601671	     30.55421732	     -3.58218952	      0.95979637	    176.16004532	     30.44088143	      7.48228507	-163543.78019365	     -0.02244913	      4.84027402	     -0.02231382	     -4.02357809	    -12.08361663	      1.33416642	     -7.25869965	      8.87030600	      2.79864582	  87574.31039657	      0.95748803	      0.71100662	      0.37980789	-556683.65233188	     -0.23508393	      0.06490668	      0.09879265	     -0.03394363	     -0.03414218	      0.10327890	      0.12270185	      0.33251976	      0.01325807
      4.85000000	-103894.22005170	-1126788.54531044	-277759.69724429	    -16.13045712	   1175.59620994	   1209.59020755	 -81850.74778633	 -86866.82493038	1155629.48521267	     30.99537092	     -3.62209238	      1.01710289	    188.12511375	     32.91255423	      7.44059549	-166324.11304600	     -0.02247333	      4.81567750	     -0.02237995	     -4.12057312	    -12.66787194	      1.29391775	     -7.61532689	      9.32327321	      2.88486249	  88342.69066273	      0.96138640	      0.76185515	      0.48240314	-576733.60824036	     -0.23993757	      0.06699773	      0.10145030	     -0.03385102	     -0.03417353	      0.11343855	      0.11373041	      0.34263840	      0.00141029
      4.85500000	-110511.93847148	-1162796.32542180	-283703.10037654	    -14.88469129	   1222.21131680	   1247.29474687	 -86685.47051431	 -93898.86063931	1192091.09942611	     31.43094948	     -3.69756256	      1.07966431	    198.87020122	     35.14870515	      7.36478780	-169507.46775688	     -0.02252462	      4.81650762	     -0.02249374	     -4.20652093	    -13.20443231	      1.25586278	     -7.95132926	      9.77487434	      2.97483100	  89633.81072969	      0.96810793	      0.80946923	      0.58411746	-595769.14790796	     -0.24522395	      0.06882425	      0.10357378	     -0.03393878	     -0.03439368	      0.12265100	      0.10542193	      0.35248324	     -0.00974937
      4.86000000	-115949.91546347	-1196912.39798131	-288698.18187329	    -14.35380775	   1264.68062252	   1282.76743801	 -90317.29415938	-101734.30263224	1226217.13025666	     31.85704932	     -3.80779039	      1.14498610	    208.33639696	     37.12342724	      7.26017611	-173439.34170791	     -0.02260727	      4.84580443	     -0.02265559	     -4.28115558	    -13.69051478	      1.22069898	     -8.26428176	     10.22258701	      3.06829643	  91905.56776153	      0.97774131	      0.85406380	      0.68458188	-614063.42267308	     -0.25079973	      0.07039302	      0.10514781	     -0.03422742	     -0.03481564	      0.13091782	      0.09792116	      0.36205593	     -0.02020953
      4.86500000	-119885.75736481	-1229165.77211323	-293206.25540775	    -14.16750533	   1303.06106196	   1315.47046555	 -92442.86314979	-110936.65343963	1258019.51742267	     32.26928973	     -3.95031591	      1.20969461	    216.49717918	     38.81531480	      7.13409116	-178474.10705661	     -0.02272576	      4.90601926	     -0.02286449	     -4.34468158	    -14.12465072	      1.18921177	     -8.55223784	     10.66378781	      3.16488720	  95610.99117225	      0.99023432	      0.89594066	      0.78332910	-632102.77849680	     -0.25644816	      0.07172042	      0.10617491	     -0.03473071	     -0.03544370	      0.13826556	      0.09137680	      0.37136609	     -0.02996782
      4.87000000	-122026.88812073	-1258901.98601204	-296671.28302739	    -14.23952514	   1337.09246596	   1345.30664970	 -92800.30169348	-121136.83863103	1286696.01011295	     32.66250941	     -4.12127288	      1.26967158	    223.35585781	     40.20707839	      6.99546827	-184704.42903255	     -0.02288454	      4.99891042	     -0.02311807	     -4.39781014	    -14.50660795	      1.16227244	     -8.81382521	     11.09595837	      3.26416118	 100807.07360119	      1.00537019	      0.93545689	      0.87974888	-649182.84539900	     -0.26188387	      0.07283162	      0.10667456	     -0.03545421	     -0.03627129	      0.14474106	      0.08593925	      0.38042838	     -0.03902053
      4.87500000	-122162.25725920	-1285570.72610701	-298512.89819763	    -14.56075110	   1366.64098651	   1372.34092741	 -91210.79529925	-131875.66975536	1311571.84247308	     33.03075687	     -4.31561434	      1.32024916	    228.94290950	     41.28623818	      6.85473764	-192162.95434497	     -0.02308766	      5.12539050	     -0.02341263	     -4.44176496	    -14.83730339	      1.14083770	     -9.04829847	     11.51691231	      3.36566587	 107465.37960218	      1.02275931	      0.97300271	      0.97304784	-664578.93361268	     -0.26676598	      0.07376008	      0.10668245	     -0.03639401	     -0.03727953	      0.15040833	      0.08175979	      0.38926100	     -0.04735160
      4.88000000	-120409.54233970	-1309910.42134514	-299226.11656355	    -15.19325991	   1392.23014852	   1396.81955716	 -87802.77992039	-143552.45186144	1333438.34756153	     33.36747833	     -4.52744633	      1.35646986	    233.31342855	     42.04666486	      6.72389486	-200937.68097784	     -0.02333828	      5.28533949	     -0.02374335	     -4.47823727	    -15.11871446	      1.12593521	     -9.25554590	     11.92497042	      3.46899326	 115686.25590878	      1.04185087	      1.00897768	      1.06223144	-678953.52296248	     -0.27071883	      0.07454654	      0.10624972	     -0.03753599	     -0.03843740	      0.15534555	      0.07898872	      0.39788589	     -0.05492432
      4.88500000	-117091.13021012	-1332931.02123288	-299424.54316660	    -16.33048274	   1414.48055796	   1419.17023375	 -82902.26715882	-156654.79241403	1353390.85769985	     33.66578974	     -4.75049235	      1.37341652	    236.54436671	     42.49010890	      6.61653663	-210993.66740570	     -0.02363800	      5.47743460	     -0.02410443	     -4.50930731	    -15.35378827	      1.11863979	     -9.43611513	     12.31904300	      3.57382043	 125445.01175874	      1.06196021	      1.04375484	      1.14611732	-693160.44640052	     -0.27335969	      0.07523740	      0.10544216	     -0.03885565	     -0.03970311	      0.15963962	      0.07777249	      0.40633070	     -0.06167699
      4.89000000	-113017.82963749	-1355288.45393765	-298985.83619003	    -18.68811218	   1433.61052517	   1440.34070026	 -77324.22844784	-170989.46621711	1372187.93653829	     33.91889655	     -4.97856992	      1.36661545	    238.73086949	     42.62701478	      6.54766245	-221689.34861505	     -0.02398639	      5.69904340	     -0.02448936	     -4.53732352	    -15.54634234	      1.12003435	     -9.59128224	     12.69865550	      3.67993807	 136008.98695765	      1.08230651	      1.07763830	      1.22339377	-707253.52949963	     -0.27433172	      0.07588229	      0.10433819	     -0.04031831	     -0.04102609	      0.16337836	      0.07824907	      0.41463193	     -0.06752454
      4.89500000	-108928.88454503	-1377072.62791708	-297593.97493328	    -22.91950795	   1449.74484137	   1460.90555988	 -71824.41986551	-186223.62248298	1390016.85972588	     34.12065770	     -5.20607153	      1.33249636	    239.98138961	     42.47656255	      6.53304105	-232314.22102681	     -0.02438061	      5.94617504	     -0.02489145	     -4.56471811	    -15.70095300	      1.13113867	     -9.72312418	     13.06394735	      3.78726571	 146595.87949498	      1.10205334	      1.11083519	      1.29273129	-720928.51153371	     -0.27333785	      0.07653126	      0.10302475	     -0.04187937	     -0.04234891	      0.16664444	      0.08053976	      0.42283748	     -0.07236789
      4.90000000	-104789.76956913	-1396529.02401930	-295011.38254546	    -29.00194609	   1462.94969690	   1479.42767443	 -66439.40285169	-202208.03371920	1405131.43656575	     34.26615595	     -5.42848766	      1.26881771	    240.41202920	     42.06628399	      6.58809933	-242494.17014167	     -0.02481526	      6.21345491	     -0.02530431	     -4.59379796	    -15.82283734	      1.15282069	     -9.83454707	     13.41561007	      3.89584128	 156951.87077229	      1.12034394	      1.14344801	      1.35292047	-733340.02059250	     -0.27017091	      0.07723179	      0.10159168	     -0.04348429	     -0.04360887	      0.16951197	      0.08473892	      0.43100706	     -0.07610761
      4.90500000	-100454.28022669	-1412313.59332038	-291208.13495506	    -36.69593105	   1473.43615647	   1494.69352765	 -61084.51841674	-218854.08366788	1416186.71259402	     34.35213080	     -5.64283373	      1.17495821	    240.14070005	     41.43114974	      6.72650035	-252066.04092311	     -0.02528249	      6.49415737	     -0.02572235	     -4.62654315	    -15.91771812	      1.18570394	     -9.92925906	     13.75474117	      4.00577356	 167012.24325170	      1.13632734	      1.17547862	      1.40300497	-743914.71577086	     -0.26473373	      0.07802585	      0.10012539	     -0.04506869	     -0.04473915	      0.17204453	      0.09090301	      0.43920830	     -0.07865844
      4.91000000	 -96085.25122413	-1426620.56838264	-286692.93041164	    -45.69109783	   1482.01715167	   1508.42022247	 -55879.07537966	-236376.33922285	1425386.74187259	     34.37711854	     -5.84776805	      1.05205967	    239.28149549	     40.61155063	      6.95860636	-261425.30634293	     -0.02577231	      6.78033678	     -0.02614121	     -4.66439397	    -15.99165102	      1.23005811	    -10.01171152	     14.08266290	      4.11716793	 177010.14787611	      1.14917163	      1.20684279	      1.44239780	-753739.16750931	     -0.25704367	      0.07894686	      0.09870188	     -0.04655892	     -0.04566963	      0.17429618	      0.09903743	      0.44750883	     -0.07996406
      4.91500000	 -91780.22468693	-1441524.63210412	-281869.12139567	    -55.61869759	   1489.40671957	   1522.26033761	 -50872.14075118	-255005.76144260	1434783.10012951	     34.34133038	     -6.04337449	      0.90303815	    237.94049294	     39.65049066	      7.29022048	-271008.02840625	     -0.02627307	      7.06299855	     -0.02655803	     -4.70806100	    -16.05085208	      1.28569696	    -10.08701308	     14.40074739	      4.23005058	 187223.21483999	      1.15806608	      1.23737961	      1.47096469	-763809.02152015	     -0.24722402	      0.08001695	      0.09738082	     -0.04787332	     -0.04632744	      0.17631227	      0.10908401	      0.45596800	     -0.08000979
      4.92000000	 -87102.32820256	-1454989.82935917	-276388.47148035	    -65.99155812	   1495.38442787	   1534.71609680	 -45690.77098850	-274357.96466077	1442272.00162792	     34.24659267	     -6.23084502	      0.73248918	    236.21420349	     38.59129837	      7.72210852	-280752.55353521	     -0.02677181	      7.33227586	     -0.02697153	     -4.75742560	    -16.10158016	      1.35193735	    -10.16079058	     14.71021798	      4.34429896	 197681.09866012	      1.16222715	      1.26683421	      1.48906821	-773009.21847983	     -0.23549368	      0.08124476	      0.09620305	     -0.04892405	     -0.04663803	      0.17812519	      0.12091587	      0.46463212	     -0.07883271
      4.92500000	 -81632.79613870	-1464884.06695345	-269992.17973861	    -76.30592715	   1499.73476744	   1544.23909655	 -39978.80406857	-293989.71182193	1445684.75634668	     34.09650996	     -6.41239512	      0.54658182	    234.18961700	     37.47616921	      8.25025732	-290549.36080443	     -0.02725471	      7.57767639	     -0.02738198	     -4.81150131	    -16.15005502	      1.42761435	    -10.23900043	     15.01189811	      4.45957233	 208373.40518956	      1.16092043	      1.29483343	      1.49758051	-780218.20633390	     -0.22216341	      0.08262439	      0.09519074	     -0.04961974	     -0.04652706	      0.17974786	      0.13434020	      0.47353265	     -0.07652919
      4.93000000	 -75527.23033550	-1472925.75445736	-263300.24182946	    -86.15061548	   1503.26081291	   1552.25737566	 -33839.17253308	-314309.85051384	1446736.38200429	     33.89657592	     -6.59155019	      0.35301596	    231.94381958	     36.34442496	      8.86636415	-300707.14894471	     -0.02770763	      7.78844728	     -0.02779127	     -4.86838290	    -16.20237334	      1.51110762	    -10.32771728	     15.30594167	      4.57524666	 219525.48109760	      1.15349193	      1.32088583	      1.49785834	-786504.08129975	     -0.20763632	      0.08413546	      0.09434855	     -0.04986836	     -0.04592288	      0.18117095	      0.14910382	      0.48268447	     -0.07325785
      4.93500000	 -69080.95773424	-1481321.91917322	-256973.96306860	    -95.22774482	   1506.77551778	   1560.56161555	 -27494.64688947	-335918.23115687	1447605.12422171	     33.65386748	     -6.77361527	      0.16097269	    229.54322071	     35.22998605	      9.55836636	-311532.16770726	     -0.02811705	      7.95403344	     -0.02820290	     -4.92518368	    -16.26442634	      1.60036292	    -10.43290171	     15.59159842	      4.69035870	 231343.35084053	      1.13939324	      1.34440282	      1.49167362	-793212.93518971	     -0.19240229	      0.08574402	      0.09366490	     -0.04957996	     -0.04475892	      0.18236429	      0.16489878	      0.49208226	     -0.06923676
      4.94000000	 -62601.02564930	-1490294.53447949	-251151.01590670	   -103.64097106	   1510.16767047	   1569.47023399	 -21229.61417094	-358920.55976499	1448517.12411437	     33.37621950	     -6.96608614	     -0.01907358	    227.04360129	     34.15909444	     10.31116855	-322812.48288813	     -0.02847113	      8.06458895	     -0.02862189	     -4.97801921	    -16.34179088	      1.69291992	    -10.56015988	     15.86704746	      4.80355884	 243602.21102375	      1.11819350	      1.36472267	      1.48109720	-800521.74896148	     -0.17701917	      0.08740360	      0.09311392	     -0.04866912	     -0.04297589	      0.18328009	      0.18136794	      0.50169443	     -0.06473433
      4.94500000	 -56056.93127106	-1499517.85719727	-245869.46305364	   -111.17397019	   1513.26377312	   1578.76184760	 -15001.40094188	-383302.45460923	1449088.84430944	     33.07105873	     -7.17890581	     -0.17573531	    224.49072360	     33.14982172	     11.10758467	-334522.51566755	     -0.02876107	      8.11153141	     -0.02905449	     -5.02208180	    -16.43953294	      1.78596057	    -10.71454348	     16.12933412	      4.91309541	 256283.99536643	      1.08958665	      1.38112967	      1.46832445	-808314.61417528	     -0.16208395	      0.08905654	      0.09265900	     -0.04705740	     -0.04052402	      0.18385707	      0.19811183	      0.51145678	     -0.06004900
      4.95000000	 -48032.84058093	-1508489.35117347	-241273.22063828	   -115.87636292	   1516.61960076	   1587.60968702	  -7384.08165880	-409120.53637468	1448452.02723806	     32.74418683	     -7.42437895	     -0.29725563	    221.92066584	     32.21399787	     11.92946942	-347935.00653100	     -0.02898245	      8.08815048	     -0.02950807	     -5.05180199	    -16.56192495	      1.87638982	    -10.90039976	     16.37445480	      5.01685730	 270668.52493446	      1.05340638	      1.39287909	      1.45548414	-816462.82969870	     -0.14820311	      0.09063591	      0.09225736	     -0.04467646	     -0.03736563	      0.18402623	      0.21469906	      0.52126994	     -0.05548172
      4.95500000	 -37281.67465265	-1516799.64702987	-237491.94361192	   -116.06371281	   1520.68320593	   1595.27740644	   2886.87962843	-436403.10352273	1445849.03429678	     32.39974406	     -7.71433845	     -0.37362816	    219.36056289	     31.36052909	     12.75920731	-364174.36148314	     -0.02913821	      7.99016494	     -0.02999657	     -5.06107721	    -16.71212538	      1.96095122	    -11.12121482	     16.59756990	      5.11245021	 287877.55767742	      1.00963511	      1.39924480	      1.44451797	-824866.20151633	     -0.13586727	      0.09206888	      0.09186360	     -0.04147211	     -0.03347926	      0.18371998	      0.23068177	      0.53100067	     -0.05131764
      4.96000000	 -24667.97775047	-1524535.68013434	-234488.44412756	   -112.75600697	   1524.78655941	   1602.00610028	  14983.85214434	-465078.79651520	1441464.80838279	     32.03752541	     -8.06324317	     -0.39420480	    216.83046593	     30.59839147	     13.58149544	-382429.10572751	     -0.02923903	      7.81645447	     -0.03051657	     -5.04356226	    -16.89184439	      2.03636858	    -11.37940669	     16.79325668	      5.19727271	 307081.29527152	      0.95848742	      1.39958066	      1.43713044	-833561.96262957	     -0.12564735	      0.09328134	      0.09143185	     -0.03740974	     -0.02886012	      0.18288299	      0.24561468	      0.54048447	     -0.04782016
      4.96500000	 -11377.76528166	-1531917.53906137	-232202.93785669	   -107.34215187	   1528.32592320	   1608.22176818	  27761.37257971	-495105.42926545	1435683.54991725	     31.65406962	     -8.48412125	     -0.35013773	    214.34495949	     29.93826032	     14.38480270	-401615.77149868	     -0.02928490	      7.56941451	     -0.03107220	     -4.99299596	    -17.10100370	      2.09948954	    -11.67608281	     16.95574580	      5.26860742	 327171.71177167	      0.90044907	      1.39336822	      1.43474417	-842669.53579177	     -0.11806829	      0.09420225	      0.09091809	     -0.03247618	     -0.02352512	      0.18147955	      0.25907347	      0.54953096	     -0.04522573
      4.97000000	   2334.39727130	-1539255.38272999	-230688.60005699	    -99.81577598	   1532.08140309	   1613.97547960	  41003.67152149	-526602.58732341	1428747.84841600	     31.24346537	     -8.98630537	     -0.23545853	    211.91306253	     29.39256336	     15.16192923	-421589.66163586	     -0.02929622	      7.25521744	     -0.03167341	     -4.90350628	    -17.33739568	      2.14739605	    -12.01074986	     17.07911841	      5.32371420	 347971.01478186	      0.83634971	      1.38022821	      1.43845767	-852448.81756371	     -0.11357796	      0.09476604	      0.09028164	     -0.02668854	     -0.01751771	      0.17949372	      0.27066721	      0.55792918	     -0.04373837
      4.97500000	  16446.29757866	-1546582.43209957	-229897.69213922	    -90.03715640	   1536.89448092	   1619.05359284	  54716.65925471	-559570.79666818	1420586.33715670	     30.79812337	     -9.57475029	     -0.04711733	    209.53678337	     28.97470459	     15.90968787	-442354.28440305	     -0.02930272	      6.88395609	     -0.03233431	     -4.76984788	    -17.59636149	      2.17746203	    -12.38092869	     17.15744745	      5.35987915	 369446.31627406	      0.76745010	      1.35989094	      1.44902548	-862974.69018102	     -0.11258107	      0.09491241	      0.08948441	     -0.02009844	     -0.01091182	      0.17692128	      0.28004232	      0.56544581	     -0.04352855
      4.98000000	  30839.62289586	-1552688.19683230	-229305.11712141	    -78.54725478	   1542.51472919	   1622.36562297	  68776.90614433	-593265.95541973	1410072.31709284	     30.31041389	    -10.24940002	      0.21478619	    207.20855467	     28.69837621	     16.62789258	-463452.01150147	     -0.02934420	      6.46959044	     -0.03307457	     -4.58759244	    -17.87057055	      2.18738743	    -12.78173180	     17.18492288	      5.37447114	 391101.95805680	      0.69551232	      1.33216813	      1.46685587	-873386.13882848	     -0.11544816	      0.09458509	      0.08848936	     -0.01279611	     -0.00381517	      0.17375923	      0.28688347	      0.57182389	     -0.04473258
      4.98500000	  45289.98755356	-1556658.56726308	-228363.04573462	    -66.01833375	   1548.59023429	   1623.28457877	  82956.34457903	-626910.43302081	1396449.12125361	     29.77424380	    -11.00542331	      0.54702416	    204.90681374	     28.57679199	     17.31757182	-484382.59467542	     -0.02947113	      6.02975034	     -0.03392063	     -4.35332672	    -18.14997608	      2.17524873	    -13.20556475	     17.15597733	      5.36508086	 412372.46429544	      0.62285718	      1.29698690	      1.49203455	-882933.32363082	     -0.12253290	      0.09373259	      0.08726036	     -0.00491344	      0.00362795	      0.17000426	      0.29091867	      0.57679586	     -0.04744915
      4.99000000	  59301.70791572	-1560025.09206639	-226915.93661712	    -52.89283643	   1555.50987682	   1623.76714755	  96805.81989414	-660730.18378293	1381263.76840540	     29.18578372	    -11.83390815	      0.94335026	    202.59022278	     28.62140737	     17.97845320	-505072.87541540	     -0.02974533	      5.58542988	     -0.03490658	     -4.06482964	    -18.42192981	      2.13954258	    -13.64205148	     17.06538453	      5.32970723	 433024.30750318	      0.55240407	      1.25448352	      1.52437496	-892315.58766745	     -0.13419171	      0.09231125	      0.08576339	      0.00337361	      0.01123341	      0.16566254	      0.29192551	      0.58010733	     -0.05173431
      4.99500000	  72320.64744408	-1564450.96298196	-224930.70293714	    -39.66239918	   1563.67478353	   1625.85185397	 109809.70020308	-695251.48818452	1366132.24027965	     28.54344304	    -12.72260724	      1.39465752	    200.19262455	     28.84010138	     18.60623378	-525463.79885178	     -0.03024074	      5.16057828	     -0.03607479	     -3.72117834	    -18.67145686	      2.07919048	    -14.07819742	     16.90840719	      5.26695140	 452861.15991589	      0.48768230	      1.20510533	      1.56348504	-902463.49344826	     -0.15080131	      0.09028851	      0.08396785	      0.01184325	      0.01877494	      0.16076415	      0.28973292	      0.58154265	     -0.05759731
      5.00000000	  83793.54474844	-1569750.76604314	-222517.76522991	    -27.17792522	   1572.87585815	   1629.22878202	 121397.85605341	-730677.61599347	1350871.59980579	     27.85040960	    -13.64547166	      1.88255113	    197.62118466	     29.23495525	     19.19044689	-545014.25301518	     -0.03102746	      4.78127926	     -0.03736270	     -3.32283063	    -18.88174998	      1.99353592	    -14.49878230	     16.68106217	      5.17621765	 471374.09250745	      0.43268998	      1.14969243	      1.60885174	-913651.87013915	     -0.17227692	      0.08764581	      0.08184862	      0.02022708	      0.02597825	      0.15537641	      0.28422175	      0.58095154	     -0.06500002
      5.00500000	  93392.25805294	-1575403.15189291	-219785.38528095	    -16.19978542	   1582.67791002	   1633.13415383	 131211.47297822	-767059.28087380	1334929.61913838	     27.11014038	    -14.58325485	      2.39164821	    194.75968886	     29.80033632	     19.71377274	-563274.17886191	     -0.03196467	      4.47532350	     -0.03874276	     -2.87172723	    -19.03485335	      1.88237095	    -14.88694471	     16.38039483	      5.05787992	 488189.64117882	      0.39204149	      1.08954198	      1.65992145	-925989.00877328	     -0.19894420	      0.08438248	      0.07938961	      0.02820411	      0.03253230	      0.14961626	      0.27532954	      0.57827427	     -0.07386027
      5.01000000	 101670.71534312	-1581295.90685391	-216655.49697957	     -6.78749009	   1592.47687698	   1637.59751149	 139779.71917271	-804351.68351615	1317993.89239693	     26.32517322	    -15.52714812	      2.91091025	    191.47678762	     30.52198353	     20.15321694	-580731.61975553	     -0.03324171	      4.27085267	     -0.04031060	     -2.37138616	    -19.11242204	      1.74599327	    -15.22489217	     16.00467615	      4.91337333	 503783.89692093	      0.37084548	      1.02644962	      1.71613129	-939548.61331579	     -0.23162562	      0.08052045	      0.07658927	      0.03543253	      0.03809633	      0.14366073	      0.26306020	      0.57355973	     -0.08405447
      5.01500000	 109235.86119715	-1587312.28469309	-212939.96036165	      1.18504084	   1601.63804844	   1642.87013266	 147680.58575102	-842373.87005085	1299787.88795242	     25.50051083	    -16.46347342	      3.42460337	    187.63623211	     31.37715363	     20.48264248	-597923.98745740	     -0.03493750	      4.19438566	     -0.04210869	     -1.82696401	    -19.09650534	      1.58528594	    -15.49468513	     15.55355865	      4.74518977	 518648.60429406	      0.37431629	      0.96268922	      1.77687688	-954290.84813740	     -0.27091480	      0.07610799	      0.07346562	      0.04153613	      0.04230264	      0.13774903	      0.24749688	      0.56696903	     -0.09541684
      5.02000000	 116024.66804277	-1592914.40930252	-208200.41211377	      7.73562247	   1609.66667285	   1649.46761515	 154808.75645694	-880509.13845077	1279950.63035123	     24.64134598	    -17.38137590	      3.91710609	    183.10649770	     32.33589012	     20.67565460	-614590.46146211	     -0.03713185	      4.26902423	     -0.04418342	     -1.24527233	    -18.97036605	      1.40180455	    -15.67907492	     15.02819283	      4.55675256	 532485.15831270	      0.40753698	      0.90091004	      1.84145442	-969771.57798123	     -0.31744058	      0.07122090	      0.07005776	      0.04612359	      0.04477555	      0.13217223	      0.22881482	      0.55875991	     -0.10773917
      5.02500000	 121972.42486905	-1597522.01472956	-202105.19919934	     13.04633638	   1616.31651170	   1657.70487573	 161053.32656742	-918147.60318576	1258120.83214925	     23.75224703	    -18.27398298	      4.37374042	    177.77002364	     33.36317744	     20.70841041	-630446.11105913	     -0.03990186	      4.51222935	     -0.04658377	     -0.63475023	    -18.71932479	      1.19785758	    -15.76237250	     14.43126872	      4.35221777	 545011.84355514	      0.47508452	      0.84400438	      1.90902073	-985582.24801219	     -0.37181224	      0.06596210	      0.06642482	      0.04880392	      0.04515014	      0.12725837	      0.20729289	      0.54926271	     -0.12077462
      5.03000000	 127756.59184280	-1600910.70203424	-194925.06065594	     18.01739593	   1622.24208264	   1666.98797128	 167054.16453897	-955290.21167376	1233871.52078021	     22.86738849	    -19.08419138	      4.75232527	    171.53265752	     34.42112936	     20.56239547	-646040.03811022	     -0.04371819	      4.93137981	     -0.04986452	     -0.00543000	    -18.33158895	      0.97658898	    -15.73126127	     13.76699478	      4.13629553	 556892.43191812	      0.58023682	      0.79498884	      1.97856623	-1001914.38735566	     -0.43222551	      0.06046153	      0.06264535	      0.04918125	      0.04306247	      0.12335897	      0.18332544	      0.53886335	     -0.13424305
      5.03500000	 134193.79619586	-1603271.55981235	-187042.93439799	     23.53477804	   1627.70109119	   1676.78260194	 173603.92948493	-992168.04921095	1207049.66894570	     21.97587994	    -19.83955919	      5.05743580	    164.33147974	     35.47064009	     20.22683670	-662121.81035944	     -0.04884500	      5.52679624	     -0.05401446	      0.63112118	    -17.79900741	      0.74205250	    -15.57544396	     13.04104708	      3.91409098	 569058.26377987	      0.72548400	      0.75685896	      2.04887235	-1019199.13119737	     -0.50000135	      0.05487452	      0.05881692	      0.04691670	      0.03824412	      0.12082948	      0.15743236	      0.52798937	     -0.14783400
      5.04000000	 141819.63818957	-1606018.41268763	-178645.97492635	     30.00223495	   1630.60436528	   1688.32085815	 181247.99509933	-1029480.38965248	1178650.93550853	     21.07379137	    -20.55507737	      5.28653317	    156.13899891	     36.47243191	     19.70021303	-679606.93594508	     -0.05522500	      6.28609070	     -0.05907432	      1.26198878	    -17.11769110	      0.49922145	    -15.28808196	     12.26048629	      3.69088616	 582443.97978911	      0.91133135	      0.73236348	      2.11844140	-1038347.92229376	     -0.57538291	      0.04937563	      0.05505271	      0.04174912	      0.03049718	      0.11999538	      0.13025853	      0.51708328	     -0.16120733
      5.04500000	 150822.27613495	-1609813.94591732	-169775.22733846	     37.60687690	   1628.88494009	   1702.13569562	 190169.78956577	-1067492.06643925	1149152.29123223	     20.15878251	    -21.24166173	      5.43640546	    146.96411719	     37.38761974	     18.99076535	-698847.87739463	     -0.06294696	      7.18378813	     -0.06512861	      1.87326795	    -16.28848950	      0.25390446	    -14.86607254	     11.43361582	      3.47184366	 597472.26411405	      1.13591495	      0.72370453	      2.18540194	-1059773.56250680	     -0.65780878	      0.04414745	      0.05147494	      0.03349837	      0.01972714	      0.12110603	      0.10255888	      0.50656107	     -0.17399179
      5.05000000	 160354.46536935	-1611119.56100714	-160198.51693499	     46.02578629	   1623.01485759	   1714.57702523	 199420.37814430	-1103757.40763132	1116148.05201819	     19.25340236	    -21.83479796	      5.47440830	    136.85137045	     38.17796327	     18.11622654	-717748.41749014	     -0.07144769	      8.18397083	     -0.07169954	      2.45052768	    -15.31732504	      0.01258940	    -14.31026270	     10.56979495	      3.26171724	 612466.51509970	      1.39403014	      0.73224461	      2.24742513	-1081221.15476787	     -0.74305356	      0.03936757	      0.04820786	      0.02205998	      0.00593179	      0.12428909	      0.07517341	      0.49677244	     -0.18578261
      5.05500000	 169593.26989857	-1606747.13582313	-149804.57613845	     54.91851632	   1613.67953629	   1722.28389936	 208092.55170887	-1135735.41227558	1077780.46852366	     18.35792369	    -22.32790217	      5.40165889	    125.87953355	     38.80578864	     17.10293158	-734176.57377932	     -0.07944746	      9.23892324	     -0.07779984	      2.97933751	    -14.21534673	     -0.21777145	    -13.62561105	      9.67922409	      3.06463993	 625836.94588691	      1.67813193	      0.75832130	      2.30172008	-1100413.78350015	     -0.82846802	      0.03519759	      0.04537164	      0.00749977	     -0.01070922	      0.12952264	      0.04899623	      0.48797704	     -0.19614541
      5.06000000	 178819.93115696	-1599124.34958861	-138857.26424172	     64.75494684	   1599.99413960	   1727.37684270	 216526.22570579	-1164523.27983702	1036171.91227306	     17.45078407	    -22.76929216	      5.24629359	    114.15983342	     39.23368610	     15.98436696	-749064.84002930	     -0.08668316	     10.29126612	     -0.08326515	      3.44584264	    -12.99887259	     -0.43003369	    -12.82115555	      8.77267564	      2.88396747	 638579.28753446	      1.97819358	      0.80118280	      2.34511943	-1118536.07558041	     -0.91287379	      0.03177491	      0.04307628	     -0.00991350	     -0.02981821	      0.13662762	      0.02493884	      0.48033307	     -0.20463056
      5.06500000	 188310.32929967	-1590870.81593980	-127598.88376099	     76.05075981	   1580.77285195	   1731.99135023	 225063.99723089	-1191598.70198103	 993419.75718091	     16.52897207	    -23.14805177	      5.01544604	    101.83304697	     39.42438644	     14.79921785	-763481.06267639	     -0.09290566	     11.28185259	     -0.08781053	      3.83735323	    -11.68911819	     -0.61717390	    -11.90971850	      7.86120799	      2.72216859	 651785.48493085	      2.28108561	      0.85898048	      2.37416782	-1136994.23017918	     -0.99218096	      0.02920544	      0.04141672	     -0.02978531	     -0.05088081	      0.14527012	      0.00388842	      0.47389082	     -0.21078543
      5.07000000	 197217.85939078	-1579764.36337242	-116124.84543519	     88.42312729	   1555.71813827	   1733.28164946	 232819.32630113	-1215152.71010402	 948442.66015989	     15.66624916	    -23.24437335	      4.64876043	     89.06494771	     39.34097576	     13.58912371	-775621.65560769	     -0.10004856	     12.14324096	     -0.09291476	      4.14288531	    -10.31169376	     -0.77260995	    -10.90747105	      6.95596259	      2.58080429	 664146.54264154	      2.57029963	      0.92879075	      2.38514387	-1154005.33494867	     -1.05395050	      0.02755629	      0.04047104	     -0.05162048	     -0.07331811	      0.15496715	     -0.01333547	      0.46859261	     -0.21415210
      5.07500000	 204508.92699242	-1562600.56559031	-104554.66970435	    100.96602263	   1524.34789971	   1727.38106290	 238708.50935914	-1232445.29464874	 899794.15894138	     14.80910894	    -23.18490453	      4.22035253	     76.04008041	     38.94759711	     12.39638846	-783159.42528592	     -0.10810295	     12.84020770	     -0.09882076	      4.35359514	     -8.89584544	     -0.89049137	     -9.83346342	      6.06803800	      2.46058034	 673822.08664723	      2.83044472	      1.00668687	      2.37406269	-1166866.93767536	     -1.09881168	      0.02685005	      0.04030057	     -0.07461843	     -0.09626131	      0.16509859	     -0.02601997	      0.46427956	     -0.21425773
      5.08000000	 209503.23451555	-1537072.43955060	 -93010.25167046	    112.69519768	   1484.82872763	   1711.24538462	 242033.99309104	-1241141.41202222	 846885.14901656	     13.96013098	    -22.94390251	      3.74779378	     62.95358510	     38.21108941	     11.26162805	-784469.99451028	     -0.11680496	     13.34193978	     -0.10531224	      4.46311484	     -7.47343652	     -0.96595387	     -8.70910291	      5.20834735	      2.36140305	 679440.91858631	      3.04511179	      1.08787540	      2.33674809	-1173182.44195797	     -1.12199684	      0.02706157	      0.04094866	     -0.09790981	     -0.11880100	      0.17492850	     -0.03359214	      0.46069934	     -0.21061322
      5.08500000	 211678.79238794	-1500856.22944891	 -81587.92400265	    123.03270586	   1435.18721207	   1681.91865922	 242268.63892377	-1238730.22905167	 789384.66674976	     13.19591057	    -22.32249757	      3.20299466	     50.00145224	     37.10349463	     10.22135655	-777971.62547220	     -0.12019480	     13.64370166	     -0.10945938	      4.46782276	     -6.07769288	     -0.99535202	     -7.55754048	      4.38743591	      2.28240825	 679641.52731187	      3.19855620	      1.16690181	      2.26900470	-1170307.53625981	     -1.11309890	      0.02811757	      0.04243670	     -0.12073901	     -0.14009416	      0.18363746	     -0.03564779	      0.45751181	     -0.20272683
      5.09000000	 210806.90210314	-1450734.36524558	 -70268.21084984	    131.24438744	   1374.71615042	   1636.96995862	 239173.09918300	-1221804.69766912	 726766.84708960	     12.50862564	    -21.34502977	      2.62982453	     37.37102721	     35.60465355	      9.30589405	-762021.06615987	     -0.12002432	     13.74749045	     -0.10982050	      4.36701165	     -4.74178572	     -0.97645120	     -6.40297640	      3.61531531	      2.22199651	 672872.32747649	      3.27871870	      1.23792998	      2.16686691	-1154652.64552715	     -1.07131647	      0.02989971	      0.04475901	     -0.14190656	     -0.15914532	      0.19036677	     -0.03197335	      0.45429639	     -0.19013063
      5.09500000	 206474.86897089	-1384369.85818860	 -59212.09034745	    136.39102119	   1302.99674143	   1573.53460397	 232355.56168506	-1187690.91143305	 659219.54015106	     11.88567441	    -20.06643299	      2.07286726	     25.23345655	     33.70441634	      8.53793569	-735315.52803070	     -0.11656043	     13.67309066	     -0.10742913	      4.16288929	     -3.49737101	     -0.90854219	     -5.26992626	      2.90134524	      2.17792888	 657554.11500100	      3.27772789	      1.29508245	      2.02688419	-1123319.65186077	     -0.99875470	      0.03225183	      0.04787944	     -0.16043218	     -0.17501177	      0.19427206	     -0.02255636	      0.45056956	     -0.17241360
      5.10000000	 197194.17193897	-1302923.90124580	 -49154.45793949	    135.78921052	   1219.10479769	   1488.30719326	 220423.43417451	-1137019.08112911	 588592.79771767	     11.39393041	    -18.39738186	      1.53649049	     13.73836690	     31.40479523	      7.93169743	-697050.56087420	     -0.11382779	     13.45694146	     -0.10348258	      3.86043611	     -2.37320810	     -0.79248071	     -4.18246897	      2.25412811	      2.14749929	 632280.36881601	      3.19219817	      1.33279252	      1.84641898	-1076730.12178227	     -0.89384656	      0.03498965	      0.05173115	     -0.17553978	     -0.18699769	      0.19457893	     -0.00758560	      0.44581579	     -0.14925653
      5.10500000	 180629.51902776	-1203928.25506073	 -40306.64265439	    126.25318573	   1123.27017473	   1378.44467357	 201066.68021373	-1067216.01914961	 515252.77802434	     11.09656749	    -16.27901845	      1.03349701	      3.01051803	     28.72242821	      7.49248254	-644221.22419420	     -0.11059135	     13.14416312	     -0.10002903	      3.46722249	     -1.39394831	     -0.63068867	     -3.16345842	      1.68136157	      2.12773544	 593476.38707041	      3.02471344	      1.34611056	      1.62396658	-1012378.74909007	     -0.75781830	      0.03791024	      0.05621806	     -0.18647091	     -0.19462319	      0.19063184	      0.01255339	      0.43952563	     -0.12047098
      5.11000000	 153319.33378579	-1072694.30245510	 -31377.19933451	    106.02263462	   1019.89156503	   1240.46313823	 170642.50097598	-964206.78120456	 435565.44276527	     10.95697540	    -13.83982282	      0.60792021	     -6.85120532	     25.69074130	      7.21679771	-567781.19758862	     -0.10638958	     12.78181898	     -0.09572432	      2.99325369	     -0.57916918	     -0.42713834	     -2.23369152	      1.18962678	      2.11556758	 531697.30875977	      2.78497450	      1.33094513	      1.35948484	-916822.94231599	     -0.60066671	      0.04080073	      0.06121590	     -0.19281075	     -0.19760497	      0.18193377	      0.03728493	      0.43123109	     -0.08604421
      5.11500000	 115406.03892976	-908356.54462465	 -22583.39592192	     74.53370392	    913.12953598	   1072.73733852	 129366.03112126	-826522.62900712	 351249.64054127	     11.01877988	    -11.09290994	      0.26923655	    -15.77205334	     22.36064623	      7.09327825	-467682.04314288	     -0.09978615	     12.39964351	     -0.09040801	      2.45081183	      0.05727639	     -0.18729647	     -1.41107767	      0.78414575	      2.10794820	 445653.03277088	      2.48726487	      1.28425301	      1.05467577	-788605.09065208	     -0.42850330	      0.04344724	      0.06657305	     -0.19454138	     -0.19604396	      0.16817790	      0.06585541	      0.42053329	     -0.04618410
      5.12000000	  73832.22284253	-746404.12979599	 -17533.96947686	     33.33453194	    800.92541137	    881.34025003	  84794.01264562	-687423.22790965	 274353.72508950	     11.37120868	     -7.97772848	      0.01177539	    -23.69793353	     18.79956134	      7.10436125	-365289.67793107	     -0.09125559	     12.01200454	     -0.08306712	      1.85419404	      0.50757953	      0.08202223	     -0.70989896	      0.46855723	      2.10193745	 354811.62350382	      2.14952283	      1.20418497	      0.71316696	-659427.49189139	     -0.24444605	      0.04564463	      0.07211193	     -0.19186755	     -0.19042214	      0.14926981	      0.09735760	      0.40712237	     -0.00135487
      5.12500000	  28347.91887062	-584612.74924223	 -14996.78717240	    -13.33066377	    682.26877053	    673.89931264	  36610.67112634	-545000.74401270	 204291.35130102	     12.00303058	     -4.65431097	     -0.14646059	    -30.59217259	     15.08959663	      7.22819539	-259506.04964267	     -0.08225767	     11.60145523	     -0.07460193	      1.21930832	      0.77001113	      0.37290265	     -0.14026364	      0.24472466	      2.09477472	 257825.95089100	      1.79380906	      1.09017706	      0.34056665	-527585.96958169	     -0.05921622	      0.04720633	      0.07763225	     -0.18530501	     -0.18140923	      0.12533711	      0.13076741	      0.39079248	      0.04770514
      5.13000000	  -9060.87523129	-369447.28435940	  -7360.31025219	    -52.09211794	    565.44763064	    457.48644595	  -4033.12769401	-347061.80617787	 126590.81399344	     12.90622343	     -1.27288829	     -0.20301368	    -36.43356171	     11.32526184	      7.44031882	-138526.52953655	     -0.07312092	     11.13100425	     -0.06595517	      0.56321603	      0.84873704	      0.67662411	      0.29219320	      0.11255557	      2.08394696	 142183.48202090	      1.44301551	      0.94298662	     -0.05562255	-340306.87153819	      0.11810386	      0.04797292	      0.08291718	     -0.17571668	     -0.16993863	      0.09672675	      0.16498568	      0.37145411	      0.09998894
      5.13500000	 -18927.89672862	-156225.03389935	   1228.97302973	    -70.71635632	    458.76613990	    246.99651881	 -16895.84908428	-146576.10082678	  56326.97985105	     14.08260647	      2.04884080	     -0.16940622	    -41.21543651	      7.60991488	      7.71509182	 -43328.23546286	     -0.06411869	     10.55020591	     -0.05741767	     -0.09631394	      0.75344167	      0.98396545	      0.58637003	      0.06982926	      2.06724432	  47332.49117517	      1.11884401	      0.76468571	     -0.46623499	-146209.61804678	      0.28128633	      0.04781918	      0.08774227	     -0.16416213	     -0.15713081	      0.06399269	      0.19888031	      0.34914256	      0.15424929
      5.14000000	 -18134.96497864	 -48343.31420222	   1558.78762761	    -71.01143334	    361.45661277	     88.65202094	 -17506.68848551	 -45433.70599906	  19108.37459666	     15.50770596	      5.15931506	     -0.06224517	    -44.94503773	      4.05025003	      8.02713527	  -1636.60016664	     -0.05543358	      9.80061181	     -0.04920461	     -0.74127984	      0.49873986	      1.28553534	      0.74553760	      0.11208280	      2.04279832	   4046.61498593	      0.84056223	      0.55860688	     -0.88081046	 -47432.43295131	      0.42436571	      0.04666013	      0.09188614	     -0.15178864	     -0.14414022	      0.02787370	      0.23133039	      0.32402012	      0.20904639
      5.14500000	  -5374.79727411	  -8435.95329529	    111.97333346	    -59.64814558	    271.32308369	     18.58129584	  -5230.23029397	  -8045.80151704	   3290.36727481	     17.12954817	      7.87735936	      0.09690316	    -47.64254870	      0.74922871	      8.35283652	   1712.90617394	     -0.04715166	      8.82580932	     -0.04149316	     -1.35401255	      0.10340208	      1.57214049	      0.77698110	      0.23261773	      2.00912809	  -1088.72554176	      0.62354513	      0.32923509	     -1.28806988	  -8823.84092377	      0.54151440	      0.04445604	      0.09514256	     -0.13970502	     -0.13202922	     -0.01073773	      0.26127314	      0.29637548	      0.26281095
      5.15000000	    -14.77832406	     15.97178694	     -0.30514498	    -48.87458745	    190.48434890	      1.36482405	     21.12222007	     27.49869245	      0.69485580	     18.87492996	     10.01102871	      0.28238563	    -49.34030008	     -2.20148474	      8.67159731	      9.74197853	     -0.03949800	      7.58182510	     -0.03438853	     -1.91786402	     -0.41045397	      1.83518096	      0.69150591	      0.42263953	      1.96522050	      0.29281386	      0.47808735	      0.08208165	     -1.67645111	      1.07900714	      0.62733922	      0.04121718	      0.09733371	     -0.12883885	     -0.12165390	     -0.05082832	      0.28775204	      0.26662429	      0.31391837
      5.15500000	   -236.04195747	   -306.53303877	      1.07267453	    -48.50417545	    121.31395151	     -7.25078452	   -202.63974506	   -279.92681956	    115.72188633	     20.65868977	     11.38184305	      0.46688556	    -50.08303220	     -4.72855674	      8.96649157	     97.65042826	     -0.03264761	      6.04565307	     -0.02796172	     -2.41800013	     -1.01809722	      2.06705251	      0.50288647	      0.67151980	      1.91063722	    -59.67724397	      0.40866646	     -0.17643957	     -2.03467491	   -343.03236048	      0.67736121	      0.03700786	      0.09832312	     -0.11983990	     -0.11357787	     -0.09129559	      0.30996390	      0.23530914	      0.36077118
      5.16000000	     -2.37223678	      8.03016818	     -2.09304032	    -52.99924724	     64.32805942	    -15.09568192	     21.36322001	     26.58878855	      1.31528117	     22.39193355	     11.84690291	      0.62485364	    -49.92840476	     -6.78264037	      9.22447429	      7.18570775	     -0.02670567	      4.22068447	     -0.02229348	     -2.84220315	     -1.69291992	      2.26152250	      0.22731929	      0.96719412	      1.84561891	      0.18288572	      0.41377187	     -0.43917303	     -2.35232604	      1.04548218	      0.68847538	      0.03194773	      0.09802688	     -0.11302046	     -0.10802627	     -0.13098344	      0.32730001	      0.20309229	      0.40188586
      5.16500000	    -13.90894995	    -18.56845221	     -3.38541573	    -54.95340782	     19.13579461	    -21.21533044	      4.46420497	      1.87420794	      8.57408930	     23.99488897	     11.32958601	      0.73540279	    -48.94643772	     -8.34186937	      9.43644573	     12.12247257	     -0.02170541	      2.13901226	     -0.01741993	     -3.18154031	     -2.40723266	      2.41402594	     -0.11710304	      1.29666559	      1.77114804	     -3.91016660	      0.48621038	     -0.69843691	     -2.62040238	    -24.05609249	      0.65986147	      0.02620911	      0.09642138	     -0.10834857	     -0.10489450	     -0.16872242	      0.33937545	      0.17073724	      0.43597496
      5.17000000	      8.77545636	      0.20105367	     -3.45928821	    -54.69118763	    -15.12499667	    -25.69295203	     21.45816589	     20.20520795	      1.50865447	     25.40455355	      9.83723632	      0.78457619	    -47.21834629	     -9.41259972	      9.59715283	      3.25494437	     -0.01761821	     -0.14032252	     -0.01333750	     -3.43081498	     -3.13304349	      2.52184923	     -0.51091960	      1.64651763	      1.68893582	      0.36893452	      0.61401057	     -0.94627057	     -2.83176079	      0.82029226	      0.59349792	      0.02001090	      0.09354597	     -0.10549301	     -0.10380020	     -0.20337021	      0.34604340	      0.13907875	      0.46201372
      5.17500000	     12.70953962	     -4.99142639	     -3.74723152	    -54.02663347	    -39.65493570	    -28.87229251	     20.39505764	     13.76521739	      2.07689499	     26.57882391	      7.46636337	      0.76606604	    -44.83551070	    -10.02740120	      9.70483086	      1.34108818	     -0.01436931	     -2.53646232	     -0.01001090	     -3.58881811	     -3.84280578	      2.58421235	     -0.93387427	      2.00337589	      1.60132009	      0.28414164	      0.78177272	     -1.17472785	     -2.98142779	     -1.14902303	      0.49428895	      0.01360860	      0.08950030	     -0.10390909	     -0.10416730	     -0.23385415	      0.34739588	      0.10898260	      0.47928673
      5.18000000	     18.13833248	     -6.34517419	     -4.17287010	    -52.81392113	    -55.85076098	    -30.91185053	     21.14716814	      9.86350873	      1.24559977	     27.49687907	      4.39351063	      0.68038199	    -41.89830685	    -10.24089497	      9.76061207	     -1.39174638	     -0.01185436	     -4.95426861	     -0.00738173	     -3.65837146	     -4.51019315	      2.60225128	     -1.36555389	      2.35431866	      1.51107060	      0.72925163	      0.97225823	     -1.37624350	     -3.06677944	      0.45966995	      0.36972128	      0.00728003	      0.08443633	     -0.10294435	     -0.10532149	     -0.25922034	      0.34375076	      0.08129452	      0.48741472
      5.18500000	     22.01735029	     -8.97639909	     -4.28963637	    -50.61498895	    -65.16484362	    -31.95604850	     20.67193575	      3.90051177	      0.97769251	     28.15562746	      0.85334265	      0.53311499	    -38.51469022	    -10.12426306	      9.76773601	     -3.64083611	     -0.00995436	     -7.29295843	     -0.00537693	     -3.64608070	     -5.11089568	      2.57887373	     -1.78605524	      2.68724625	      1.42110280	      0.89767938	      1.16798642	     -1.54404997	     -3.08759600	      0.12546217	      0.22909062	      0.00130724	      0.07854520	     -0.10194053	     -0.10657804	     -0.27868605	      0.33562279	      0.05677787	      0.48636114
      5.19000000	     25.77714855	    -10.84792434	     -4.13670677	    -47.61373581	    -68.99591845	    -32.21680811	     20.35385048	     -1.82022438	      0.64530820	     28.56269140	     -2.89155951	      0.33317400	    -34.79876720	     -9.75918860	      9.73062968	     -5.84008564	     -0.00854804	     -9.45457075	     -0.00391614	     -3.56175044	     -5.62336864	      2.51847576	     -2.17664691	      2.99122411	      1.33414854	      1.11157009	      1.35264497	     -1.67258908	     -3.04600560	      0.05249042	      0.08244497	     -0.00404371	      0.07204044	     -0.10031499	     -0.10731012	     -0.29168848	      0.32367869	      0.03604746	      0.47642209
      5.19500000	     29.00181607	    -12.28631314	     -3.84163975	    -44.15515174	    -68.61783749	    -31.89589105	     19.78943569	     -7.32090538	      0.28389727	     28.72779279	     -6.58326047	      0.09161063	    -30.86918057	     -9.23166645	      9.65389638	     -7.72714343	     -0.00752116	    -11.35135845	     -0.00291780	     -3.41750934	     -6.02947159	      2.42653732	     -2.52043678	      3.25678088	      1.25246173	      1.27026239	      1.51219139	     -1.75786609	     -2.94632779	     -0.14896593	     -0.06054808	     -0.00854310	      0.06514133	     -0.09761484	     -0.10699385	     -0.29792285	      0.30867963	      0.01951435	      0.45820365
      5.20000000	     31.77286097	    -13.20032864	     -3.42122635	    -40.48277434	    -65.14205602	    -31.14198317	     19.08498424	    -12.20966395	     -0.12218381	     28.65522834	     -9.99742718	     -0.17876391	    -26.84665867	     -8.62592287	      9.54121950	     -9.27251510	     -0.00677253	    -12.91162028	     -0.00230347	     -3.22675899	     -6.31498121	      2.30913740	     -2.80303228	      3.47610191	      1.17760035	      1.38888038	      1.63559218	     -1.79770953	     -2.79481147	     -0.31185620	     -0.19159447	     -0.01201562	      0.05805865	     -0.09354387	     -0.10523214	     -0.29736487	      0.29141597	      0.00735219	      0.43258699
      5.20500000	     34.04067036	    -13.70554702	     -2.87790430	    -36.83919311	    -59.51007076	    -30.06226699	     18.24810575	    -16.34553498	     -0.51906497	     28.33968497	    -12.96398097	     -0.46316691	    -22.85044990	     -8.01877849	      9.39431230	    -10.43863066	     -0.00621667	    -14.08373431	     -0.00200050	     -3.00308182	     -6.46997555	      2.17244870	     -3.01311108	      3.64309285	      1.11029517	      1.46317780	      1.71519511	     -1.79191121	     -2.59926711	     -0.45861647	     -0.30445791	     -0.01435403	      0.05098367	     -0.08796674	     -0.10176193	     -0.29027386	      0.27264244	     -0.00051224	      0.40067993
      5.21000000	     35.70252377	    -13.88448793	     -2.25325261	    -33.50468925	    -52.50948810	    -28.73491877	     17.26160766	    -19.63359884	     -0.89171944	     27.76648910	    -15.37698698	     -0.74456477	    -18.99442419	     -7.47488587	      9.21213799	    -11.20493156	     -0.00578394	    -14.83829700	     -0.00194297	     -2.75925860	     -6.48906873	      2.02228976	     -3.14281400	      3.75334969	      1.05041462	      1.49200878	      1.74676696	     -1.74222784	     -2.36861068	     -0.57461617	     -0.39525030	     -0.01552640	      0.04408008	     -0.08089654	     -0.09644946	     -0.27717554	      0.25302397	     -0.00438480	      0.36375615
      5.21500000	     36.62278477	    -13.83165576	     -1.59831321	    -30.73065782	    -44.80317955	    -27.21424174	     16.08982306	    -22.06539401	     -1.22676290	     26.91612325	    -17.19364378	     -1.00389671	    -15.38375217	     -7.04349483	      8.99064569	    -11.56788871	     -0.00541896	    -15.16843098	     -0.00207172	     -2.50653536	     -6.37149436	      1.86380876	     -3.18794492	      3.80410520	      0.99704030	      1.47389193	      1.72926256	     -1.65224711	     -2.11237085	     -0.66100581	     -0.46233072	     -0.01557571	      0.03747943	     -0.07247189	     -0.08927867	     -0.25882705	      0.23310201	     -0.00476827	      0.32318869
      5.22000000	     36.68884056	    -13.63390359	     -0.95600316	    -28.68808387	    -36.96014300	    -25.53924767	     14.71711487	    -23.68814494	     -1.50441928	     25.77166280	    -18.42416870	     -1.22109720	    -12.11211703	     -6.75740128	      8.72320535	    -11.55112621	     -0.00507836	    -15.08847187	     -0.00233386	     -2.25420706	     -6.12104321	      1.70132882	     -3.14799860	      3.79419466	      0.94864957	      1.41272335	      1.66441445	     -1.52713996	     -1.84022986	     -0.71797675	     -0.50589247	     -0.01461226	      0.03128102	     -0.06292866	     -0.08033725	     -0.23616949	      0.21328426	     -0.00230936	      0.28038692
      5.22500000	     35.82275347	    -13.36467314	     -0.36554601	    -27.44992117	    -29.47934603	    -23.74399540	     13.14358129	    -24.58574917	     -1.70477272	     24.32693163	    -19.11583341	     -1.37685584	     -9.25899460	     -6.63374727	      8.40158584	    -11.19600270	     -0.00472875	    -14.63131151	     -0.00268216	     -2.00947655	     -5.74580396	      1.53831992	     -3.02598061	      3.72399575	      0.90333805	      1.31474166	      1.55623293	     -1.37332185	     -1.56160395	     -0.74790166	     -0.52737653	     -0.01280052	      0.02555416	     -0.05257065	     -0.06980343	     -0.21027162	      0.19385183	      0.00226039	      0.23673596
      5.23000000	     33.99518964	    -13.07855305	      0.13552107	    -26.98045124	    -22.80233912	    -21.86309189	     11.38575931	    -24.85656379	     -1.81319948	     22.59305311	    -19.33513369	     -1.45477616	     -6.88726570	     -6.67541791	      8.01699676	    -10.55464562	     -0.00434510	    -13.84470564	     -0.00307440	     -1.77748009	     -5.25765682	      1.37742936	     -2.82798629	      3.59531168	      0.85901965	      1.18691483	      1.41048525	     -1.19804614	     -1.28523968	     -0.75353241	     -0.52886991	     -0.01034291	      0.02034013	     -0.04174178	     -0.05793452	     -0.18226707	      0.17497385	      0.00817944	      0.19353546
      5.23500000	     31.23740988	    -12.81203807	      0.51425436	    -27.13117390	    -17.31433377	    -19.93130254	      9.48087077	    -24.59770381	     -1.82039623	     20.60167611	    -19.15202305	     -1.44343194	     -5.04168968	     -6.87231753	      7.56097745	     -9.68623434	     -0.00390973	    -12.78692029	     -0.00347286	     -1.56141546	     -4.67158092	      1.22053937	     -2.56262018	      3.41127250	      0.81362741	      1.03671635	      1.23419813	     -1.00896502	     -1.01887537	     -0.73781900	     -0.51262581	     -0.00746279	      0.01565515	     -0.03080131	     -0.04505598	     -0.15328980	      0.15672464	      0.01470636	      0.15194828
      5.24000000	     27.64220060	    -12.58543768	      0.74416014	    -27.65372790	    -13.33574180	    -17.98021750	      7.48626770	    -23.89566895	     -1.72282744	     18.40415694	    -18.62931228	     -1.33784094	     -3.74786214	     -7.20274105	      7.02639857	     -8.65324256	     -0.00341173	    -11.52217346	     -0.00384399	     -1.36279242	     -4.00491250	      1.06887371	     -2.24035286	      3.17627477	      0.76532191	      0.87191650	      1.03521347	     -0.81370199	     -0.76901854	     -0.70357514	     -0.48079567	     -0.00438741	      0.01149541	     -0.02010231	     -0.03154977	     -0.12441411	      0.13910601	      0.02116478	      0.11296660
      5.24500000	     23.35448268	    -12.40521508	      0.80589004	    -28.22868179	    -11.10849923	    -16.03460931	      5.47349309	    -22.82388113	     -1.52385864	     16.06712633	    -17.81864629	     -1.14009846	     -3.01122478	     -7.63514533	      6.40869207	     -7.51732831	     -0.00284664	    -10.11634284	     -0.00415841	     -1.18180866	     -3.27663550	      0.92316347	     -1.87284019	      2.89585772	      0.71264718	      0.70005128	      0.82180983	     -0.61946841	     -0.54081940	     -0.65346675	     -0.43539645	     -0.00133176	      0.00784259	     -0.00997320	     -0.01784064	     -0.09660389	      0.12207588	      0.02697718	      0.07738945
      5.25000000	     18.55657663	    -12.26665429	      0.68811810	    -28.50231894	    -10.78321054	    -14.11013893	      3.52072514	    -21.44566118	     -1.23394314	     13.66569860	    -16.76239102	     -0.85917003	     -2.81669592	     -8.13046563	      5.70689467	     -6.33620889	     -0.00221628	     -8.63329738	     -0.00439106	     -1.01776091	     -2.50668545	      0.78382337	     -1.47225508	      2.57648460	      0.65460884	      0.52806285	      0.60237672	     -0.43273978	     -0.33801125	     -0.59013395	     -0.37846200	      0.00151518	      0.00466837	     -0.00070267	     -0.00437879	     -0.07067308	      0.10557644	      0.03168560	      0.04580787
      5.25500000	     13.45026606	    -12.15665414	      0.38810948	    -28.12641617	    -12.41167152	    -12.21351827	      1.70490394	    -19.82007684	     -0.86967542	     11.27573837	    -15.49924189	     -0.50998496	     -3.12961937	     -8.64505016	      4.92403966	     -5.16162673	     -0.00152815	     -7.13203581	     -0.00452159	     -0.86938616	     -1.71523160	      0.65107994	     -1.05072385	      2.22530816	      0.59069712	      0.36215135	      0.38511711	     -0.25900622	     -0.16290592	     -0.51637006	     -0.31227806	      0.00400014	      0.00193744	      0.00747156	      0.00838152	     -0.04725923	      0.08955372	      0.03496060	      0.01859899
      5.26000000	      8.23803938	    -12.05607732	     -0.08835616	    -26.79722587	    -15.94592407	    -10.34521231	      0.09411724	    -18.00786636	     -0.45227916	      8.96653104	    -14.07089966	     -0.11203209	     -3.89785139	     -9.13393794	      4.06696043	     -4.03801986	     -0.00079448	     -5.66469837	     -0.00453470	     -0.73512053	     -0.92197071	      0.52505027	     -0.61990250	      1.84995538	      0.52087029	      0.20767544	      0.17776787	     -0.10260654	     -0.01644136	     -0.43525893	     -0.23959399	      0.00601115	     -0.00039067	      0.01436980	      0.02000610	     -0.02681096	      0.07396836	      0.03660065	     -0.00407073
      5.26500000	      3.10763634	    -11.94112557	     -0.72708058	    -24.28746489	    -21.24308190	     -8.50362189	     -1.25834902	    -16.07525367	     -0.00586731	      6.79516776	    -12.52747251	      0.31229539	     -5.05423062	     -9.55390897	      3.14598511	     -3.00176595	     -0.00003111	     -4.27541464	     -0.00442064	     -0.61331189	     -0.14551362	      0.40580466	     -0.19066924	      1.45830569	      0.44551062	      0.06905352	     -0.01266201	      0.03335916	      0.10170596	     -0.35021528	     -0.16372777	      0.00748020	     -0.00235969	      0.01987438	      0.03010503	     -0.00958686	      0.05880310	      0.03652486	     -0.02223197
      5.27000000	     -1.77783575	    -11.78389410	     -1.50541090	    -20.46650987	    -28.07486198	     -6.68920318	     -2.31740231	    -14.09451010	      0.44438609	      4.80341513	    -10.92987893	      0.73938972	     -6.51917049	     -9.86586528	      2.17473969	     -2.08090103	      0.00074359	     -2.99980967	     -0.00417561	     -0.50238959	      0.59709012	      0.29342374	      0.22708499	      1.05827114	      0.36536861	     -0.05031785	     -0.18013996	      0.14704780	      0.19294324	     -0.26489962	     -0.08851449	      0.00838353	     -0.00401402	      0.02393167	      0.03835537	      0.00433696	      0.04406915	      0.03476142	     -0.03608847
      5.27500000	     -6.28547734	    -11.55300013	     -2.39285319	    -15.30945850	    -36.14062232	     -4.90727038	     -3.06733105	    -12.14132889	      0.87405911	      3.01695289	     -9.34841727	      1.14605811	     -8.20387711	    -10.03640646	      1.16977901	     -1.29512955	      0.00150983	     -1.86494698	     -0.00380191	     -0.40098036	      1.29070542	      0.18803845	      0.62456909	      0.65761845	      0.28150351	     -0.14811933	     -0.31983993	      0.23782658	      0.25954919	     -0.18302110	     -0.01808951	      0.00873934	     -0.00539627	      0.02655148	      0.04452045	      0.01505111	      0.02980950	      0.03143274	     -0.04598596
      5.28000000	    -10.31519455	    -11.21515735	     -3.35280739	     -8.89674217	    -45.08248839	     -3.16903702	     -3.51117146	    -10.28996866	      1.26113615	      1.44657764	     -7.85785658	      1.51103978	    -10.01450211	    -10.03881532	      0.14983408	     -0.65605558	      0.00224744	     -0.88954532	     -0.00330789	     -0.30795870	      1.92237059	      0.08984151	      0.99411124	      0.26383054	      0.19522645	     -0.22312822	     -0.42833137	      0.30616241	      0.30444988	     -0.10807479	      0.04345892	      0.00860265	     -0.00654540	      0.02780279	      0.04846332	      0.02278860	      0.01609736	      0.02673913	     -0.05237678
      5.28500000	    -13.79877461	    -10.73807147	     -4.34497420	     -1.40284876	    -54.50076747	     -1.49111873	     -3.66811315	     -8.60750336	      1.58732142	      0.09108437	     -6.53034994	      1.81629650	    -11.85668165	     -9.85389875	     -0.86509053	     -0.16769262	      0.00293661	     -0.08433866	     -0.00270768	     -0.22242027	      2.48146837	     -0.00093041	      1.32910350	     -0.11602198	      0.10805381	     -0.27518997	     -0.50370207	      0.35345644	      0.33097882	     -0.04307006	      0.09249745	      0.00805773	     -0.00749434	      0.02780618	      0.05015249	      0.02789358	      0.00303002	      0.02094355	     -0.05578041
      5.29000000	    -16.69535699	    -10.09428613	     -5.32778412	      6.92522359	    -63.96745739	      0.10660935	     -3.56926221	     -7.14855092	      1.83889791	     -1.05873275	     -5.42777031	      2.04796213	    -13.63953483	     -9.47067453	     -1.85441259	      0.17271710	      0.00355825	      0.54747644	     -0.00202101	     -0.14358017	      2.95979393	     -0.08403638	      1.62390219	     -0.47538941	      0.02166370	     -0.30513480	     -0.54559591	      0.38184700	      0.34264007	      0.00969782	      0.12623389	      0.00720924	     -0.00826794	      0.02672385	      0.04965952	      0.03078759	     -0.00927999	      0.01435659	     -0.05674445
      5.29500000	    -18.98527554	     -9.26477402	     -6.26058853	     15.79377234	    -73.03586577	      1.60503361	     -3.25287555	     -5.95149709	      2.00714260	     -2.01590518	     -4.59498150	      2.19691171	    -15.27872480	     -8.88628961	     -2.79741188	      0.37364033	      0.00409384	      1.00964131	     -0.00127278	     -0.07062021	      3.35150692	     -0.15928297	      1.87372042	     -0.80831599	     -0.06216520	     -0.31463787	     -0.55515435	      0.39400524	      0.34292455	      0.04879497	      0.14301068	      0.00617310	     -0.00888274	      0.02474771	      0.04714920	      0.03193762	     -0.02071483	      0.00731962	     -0.05581471
      5.30000000	    -20.66527437	     -8.24116847	     -7.10566179	     24.88623397	    -81.24572451	      2.99038313	     -2.76022201	     -5.03659299	      2.08839504	     -2.79399231	     -4.05528080	      2.25897859	    -16.69902079	     -8.10497189	     -3.67370649	      0.44808044	      0.00452519	      1.31203249	     -0.00049259	     -0.00256143	      3.65300409	     -0.22656634	      2.07455686	     -1.10949751	     -0.14163483	     -0.30603041	     -0.53486160	      0.39293377	      0.33519616	      0.07369987	      0.14245834	      0.00506762	     -0.00934878	      0.02208548	      0.04286374	      0.03182627	     -0.03116019	      0.00018621	     -0.05351624
      5.30500000	    -21.74696807	     -7.02641498	     -7.83000388	     33.88229145	    -88.12490887	      4.25698952	     -2.13270208	     -4.40586371	      2.08388270	     -3.40539582	     -3.80872771	      2.23488768	    -17.83678330	     -7.13657637	     -4.46397697	      0.41242127	      0.00483414	      1.46968983	      0.00028575	      0.06177206	      3.86276944	     -0.28588723	      2.22317976	     -1.37432373	     -0.21500514	     -0.28208174	     -0.48830801	      0.38177093	      0.32261485	      0.08476355	      0.12549116	      0.00400500	     -0.00967215	      0.01894598	      0.03710276	      0.03092227	     -0.04051188	     -0.00669535	     -0.05033939
      5.31000000	    -22.25776125	     -5.63404619	     -8.40660393	     42.47165670	    -93.18911970	      5.40689929	     -1.41021559	     -4.04459550	      1.99933702	     -3.86125462	     -3.83344956	      2.12994818	    -18.64189571	     -5.99526085	     -5.15075708	      0.28534479	      0.00500245	      1.50169920	      0.00102485	      0.12373911	      3.98120071	     -0.33735480	      2.31712508	     -1.59887571	     -0.28065055	     -0.24577767	     -0.41989754	      0.36361183	      0.30806747	      0.08309638	      0.09415639	      0.00308370	     -0.00985728	      0.01552526	      0.03020116	      0.02965362	     -0.04868162	     -0.01299728	     -0.04672701
      5.31500000	    -22.24211184	     -4.08618654	     -8.81486414	     50.36409019	    -95.94055016	      6.44684022	     -0.63035545	     -3.92400855	      1.84438372	     -4.17229067	     -4.08947858	      1.95349917	    -19.07845449	     -4.69835880	     -5.71905260	      0.08683450	      0.00501155	      1.42994297	      0.00168436	      0.18488544	      4.01038768	     -0.38120209	      2.35466093	     -1.77988693	     -0.33710139	     -0.20011480	     -0.33452928	      0.34136324	      0.29410943	      0.07040465	      0.05136972	      0.00238237	     -0.00990882	      0.01199501	      0.02250760	      0.02838756	     -0.05560384	     -0.01842471	     -0.04306394
      5.32000000	    -21.76190682	     -2.41047462	     -9.04049996	     57.29978102	    -95.86783112	      7.38444758	      0.17201526	     -4.00460946	      1.63170998	     -4.34984769	     -4.52425720	      1.71811784	    -19.12444373	     -3.26527283	     -6.15682889	     -0.16272661	      0.00484241	      1.27777066	      0.00222175	      0.24697136	      3.95385760	     -0.41781396	      2.33472553	     -1.91470524	     -0.38307577	     -0.14792373	     -0.23728065	      0.31763961	      0.28293561	      0.04880196	      0.00058212	      0.00195575	     -0.00983316	      0.00849396	      0.01436498	      0.02741885	     -0.06124311	     -0.02272445	     -0.03967139
      5.32500000	    -20.89580101	     -0.63638811	     -9.07551495	     63.06208203	    -92.45008878	      8.22527062	      0.96508122	     -4.23977821	      1.37607413	     -4.40648699	     -5.07882376	      1.43866291	    -18.77125227	     -1.71634984	     -6.45547098	     -0.44336026	      0.00447556	      1.06864716	      0.00259310	      0.31200436	      3.81632016	     -0.44775588	      2.25687131	     -2.00126911	     -0.41750154	     -0.09173415	     -0.13311551	      0.29470016	      0.27639271	      0.02062130	     -0.05456905	      0.00183224	     -0.00964008	      0.00512301	      0.00609434	      0.02696570	     -0.06560050	     -0.02568971	     -0.03680749
      5.33000000	    -19.73751255	      1.20858295	     -8.91829808	     67.48874596	    -85.16514249	      8.97020638	      1.72044235	     -4.57929054	      1.09327216	     -4.35586504	     -5.69394384	      1.13124485	    -18.02339990	     -0.07183629	     -6.61013403	     -0.73621148	      0.00389122	      0.82483860	      0.00275399	      0.38226346	      3.60342443	     -0.47179104	      2.12123714	     -2.03810010	     -0.43953786	     -0.03369014	     -0.02663693	      0.27442869	      0.27603258	     -0.01175156	     -0.11057612	      0.00201365	     -0.00934466	      0.00194459	     -0.00201705	      0.02717293	     -0.06871688	     -0.02716232	     -0.03467504
      5.33500000	    -18.39262674	      3.10241692	     -8.57340063	     70.47682502	    -73.49969468	      9.61274538	      2.41356088	     -4.97255925	      0.79915531	     -4.21205838	     -6.31559010	      0.81221618	    -16.89780647	      1.64898768	     -6.61983253	     -1.02417209	      0.00306960	      0.56623617	      0.00266013	      0.46030232	      3.32152008	     -0.49088046	      1.92854757	     -2.02430642	     -0.44860572	      0.02448796	      0.07810533	      0.25835228	      0.28319440	     -0.04601413	     -0.16431280	      0.00247690	     -0.00896949	     -0.00101434	     -0.00972329	      0.02812123	     -0.07067252	     -0.02703445	     -0.03343595
      5.34000000	    -16.97347565	      5.03076548	     -8.05079899	     71.98128772	    -56.96065836	     10.13715184	      3.02413855	     -5.37142133	      0.50875541	     -3.98862626	     -6.89903001	      0.49728675	    -15.42172034	      3.42836111	     -6.48721174	     -1.29234871	      0.00199115	      0.30944010	      0.00226823	      0.54891027	      2.97741468	     -0.50616686	      1.68009547	     -1.95956192	     -0.44440788	      0.08150462	      0.17775090	      0.24768658	      0.29908220	     -0.08005197	     -0.21320473	      0.00317750	     -0.00854599	     -0.00375667	     -0.01682412	      0.02984076	     -0.07158400	     -0.02524819	     -0.03322649
      5.34500000	    -15.59260819	      6.98742081	     -7.36490363	     72.01129867	    -35.08787659	     10.51932529	      3.53633057	     -5.73240431	      0.23555286	     -3.69748987	     -7.41100975	      0.20080426	    -13.62957090	      5.25039111	     -6.21804337	     -1.52834272	      0.00063699	      0.06718192	      0.00153717	      0.65102569	      2.57813651	     -0.51894153	      1.37765355	     -1.84403081	     -0.42690576	      0.13646068	      0.26970739	      0.24339830	      0.32479291	     -0.11201458	     -0.25531427	      0.00405426	     -0.00811337	     -0.00630804	     -0.02316649	      0.03232741	     -0.07159856	     -0.02179039	     -0.03416452
      5.35000000	    -14.35628209	      8.97363712	     -6.53362659	     70.62664610	     -7.46799352	     10.73036531	      3.93890174	     -6.01846820	     -0.00909274	     -3.34772091	     -7.83017067	     -0.06483886	    -11.55995253	      7.10155740	     -5.82059175	     -1.72239071	     -0.00101067	     -0.15190876	      0.00042939	      0.76961617	      2.13071605	     -0.53059299	      1.02332722	     -1.67826906	     -0.39625436	      0.18880526	      0.35217365	      0.24627629	      0.36129088	     -0.14036611	     -0.28934770	      0.00503481	     -0.00771502	     -0.00870877	     -0.02864373	      0.03556012	     -0.07088575	     -0.01668235	     -0.03634646
      5.35500000	    -13.35924185	     10.99691144	     -5.57757259	     67.93245089	     26.25040445	     10.74107878	      4.22532112	     -6.20018934	     -0.21631742	     -2.94470397	     -8.14618500	     -0.28966020	     -9.25335491	      8.97142942	     -5.30505059	     -1.86739908	     -0.00296790	     -0.34319585	     -0.00108778	      0.90751728	      1.64197864	     -0.54253298	      0.61942482	     -1.46316542	     -0.35273595	      0.23828024	      0.42411648	      0.25698861	      0.40937338	     -0.16391371	     -0.31460348	      0.00604133	     -0.00739447	     -0.01100642	     -0.03319317	      0.03951509	     -0.06962628	     -0.00996851	     -0.03984223
      5.36000000	    -12.68116895	     13.06941931	     -4.51923379	     64.06944786	     66.33939300	     10.52610625	      4.39361373	     -6.25634425	     -0.37990120	     -2.49018199	     -8.35800691	     -0.46632680	     -6.75036137	     10.85339693	     -4.68312656	     -1.95884850	     -0.00524820	     -0.50557092	     -0.00304047	      1.06724444	      1.11835136	     -0.55611345	      0.16839942	     -1.19994534	     -0.29673028	      0.28486462	      0.48520719	      0.27609555	      0.46966157	     -0.18181454	     -0.33088018	      0.00699537	     -0.00719249	     -0.01324979	     -0.03679291	      0.04417243	     -0.06800096	     -0.00170902	     -0.04469549
      5.36500000	    -12.38434862	     15.20635718	     -3.38199496	     59.20068647	    112.97214138	     10.06774285	      4.44593019	     -6.17388983	     -0.49622421	     -1.98310309	     -8.47156529	     -0.59018341	     -4.08998642	     12.74526840	     -3.96761639	     -1.99457879	     -0.00786132	     -0.64071035	     -0.00544653	      1.25085576	      0.56571378	     -0.57256780	     -0.32715366	     -0.89021180	     -0.22872016	      0.32872289	      0.53572545	      0.30401933	      0.54260337	     -0.19356465	     -0.33836428	      0.00782159	     -0.00714545	     -0.01548500	     -0.03945799	      0.04951590	     -0.06618377	      0.00802293	     -0.05092745
      5.37000000	    -12.51156457	     17.42432474	     -2.18880492	     53.49789511	    166.20318374	      9.35925852	      4.38801616	     -5.94743830	     -0.56413149	     -1.42065017	     -8.49736145	     -0.65918199	     -1.30799331	     14.64942551	     -3.17178267	     -1.97453205	     -0.01081194	     -0.75227353	     -0.00831387	      1.45988577	     -0.01070203	     -0.59297730	     -0.86449591	     -0.53599927	     -0.14930648	      0.37016110	      0.57644804	      0.34100779	      0.62845662	     -0.19897661	     -0.33752220	      0.00845165	     -0.00728355	     -0.01775310	     -0.04123588	      0.05553198	     -0.06433767	      0.01914210	     -0.05853878
      5.37500000	    -13.08388983	     19.73972220	     -0.96070015	     47.12940222	    225.95055691	      8.40641274	      4.22868847	     -5.57840497	     -0.58476412	     -0.79909826	     -8.44845853	     -0.67377839	      1.56479991	     16.57223432	     -2.30864137	     -1.90050733	     -0.01409834	     -0.84521168	     -0.01163920	      1.69527330	     -0.60638028	     -0.61823231	     -1.44074810	     -0.13984704	     -0.05921944	      0.40958837	      0.60854176	      0.38711014	      0.72724920	     -0.19815140	     -0.32901717	      0.00882893	     -0.00762849	     -0.02008864	     -0.04220196	      0.06220981	     -0.06260919	      0.03155259	     -0.06750845
      5.38000000	    -14.09916412	     22.16727525	      0.28447803	     40.25001597	    291.98103221	      7.22647958	      3.97924046	     -5.07396438	     -0.56132576	     -0.11468511	     -8.33906262	     -0.63677036	      4.50399478	     18.52283111	     -1.39043005	     -1.77590898	     -0.01771121	     -0.92517525	     -0.01540716	      1.95723157	     -1.21755462	     -0.64897565	     -2.05285243	      0.29509991	      0.04066834	      0.44747778	      0.63346315	      0.44215316	      0.83873821	     -0.19144376	     -0.31365611	      0.00891314	     -0.00819135	     -0.02251845	     -0.04245493	      0.06953909	     -0.06112137	      0.04514918	     -0.07779203
      5.38500000	    -15.53175742	     24.71879375	      1.53312968	     32.99374744	    363.89976228	      5.84586398	      3.65274906	     -4.44594385	     -0.49876052	      0.63534254	     -8.18363127	     -0.55307126	      7.49267402	     20.51159403	     -0.42825054	     -1.60547167	     -0.02163260	     -0.99794281	     -0.01958975	      2.24509451	     -1.84120067	     -0.68554073	     -2.69749964	      0.76500002	      0.14932888	      0.48432513	      0.65285578	      0.50571711	      0.96237252	     -0.17942138	     -0.29236349	      0.00868469	     -0.00897105	     -0.02506081	     -0.04211169	      0.07750601	     -0.05996647	      0.05981729	     -0.08931986
      5.39000000	    -17.33390206	     27.40251185	      2.77671642	     25.46969927	    441.14628629	      4.29790909	      3.26335001	     -3.70977451	     -0.40338032	      1.45156338	     -7.99643623	     -0.42944066	     10.52177327	     22.54879317	      0.56818072	     -1.39498654	     -0.02583535	     -1.06887602	     -0.02414623	      2.55721227	     -2.47500143	     -0.72790695	     -3.37107634	      1.26528167	      0.26557578	      0.52061310	      0.66844667	      0.57711569	      1.09725318	     -0.16282306	     -0.26617732	      0.00814928	     -0.00995329	     -0.02772532	     -0.04130145	      0.08608884	     -0.05920037	      0.07543237	     -0.10199305
      5.39500000	    -19.43877199	     30.22359446	      4.01225071	     17.75977313	    523.00021689	      2.62157703	      2.82557428	     -2.88350094	     -0.28250489	      2.33118023	     -7.79152059	     -0.27416413	     13.58964233	     24.64404210	      1.59056289	     -1.15105888	     -0.03028303	     -1.14246080	     -0.02902368	      2.89093309	     -3.11728934	     -0.77568721	     -4.06963829	      1.79065203	      0.38806628	      0.55678641	      0.68195341	      0.65537641	      1.24211824	     -0.14252067	     -0.23625793	      0.00734157	     -0.01111065	     -0.03051327	     -0.04015994	      0.09525274	     -0.05884073	      0.09185903	     -0.11568067
      5.40000000	    -21.76441299	     33.18570175	      5.24261015	      9.91745142	    608.60098200	      0.86081313	      2.35387968	     -1.98683334	     -0.14415721	      3.26701209	     -7.58291325	     -0.09667658	     16.70150480	     26.80660674	      2.63188585	     -0.88090333	     -0.03493083	     -1.22197270	     -0.03415840	      3.24267421	     -3.76697481	     -0.82814975	     -4.78888838	      2.33512134	      0.51529481	      0.59323726	      0.69500957	      0.73922531	      1.39538448	     -0.11948478	     -0.20389854	      0.00632717	     -0.01240457	     -0.03341837	     -0.03882419	      0.10494377	     -0.05886915	      0.10895016	     -0.13022407
      5.40500000	    -24.21788501	     36.29276836	      6.47657112	      1.96989294	    696.98479026	     -0.93611917	      1.86242078	     -1.04035880	      0.00318509	      4.24717864	     -7.38499673	      0.09283690	     19.86905988	     29.04600471	      3.68630265	     -0.59215317	     -0.03972769	     -1.30933617	     -0.03947850	      3.60811359	     -4.42347313	     -0.88428371	     -5.52420405	      2.89209524	      0.64559214	      0.63030226	      0.70912259	      0.82710411	      1.55524413	     -0.09475435	     -0.17053105	      0.00520171	     -0.01378844	     -0.03642763	     -0.03742902	      0.11508601	     -0.05923759	      0.12654667	     -0.14544808
