Coordinates
version=1
nRows=119
nColumns=40
inDegrees=yes

Units are S.I. units (second, meters, Newtons, ...)
If the header above contains a line with 'inDegrees', this indicates whether rotational values are in degrees (yes) or radians (no).

endheader
time	pelvis_tilt	pelvis_list	pelvis_rotation	pelvis_tx	pelvis_ty	pelvis_tz	hip_flexion_r	hip_adduction_r	hip_rotation_r	knee_angle_r	knee_angle_r_beta	ankle_angle_r	subtalar_angle_r	mtp_angle_r	hip_flexion_l	hip_adduction_l	hip_rotation_l	knee_angle_l	knee_angle_l_beta	ankle_angle_l	subtalar_angle_l	mtp_angle_l	lumbar_extension	lumbar_bending	lumbar_rotation	arm_flex_r	arm_add_r	arm_rot_r	elbow_flex_r	pro_sup_r	wrist_flex_r	wrist_dev_r	arm_flex_l	arm_add_l	arm_rot_l	elbow_flex_l	pro_sup_l	wrist_flex_l	wrist_dev_l
      4.81500000	    -35.08941041	     -0.35985670	     -0.85694753	     -0.44228252	      0.59160440	     -0.89661861	    100.99604596	    -10.07346929	     -1.85664079	     98.84746360	      1.72521370	     35.97383377	      0.00000000	      0.00000000	    100.59324296	    -17.83068949	      0.28576854	     98.19947243	      1.71390412	     34.68971099	      0.00000000	      0.00000000	    -35.30310256	    -15.57431978	    -45.67442240	     34.83907564	    -25.86855295	     89.78739419	     85.70763017	      3.90456866	      0.00000000	      0.00000000	    -76.23511559	     -8.21663947	    -18.43970829	    120.82741529	     88.13779994	      0.00000000	      0.00000000
      4.82000000	    -35.11014006	     -0.36005319	     -0.88832171	     -0.44200652	      0.59163670	     -0.89671195	    100.97694836	    -10.09163277	     -1.90432858	     98.82370916	      1.72479910	     35.97634598	      0.00000000	      0.00000000	    100.58074425	    -17.85648923	      0.28033912	     98.21821651	      1.71423126	     34.72790838	      0.00000000	      0.00000000	    -35.34719475	    -15.57068603	    -45.66954318	     34.82088164	    -25.83366074	     89.78760244	     85.63644828	      3.93823875	      0.00000000	      0.00000000	    -76.19135613	     -8.23834854	    -18.40490446	    120.79951622	     88.14456821	      0.00000000	      0.00000000
      4.82500000	    -35.12628891	     -0.37593967	     -0.90994885	     -0.44177679	      0.59166868	     -0.89672960	    100.95376509	    -10.12037196	     -1.96676840	     98.81870130	      1.72471170	     36.03584130	      0.00000000	      0.00000000	    100.57020873	    -17.86170767	      0.31450348	     98.20768686	      1.71404749	     34.77979347	      0.00000000	      0.00000000	    -35.45171601	    -15.59413128	    -45.77478428	     34.85651079	    -25.75075604	     89.78709488	     85.52287117	      3.93204157	      0.00000000	      0.00000000	    -76.24402647	     -8.04508577	    -18.47842058	    120.82606097	     88.12327001	      0.00000000	      0.00000000
      4.83000000	    -35.09474730	     -0.38516425	     -1.02461338	     -0.44133182	      0.59190042	     -0.89660638	    100.85199477	    -10.03396859	     -2.03339275	     98.80087744	      1.72440062	     36.01527925	      0.00000000	      0.00000000	    100.48468817	    -17.99017906	      0.34314188	     98.23184756	      1.71446917	     34.83791511	      0.00000000	      0.00000000	    -35.47268148	    -15.61536726	    -45.67004338	     34.84594914	    -25.71448356	     89.78681648	     85.41461205	      4.05181682	      0.00000000	      0.00000000	    -76.17301129	     -8.17536752	    -18.40083591	    120.79751984	     88.13968404	      0.00000000	      0.00000000
      4.83500000	    -35.03339615	     -0.47954681	     -0.95730251	     -0.44082046	      0.59238402	     -0.89680195	    100.65846913	    -10.20107481	     -2.21442850	     98.74312201	      1.72339259	     36.13085938	      0.00000000	      0.00000000	    100.35449525	    -17.90964625	      0.40220460	     98.16982560	      1.71338668	     34.90137954	      0.00000000	      0.00000000	    -35.55211064	    -15.47174677	    -45.67524474	     34.85119264	    -25.67797428	     89.78621048	     85.33199674	      3.99937252	      0.00000000	      0.00000000	    -76.09217948	     -8.30451613	    -18.40122995	    120.80798002	     88.13829447	      0.00000000	      0.00000000
      4.84000000	    -34.97170339	     -0.45430416	     -0.94475368	     -0.44023303	      0.59290209	     -0.89701524	    100.49862903	    -10.27766392	     -2.22819818	     98.71913068	      1.72297386	     36.15708634	      0.00000000	      0.00000000	    100.16392824	    -17.87249660	      0.34621289	     98.11971952	      1.71251217	     34.98715036	      0.00000000	      0.00000000	    -35.59293972	    -15.45432831	    -45.69209030	     34.84138528	    -25.65480138	     89.78587225	     85.26811439	      3.96673206	      0.00000000	      0.00000000	    -76.00046155	     -8.47223314	    -18.33114933	    120.77704342	     88.12799145	      0.00000000	      0.00000000
      4.84500000	    -34.94635367	     -0.57302162	     -1.06297047	     -0.43972771	      0.59335528	     -0.89671525	    100.32182426	    -10.17914638	     -2.42702426	     98.63066195	      1.72142979	     36.17393863	      0.00000000	      0.00000000	    100.10631402	    -18.00265214	      0.50051709	     98.09315583	      1.71204854	     35.02882381	      0.00000000	      0.00000000	    -35.58487920	    -15.44746681	    -45.61545904	     34.82902695	    -25.56896084	     89.78580918	     85.15407578	      3.96732630	      0.00000000	      0.00000000	    -76.07046505	     -8.43756734	    -18.35960189	    120.81677833	     88.11178384	      0.00000000	      0.00000000
      4.85000000	    -34.78334191	     -0.49250618	     -1.15084948	     -0.43869329	      0.59441025	     -0.89676049	     99.98947976	    -10.16814223	     -2.45100750	     98.51259024	      1.71936905	     36.26204013	      0.00000000	      0.00000000	     99.70703508	    -18.08637747	      0.39087013	     98.02170434	      1.71080148	     35.17047230	      0.00000000	      0.00000000	    -35.58946478	    -15.52122821	    -45.46157708	     34.77947368	    -25.55618177	     89.78388961	     85.02354124	      4.00850233	      0.00000000	      0.00000000	    -75.84732197	     -8.90831196	    -18.16648342	    120.71434223	     88.12746487	      0.00000000	      0.00000000
      4.85500000	    -34.54133968	     -0.53346292	     -1.25762786	     -0.43758775	      0.59565288	     -0.89660847	     99.52224606	    -10.13034152	     -2.60662477	     98.38612346	      1.71716179	     36.36204804	      0.00000000	      0.00000000	     99.28797941	    -18.20839850	      0.40884845	     97.95301372	      1.70960260	     35.25199544	      0.00000000	      0.00000000	    -35.76899919	    -15.53036137	    -45.39968302	     34.76837380	    -25.45731809	     89.78325314	     84.91409186	      3.98074056	      0.00000000	      0.00000000	    -75.80292976	     -9.07118191	    -18.15471921	    120.67660510	     88.11944244	      0.00000000	      0.00000000
      4.86000000	    -34.18034894	     -0.62785242	     -1.23605336	     -0.43611954	      0.59731985	     -0.89672401	     98.86587717	    -10.24489752	     -2.82093878	     98.27545947	      1.71523034	     36.45266399	      0.00000000	      0.00000000	     98.69785960	    -18.18545787	      0.44413531	     97.83407174	      1.70752667	     35.44745666	      0.00000000	      0.00000000	    -36.01374408	    -15.39590533	    -45.33896588	     34.79304084	    -25.36095986	     89.78145551	     84.70517740	      3.96163016	      0.00000000	      0.00000000	    -75.56360202	     -9.37467514	    -18.11161925	    120.55649725	     88.08430611	      0.00000000	      0.00000000
      4.86500000	    -34.16415423	     -0.49376214	     -1.20729237	     -0.43541453	      0.59833609	     -0.89698931	     98.72187459	    -10.35171230	     -2.74572521	     98.13617439	      1.71279936	     36.47984510	      0.00000000	      0.00000000	     98.41640310	    -18.11435739	      0.25442075	     97.64926271	      1.70430115	     35.48691003	      0.00000000	      0.00000000	    -35.85214188	    -15.45967410	    -45.42428411	     34.77841218	    -25.32770975	     89.77981823	     84.62345217	      3.95533407	      0.00000000	      0.00000000	    -75.50058164	     -9.70097503	    -18.01527417	    120.57533717	     88.13252413	      0.00000000	      0.00000000
      4.87000000	    -33.91587377	     -0.52866507	     -1.29714780	     -0.43407831	      0.60004258	     -0.89684035	     98.19072008	    -10.31538516	     -2.88964035	     97.94732419	      1.70950330	     36.53020397	      0.00000000	      0.00000000	     97.90033652	    -18.22729162	      0.23973730	     97.49802779	      1.70166160	     35.57020324	      0.00000000	      0.00000000	    -35.93801556	    -15.47730465	    -45.39571760	     34.78647577	    -25.18304194	     89.77841377	     84.41681346	      3.95528644	      0.00000000	      0.00000000	    -75.45827158	     -9.88734324	    -18.04901650	    120.52990499	     88.13473333	      0.00000000	      0.00000000
      4.87500000	    -33.59222913	     -0.51977983	     -1.41583243	     -0.43263048	      0.60196921	     -0.89657707	     97.57345633	    -10.22439643	     -3.00001326	     97.74570943	      1.70598446	     36.52611024	      0.00000000	      0.00000000	     97.27663173	    -18.37713867	      0.18008172	     97.33283954	      1.69877852	     35.57412746	      0.00000000	      0.00000000	    -36.01394529	    -15.54807606	    -45.30238817	     34.76578113	    -25.05850447	     89.77592093	     84.22464264	      3.93243932	      0.00000000	      0.00000000	    -75.35097746	    -10.16240888	    -18.06227318	    120.48771769	     88.13208462	      0.00000000	      0.00000000
      4.88000000	    -33.51279870	     -0.47882723	     -1.40344293	     -0.43163397	      0.60354568	     -0.89686230	     97.26419807	    -10.32525649	     -3.02905590	     97.54314563	      1.70244905	     36.51124102	      0.00000000	      0.00000000	     96.92627262	    -18.29841041	      0.11040648	     97.12294209	      1.69511512	     35.55693969	      0.00000000	      0.00000000	    -35.84281584	    -15.51513181	    -45.37957286	     34.83172085	    -25.01582828	     89.78097645	     84.16954503	      3.92850631	      0.00000000	      0.00000000	    -75.24949534	    -10.31826413	    -18.07134282	    120.45049628	     88.13167944	      0.00000000	      0.00000000
      4.88500000	    -33.25253808	     -0.53128075	     -1.54006705	     -0.43012348	      0.60583778	     -0.89648940	     96.62171187	    -10.20990727	     -3.22813678	     97.22296454	      1.69686084	     36.50184595	      0.00000000	      0.00000000	     96.30862547	    -18.50197451	      0.05070684	     96.81970218	      1.68982258	     35.56285531	      0.00000000	      0.00000000	    -35.78633016	    -15.52556800	    -45.28129449	     34.82864098	    -24.83949333	     89.77621381	     83.96052170	      3.91273917	      0.00000000	      0.00000000	    -75.11992614	    -10.58430323	    -18.09191374	    120.30321578	     88.12691902	      0.00000000	      0.00000000
      4.89000000	    -32.70616830	     -0.56079967	     -1.69535702	     -0.42792940	      0.60874821	     -0.89622591	     95.61712534	    -10.10580315	     -3.38615676	     96.92200747	      1.69160815	     36.58333210	      0.00000000	      0.00000000	     95.32668361	    -18.75458595	     -0.08994881	     96.60210128	      1.68602473	     35.68121560	      0.00000000	      0.00000000	    -35.96420180	    -15.55472379	    -45.10806286	     34.80645903	    -24.69249380	     89.77068935	     83.65779758	      3.89252241	      0.00000000	      0.00000000	    -74.89283568	    -10.98010512	    -18.07626100	    120.09746666	     88.13182738	      0.00000000	      0.00000000
      4.89500000	    -32.68591675	     -0.42320363	     -1.72592768	     -0.42695022	      0.61054626	     -0.89641510	     95.36527969	    -10.14313953	     -3.34340993	     96.66624637	      1.68714427	     36.62616775	      0.00000000	      0.00000000	     94.94430116	    -18.67232194	     -0.23359927	     96.33244027	      1.68131826	     35.71645865	      0.00000000	      0.00000000	    -35.60273115	    -15.63997687	    -45.20517736	     34.86449129	    -24.63650491	     89.77333730	     83.59829212	      3.89217787	      0.00000000	      0.00000000	    -74.86386128	    -11.09508751	    -18.08809738	    120.08802412	     88.13261972	      0.00000000	      0.00000000
      4.90000000	    -32.18896598	     -0.43241934	     -1.85152505	     -0.42469035	      0.61411851	     -0.89618891	     94.33620933	    -10.05625917	     -3.49204870	     96.22655228	      1.67947017	     36.57070303	      0.00000000	      0.00000000	     93.88069942	    -18.84342683	     -0.39646951	     95.87087169	      1.67326237	     35.71113183	      0.00000000	      0.00000000	    -35.72223579	    -15.66309075	    -45.14043327	     34.89593719	    -24.42109951	     89.77023955	     83.29694112	      3.87036013	      0.00000000	      0.00000000	    -74.62909262	    -11.37239128	    -18.14442890	    119.86387408	     88.12653910	      0.00000000	      0.00000000
      4.90500000	    -31.26113067	     -0.52458756	     -1.91975504	     -0.42176001	      0.61816287	     -0.89608731	     92.79432739	    -10.07409295	     -3.76337343	     95.91283260	      1.67399472	     36.88230725	      0.00000000	      0.00000000	     92.39157417	    -19.03562122	     -0.56749147	     95.63438478	      1.66913489	     36.06964658	      0.00000000	      0.00000000	    -36.24795328	    -15.57961545	    -45.05966570	     34.93313975	    -24.20546670	     89.76380947	     82.90746359	      3.86597214	      0.00000000	      0.00000000	    -74.39594531	    -11.75512557	    -18.10723434	    119.68574707	     88.13862694	      0.00000000	      0.00000000
      4.91000000	    -30.89892105	     -0.54624462	     -1.86212292	     -0.41973267	      0.62188534	     -0.89640673	     91.87443601	    -10.19928765	     -3.91253669	     95.40664047	      1.66516000	     36.80198034	      0.00000000	      0.00000000	     91.45314462	    -18.94241477	     -0.72211167	     95.09126906	      1.65965574	     35.99133201	      0.00000000	      0.00000000	    -36.23655038	    -15.44462913	    -45.19242589	     35.03962021	    -24.03008139	     89.76288913	     82.71260822	      3.86089775	      0.00000000	      0.00000000	    -74.15873190	    -11.86199611	    -18.22051090	    119.52380958	     88.13012806	      0.00000000	      0.00000000
      4.91500000	    -30.74725664	     -0.59020708	     -1.88137707	     -0.41816357	      0.62462653	     -0.89643360	     91.30160359	    -10.20229419	     -4.05588160	     95.01079371	      1.65825118	     36.77515742	      0.00000000	      0.00000000	     90.89557623	    -18.93335644	     -0.76149922	     94.70807867	      1.65296780	     35.98416818	      0.00000000	      0.00000000	    -35.89945540	    -15.37605108	    -45.30228459	     35.12782996	    -23.93639074	     89.76787728	     82.60026235	      3.85715755	      0.00000000	      0.00000000	    -74.15092420	    -11.79547456	    -18.28229481	    119.39959221	     88.12915664	      0.00000000	      0.00000000
      4.92000000	    -30.34652046	     -0.69343345	     -1.88785917	     -0.41594653	      0.62880396	     -0.89646424	     90.24618604	    -10.19467213	     -4.29993713	     94.37978258	      1.64723795	     36.71823046	      0.00000000	      0.00000000	     89.89031415	    -18.95547698	     -0.86798728	     94.09043364	      1.64218786	     35.92114752	      0.00000000	      0.00000000	    -35.83288114	    -15.24333707	    -45.37437068	     35.21704183	    -23.70311707	     89.76090256	     82.30077689	      3.83528562	      0.00000000	      0.00000000	    -73.95379045	    -11.80458454	    -18.42892277	    119.21949632	     88.12272878	      0.00000000	      0.00000000
      4.92500000	    -29.78055353	     -0.70754244	     -2.00631721	     -0.41337226	      0.63311861	     -0.89622706	     89.04177500	    -10.11141763	     -4.49585977	     93.82851958	      1.63761660	     36.75069153	      0.00000000	      0.00000000	     88.65968502	    -19.11114454	     -1.08081966	     93.58519779	      1.63336983	     35.99991731	      0.00000000	      0.00000000	    -35.83655460	    -15.24408503	    -45.40205405	     35.27775581	    -23.45429449	     89.75246701	     81.92903644	      3.81621427	      0.00000000	      0.00000000	    -73.80774046	    -11.88298739	    -18.57543791	    119.07304731	     88.12411105	      0.00000000	      0.00000000
      4.93000000	    -29.39870421	     -0.75702156	     -2.06488319	     -0.41114530	      0.63733777	     -0.89618787	     88.03852838	    -10.07313474	     -4.68581221	     93.21676220	      1.62693942	     36.72501193	      0.00000000	      0.00000000	     87.67266018	    -19.17890758	     -1.22732041	     92.99464770	      1.62306279	     35.94868743	      0.00000000	      0.00000000	    -35.66883683	    -15.18175213	    -45.48492312	     35.37052656	    -23.23797469	     89.75332404	     81.72797053	      3.80910964	      0.00000000	      0.00000000	    -73.73341332	    -11.80345533	    -18.70883629	    118.94579898	     88.12306711	      0.00000000	      0.00000000
      4.93500000	    -28.43718656	     -0.84412215	     -2.13916734	     -0.40771060	      0.64292150	     -0.89594313	     86.25009816	    -10.03178175	     -4.98741683	     92.59964215	      1.61616864	     36.90650569	      0.00000000	      0.00000000	     85.89900421	    -19.38264890	     -1.49355284	     92.43054774	      1.61321739	     36.13520139	      0.00000000	      0.00000000	    -36.11900012	    -15.11360050	    -45.58216826	     35.45071932	    -22.89236737	     89.74678429	     81.21404795	      3.79823699	      0.00000000	      0.00000000	    -73.55218816	    -11.78585479	    -18.94635818	    118.73830565	     88.13744359	      0.00000000	      0.00000000
      4.94000000	    -28.20876175	     -0.87263213	     -2.13973987	     -0.40546013	      0.64751287	     -0.89606658	     85.34852366	    -10.05102784	     -5.16620371	     91.86215526	      1.60329707	     36.76618355	      0.00000000	      0.00000000	     84.99327848	    -19.28814086	     -1.58914563	     91.69485109	      1.60037706	     35.96675688	      0.00000000	      0.00000000	    -35.70781985	    -15.04520180	    -45.67219892	     35.51112061	    -22.76838133	     89.75170392	     81.10420869	      3.79430424	      0.00000000	      0.00000000	    -73.43017759	    -11.70819347	    -19.07812054	    118.73329089	     88.13355048	      0.00000000	      0.00000000
      4.94500000	    -27.58815546	     -0.90491732	     -2.02391799	     -0.40267450	      0.65278419	     -0.89620357	     83.95692778	    -10.20427461	     -5.41111672	     91.16102029	      1.59105995	     36.81175385	      0.00000000	      0.00000000	     83.59489102	    -19.22400829	     -1.88348703	     90.95025557	      1.58738142	     35.95290663	      0.00000000	      0.00000000	    -35.70877226	    -14.94037204	    -45.90886420	     35.55878916	    -22.49132569	     89.73688603	     80.62927331	      3.76422987	      0.00000000	      0.00000000	    -73.32671747	    -11.68212298	    -19.40674899	    118.64158441	     88.14415191	      0.00000000	      0.00000000
      4.95000000	    -27.05167597	     -0.73386075	     -1.81680988	     -0.39983237	      0.65833204	     -0.89684055	     82.70715487	    -10.56143170	     -5.47740563	     90.42718458	      1.57825210	     36.73548151	      0.00000000	      0.00000000	     82.14580062	    -18.90677235	     -2.33196753	     90.06560390	      1.57194133	     35.82619291	      0.00000000	      0.00000000	    -35.68682888	    -14.89262714	    -46.39593882	     35.62395537	    -22.23159926	     89.73192144	     80.33986152	      3.75892341	      0.00000000	      0.00000000	    -73.17213886	    -11.57924501	    -19.50919801	    118.28173393	     88.13942894	      0.00000000	      0.00000000
      4.95500000	    -26.59839103	     -0.61236744	     -1.54431502	     -0.39716344	      0.66396116	     -0.89769161	     81.49784190	    -10.99510629	     -5.64265616	     89.63436049	      1.56441471	     36.64450108	      0.00000000	      0.00000000	     80.82031202	    -18.45981610	     -2.65732752	     89.12827308	      1.55558182	     35.69159741	      0.00000000	      0.00000000	    -35.57189363	    -14.76602058	    -46.92252228	     35.73032965	    -22.00549283	     89.72780543	     80.00087430	      3.74487915	      0.00000000	      0.00000000	    -73.05382398	    -11.31126151	    -19.76040853	    118.14427961	     88.13788415	      0.00000000	      0.00000000
      4.96000000	    -26.28776573	     -0.62903646	     -1.39460375	     -0.39456993	      0.66958796	     -0.89819837	     80.36921863	    -11.19608236	     -5.90237481	     88.73707502	      1.54875413	     36.45682600	      0.00000000	      0.00000000	     79.70628275	    -18.20903212	     -2.83864588	     88.16791942	      1.53882049	     35.44859536	      0.00000000	      0.00000000	    -35.14091365	    -14.58528617	    -47.14897121	     35.73309617	    -21.82644150	     89.72569391	     79.70661890	      3.73233733	      0.00000000	      0.00000000	    -72.79039464	    -11.22344632	    -20.01781527	    117.93996878	     88.14430411	      0.00000000	      0.00000000
      4.96500000	    -25.71546405	     -0.57058593	     -1.22122298	     -0.39134651	      0.67616502	     -0.89882297	     78.89529302	    -11.49021658	     -6.15977733	     87.76645082	      1.53181354	     36.22976943	      0.00000000	      0.00000000	     78.16856886	    -17.95046237	     -3.21124998	     87.11246910	      1.52039941	     35.12839019	      0.00000000	      0.00000000	    -35.01260893	    -14.43517996	    -47.47036668	     35.78177862	    -21.60028563	     89.71836826	     79.33660892	      3.69836458	      0.00000000	      0.00000000	    -72.47553864	    -11.12465841	    -20.09415571	    117.41067862	     88.13536489	      0.00000000	      0.00000000
      4.97000000	    -25.62117105	     -0.53950772	     -1.24862038	     -0.38875861	      0.68184221	     -0.89879056	     77.98982357	    -11.48819553	     -6.40600879	     86.74768965	      1.51403280	     35.96802053	      0.00000000	      0.00000000	     77.23469789	    -17.87819085	     -3.43802547	     86.08889804	      1.50253472	     34.83780866	      0.00000000	      0.00000000	    -34.28917353	    -14.45806801	    -47.59697332	     35.66057642	    -21.53582034	     89.71933034	     79.23318867	      3.69028136	      0.00000000	      0.00000000	    -72.35746639	    -10.84762696	    -20.15360155	    117.25064604	     88.13125605	      0.00000000	      0.00000000
      4.97500000	    -25.63876812	     -0.90024412	     -0.97109890	     -0.38712815	      0.68768580	     -0.89817954	     77.09007874	    -11.38313363	     -6.85530302	     85.60246381	      1.49404484	     35.63758114	      0.00000000	      0.00000000	     76.64061828	    -17.81378630	     -3.37609965	     84.85166725	      1.48094097	     34.41217334	      0.00000000	      0.00000000	    -33.44504210	    -14.03972918	    -47.74397813	     35.63441967	    -21.34353311	     89.71471157	     79.08198957	      3.67579563	      0.00000000	      0.00000000	    -72.40305166	    -10.77703036	    -20.45505074	    117.15476893	     88.11741467	      0.00000000	      0.00000000
      4.98000000	    -25.13327289	     -0.79939054	     -1.26029341	     -0.38320689	      0.69452408	     -0.89828253	     75.62625222	    -11.26963467	     -7.12283497	     84.47392129	      1.47434806	     35.31442522	      0.00000000	      0.00000000	     75.07019055	    -18.03128672	     -3.88370492	     83.91984221	      1.46467755	     33.96335864	      0.00000000	      0.00000000	    -32.96175144	    -14.17977326	    -47.66528178	     35.55157744	    -21.08564728	     89.70407165	     78.36385132	      3.61244789	      0.00000000	      0.00000000	    -71.85146714	    -10.49137299	    -20.60747658	    116.42489103	     88.13133149	      0.00000000	      0.00000000
      4.98500000	    -25.04220869	     -0.70064189	     -1.27651518	     -0.38055078	      0.70098632	     -0.89824104	     74.66742454	    -11.32574389	     -7.37783931	     83.26547724	      1.45325673	     34.94718171	      0.00000000	      0.00000000	     74.03473872	    -17.91582012	     -4.23623489	     82.73680055	      1.44402958	     33.53124181	      0.00000000	      0.00000000	    -32.14962882	    -14.30614843	    -47.75134903	     35.34958626	    -21.07288234	     89.69529785	     78.28031044	      3.60538395	      0.00000000	      0.00000000	    -71.72487261	    -10.15468770	    -20.65879298	    116.29121462	     88.13060585	      0.00000000	      0.00000000
      4.99000000	    -24.41145254	     -0.85796581	     -1.13415064	     -0.37700969	      0.70888387	     -0.89830021	     72.87962287	    -11.35897538	     -7.83776819	     81.95072449	      1.43030997	     34.46903219	      0.00000000	      0.00000000	     72.38601408	    -17.90937262	     -4.59816732	     81.42346189	      1.42110750	     32.92415246	      0.00000000	      0.00000000	    -31.91677415	    -14.03545949	    -47.90521483	     35.29359799	    -20.73358805	     89.69439367	     77.60037026	      3.55373815	      0.00000000	      0.00000000	    -71.29078813	    -10.03999637	    -20.94777286	    115.64402469	     88.12203768	      0.00000000	      0.00000000
      4.99500000	    -24.18980081	     -0.78150944	     -1.12647431	     -0.37412836	      0.71630457	     -0.89828625	     71.65978157	    -11.39149172	     -8.13356247	     80.54790235	      1.40582610	     33.99649552	      0.00000000	      0.00000000	     71.09006527	    -17.83769094	     -5.11505424	     80.00220496	      1.39630189	     32.30329969	      0.00000000	      0.00000000	    -31.29910203	    -14.08568538	    -48.12102513	     35.17484454	    -20.53913253	     89.69352099	     77.36492599	      3.54047034	      0.00000000	      0.00000000	    -71.07612375	     -9.61334670	    -21.09641956	    115.30615199	     88.11669028	      0.00000000	      0.00000000
      5.00000000	    -23.79906219	     -0.67078638	     -1.13996357	     -0.37096437	      0.72417911	     -0.89818485	     70.23737438	    -11.43603475	     -8.40475696	     79.15292274	      1.38147911	     33.42551105	      0.00000000	      0.00000000	     69.57238863	    -17.76575804	     -5.65544130	     78.58932764	      1.37164252	     31.53668490	      0.00000000	      0.00000000	    -30.88133662	    -14.21601464	    -48.41424450	     35.04960091	    -20.27817104	     89.68736083	     76.89516975	      3.51141076	      0.00000000	      0.00000000	    -70.87987959	     -8.99555454	    -21.47287616	    114.83386660	     88.11149602	      0.00000000	      0.00000000
      5.00500000	    -23.83695351	     -0.01140135	     -1.66895449	     -0.36903294	      0.73166077	     -0.89772550	     69.62133595	    -11.19053484	     -7.84795060	     77.63876422	      1.35505206	     32.64183940	      0.00000000	      0.00000000	     68.25063786	    -17.84360237	     -6.92847236	     77.00032696	      1.34390923	     30.77900637	      0.00000000	      0.00000000	    -30.04070926	    -15.06269120	    -48.65105795	     35.03645013	    -20.00295256	     89.69039507	     76.73391317	      3.50428905	      0.00000000	      0.00000000	    -70.91485640	     -8.22560026	    -21.97245756	    114.71070250	     88.10553453	      0.00000000	      0.00000000
      5.01000000	    -23.22708862	     -0.28407776	     -1.26978109	     -0.36471409	      0.74066142	     -0.89796604	     67.59896792	    -11.48709891	     -8.75317297	     76.05892044	      1.32747859	     31.94270645	      0.00000000	      0.00000000	     66.52934612	    -17.66177920	     -7.22214869	     75.38253374	      1.31567341	     29.97189630	      0.00000000	      0.00000000	    -29.78019050	    -14.65378291	    -49.02756100	     34.80140545	    -19.77890466	     89.68433676	     76.28720868	      3.47524518	      0.00000000	      0.00000000	    -70.62488979	     -7.67854287	    -22.20745342	    114.14139344	     88.10603732	      0.00000000	      0.00000000
      5.01500000	    -23.21154424	      0.10376508	     -1.57933235	     -0.36273182	      0.74863157	     -0.89764307	     66.71240470	    -11.43529941	     -8.80650353	     74.39058158	      1.29836058	     31.19916892	      0.00000000	      0.00000000	     65.29294807	    -17.59195937	     -8.07761922	     73.74605295	      1.28711143	     29.16576360	      0.00000000	      0.00000000	    -28.91860975	    -15.18906235	    -49.20139638	     34.80262649	    -19.66510159	     89.67378864	     76.41164275	      3.49113247	      0.00000000	      0.00000000	    -70.68665732	     -7.00290239	    -22.44056473	    114.07437669	     88.10338099	      0.00000000	      0.00000000
      5.02000000	    -22.29068703	     -0.10209752	     -1.18960608	     -0.35825909	      0.75871701	     -0.89777238	     64.31493808	    -11.70851134	     -9.68836306	     72.66480698	      1.26824013	     30.23474123	      0.00000000	      0.00000000	     63.14778994	    -17.39371605	     -8.47677432	     71.98821646	      1.25643140	     27.98363038	      0.00000000	      0.00000000	    -29.04181315	    -14.87137467	    -49.63305158	     34.56104294	    -19.40613800	     89.67289864	     75.90563350	      3.45281277	      0.00000000	      0.00000000	    -70.45490396	     -6.35816703	    -22.93082657	    113.57632902	     88.10363889	      0.00000000	      0.00000000
      5.02500000	    -22.23061022	      0.39298271	     -1.41817321	     -0.35608124	      0.76756730	     -0.89771677	     63.35974284	    -11.78067234	     -9.61456169	     70.87965750	      1.23708340	     29.07712837	      0.00000000	      0.00000000	     61.73088713	    -17.16531690	     -9.56067492	     70.10054875	      1.22348538	     26.71830387	      0.00000000	      0.00000000	    -28.31217676	    -15.45910103	    -50.00621769	     34.58534190	    -19.23812081	     89.66449869	     75.90032504	      3.44906462	      0.00000000	      0.00000000	    -70.55734274	     -5.48366252	    -23.53644634	    113.52906110	     88.10570228	      0.00000000	      0.00000000
      5.03000000	    -21.78541810	      0.52649071	     -1.60966614	     -0.35236833	      0.77726502	     -0.89742480	     61.67530075	    -11.70457920	    -10.00368625	     68.95509248	      1.20349340	     28.01718224	      0.00000000	      0.00000000	     59.89004654	    -17.17822286	    -10.41217837	     68.24949829	      1.19117846	     25.55904020	      0.00000000	      0.00000000	    -27.68799561	    -15.72017435	    -49.94003456	     34.36724655	    -19.22920116	     89.66157121	     75.82051912	      3.43286958	      0.00000000	      0.00000000	    -70.43797951	     -4.96543245	    -23.80756973	    113.20769118	     88.10910592	      0.00000000	      0.00000000
      5.03500000	    -21.13630951	      0.66696377	     -1.54493970	     -0.34845398	      0.78775403	     -0.89771371	     59.68599630	    -11.90490186	    -10.56250781	     66.96979248	      1.16884338	     26.75540787	      0.00000000	      0.00000000	     57.81556544	    -16.90265867	    -11.16020972	     66.23239479	      1.15597336	     24.02800426	      0.00000000	      0.00000000	    -27.42739613	    -15.82284592	    -50.15545314	     34.20573516	    -19.23423345	     89.65676429	     75.76456816	      3.41496956	      0.00000000	      0.00000000	    -70.31839958	     -4.42750358	    -24.13366852	    112.93891298	     88.10217083	      0.00000000	      0.00000000
      5.04000000	    -20.96503848	      0.70822655	     -1.52767064	     -0.34520844	      0.79778853	     -0.89762437	     58.13471062	    -11.92150910	    -11.25549442	     64.77457408	      1.13052959	     25.69076133	      0.00000000	      0.00000000	     56.31864058	    -16.70581138	    -11.76609081	     64.10947406	      1.11892140	     22.76896180	      0.00000000	      0.00000000	    -26.58255829	    -15.91459684	    -50.23358131	     34.00530016	    -19.34141481	     89.64722190	     75.96957987	      3.42371936	      0.00000000	      0.00000000	    -70.37807449	     -3.83299913	    -24.29097346	    112.83316412	     88.09518085	      0.00000000	      0.00000000
      5.04500000	    -20.37241187	      0.72636918	     -1.55066811	     -0.34150868	      0.80888761	     -0.89761079	     56.06213936	    -11.86410027	    -11.86862846	     62.43666393	      1.08972536	     24.12176369	      0.00000000	      0.00000000	     54.27475526	    -16.57664169	    -12.50687446	     61.90120552	      1.08037985	     20.97481281	      0.00000000	      0.00000000	    -26.18046527	    -15.97063579	    -50.20956744	     33.85733621	    -19.41582268	     89.64426342	     75.92258939	      3.40312775	      0.00000000	      0.00000000	    -70.20153042	     -3.38812490	    -24.76552204	    112.63422262	     88.08044510	      0.00000000	      0.00000000
      5.05000000	    -19.57419501	      0.63521288	     -1.55101574	     -0.33756677	      0.82048718	     -0.89751622	     53.70913803	    -11.77838424	    -12.65452256	     60.07504442	      1.04850732	     22.23777709	      0.00000000	      0.00000000	     52.07395527	    -16.48779041	    -13.03001931	     59.74588853	      1.04276247	     18.82215608	      0.00000000	      0.00000000	    -26.03104936	    -15.91458249	    -50.18872880	     33.68859009	    -19.48515437	     89.63845956	     75.81662477	      3.37013353	      0.00000000	      0.00000000	    -70.14262546	     -2.82152373	    -25.14737127	    112.38681085	     88.08285668	      0.00000000	      0.00000000
      5.05500000	    -18.70031568	      0.30986854	     -1.36560169	     -0.33318880	      0.83254498	     -0.89748130	     51.02192245	    -11.63983641	    -13.88002112	     57.46748754	      1.00299687	     20.37627882	      0.00000000	      0.00000000	     49.81904807	    -16.45640576	    -13.38724492	     57.46652967	      1.00298015	     16.75882629	      0.00000000	      0.00000000	    -25.92929813	    -15.57951621	    -50.20941266	     33.52449899	    -19.63277347	     89.63373476	     75.77816784	      3.33959499	      0.00000000	      0.00000000	    -70.12392279	     -2.28440572	    -25.47849135	    112.20158251	     88.09820749	      0.00000000	      0.00000000
      5.06000000	    -18.28508056	      0.31568261	     -1.42723160	     -0.32963464	      0.84420522	     -0.89733661	     49.04927921	    -11.40920785	    -14.38382572	     54.76740638	      0.95587156	     18.38784359	      0.00000000	      0.00000000	     47.89642520	    -16.26872381	    -13.99771869	     54.95067158	      0.95907015	     14.46332985	      0.00000000	      0.00000000	    -25.28293972	    -15.67722314	    -50.07120630	     33.28132909	    -19.84019649	     89.63163308	     75.77573520	      3.32176009	      0.00000000	      0.00000000	    -70.16489815	     -1.87630503	    -25.81454732	    112.15319691	     88.09073067	      0.00000000	      0.00000000
      5.06500000	    -17.70358398	      0.28669045	     -1.39741923	     -0.32575441	      0.85635032	     -0.89726374	     46.79299100	    -11.22882347	    -15.06880410	     51.96024795	      0.90687741	     16.14638352	      0.00000000	      0.00000000	     45.77127158	    -16.03067685	    -14.58090761	     52.36853291	      0.91400332	     12.05930586	      0.00000000	      0.00000000	    -24.85495334	    -15.67746470	    -50.02217016	     33.10981089	    -20.08174010	     89.63174937	     75.81054464	      3.30055547	      0.00000000	      0.00000000	    -70.20602416	     -1.44741079	    -26.22074671	    112.20073452	     88.07464775	      0.00000000	      0.00000000
      5.07000000	    -17.13300603	      0.27297570	     -1.45158374	     -0.32196965	      0.86873715	     -0.89718773	     44.51530921	    -10.96093926	    -15.69621185	     48.98379883	      0.85492857	     13.65794426	      0.00000000	      0.00000000	     43.58459967	    -15.80585944	    -15.26743898	     49.62134350	      0.86605582	      9.40270254	      0.00000000	      0.00000000	    -24.37155903	    -15.73337253	    -49.90655300	     32.95713188	    -20.30402220	     89.62284530	     75.79234328	      3.26560755	      0.00000000	      0.00000000	    -70.24013550	     -1.02983260	    -26.52914071	    112.08067542	     88.08139888	      0.00000000	      0.00000000
      5.07500000	    -16.64462887	      0.16763319	     -1.33488414	     -0.31789541	      0.88122421	     -0.89719885	     42.21309805	    -10.68809575	    -16.47865474	     45.88038979	      0.80076386	     10.97859547	      0.00000000	      0.00000000	     41.51846053	    -15.55161493	    -15.80508921	     46.83296232	      0.81738939	      6.61663376	      0.00000000	      0.00000000	    -23.75651661	    -15.65698277	    -49.82842340	     32.72397312	    -20.61015388	     89.61612745	     75.77467287	      3.22701666	      0.00000000	      0.00000000	    -70.30303228	     -0.67291291	    -26.78068445	    112.00795606	     88.07974155	      0.00000000	      0.00000000
      5.08000000	    -16.11137863	      0.19067965	     -1.37938614	     -0.31396007	      0.89404331	     -0.89709108	     39.90422552	    -10.37362192	    -17.04146032	     42.65624079	      0.74449185	      7.94221318	      0.00000000	      0.00000000	     39.27739336	    -15.24137443	    -16.55667400	     43.84270308	      0.76519952	      3.52947859	      0.00000000	      0.00000000	    -23.20630716	    -15.74248319	    -49.68043130	     32.53695275	    -20.88493162	     89.62130529	     75.72230191	      3.17903164	      0.00000000	      0.00000000	    -70.37673551	     -0.36035854	    -27.00531344	    111.92532137	     88.08792184	      0.00000000	      0.00000000
      5.08500000	    -15.63814988	      0.11224422	     -1.32117092	     -0.30983773	      0.90694722	     -0.89710540	     37.54003170	     -9.97288620	    -17.67821448	     39.21746000	      0.68447380	      4.76116316	      0.00000000	      0.00000000	     37.13150846	    -14.92191426	    -17.13551865	     40.76620282	      0.71150446	      0.27816760	      0.00000000	      0.00000000	    -22.60700107	    -15.66817003	    -49.64820376	     32.37515809	    -21.13853505	     89.61898385	     75.64973089	      3.13840872	      0.00000000	      0.00000000	    -70.48189601	     -0.03749552	    -27.17560268	    111.72533685	     88.08492898	      0.00000000	      0.00000000
      5.09000000	    -15.18483761	      0.07546053	     -1.12215327	     -0.30563234	      0.92003764	     -0.89734660	     35.14130590	     -9.65911437	    -18.38521126	     35.69409516	      0.62297948	      1.14213973	      0.00000000	      0.00000000	     34.99014594	    -14.42568272	    -17.61063140	     37.52027573	      0.65485235	     -3.27116058	      0.00000000	      0.00000000	    -22.06022488	    -15.57739820	    -49.78791316	     32.22901957	    -21.35584111	     89.62118063	     75.45596783	      3.10597255	      0.00000000	      0.00000000	    -70.55963407	      0.34253178	    -27.48745606	    111.63589137	     88.09000508	      0.00000000	      0.00000000
      5.09500000	    -14.89259909	      0.23513038	     -1.21526555	     -0.30177109	      0.93297826	     -0.89712374	     33.05760591	     -9.25401536	    -18.44452533	     32.07434699	      0.55980296	     -2.65148812	      0.00000000	      0.00000000	     32.86943546	    -13.85310004	    -18.21370135	     34.09564226	      0.59508122	     -7.11174807	      0.00000000	      0.00000000	    -21.29428448	    -15.81468849	    -49.73144916	     32.07905929	    -21.54307611	     89.61768811	     75.40028044	      3.07899746	      0.00000000	      0.00000000	    -70.72495825	      0.68148190	    -27.80276923	    111.55207629	     88.08524934	      0.00000000	      0.00000000
      5.10000000	    -14.60049822	      0.27535749	     -1.07794170	     -0.29780771	      0.94612067	     -0.89717554	     30.85444839	     -8.85388623	    -18.78985700	     28.32634655	      0.49438801	     -6.84215580	      0.00000000	      0.00000000	     30.84624290	    -13.27093086	    -18.68442379	     30.60879034	      0.53422417	    -11.25996567	      0.00000000	      0.00000000	    -20.60859781	    -15.84952246	    -49.88026680	     31.93895365	    -21.69245975	     89.62099126	     75.28653415	      3.05082920	      0.00000000	      0.00000000	    -70.89862579	      1.02045627	    -28.01842652	    111.43560853	     88.08305326	      0.00000000	      0.00000000
      5.10500000	    -14.33398904	      0.36643871	     -0.97135804	     -0.29390020	      0.95936426	     -0.89719133	     28.68450392	     -8.44072766	    -18.97673634	     24.48311917	      0.42731104	    -11.37948084	      0.00000000	      0.00000000	     28.82327292	    -12.62370431	    -19.11768066	     27.01228620	      0.47145333	    -15.62600503	      0.00000000	      0.00000000	    -19.93012026	    -15.94689879	    -50.03977663	     31.81909532	    -21.78221630	     89.62306279	     75.17307731	      3.02300762	      0.00000000	      0.00000000	    -71.05842984	      1.35856877	    -28.24503024	    111.34212459	     88.07669674	      0.00000000	      0.00000000
      5.11000000	    -14.11605482	      0.45905579	     -0.88791899	     -0.29003816	      0.97248333	     -0.89701930	     26.66237354	     -8.03728356	    -19.13974717	     20.73812060	      0.36194849	    -16.19852212	      0.00000000	      0.00000000	     26.90603323	    -11.99393808	    -19.46076930	     23.41729869	      0.40870896	    -20.04962672	      0.00000000	      0.00000000	    -19.25864209	    -16.04397634	    -50.28850546	     31.72203556	    -21.76244354	     89.63694425	     75.00981229	      3.01080019	      0.00000000	      0.00000000	    -71.30760765	      1.71091962	    -28.39741798	    111.32980091	     88.09119978	      0.00000000	      0.00000000
      5.11500000	    -13.92134618	      0.61002685	     -0.81460791	     -0.28624775	      0.98565149	     -0.89685653	     24.68639621	     -7.67672496	    -19.20222515	     16.93076904	      0.29549766	    -21.19093735	      0.00000000	      0.00000000	     25.01994135	    -11.28363616	    -19.60963031	     19.72763232	      0.34431214	    -24.76328009	      0.00000000	      0.00000000	    -18.53742176	    -16.22287229	    -50.50138508	     31.68524615	    -21.73764052	     89.64126132	     74.88618941	      3.00496268	      0.00000000	      0.00000000	    -71.51583601	      1.97772491	    -28.47695503	    111.25656976	     88.08966407	      0.00000000	      0.00000000
      5.12000000	    -13.76984951	      0.75045570	     -0.76952128	     -0.28242371	      0.99871594	     -0.89658361	     22.85144347	     -7.32574694	    -19.25679057	     13.23657768	      0.23102186	    -26.17845914	      0.00000000	      0.00000000	     23.22266919	    -10.62541261	    -19.62128865	     16.06478873	      0.28038346	    -29.26602676	      0.00000000	      0.00000000	    -17.75840708	    -16.41928978	    -50.65805494	     31.64692496	    -21.70412565	     89.64381558	     74.79990389	      2.98909800	      0.00000000	      0.00000000	    -71.68261340	      2.21064394	    -28.54454950	    111.31806669	     88.09315301	      0.00000000	      0.00000000
      5.12500000	    -13.69935435	      0.86598720	     -0.61391607	     -0.27886099	      1.01166313	     -0.89634772	     21.25561974	     -7.04549864	    -19.33018439	      9.84680102	      0.17185910	    -30.86279606	      0.00000000	      0.00000000	     21.62773919	     -9.99817713	    -19.41956852	     12.52131774	      0.21853822	    -32.99416331	      0.00000000	      0.00000000	    -16.95763578	    -16.58499616	    -50.86462682	     31.51584418	    -21.65959185	     89.64660120	     74.73959962	      2.99070174	      0.00000000	      0.00000000	    -71.85169964	      2.40696914	    -28.61267695	    111.38351093	     88.09359477	      0.00000000	      0.00000000
      5.13000000	    -13.68270599	      0.97041899	     -0.55938946	     -0.27540269	      1.02440576	     -0.89600326	     19.87804585	     -6.78186315	    -19.44786110	      6.74629881	      0.11774513	    -34.75059470	      0.00000000	      0.00000000	     20.17332612	     -9.47041169	    -19.26256050	      9.38916498	      0.16387184	    -36.34068374	      0.00000000	      0.00000000	    -16.07757644	    -16.72247985	    -50.98793285	     31.51765552	    -21.60832689	     89.64527177	     74.66579210	      2.98672606	      0.00000000	      0.00000000	    -71.96952530	      2.56134830	    -28.56400911	    111.46894077	     88.08734978	      0.00000000	      0.00000000
      5.13500000	    -13.64880141	      0.97123788	     -0.42592884	     -0.27229300	      1.03725711	     -0.89557479	     18.61050017	     -6.45797058	    -19.78102293	      4.06134998	      0.07088393	    -37.32199237	      0.00000000	      0.00000000	     18.86184605	     -9.12439545	    -19.13624211	      6.74405968	      0.11770605	    -37.83883767	      0.00000000	      0.00000000	    -15.30205642	    -16.75126069	    -51.16088979	     31.45238654	    -21.44596897	     89.64903154	     74.62455145	      2.99527276	      0.00000000	      0.00000000	    -72.02755778	      2.62057863	    -28.51157650	    111.58477590	     88.08616197	      0.00000000	      0.00000000
      5.14000000	    -13.56135518	      0.98773249	     -0.52567907	     -0.26924088	      1.05012079	     -0.89494087	     17.53546725	     -6.16554055	    -19.99172584	      2.08986259	      0.03647498	    -38.15170118	      0.00000000	      0.00000000	     17.63225496	     -8.96143471	    -19.66762980	      4.82575623	      0.08422534	    -38.31245130	      0.00000000	      0.00000000	    -14.59246770	    -16.82546239	    -51.11906995	     31.45692884	    -21.28490171	     89.64307174	     74.55372359	      2.99060946	      0.00000000	      0.00000000	    -72.03189556	      2.67198496	    -28.47933920	    111.67432069	     88.08091467	      0.00000000	      0.00000000
      5.14500000	    -13.52299672	      0.92917657	     -0.39128263	     -0.26691683	      1.06302378	     -0.89449364	     16.80418132	     -5.98135472	    -21.06607254	      1.06722203	      0.01862654	    -38.08163197	      0.00000000	      0.00000000	     16.79802380	     -8.91115910	    -20.56328534	      3.68158406	      0.06425576	    -38.13237268	      0.00000000	      0.00000000	    -13.96317217	    -16.75532357	    -51.26133362	     31.47717504	    -21.04742387	     89.63784492	     74.41744188	      2.98963206	      0.00000000	      0.00000000	    -71.94092938	      2.60156369	    -28.48094221	    111.75359495	     88.07855136	      0.00000000	      0.00000000
      5.15000000	    -13.31170656	      0.77622064	     -0.36057192	     -0.26449878	      1.07591701	     -0.89387121	     16.08862019	     -5.67456747	    -22.50501040	      0.79174959	      0.01381864	    -37.33277686	      0.00000000	      0.00000000	     15.97337682	     -9.03630510	    -21.75709381	      3.21363067	      0.05608844	    -37.46293488	      0.00000000	      0.00000000	    -13.45483518	    -16.63652393	    -51.18525739	     31.42723894	    -20.88576643	     89.63266608	     74.24711924	      3.00004819	      0.00000000	      0.00000000	    -71.83576643	      2.38333364	    -28.38503639	    111.90472693	     88.07797816	      0.00000000	      0.00000000
      5.15500000	    -13.19253253	      0.79987595	     -0.50699106	     -0.26297574	      1.08828926	     -0.89293982	     15.68060221	     -5.48154731	    -23.96459613	      0.82133884	      0.01433507	    -36.63705319	      0.00000000	      0.00000000	     15.53910433	     -9.09605830	    -23.14921412	      3.46079335	      0.06040224	    -36.70605730	      0.00000000	      0.00000000	    -13.02547878	    -16.70359761	    -51.12379945	     31.55170701	    -20.54460489	     89.62393393	     74.29648471	      3.02884313	      0.00000000	      0.00000000	    -71.83861635	      2.18060995	    -28.32748307	    112.15048370	     88.06693287	      0.00000000	      0.00000000
      5.16000000	    -12.92124317	      0.73168800	     -0.43261059	     -0.26141831	      1.10056478	     -0.89240719	     15.07228923	     -5.23312631	    -25.48672331	      1.01085068	      0.01764267	    -36.39794705	      0.00000000	      0.00000000	     15.20284071	     -9.24520169	    -24.43114478	      4.27653952	      0.07463970	    -36.38107412	      0.00000000	      0.00000000	    -12.81566802	    -16.64856704	    -51.15010775	     31.47439385	    -20.30774854	     89.62969569	     74.12794031	      3.02746202	      0.00000000	      0.00000000	    -71.77138118	      1.88287392	    -28.23880540	    112.45658147	     88.06736075	      0.00000000	      0.00000000
      5.16500000	    -12.68739785	      0.76953326	     -0.55721412	     -0.26035705	      1.11254196	     -0.89149606	     14.68985311	     -5.05980564	    -26.43901378	      1.47543651	      0.02575122	    -36.81129442	      0.00000000	      0.00000000	     14.97713838	     -9.37910341	    -25.65036985	      5.37556489	      0.09382131	    -36.59625441	      0.00000000	      0.00000000	    -12.55430199	    -16.76616913	    -51.02587833	     31.53597839	    -20.00092262	     89.62153808	     74.09042613	      3.05851385	      0.00000000	      0.00000000	    -71.74032500	      1.58636314	    -28.10205975	    112.55107942	     88.09067049	      0.00000000	      0.00000000
      5.17000000	    -12.49661902	      0.88938164	     -0.63213758	     -0.25968207	      1.12432695	     -0.89080343	     14.48397926	     -5.03047537	    -26.96219678	      2.32685497	      0.04061128	    -37.63225340	      0.00000000	      0.00000000	     14.83756159	     -9.37404593	    -26.51245262	      6.51211817	      0.11365790	    -37.01801876	      0.00000000	      0.00000000	    -12.37743789	    -16.95199450	    -50.97016982	     31.51025171	    -19.67284169	     89.62693213	     74.01806574	      3.08501164	      0.00000000	      0.00000000	    -71.66078471	      1.19369813	    -28.00802361	    112.85908769	     88.07120703	      0.00000000	      0.00000000
      5.17500000	    -12.23013619	      1.01021495	     -0.76993179	     -0.25932346	      1.13588669	     -0.89014541	     14.22079507	     -4.96438196	    -26.88391905	      3.17539850	      0.05542116	    -38.23604448	      0.00000000	      0.00000000	     14.54141585	     -9.27510222	    -26.59457622	      7.44629463	      0.12996236	    -37.54177615	      0.00000000	      0.00000000	    -12.30892596	    -17.14697710	    -50.82871589	     31.55797616	    -19.36072573	     89.62873218	     73.99062996	      3.09746931	      0.00000000	      0.00000000	    -71.54461979	      0.86070927	    -27.88789958	    112.89117387	     88.08562608	      0.00000000	      0.00000000
      5.18000000	    -12.22257341	      1.14168736	     -0.87176349	     -0.25940204	      1.14682498	     -0.88966644	     14.45082116	     -4.97554419	    -26.85483231	      4.44848258	      0.07764067	    -38.50047425	      0.00000000	      0.00000000	     14.72485029	     -9.21373372	    -27.33234527	      8.68570248	      0.15159411	    -37.83197594	      0.00000000	      0.00000000	    -11.97913457	    -17.32784947	    -50.67297062	     31.53213547	    -19.09183888	     89.62383835	     73.94422446	      3.14268245	      0.00000000	      0.00000000	    -71.44086420	      0.34027846	    -27.53524008	    113.03927597	     88.09958083	      0.00000000	      0.00000000
      5.18500000	    -12.14295688	      1.33726305	     -1.03177696	     -0.25970472	      1.15752470	     -0.88920505	     14.58967966	     -4.98874266	    -26.43080256	      5.47834235	      0.09561511	    -38.77011676	      0.00000000	      0.00000000	     14.73703251	     -8.98308806	    -27.29534773	      9.56409355	      0.16692492	    -38.13465025	      0.00000000	      0.00000000	    -11.81680122	    -17.57064449	    -50.52833262	     31.54634267	    -18.81955381	     89.62279060	     73.92641628	      3.17224198	      0.00000000	      0.00000000	    -71.34107456	     -0.04547945	    -27.38518259	    113.08412245	     88.09972061	      0.00000000	      0.00000000
      5.19000000	    -12.17429432	      1.43423002	     -1.13589373	     -0.26001768	      1.16775866	     -0.88872717	     14.86017101	     -4.89293145	    -26.04575326	      6.44462543	      0.11247993	    -38.91207580	      0.00000000	      0.00000000	     14.92946464	     -8.85461356	    -27.26335655	     10.38264313	      0.18121131	    -38.35650168	      0.00000000	      0.00000000	    -11.45670466	    -17.71702582	    -50.29212412	     31.49295428	    -18.66810294	     89.62731444	     73.88441155	      3.21269508	      0.00000000	      0.00000000	    -71.19442545	     -0.49448327	    -27.17766632	    113.07893265	     88.09951006	      0.00000000	      0.00000000
      5.19500000	    -12.21798980	      1.53704640	     -1.22884657	     -0.26031029	      1.17779632	     -0.88829325	     15.04128769	     -4.75641256	    -25.41682179	      7.04675864	      0.12298914	    -39.02971276	      0.00000000	      0.00000000	     15.05911250	     -8.66644394	    -27.00669173	     10.90190804	      0.19027419	    -38.59410747	      0.00000000	      0.00000000	    -11.22584087	    -17.86149795	    -50.15596348	     31.44667088	    -18.48227080	     89.63195747	     73.83035941	      3.24408819	      0.00000000	      0.00000000	    -71.07925089	     -0.75908600	    -27.06422916	    112.97696319	     88.09663284	      0.00000000	      0.00000000
      5.20000000	    -12.24164167	      1.59442065	     -1.23858261	     -0.26059349	      1.18766058	     -0.88807350	     15.14686276	     -4.60189850	    -24.76280402	      7.43015765	      0.12968071	    -39.09594504	      0.00000000	      0.00000000	     15.15468902	     -8.45680632	    -26.46165103	     11.16616339	      0.19488632	    -38.74854772	      0.00000000	      0.00000000	    -10.98647147	    -17.92994322	    -50.03547755	     31.36659900	    -18.37660493	     89.63550553	     73.69293785	      3.26559474	      0.00000000	      0.00000000	    -70.94525739	     -1.01372993	    -26.99277533	    112.80244820	     88.09530371	      0.00000000	      0.00000000
      5.20500000	    -12.46896922	      1.56795282	     -1.14930225	     -0.26106044	      1.19705253	     -0.88785554	     15.36110252	     -4.32519154	    -23.80347318	      7.46378362	      0.13026760	    -39.09110119	      0.00000000	      0.00000000	     15.47388786	     -8.27912568	    -25.34681749	     11.19394301	      0.19537116	    -38.80574699	      0.00000000	      0.00000000	    -10.58092489	    -17.91171553	    -50.03442874	     31.32912115	    -18.25977728	     89.63782721	     73.51159800	      3.27913846	      0.00000000	      0.00000000	    -70.86611301	     -1.21075453	    -26.94322935	    112.57770508	     88.09786097	      0.00000000	      0.00000000
      5.21000000	    -12.60078534	      1.50676370	     -1.10802370	     -0.26109820	      1.20637657	     -0.88771565	     15.30942761	     -3.96621873	    -22.50196730	      7.08286833	      0.12361937	    -39.01651591	      0.00000000	      0.00000000	     15.52459339	     -8.08585568	    -23.91634909	     10.84843382	      0.18934089	    -38.74545847	      0.00000000	      0.00000000	    -10.24431550	    -17.83429739	    -49.98506920	     31.24796602	    -18.22411874	     89.63840304	     73.30798604	      3.29920111	      0.00000000	      0.00000000	    -70.75223720	     -1.30506963	    -26.82434197	    112.11850471	     88.09539400	      0.00000000	      0.00000000
      5.21500000	    -12.74542667	      1.39299859	     -1.07638780	     -0.26108707	      1.21538872	     -0.88750631	     15.22353850	     -3.55167677	    -21.17266416	      6.49772921	      0.11340677	    -38.89294871	      0.00000000	      0.00000000	     15.54630486	     -7.96578985	    -22.54274571	     10.34763972	      0.18060038	    -38.66374463	      0.00000000	      0.00000000	     -9.83559809	    -17.67291082	    -49.92329137	     31.24966818	    -18.18186932	     89.64212182	     73.07308698	      3.29276096	      0.00000000	      0.00000000	    -70.64184176	     -1.41424584	    -26.94053119	    111.94799014	     88.06731173	      0.00000000	      0.00000000
      5.22000000	    -12.83275843	      1.30747705	     -0.97499930	     -0.26105657	      1.22425896	     -0.88746517	     14.99384151	     -3.20792000	    -19.70162863	      5.72949321	      0.09999852	    -38.68861998	      0.00000000	      0.00000000	     15.50232982	     -7.80097177	    -20.97323685	      9.75158150	      0.17019720	    -38.53913828	      0.00000000	      0.00000000	     -9.64146751	    -17.54502122	    -50.00580026	     31.21727968	    -18.25382831	     89.63793823	     72.97159266	      3.29418629	      0.00000000	      0.00000000	    -70.63038819	     -1.32029997	    -26.77858633	    111.42956727	     88.09040997	      0.00000000	      0.00000000
      5.22500000	    -12.85889528	      1.18401216	     -0.88914536	     -0.26080193	      1.23293488	     -0.88737838	     14.70403672	     -2.86742151	    -18.62284898	      4.95689142	      0.08651408	    -38.48268167	      0.00000000	      0.00000000	     15.35944010	     -7.73645282	    -19.63890119	      9.09710774	      0.15877448	    -38.32810070	      0.00000000	      0.00000000	     -9.34883606	    -17.39837066	    -49.92022525	     31.15505730	    -18.39317501	     89.63519671	     72.83647702	      3.28257039	      0.00000000	      0.00000000	    -70.60778397	     -1.41614267	    -26.71507690	    111.14341897	     88.08528559	      0.00000000	      0.00000000
      5.23000000	    -12.86138203	      1.07648597	     -0.87857884	     -0.26064863	      1.24135123	     -0.88722551	     14.47222472	     -2.58386848	    -17.96877857	      4.33203573	      0.07560829	    -38.18746265	      0.00000000	      0.00000000	     15.18889880	     -7.72080287	    -18.88354509	      8.45372995	      0.14754542	    -38.06530964	      0.00000000	      0.00000000	     -9.15894797	    -17.26878347	    -49.81231964	     31.11300285	    -18.57655888	     89.63661309	     72.78072476	      3.26245031	      0.00000000	      0.00000000	    -70.57775535	     -1.42897032	    -26.72166163	    110.93568329	     88.05626584	      0.00000000	      0.00000000
      5.23500000	    -12.78354212	      0.96541533	     -0.82411007	     -0.26035138	      1.24961773	     -0.88719282	     14.17019373	     -2.34884130	    -17.89700439	      3.77951596	      0.06596500	    -37.90346450	      0.00000000	      0.00000000	     14.95755925	     -7.72539738	    -18.50420514	      7.84392729	      0.13690236	    -37.72692995	      0.00000000	      0.00000000	     -9.04032674	    -17.11526432	    -49.78910743	     31.11964204	    -18.75198085	     89.63659650	     72.77200289	      3.24661967	      0.00000000	      0.00000000	    -70.59460403	     -1.38534937	    -26.63175488	    110.65131475	     88.04825970	      0.00000000	      0.00000000
      5.24000000	    -12.83673257	      0.87714564	     -0.84946410	     -0.26027771	      1.25741232	     -0.88701293	     14.10377600	     -2.14778538	    -18.21189422	      3.41113516	      0.05953554	    -37.58537815	      0.00000000	      0.00000000	     14.92274993	     -7.78370538	    -18.72736625	      7.38417177	      0.12887811	    -37.30684053	      0.00000000	      0.00000000	     -8.76866621	    -17.01742633	    -49.65994068	     31.11739001	    -18.96622749	     89.64481467	     72.78803125	      3.23790968	      0.00000000	      0.00000000	    -70.63975552	     -1.25170454	    -26.61211122	    110.50791726	     88.04264128	      0.00000000	      0.00000000
      5.24500000	    -12.76231355	      0.75545552	     -0.81353701	     -0.26008523	      1.26523363	     -0.88700397	     13.88438252	     -1.95229586	    -18.98557088	      3.07056717	      0.05359151	    -37.24801785	      0.00000000	      0.00000000	     14.72510797	     -7.84744864	    -19.14883007	      6.87823219	      0.12004780	    -36.69267882	      0.00000000	      0.00000000	     -8.64835563	    -16.84493155	    -49.55864808	     31.10647186	    -19.23658454	     89.64851944	     72.86758439	      3.23551759	      0.00000000	      0.00000000	    -70.61131501	     -1.20107047	    -26.56453529	    110.31175083	     88.03588883	      0.00000000	      0.00000000
      5.25000000	    -12.43429086	      0.58938694	     -0.68857929	     -0.25973257	      1.27307191	     -0.88711107	     13.43181437	     -1.76261908	    -20.68955808	      2.88364298	      0.05032906	    -37.06617038	      0.00000000	      0.00000000	     14.34510338	     -7.97068880	    -19.97792891	      6.55884761	      0.11447349	    -35.81938912	      0.00000000	      0.00000000	     -8.80175565	    -16.61671455	    -49.44768127	     31.07113809	    -19.59872957	     89.63521613	     73.09431732	      3.20975666	      0.00000000	      0.00000000	    -70.54772024	     -1.29533482	    -26.41363077	    110.17372039	     88.03102980	      0.00000000	      0.00000000
      5.25500000	    -12.27964305	      0.47508263	     -0.69695478	     -0.25962557	      1.28048086	     -0.88705256	     13.21930630	     -1.58884069	    -22.21253582	      2.78964412	      0.04868847	    -36.79611106	      0.00000000	      0.00000000	     14.14394890	     -8.08555261	    -21.23989111	      6.33214440	      0.11051677	    -35.06096644	      0.00000000	      0.00000000	     -8.75318028	    -16.46270567	    -49.24317824	     31.07048349	    -19.93839582	     89.63215800	     73.31021337	      3.18253493	      0.00000000	      0.00000000	    -70.50963953	     -1.28171851	    -26.33521501	    110.05751043	     88.02329465	      0.00000000	      0.00000000
      5.26000000	    -12.07619022	      0.34801070	     -0.68239626	     -0.25963224	      1.28772967	     -0.88703144	     12.98428033	     -1.42497548	    -23.84658939	      2.81011398	      0.04904574	    -36.47400231	      0.00000000	      0.00000000	     13.94597044	     -8.20352798	    -22.52843208	      6.19589591	      0.10813878	    -34.13881979	      0.00000000	      0.00000000	     -8.79476401	    -16.29846232	    -49.07761930	     31.06023602	    -20.25111260	     89.63164099	     73.51544128	      3.16354779	      0.00000000	      0.00000000	    -70.48808879	     -1.22843791	    -26.30485361	    110.04619189	     88.01701211	      0.00000000	      0.00000000
      5.26500000	    -12.02795564	      0.25484024	     -0.64703915	     -0.26001635	      1.29455957	     -0.88705552	     12.92028609	     -1.29148496	    -25.31907361	      2.79013662	      0.04869707	    -36.12805999	      0.00000000	      0.00000000	     13.92562250	     -8.26783295	    -23.70444123	      6.02599415	      0.10517344	    -33.35974343	      0.00000000	      0.00000000	     -8.69094362	    -16.17587453	    -48.93397830	     31.04957949	    -20.53084277	     89.63297644	     73.71336646	      3.15421218	      0.00000000	      0.00000000	    -70.47372601	     -1.19407331	    -26.28129849	    110.06481402	     88.01612267	      0.00000000	      0.00000000
      5.27000000	    -11.79910572	      0.17054408	     -0.61410420	     -0.26014044	      1.30134564	     -0.88699829	     12.76384397	     -1.19930834	    -27.02889858	      3.06443173	      0.05348442	    -35.88002697	      0.00000000	      0.00000000	     13.84615705	     -8.40342950	    -25.14974946	      6.25896568	      0.10923956	    -32.49920095	      0.00000000	      0.00000000	     -8.76288065	    -16.07512180	    -48.71625143	     31.02067830	    -20.87967585	     89.62485719	     73.97787200	      3.12112457	      0.00000000	      0.00000000	    -70.46291226	     -1.28348197	    -26.18220714	    110.09254498	     88.01520153	      0.00000000	      0.00000000
      5.27500000	    -11.72625669	      0.13427570	     -0.65213914	     -0.26050486	      1.30774954	     -0.88689179	     12.74062510	     -1.13481035	    -28.18714947	      3.23319043	      0.05642982	    -35.70962200	      0.00000000	      0.00000000	     13.86160937	     -8.47017344	    -26.43177005	      6.33814712	      0.11062154	    -31.96158209	      0.00000000	      0.00000000	     -8.64433412	    -16.05228708	    -48.43701855	     30.94129426	    -21.17527795	     89.61759647	     74.21731177	      3.10142803	      0.00000000	      0.00000000	    -70.44152087	     -1.30252407	    -26.14698739	    110.13513931	     88.01579975	      0.00000000	      0.00000000
      5.28000000	    -11.68356858	      0.07690150	     -0.75034895	     -0.26114882	      1.31381042	     -0.88669443	     12.75410187	     -1.01644707	    -28.85121977	      3.36977876	      0.05881373	    -35.60948950	      0.00000000	      0.00000000	     13.89675362	     -8.55483801	    -27.27126683	      6.30168530	      0.10998516	    -31.69974437	      0.00000000	      0.00000000	     -8.54082212	    -15.98087305	    -48.13867773	     30.91699626	    -21.46294119	     89.61657851	     74.46212854	      3.10060354	      0.00000000	      0.00000000	    -70.42274887	     -1.26053421	    -26.18152645	    110.25871752	     88.01496661	      0.00000000	      0.00000000
      5.28500000	    -11.58047045	      0.06633622	     -0.71772941	     -0.26190839	      1.31977705	     -0.88665783	     12.73813851	     -1.01005544	    -29.48339033	      3.61526516	      0.06309828	    -35.58053000	      0.00000000	      0.00000000	     14.00440071	     -8.60315089	    -27.95496281	      6.50406558	      0.11351736	    -31.72620403	      0.00000000	      0.00000000	     -8.55516254	    -15.97249888	    -47.97281405	     30.89144178	    -21.68843109	     89.60769387	     74.70158662	      3.09026700	      0.00000000	      0.00000000	    -70.43462360	     -1.34163514	    -26.15101566	    110.38193865	     88.02010569	      0.00000000	      0.00000000
      5.29000000	    -11.52692291	      0.06957494	     -0.70466146	     -0.26258827	      1.32537028	     -0.88651798	     12.69348197	     -0.95957562	    -29.50836348	      3.66393716	      0.06394777	    -35.60797472	      0.00000000	      0.00000000	     14.06524225	     -8.59974856	    -27.98216252	      6.53109590	      0.11398913	    -31.75044440	      0.00000000	      0.00000000	     -8.53752474	    -16.01790943	    -47.85936089	     30.77796583	    -21.79535529	     89.59065569	     74.70946215	      3.08717711	      0.00000000	      0.00000000	    -70.45429256	     -1.28310049	    -26.15247109	    110.39913259	     88.02103367	      0.00000000	      0.00000000
      5.29500000	    -11.44655514	      0.08864634	     -0.80536885	     -0.26328849	      1.33070549	     -0.88625395	     12.73919264	     -0.96886434	    -29.56367492	      3.93847647	      0.06873938	    -35.81732156	      0.00000000	      0.00000000	     14.18499805	     -8.65959186	    -28.10517568	      6.76379264	      0.11805045	    -32.12087185	      0.00000000	      0.00000000	     -8.48127224	    -16.07028119	    -47.52802100	     30.76397222	    -22.04079785	     89.59363023	     74.99264370	      3.08667683	      0.00000000	      0.00000000	    -70.48537210	     -1.32895396	    -26.12820193	    110.54630593	     88.02478920	      0.00000000	      0.00000000
      5.30000000	    -11.39869193	      0.09966111	     -0.83141818	     -0.26405850	      1.33574729	     -0.88602764	     12.75419221	     -0.93326483	    -29.46205787	      4.03685451	      0.07045640	    -35.94715655	      0.00000000	      0.00000000	     14.33188324	     -8.68334564	    -27.88112858	      6.92406825	      0.12084779	    -32.42088257	      0.00000000	      0.00000000	     -8.43642482	    -16.13181541	    -47.33817450	     30.71553968	    -22.16609713	     89.59775903	     75.06501094	      3.07900292	      0.00000000	      0.00000000	    -70.52880616	     -1.34950430	    -26.12220167	    110.62271433	     88.02714335	      0.00000000	      0.00000000
      5.30500000	    -11.35296950	      0.12870584	     -0.84166723	     -0.26474848	      1.34055482	     -0.88577376	     12.77146215	     -0.93026252	    -28.99841684	      4.13825378	      0.07222615	    -36.13994817	      0.00000000	      0.00000000	     14.48437319	     -8.69141519	    -27.37009607	      7.07128368	      0.12341718	    -32.96211903	      0.00000000	      0.00000000	     -8.40955769	    -16.20245821	    -47.16078536	     30.61784154	    -22.27671834	     89.58029596	     75.18540563	      3.06275356	      0.00000000	      0.00000000	    -70.55561854	     -1.37423848	    -26.13058550	    110.74970990	     88.03051794	      0.00000000	      0.00000000
      5.31000000	    -11.32132531	      0.18039858	     -0.92337637	     -0.26552012	      1.34502617	     -0.88546399	     12.80927012	     -0.91660734	    -28.59859955	      4.18443431	      0.07303216	    -36.27999760	      0.00000000	      0.00000000	     14.64209415	     -8.67002541	    -26.80460337	      7.19952550	      0.12565542	    -33.33138970	      0.00000000	      0.00000000	     -8.36789737	    -16.30328779	    -46.95465666	     30.59618303	    -22.33128088	     89.59472452	     75.17656109	      3.04756749	      0.00000000	      0.00000000	    -70.57108863	     -1.35646560	    -26.14530568	    110.79929051	     88.03325875	      0.00000000	      0.00000000
      5.31500000	    -11.42161353	      0.20740590	     -0.87577931	     -0.26645134	      1.34916073	     -0.88529201	     12.96363230	     -0.89628896	    -27.65646367	      4.16326404	      0.07266267	    -36.42424289	      0.00000000	      0.00000000	     14.94260811	     -8.62231121	    -25.62769582	      7.17679974	      0.12525879	    -33.90958636	      0.00000000	      0.00000000	     -8.23062304	    -16.38534641	    -46.86452491	     30.48003428	    -22.35595822	     89.56874466	     75.17121219	      3.02035036	      0.00000000	      0.00000000	    -70.58490823	     -1.31848096	    -26.21082474	    110.88711426	     88.03689213	      0.00000000	      0.00000000
      5.32000000	    -11.41088279	      0.25169300	     -0.70771668	     -0.26739882	      1.35324530	     -0.88538605	     12.99101228	     -0.93812174	    -27.18566740	      4.15615985	      0.07253867	    -36.45267323	      0.00000000	      0.00000000	     15.21386852	     -8.53959255	    -24.69937314	      7.32823652	      0.12790186	    -34.34403601	      0.00000000	      0.00000000	     -8.26143754	    -16.43528270	    -46.91812247	     30.46562756	    -22.33412209	     89.57921262	     75.07695951	      3.00308293	      0.00000000	      0.00000000	    -70.54010424	     -1.36068643	    -26.25235904	    110.88275139	     88.03638742	      0.00000000	      0.00000000
      5.32500000	    -11.46286536	      0.23061346	     -0.73928976	     -0.26775295	      1.35686243	     -0.88503718	     13.01207159	     -0.81087861	    -26.31192139	      4.01828776	      0.07013235	    -36.35299810	      0.00000000	      0.00000000	     15.31006449	     -8.52056800	    -23.47851307	      7.10138717	      0.12394259	    -34.64883099	      0.00000000	      0.00000000	     -8.07926071	    -16.48321465	    -46.76697657	     30.33708317	    -22.32629999	     89.56090356	     74.94753885	      2.98829940	      0.00000000	      0.00000000	    -70.54954027	     -1.26571449	    -26.25828368	    110.84819838	     88.04037205	      0.00000000	      0.00000000
      5.33000000	    -11.48920734	      0.24234729	     -0.66007681	     -0.26836648	      1.36031970	     -0.88490152	     13.01978387	     -0.76767553	    -25.55676561	      3.92384764	      0.06848406	    -36.24726806	      0.00000000	      0.00000000	     15.51443816	     -8.47285202	    -22.36471421	      7.10289479	      0.12396890	    -34.90529128	      0.00000000	      0.00000000	     -8.02841724	    -16.53032888	    -46.76053351	     30.27039231	    -22.27818366	     89.55797081	     74.80681636	      2.97906626	      0.00000000	      0.00000000	    -70.54263525	     -1.22812839	    -26.27328333	    110.79568219	     88.03444306	      0.00000000	      0.00000000
      5.33500000	    -11.48393579	      0.30117408	     -0.57081895	     -0.26888942	      1.36355551	     -0.88480439	     13.03211463	     -0.80263361	    -25.02815961	      3.88506945	      0.06780725	    -36.11774766	      0.00000000	      0.00000000	     15.69167880	     -8.39564758	    -21.59412928	      7.14447648	      0.12469464	    -35.12673263	      0.00000000	      0.00000000	     -8.03679651	    -16.61983601	    -46.78928307	     30.21472923	    -22.19444944	     89.55478875	     74.63961941	      2.96952804	      0.00000000	      0.00000000	    -70.51895604	     -1.17951778	    -26.32864146	    110.75410467	     88.03280254	      0.00000000	      0.00000000
      5.34000000	    -11.58619539	      0.29818098	     -0.39985861	     -0.26959661	      1.36639728	     -0.88482904	     13.12736250	     -0.77941297	    -24.45691124	      3.80714515	      0.06644722	    -35.86198226	      0.00000000	      0.00000000	     15.98079057	     -8.34263845	    -20.48890309	      7.09400319	      0.12381371	    -35.20927959	      0.00000000	      0.00000000	     -7.96219522	    -16.64053798	    -46.93243849	     30.17681003	    -22.08838272	     89.55086160	     74.44640379	      2.96711598	      0.00000000	      0.00000000	    -70.48192745	     -1.08332536	    -26.44417511	    110.79190527	     88.03416379	      0.00000000	      0.00000000
      5.34500000	    -11.59293071	      0.33884703	     -0.35589207	     -0.27008556	      1.36907764	     -0.88466797	     13.15526470	     -0.79876855	    -23.99487560	      3.80371928	      0.06638743	    -35.68572132	      0.00000000	      0.00000000	     16.13184448	     -8.29873898	    -19.72333056	      7.10601261	      0.12402332	    -35.22980038	      0.00000000	      0.00000000	     -7.91115239	    -16.72680407	    -46.90128942	     30.11116716	    -22.00053513	     89.54869839	     74.23706012	      2.96651268	      0.00000000	      0.00000000	    -70.44219921	     -1.05322650	    -26.53721355	    110.79856399	     88.03262895	      0.00000000	      0.00000000
      5.35000000	    -11.61843142	      0.37445826	     -0.34998034	     -0.27043525	      1.37148393	     -0.88442914	     13.18922516	     -0.80448971	    -23.58352091	      3.79009372	      0.06614961	    -35.49109207	      0.00000000	      0.00000000	     16.25476756	     -8.27221156	    -19.08075857	      7.04223806	      0.12291024	    -35.24128444	      0.00000000	      0.00000000	     -7.83920006	    -16.81261764	    -46.88800811	     30.07738348	    -21.87851207	     89.54986643	     74.04363683	      2.96714215	      0.00000000	      0.00000000	    -70.43215089	     -0.91621772	    -26.61175861	    110.75793402	     88.02914791	      0.00000000	      0.00000000
      5.35500000	    -11.62501897	      0.45006496	     -0.29076525	     -0.27087137	      1.37373524	     -0.88425314	     13.21508258	     -0.87202286	    -23.42208299	      3.77231739	      0.06583936	    -35.39384332	      0.00000000	      0.00000000	     16.39854964	     -8.20934800	    -18.72443915	      7.02885308	      0.12267663	    -35.19750512	      0.00000000	      0.00000000	     -7.80761843	    -16.92792492	    -46.89558595	     30.04701568	    -21.78311770	     89.55529666	     73.91216770	      2.96568016	      0.00000000	      0.00000000	    -70.40592081	     -0.91120766	    -26.65879138	    110.71950974	     88.02802477	      0.00000000	      0.00000000
      5.36000000	    -11.58374317	      0.46566570	     -0.32135856	     -0.27099103	      1.37579369	     -0.88392956	     13.18463183	     -0.87613328	    -23.35899033	      3.79510654	      0.06623710	    -35.36785997	      0.00000000	      0.00000000	     16.43995638	     -8.26487615	    -18.61994368	      7.00914778	      0.12233271	    -35.16433537	      0.00000000	      0.00000000	     -7.77265905	    -17.01280174	    -46.81131673	     29.91103585	    -21.74341105	     89.53527796	     73.86033519	      2.96433828	      0.00000000	      0.00000000	    -70.41227409	     -0.84233003	    -26.65623185	    110.69073853	     88.02719795	      0.00000000	      0.00000000
      5.36500000	    -11.66701154	      0.55099048	     -0.25072627	     -0.27160185	      1.37740824	     -0.88391697	     13.34090040	     -1.00101644	    -23.05521320	      3.88583805	      0.06782067	    -35.18388231	      0.00000000	      0.00000000	     16.62778584	     -8.16976686	    -17.97776969	      6.93609729	      0.12105773	    -34.87429011	      0.00000000	      0.00000000	     -7.68791998	    -17.09178801	    -46.93546232	     29.95816282	    -21.54529417	     89.55478339	     73.53474999	      2.97124142	      0.00000000	      0.00000000	    -70.35841471	     -0.72602694	    -26.78059536	    110.64509293	     88.02561901	      0.00000000	      0.00000000
      5.37000000	    -11.61872095	      0.56146556	     -0.24120109	     -0.27175750	      1.37903094	     -0.88364823	     13.29593150	     -1.00975790	    -23.04933553	      3.89966883	      0.06806206	    -35.16029374	      0.00000000	      0.00000000	     16.66211830	     -8.22507076	    -17.95444027	      6.91745006	      0.12073228	    -34.85507406	      0.00000000	      0.00000000	     -7.69240030	    -17.13584122	    -46.89035945	     29.85209566	    -21.50098764	     89.52971597	     73.52012622	      2.97308610	      0.00000000	      0.00000000	    -70.33466380	     -0.69618337	    -26.78434541	    110.64264363	     88.02522434	      0.00000000	      0.00000000
      5.37500000	    -11.55901370	      0.63521369	     -0.25389859	     -0.27210637	      1.38034809	     -0.88343227	     13.30710597	     -1.11723022	    -23.00928249	      4.02086798	      0.07017739	    -34.95616208	      0.00000000	      0.00000000	     16.66061830	     -8.20260078	    -17.76484132	      6.87264987	      0.11995037	    -34.52800844	      0.00000000	      0.00000000	     -7.69337293	    -17.22824295	    -46.87362978	     29.89684859	    -21.39614175	     89.55747512	     73.36490591	      3.07267649	      0.00000000	      0.00000000	    -70.34892476	     -0.62495154	    -26.84651646	    110.59192843	     88.04878843	      0.00000000	      0.00000000
      5.38000000	    -11.47886850	      0.64619652	     -0.11387329	     -0.27256119	      1.38154239	     -0.88346227	     13.21811262	     -1.16876365	    -23.19278128	      3.99613714	      0.06974575	    -34.88964676	      0.00000000	      0.00000000	     16.70770329	     -8.20995272	    -17.48956387	      6.84011025	      0.11938245	    -34.21060441	      0.00000000	      0.00000000	     -7.82604566	    -17.20749495	    -47.03987437	     29.90779952	    -21.27462498	     89.55911312	     73.25971787	      3.07983093	      0.00000000	      0.00000000	    -70.31265779	     -0.58608383	    -26.89976344	    110.64053745	     88.01798193	      0.00000000	      0.00000000
      5.38500000	    -11.44296904	      0.66951990	     -0.07273019	     -0.27286975	      1.38245240	     -0.88332698	     13.23453634	     -1.23339535	    -23.33351920	      4.08330332	      0.07126709	    -34.81466165	      0.00000000	      0.00000000	     16.76235345	     -8.23971671	    -17.38118638	      6.83364141	      0.11926954	    -33.89113008	      0.00000000	      0.00000000	     -7.79670174	    -17.23510197	    -47.05103757	     29.88761476	    -21.19827078	     89.56136758	     73.15821982	      3.05618708	      0.00000000	      0.00000000	    -70.30053720	     -0.63785887	    -26.85843867	    110.61387205	     88.01627830	      0.00000000	      0.00000000
      5.39000000	    -11.36200999	      0.72426573	     -0.14322555	     -0.27302023	      1.38312754	     -0.88304576	     13.18295421	     -1.29890031	    -23.25023959	      4.13827200	      0.07222647	    -34.65259537	      0.00000000	      0.00000000	     16.72589151	     -8.27906343	    -17.46917868	      6.84044432	      0.11938828	    -33.43236601	      0.00000000	      0.00000000	     -7.77166346	    -17.31809745	    -46.91605742	     29.86043373	    -21.17835570	     89.56279216	     73.11780143	      3.15758985	      0.00000000	      0.00000000	    -70.28735053	     -0.59205440	    -26.91653976	    110.62357118	     88.08387861	      0.00000000	      0.00000000
      5.39500000	    -11.28407044	      0.77478659	     -0.11962554	     -0.27335022	      1.38360985	     -0.88292277	     13.11548586	     -1.37980291	    -23.23673664	      4.14689317	      0.07237694	    -34.48891759	      0.00000000	      0.00000000	     16.71206013	     -8.28868670	    -17.49179302	      6.80046927	      0.11869058	    -32.98034953	      0.00000000	      0.00000000	     -7.82662360	    -17.35748957	    -46.94363976	     29.87359015	    -21.13120593	     89.56304872	     73.10641501	      3.39468722	      0.00000000	      0.00000000	    -70.32802159	     -0.63386042	    -26.82577831	    110.61539001	     88.12895939	      0.00000000	      0.00000000
      5.40000000	    -11.22358773	      0.82368307	     -0.10172140	     -0.27366560	      1.38382713	     -0.88281006	     13.09430165	     -1.46984990	    -23.23720797	      4.19536172	      0.07322288	    -34.31774823	      0.00000000	      0.00000000	     16.71176930	     -8.29767272	    -17.56762155	      6.77101199	      0.11817645	    -32.60480796	      0.00000000	      0.00000000	     -7.85266587	    -17.40435978	    -46.96416789	     29.87247366	    -21.08222517	     89.56487154	     73.09728218	      3.08184705	      0.00000000	      0.00000000	    -70.33511431	     -0.57483039	    -26.86779884	    110.62411564	     88.04325058	      0.00000000	      0.00000000
      5.40500000	    -11.09469262	      0.82224474	     -0.02959194	     -0.27385368	      1.38391249	     -0.88272878	     12.90129031	     -1.47235735	    -23.27252689	      4.04857301	      0.07066093	    -34.31440969	      0.00000000	      0.00000000	     16.60511179	     -8.33689368	    -17.42012714	      6.69460638	      0.11684292	    -32.30547801	      0.00000000	      0.00000000	     -7.86741776	    -17.36497445	    -46.91885374	     29.84385295	    -21.09167552	     89.56255459	     72.96502211	      4.26414999	      0.00000000	      0.00000000	    -70.30138260	     -0.80261984	    -26.74022635	    110.59696972	     88.12340983	      0.00000000	      0.00000000
