Model Marker Errors from IK
version=1
nRows=661
nColumns=4
inDegrees=no
endheader
time	total_squared_error	marker_error_RMS	marker_error_max
      2.20000000	      0.02223419	      0.01941264	      0.08841572
      2.20500000	      0.02231542	      0.01944807	      0.08860204
      2.21000000	      0.02241200	      0.01949011	      0.08899239
      2.21500000	      0.02247904	      0.01951924	      0.08922245
      2.22000000	      0.02255645	      0.01955282	      0.08961475
      2.22500000	      0.02261008	      0.01957605	      0.09010719
      2.23000000	      0.02270575	      0.01961742	      0.09047200
      2.23500000	      0.02278368	      0.01965106	      0.09079898
      2.24000000	      0.02288782	      0.01969592	      0.09084967
      2.24500000	      0.02293081	      0.01971441	      0.09135768
      2.25000000	      0.02304911	      0.01976519	      0.09179916
      2.25500000	      0.02323112	      0.01984308	      0.09219611
      2.26000000	      0.02334733	      0.01989265	      0.09250106
      2.26500000	      0.02339396	      0.01991250	      0.09274872
      2.27000000	      0.02350619	      0.01996021	      0.09319268
      2.27500000	      0.02351463	      0.01996379	      0.09365612
      2.28000000	      0.02354505	      0.01997670	      0.09416327
      2.28500000	      0.02375854	      0.02006706	      0.09457603
      2.29000000	      0.02386944	      0.02011385	      0.09474416
      2.29500000	      0.02396730	      0.02015503	      0.09516257
      2.30000000	      0.02400675	      0.02017162	      0.09563644
      2.30500000	      0.02417707	      0.02024304	      0.09589945
      2.31000000	      0.02426523	      0.02027992	      0.09640933
      2.31500000	      0.02433128	      0.02030750	      0.09680630
      2.32000000	      0.02450096	      0.02037819	      0.09739848
      2.32500000	      0.02467545	      0.02045062	      0.09759063
      2.33000000	      0.02487135	      0.02053164	      0.09812861
      2.33500000	      0.02484150	      0.02051932	      0.09845364
      2.34000000	      0.02498809	      0.02057977	      0.09907192
      2.34500000	      0.02517252	      0.02065558	      0.09940224
      2.35000000	      0.02535469	      0.02073018	      0.09988021
      2.35500000	      0.02542874	      0.02076043	      0.10016088
      2.36000000	      0.02554854	      0.02080928	      0.10054407
      2.36500000	      0.02575360	      0.02089262	      0.10090757
      2.37000000	      0.02565807	      0.02085384	      0.10131700
      2.37500000	      0.02589484	      0.02094984	      0.10172412
      2.38000000	      0.02607779	      0.02102371	      0.10228204
      2.38500000	      0.02627148	      0.02110164	      0.10229951
      2.39000000	      0.02606689	      0.02101932	      0.10274839
      2.39500000	      0.02624434	      0.02109074	      0.10321649
      2.40000000	      0.02647691	      0.02118398	      0.10332612
      2.40500000	      0.02639788	      0.02115234	      0.10374680
      2.41000000	      0.02656370	      0.02121868	      0.10404098
      2.41500000	      0.02658084	      0.02122552	      0.10424739
      2.42000000	      0.02663730	      0.02124805	      0.10446881
      2.42500000	      0.02672121	      0.02128149	      0.10470506
      2.43000000	      0.02689890	      0.02135213	      0.10498844
      2.43500000	      0.02691370	      0.02135801	      0.10502802
      2.44000000	      0.02726697	      0.02149772	      0.10535005
      2.44500000	      0.02744790	      0.02156893	      0.10543615
      2.45000000	      0.02763231	      0.02164126	      0.10572491
      2.45500000	      0.02762434	      0.02163814	      0.10574422
      2.46000000	      0.02748465	      0.02158336	      0.10620540
      2.46500000	      0.02768031	      0.02166005	      0.10632836
      2.47000000	      0.02772260	      0.02167659	      0.10649352
      2.47500000	      0.02778936	      0.02170267	      0.10656107
      2.48000000	      0.02796844	      0.02177249	      0.10700685
      2.48500000	      0.02819468	      0.02186037	      0.10707072
      2.49000000	      0.02824765	      0.02188090	      0.10716621
      2.49500000	      0.02826259	      0.02188668	      0.10733762
      2.50000000	      0.02871967	      0.02206296	      0.10766816
      2.50500000	      0.02903633	      0.02218425	      0.10787733
      2.51000000	      0.02929450	      0.02228266	      0.10758137
      2.51500000	      0.02904235	      0.02218655	      0.10814045
      2.52000000	      0.02928416	      0.02227873	      0.10795787
      2.52500000	      0.02938726	      0.02231791	      0.10817166
      2.53000000	      0.02967320	      0.02242623	      0.10782493
      2.53500000	      0.02990859	      0.02251500	      0.10830102
      2.54000000	      0.02995211	      0.02253137	      0.10798033
      2.54500000	      0.03038918	      0.02269517	      0.10829056
      2.55000000	      0.03061503	      0.02277935	      0.10793993
      2.55500000	      0.03077038	      0.02283707	      0.10817707
      2.56000000	      0.03088071	      0.02287798	      0.10815259
      2.56500000	      0.03106326	      0.02294550	      0.10804521
      2.57000000	      0.03133323	      0.02304499	      0.10800427
      2.57500000	      0.03164227	      0.02315836	      0.10793121
      2.58000000	      0.03221378	      0.02336656	      0.10796028
      2.58500000	      0.03191048	      0.02325630	      0.10767774
      2.59000000	      0.03253125	      0.02348142	      0.10774914
      2.59500000	      0.03292792	      0.02362415	      0.10764977
      2.60000000	      0.03334708	      0.02377404	      0.10759786
      2.60500000	      0.03348418	      0.02382285	      0.10764217
      2.61000000	      0.03399920	      0.02400537	      0.10765520
      2.61500000	      0.03416907	      0.02406526	      0.10757011
      2.62000000	      0.03445486	      0.02416569	      0.10737599
      2.62500000	      0.03501133	      0.02436006	      0.10762805
      2.63000000	      0.03552263	      0.02453729	      0.10736821
      2.63500000	      0.03563232	      0.02457514	      0.10734643
      2.64000000	      0.03625011	      0.02478727	      0.10715124
      2.64500000	      0.03639348	      0.02483624	      0.10711843
      2.65000000	      0.03694213	      0.02502275	      0.10716643
      2.65500000	      0.03727512	      0.02513527	      0.10703371
      2.66000000	      0.03758109	      0.02523822	      0.10687819
      2.66500000	      0.03772611	      0.02528687	      0.10685808
      2.67000000	      0.03812022	      0.02541860	      0.10686743
      2.67500000	      0.03869662	      0.02561006	      0.10678178
      2.68000000	      0.03889407	      0.02567531	      0.10677696
      2.68500000	      0.03946847	      0.02586421	      0.10680915
      2.69000000	      0.03977042	      0.02596295	      0.10658184
      2.69500000	      0.04035418	      0.02615280	      0.10656124
      2.70000000	      0.04061950	      0.02623864	      0.10652643
      2.70500000	      0.04106901	      0.02638342	      0.10639554
      2.71000000	      0.04144333	      0.02650338	      0.10644658
      2.71500000	      0.04208725	      0.02670849	      0.10640898
      2.72000000	      0.04228909	      0.02677245	      0.10641733
      2.72500000	      0.04284058	      0.02694646	      0.10615398
      2.73000000	      0.04338829	      0.02711816	      0.10618217
      2.73500000	      0.04373475	      0.02722622	      0.10623225
      2.74000000	      0.04426208	      0.02738987	      0.10615181
      2.74500000	      0.04450001	      0.02746338	      0.10604260
      2.75000000	      0.04512129	      0.02765443	      0.10599631
      2.75500000	      0.04568776	      0.02782748	      0.10584088
      2.76000000	      0.04590301	      0.02789296	      0.10587761
      2.76500000	      0.04652846	      0.02808234	      0.10590956
      2.77000000	      0.04679711	      0.02816330	      0.10588098
      2.77500000	      0.04728020	      0.02830829	      0.10574446
      2.78000000	      0.04779070	      0.02846071	      0.10560819
      2.78500000	      0.04847196	      0.02866285	      0.10571813
      2.79000000	      0.04890876	      0.02879170	      0.10560504
      2.79500000	      0.04956390	      0.02898389	      0.10560868
      2.80000000	      0.04983681	      0.02906358	      0.10546794
      2.80500000	      0.05063896	      0.02929654	      0.10542031
      2.81000000	      0.05105644	      0.02941706	      0.10566979
      2.81500000	      0.05169335	      0.02959997	      0.10552679
      2.82000000	      0.05223827	      0.02975558	      0.10551857
      2.82500000	      0.05305902	      0.02998842	      0.10527998
      2.83000000	      0.05347001	      0.03010434	      0.10532585
      2.83500000	      0.05430863	      0.03033950	      0.10550089
      2.84000000	      0.05482587	      0.03048364	      0.10542711
      2.84500000	      0.05531445	      0.03061916	      0.10533342
      2.85000000	      0.05587315	      0.03077341	      0.10525644
      2.85500000	      0.05657828	      0.03096698	      0.10543354
      2.86000000	      0.05708957	      0.03110659	      0.10531889
      2.86500000	      0.05772309	      0.03127871	      0.10535374
      2.87000000	      0.05844624	      0.03147402	      0.10533783
      2.87500000	      0.05889476	      0.03159456	      0.10537869
      2.88000000	      0.05977581	      0.03183001	      0.10545304
      2.88500000	      0.06035081	      0.03198273	      0.10557296
      2.89000000	      0.06118435	      0.03220284	      0.10564552
      2.89500000	      0.06193279	      0.03239920	      0.10564111
      2.90000000	      0.06229000	      0.03249250	      0.10569431
      2.90500000	      0.06285927	      0.03264064	      0.10548351
      2.91000000	      0.06338560	      0.03277701	      0.10571900
      2.91500000	      0.06430942	      0.03301500	      0.10583672
      2.92000000	      0.06499943	      0.03319164	      0.10598698
      2.92500000	      0.06563884	      0.03335450	      0.10596871
      2.93000000	      0.06647962	      0.03356744	      0.10580961
      2.93500000	      0.06668783	      0.03361997	      0.10596065
      2.94000000	      0.06746153	      0.03381443	      0.10614590
      2.94500000	      0.06827199	      0.03401694	      0.10606321
      2.95000000	      0.06858516	      0.03409487	      0.10620305
      2.95500000	      0.06922264	      0.03425296	      0.10631135
      2.96000000	      0.07002856	      0.03445177	      0.10650935
      2.96500000	      0.07020757	      0.03449578	      0.10651091
      2.97000000	      0.07090670	      0.03466711	      0.10666859
      2.97500000	      0.07141135	      0.03479025	      0.10663357
      2.98000000	      0.07167486	      0.03485439	      0.10686325
      2.98500000	      0.07210534	      0.03495890	      0.10688437
      2.99000000	      0.07262841	      0.03508547	      0.10713887
      2.99500000	      0.07311418	      0.03520260	      0.10740906
      3.00000000	      0.07354588	      0.03530638	      0.10764241
      3.00500000	      0.07384982	      0.03537926	      0.10784464
      3.01000000	      0.07419502	      0.03546185	      0.10798378
      3.01500000	      0.07501430	      0.03565710	      0.10802483
      3.02000000	      0.07511458	      0.03568093	      0.10830635
      3.02500000	      0.07540534	      0.03574992	      0.10846461
      3.03000000	      0.07600615	      0.03589206	      0.10846824
      3.03500000	      0.07659044	      0.03602975	      0.10862555
      3.04000000	      0.07695029	      0.03611429	      0.10864566
      3.04500000	      0.07741920	      0.03622416	      0.10870859
      3.05000000	      0.07779125	      0.03631110	      0.10879522
      3.05500000	      0.07870400	      0.03652350	      0.10879651
      3.06000000	      0.07935843	      0.03667503	      0.10877707
      3.06500000	      0.07949972	      0.03670767	      0.10899891
      3.07000000	      0.07997012	      0.03681611	      0.10892506
      3.07500000	      0.08049159	      0.03693595	      0.10895507
      3.08000000	      0.08101270	      0.03705532	      0.10897141
      3.08500000	      0.08150369	      0.03716744	      0.10888046
      3.09000000	      0.08238579	      0.03736802	      0.10878441
      3.09500000	      0.08257059	      0.03740991	      0.10902373
      3.10000000	      0.08294349	      0.03749429	      0.10899758
      3.10500000	      0.08338028	      0.03759289	      0.10897433
      3.11000000	      0.08369888	      0.03766464	      0.10889515
      3.11500000	      0.08440132	      0.03782236	      0.10907898
      3.12000000	      0.08523022	      0.03800763	      0.10873452
      3.12500000	      0.08564705	      0.03810046	      0.10907996
      3.13000000	      0.08601268	      0.03818170	      0.10888750
      3.13500000	      0.08689369	      0.03837674	      0.10881663
      3.14000000	      0.08734376	      0.03847600	      0.10875860
      3.14500000	      0.08807750	      0.03863728	      0.10853557
      3.15000000	      0.08887402	      0.03881159	      0.10850701
      3.15500000	      0.08915825	      0.03887360	      0.10858543
      3.16000000	      0.08965772	      0.03898233	      0.10848471
      3.16500000	      0.09043507	      0.03915096	      0.10836482
      3.17000000	      0.09129090	      0.03933578	      0.10833501
      3.17500000	      0.09197397	      0.03948267	      0.10827091
      3.18000000	      0.09264787	      0.03962705	      0.10820029
      3.18500000	      0.09339458	      0.03978642	      0.10804582
      3.19000000	      0.09398458	      0.03991189	      0.10802023
      3.19500000	      0.09512049	      0.04015236	      0.10774263
      3.20000000	      0.09521704	      0.04017273	      0.10780687
      3.20500000	      0.09578108	      0.04029154	      0.10766533
      3.21000000	      0.13028585	      0.04699186	      0.19222802
      3.21500000	      0.13174893	      0.04725498	      0.19256231
      3.22000000	      0.09788053	      0.04073073	      0.10718466
      3.22500000	      0.09862391	      0.04088510	      0.10712372
      3.23000000	      0.09949709	      0.04106570	      0.10698498
      3.23500000	      0.10062454	      0.04129771	      0.10680371
      3.24000000	      0.10091712	      0.04135770	      0.10687719
      3.24500000	      0.10138662	      0.04145380	      0.10649717
      3.25000000	      0.10233615	      0.04164746	      0.10634600
      3.25500000	      0.10322703	      0.04182835	      0.10625844
      3.26000000	      0.10377308	      0.04193883	      0.10622824
      3.26500000	      0.10454134	      0.04209379	      0.10596912
      3.27000000	      0.10537129	      0.04226055	      0.10571623
      3.27500000	      0.10539811	      0.04226593	      0.10560616
      3.28000000	      0.10658435	      0.04250311	      0.10542293
      3.28500000	      0.10680118	      0.04254632	      0.10514205
      3.29000000	      0.10774371	      0.04273365	      0.10524377
      3.29500000	      0.10757089	      0.04269936	      0.10478556
      3.30000000	      0.10832960	      0.04284968	      0.10465058
      3.30500000	      0.10937810	      0.04305654	      0.10456040
      3.31000000	      0.10980608	      0.04314070	      0.10426254
      3.31500000	      0.11010386	      0.04319916	      0.10400892
      3.32000000	      0.11091642	      0.04335827	      0.10400913
      3.32500000	      0.11144236	      0.04346094	      0.10359480
      3.33000000	      0.11228759	      0.04362545	      0.10359997
      3.33500000	      0.11251284	      0.04366918	      0.10318900
      3.34000000	      0.11398765	      0.04395445	      0.10332076
      3.34500000	      0.11426240	      0.04400739	      0.10281050
      3.35000000	      0.11414935	      0.04398562	      0.10264812
      3.35500000	      0.11551185	      0.04424735	      0.10225076
      3.36000000	      0.11552643	      0.04425014	      0.10232531
      3.36500000	      0.11618659	      0.04437639	      0.10212054
      3.37000000	      0.11658622	      0.04445264	      0.10183331
      3.37500000	      0.11771408	      0.04466715	      0.10165268
      3.38000000	      0.11808517	      0.04473750	      0.10144197
      3.38500000	      0.11863679	      0.04484187	      0.10131939
      3.39000000	      0.11904656	      0.04491924	      0.10105145
      3.39500000	      0.12005640	      0.04510936	      0.10083516
      3.40000000	      0.12050145	      0.04519289	      0.10076503
      3.40500000	      0.12115593	      0.04531545	      0.10056347
      3.41000000	      0.12137925	      0.04535720	      0.10042970
      3.41500000	      0.12263339	      0.04559092	      0.10027355
      3.42000000	      0.12366373	      0.04578204	      0.10012437
      3.42500000	      0.12372288	      0.04579299	      0.10128949
      3.43000000	      0.12403898	      0.04585145	      0.10165558
      3.43500000	      0.12541463	      0.04610501	      0.10168327
      3.44000000	      0.12560849	      0.04614063	      0.10148851
      3.44500000	      0.12624700	      0.04625775	      0.10260581
      3.45000000	      0.12725158	      0.04644143	      0.10261789
      3.45500000	      0.12842556	      0.04665516	      0.10261390
      3.46000000	      0.12903913	      0.04676648	      0.10322239
      3.46500000	      0.12935444	      0.04682359	      0.10423228
      3.47000000	      0.13071988	      0.04707007	      0.10446380
      3.47500000	      0.13113457	      0.04714467	      0.10498704
      3.48000000	      0.13205217	      0.04730933	      0.10501258
      3.48500000	      0.13341445	      0.04755273	      0.10533131
      3.49000000	      0.13418786	      0.04769036	      0.10623452
      3.49500000	      0.13523961	      0.04787689	      0.10659889
      3.50000000	      0.13625035	      0.04805547	      0.10679746
      3.50500000	      0.13728821	      0.04823815	      0.10697196
      3.51000000	      0.13841456	      0.04843562	      0.10725262
      3.51500000	      0.13944684	      0.04861590	      0.10766215
      3.52000000	      0.14003010	      0.04871747	      0.10902423
      3.52500000	      0.14070593	      0.04883489	      0.10964697
      3.53000000	      0.14189445	      0.04904070	      0.10977741
      3.53500000	      0.14242446	      0.04913221	      0.10999381
      3.54000000	      0.14372470	      0.04935597	      0.11013254
      3.54500000	      0.14376264	      0.04936248	      0.11106248
      3.55000000	      0.14517312	      0.04960405	      0.11137867
      3.55500000	      0.14573862	      0.04970056	      0.11189196
      3.56000000	      0.14678289	      0.04987831	      0.11214985
      3.56500000	      0.14769854	      0.05003364	      0.11246503
      3.57000000	      0.14882716	      0.05022444	      0.11258578
      3.57500000	      0.14899885	      0.05025340	      0.11347705
      3.58000000	      0.14993237	      0.05041058	      0.11396883
      3.58500000	      0.15097499	      0.05058555	      0.11413077
      3.59000000	      0.15198697	      0.05075481	      0.11438617
      3.59500000	      0.15288277	      0.05090416	      0.11512596
      3.60000000	      0.15376223	      0.05105036	      0.11557125
      3.60500000	      0.15456402	      0.05118329	      0.11570396
      3.61000000	      0.15548702	      0.05133589	      0.11560845
      3.61500000	      0.15743001	      0.05165564	      0.11596685
      3.62000000	      0.15869275	      0.05186239	      0.11624611
      3.62500000	      0.15903594	      0.05191844	      0.11730480
      3.63000000	      0.16044334	      0.05214766	      0.11721804
      3.63500000	      0.16160070	      0.05233541	      0.11747989
      3.64000000	      0.16238439	      0.05246216	      0.11749049
      3.64500000	      0.16345955	      0.05263555	      0.11860471
      3.65000000	      0.16401452	      0.05272482	      0.11899363
      3.65500000	      0.16548991	      0.05296144	      0.11954750
      3.66000000	      0.16593089	      0.05303195	      0.11972528
      3.66500000	      0.16731246	      0.05325227	      0.11982657
      3.67000000	      0.17869603	      0.05503405	      0.13432842
      3.67500000	      0.20119834	      0.05839642	      0.19952861
      3.68000000	      0.16947738	      0.05359569	      0.12125046
      3.68500000	      0.17053496	      0.05376266	      0.12167473
      3.69000000	      0.17120217	      0.05386772	      0.12192442
      3.69500000	      0.17208234	      0.05400602	      0.12257893
      3.70000000	      0.17321456	      0.05418339	      0.12307690
      3.70500000	      0.17465521	      0.05440825	      0.12315806
      3.71000000	      0.17528971	      0.05450699	      0.12354711
      3.71500000	      0.17631653	      0.05466640	      0.12436475
      3.72000000	      0.17754267	      0.05485616	      0.12436330
      3.72500000	      0.17806161	      0.05493627	      0.12481664
      3.73000000	      0.17945487	      0.05515077	      0.12526731
      3.73500000	      0.18006490	      0.05524443	      0.12509136
      3.74000000	      0.18113979	      0.05540908	      0.12595429
      3.74500000	      0.18219364	      0.05557003	      0.12612822
      3.75000000	      0.18308969	      0.05570651	      0.12675423
      3.75500000	      0.18427961	      0.05588724	      0.12680416
      3.76000000	      0.18581272	      0.05611923	      0.12689816
      3.76500000	      0.18648221	      0.05622024	      0.12767345
      3.77000000	      0.18751916	      0.05637633	      0.12778860
      3.77500000	      0.18874364	      0.05656010	      0.12789993
      3.78000000	      0.18958925	      0.05668666	      0.12875333
      3.78500000	      0.19094244	      0.05688860	      0.12896950
      3.79000000	      0.19204507	      0.05705262	      0.12917883
      3.79500000	      0.19269711	      0.05714939	      0.13006852
      3.80000000	      0.19447463	      0.05741237	      0.13008103
      3.80500000	      0.19557523	      0.05757460	      0.13063179
      3.81000000	      0.19675437	      0.05774790	      0.13068023
      3.81500000	      0.19765721	      0.05788024	      0.13131541
      3.82000000	      0.19934725	      0.05812716	      0.13148335
      3.82500000	      0.20024503	      0.05825791	      0.13207184
      3.83000000	      0.20149658	      0.05843968	      0.13235790
      3.83500000	      0.20297357	      0.05865347	      0.13241919
      3.84000000	      0.20449507	      0.05887290	      0.13253421
      3.84500000	      0.20533017	      0.05899299	      0.13319206
      3.85000000	      0.20695236	      0.05922556	      0.13367956
      3.85500000	      0.20817919	      0.05940085	      0.13403938
      3.86000000	      0.20941641	      0.05957710	      0.13408234
      3.86500000	      0.21045314	      0.05972439	      0.13475588
      3.87000000	      0.21193553	      0.05993436	      0.13477625
      3.87500000	      0.21317867	      0.06010988	      0.13491493
      3.88000000	      0.21517345	      0.06039046	      0.13515830
      3.88500000	      0.21582644	      0.06048202	      0.13637312
      3.89000000	      0.21702676	      0.06064998	      0.13621072
      3.89500000	      0.21852305	      0.06085869	      0.13682664
      3.90000000	      0.22039283	      0.06111851	      0.13681326
      3.90500000	      0.22168687	      0.06129767	      0.13697013
      3.91000000	      0.22232307	      0.06138557	      0.13754214
      3.91500000	      0.22341059	      0.06153552	      0.13751679
      3.92000000	      0.22459708	      0.06169871	      0.13782683
      3.92500000	      0.22547277	      0.06181887	      0.13875746
      3.93000000	      0.22661875	      0.06197577	      0.13861730
      3.93500000	      0.22700392	      0.06202841	      0.13887755
      3.94000000	      0.22878316	      0.06227103	      0.13908481
      3.94500000	      0.23013194	      0.06245431	      0.13922659
      3.95000000	      0.23055204	      0.06251129	      0.13985278
      3.95500000	      0.23135341	      0.06261984	      0.13977432
      3.96000000	      0.23300072	      0.06284238	      0.13977089
      3.96500000	      0.23327319	      0.06287911	      0.14025939
      3.97000000	      0.23445537	      0.06303824	      0.14054377
      3.97500000	      0.23519030	      0.06313696	      0.14032635
      3.98000000	      0.23563801	      0.06319703	      0.14103794
      3.98500000	      0.23688624	      0.06336419	      0.14087589
      3.99000000	      0.23777976	      0.06348358	      0.14103775
      3.99500000	      0.23824806	      0.06354607	      0.14186882
      4.00000000	      0.23885879	      0.06362746	      0.14149728
      4.00500000	      0.23979667	      0.06375226	      0.14228350
      4.01000000	      0.24071845	      0.06387467	      0.14235691
      4.01500000	      0.24111440	      0.06392718	      0.14249960
      4.02000000	      0.24171535	      0.06400680	      0.14254443
      4.02500000	      0.24252464	      0.06411386	      0.14254682
      4.03000000	      0.24330991	      0.06421757	      0.14321811
      4.03500000	      0.24402613	      0.06431202	      0.14307563
      4.04000000	      0.24506301	      0.06444851	      0.14307270
      4.04500000	      0.24512215	      0.06445629	      0.14364722
      4.05000000	      0.24560660	      0.06451995	      0.14344671
      4.05500000	      0.24589821	      0.06455824	      0.14384455
      4.06000000	      0.24700358	      0.06470318	      0.14393753
      4.06500000	      0.24749621	      0.06476767	      0.14376997
      4.07000000	      0.24751614	      0.06477028	      0.14419083
      4.07500000	      0.24838719	      0.06488415	      0.14427506
      4.08000000	      0.24892686	      0.06495459	      0.14424539
      4.08500000	      0.24889616	      0.06495059	      0.14414516
      4.09000000	      0.28237683	      0.06918127	      0.18936470
      4.09500000	      0.28221364	      0.06916127	      0.18909201
      4.10000000	      0.28283336	      0.06923717	      0.18927213
      4.10500000	      0.28324924	      0.06928806	      0.18929592
      4.11000000	      0.26272569	      0.06673064	      0.14436722
      4.11500000	      0.25105567	      0.06523175	      0.14544257
      4.12000000	      0.25143975	      0.06528163	      0.14528341
      4.12500000	      0.25143823	      0.06528143	      0.14568638
      4.13000000	      0.28495409	      0.06949626	      0.19035595
      4.13500000	      0.28563277	      0.06957897	      0.19022588
      4.14000000	      0.28678866	      0.06971962	      0.19131755
      4.14500000	      0.25351223	      0.06555011	      0.14570393
      4.15000000	      0.25406922	      0.06562208	      0.14602826
      4.15500000	      0.28843909	      0.06991994	      0.19223540
      4.16000000	      0.25449070	      0.06567649	      0.14635861
      4.16500000	      0.25503811	      0.06574709	      0.14635339
      4.17000000	      0.25583150	      0.06584928	      0.14633157
      4.17500000	      0.25631157	      0.06591103	      0.14607722
      4.18000000	      0.25664861	      0.06595435	      0.14628179
      4.18500000	      0.29043887	      0.07016190	      0.19135519
      4.19000000	      0.25729741	      0.06603766	      0.14615539
      4.19500000	      0.25729053	      0.06603678	      0.14694694
      4.20000000	      0.25794300	      0.06612046	      0.14703637
      4.20500000	      0.25863924	      0.06620964	      0.14696438
      4.21000000	      0.25846962	      0.06618792	      0.14747634
      4.21500000	      0.25876952	      0.06622631	      0.14710828
      4.22000000	      0.25945145	      0.06631351	      0.14758184
      4.22500000	      0.26034671	      0.06642783	      0.14750197
      4.23000000	      0.26099348	      0.06651029	      0.14746763
      4.23500000	      0.26154952	      0.06658110	      0.14755972
      4.24000000	      0.26139734	      0.06656173	      0.14828698
      4.24500000	      0.26279559	      0.06673951	      0.14828528
      4.25000000	      0.26288540	      0.06675092	      0.14860559
      4.25500000	      0.26345000	      0.06682256	      0.14832466
      4.26000000	      0.26415405	      0.06691179	      0.14823832
      4.26500000	      0.26476998	      0.06698975	      0.14835298
      4.27000000	      0.26508951	      0.06703016	      0.14911272
      4.27500000	      0.26560467	      0.06709526	      0.14901946
      4.28000000	      0.26602944	      0.06714889	      0.14879631
      4.28500000	      0.26698932	      0.06726992	      0.14889952
      4.29000000	      0.26740006	      0.06732165	      0.14962149
      4.29500000	      0.26786084	      0.06737963	      0.14945451
      4.30000000	      0.26871794	      0.06748734	      0.14936697
      4.30500000	      0.26909181	      0.06753427	      0.14934906
      4.31000000	      0.26936054	      0.06756799	      0.14941089
      4.31500000	      0.26936186	      0.06756815	      0.15021388
      4.32000000	      0.27034750	      0.06769166	      0.14995886
      4.32500000	      0.27095429	      0.06776758	      0.15037476
      4.33000000	      0.27090604	      0.06776155	      0.15121293
      4.33500000	      0.27188939	      0.06788442	      0.15033213
      4.34000000	      0.27139859	      0.06782312	      0.15089353
      4.34500000	      0.27190409	      0.06788626	      0.15074848
      4.35000000	      0.27204525	      0.06790388	      0.15050636
      4.35500000	      0.27209481	      0.06791006	      0.15111547
      4.36000000	      0.27279908	      0.06799789	      0.15118537
      4.36500000	      0.28821671	      0.06989298	      0.16906258
      4.37000000	      0.29494542	      0.07070414	      0.16894412
      4.37500000	      0.29162911	      0.07030552	      0.15992776
      4.38000000	      0.29183239	      0.07033002	      0.15979674
      4.38500000	      0.29169212	      0.07031312	      0.16010455
      4.39000000	      0.29125676	      0.07026062	      0.15991009
      4.39500000	      0.29169838	      0.07031387	      0.15979094
      4.40000000	      0.29223737	      0.07037880	      0.16021528
      4.40500000	      0.29173029	      0.07031772	      0.15992582
      4.41000000	      0.29218628	      0.07037265	      0.16024580
      4.41500000	      0.29681242	      0.07092756	      0.17287861
      4.42000000	      0.29186489	      0.07033394	      0.16029097
      4.42500000	      0.29214895	      0.07036815	      0.16024767
      4.43000000	      0.29230015	      0.07038636	      0.16036840
      4.43500000	      0.29320191	      0.07049485	      0.16053360
      4.44000000	      0.29023658	      0.07013747	      0.15676738
      4.44500000	      0.29662701	      0.07090540	      0.16974694
      4.45000000	      0.29299798	      0.07047033	      0.16061544
      4.45500000	      0.29358823	      0.07054128	      0.16055464
      4.46000000	      0.29110277	      0.07024205	      0.15729035
      4.46500000	      0.29797090	      0.07106584	      0.16953450
      4.47000000	      0.29717896	      0.07097134	      0.16952055
      4.47500000	      0.29847824	      0.07112632	      0.16943749
      4.48000000	      0.29871211	      0.07115418	      0.16970458
      4.48500000	      0.29582692	      0.07080971	      0.16118674
      4.49000000	      0.29955235	      0.07125418	      0.16974402
      4.49500000	      0.29683312	      0.07093004	      0.16142571
      4.50000000	      0.29786922	      0.07105372	      0.16134031
      4.50500000	      0.29845978	      0.07112412	      0.16142808
      4.51000000	      0.29837482	      0.07111400	      0.16199234
      4.51500000	      0.29903329	      0.07119242	      0.16193583
      4.52000000	      0.29956891	      0.07125615	      0.16184291
      4.52500000	      0.30010224	      0.07131955	      0.16191843
      4.53000000	      0.29964836	      0.07126560	      0.16213873
      4.53500000	      0.29688650	      0.07093641	      0.15733709
      4.54000000	      0.30374975	      0.07175166	      0.16942358
      4.54500000	      0.30398082	      0.07177895	      0.16932125
      4.55000000	      0.30429530	      0.07181607	      0.16908768
      4.55500000	      0.29314097	      0.07048752	      0.16112477
      4.56000000	      0.28421898	      0.06940656	      0.15883489
      4.56500000	      0.28495686	      0.06949660	      0.15884587
      4.57000000	      0.28537438	      0.06954749	      0.15891628
      4.57500000	      0.28517975	      0.06952377	      0.15884844
      4.58000000	      0.28479448	      0.06947680	      0.15879672
      4.58500000	      0.28527765	      0.06953571	      0.15895284
      4.59000000	      0.28601867	      0.06962596	      0.15900586
      4.59500000	      0.28638794	      0.06967089	      0.15913641
      4.60000000	      0.28638320	      0.06967031	      0.15917002
      4.60500000	      0.28642103	      0.06967491	      0.15912493
      4.61000000	      0.28693806	      0.06973777	      0.15925628
      4.61500000	      0.28732287	      0.06978452	      0.15928513
      4.62000000	      0.28741073	      0.06979519	      0.15926944
      4.62500000	      0.28746247	      0.06980147	      0.15923060
      4.63000000	      0.28799467	      0.06986606	      0.15944417
      4.63500000	      0.28717888	      0.06976703	      0.15922659
      4.64000000	      0.28769959	      0.06983025	      0.15924560
      4.64500000	      0.28758279	      0.06981608	      0.15926129
      4.65000000	      0.28739696	      0.06979352	      0.15927102
      4.65500000	      0.28740472	      0.06979446	      0.15928930
      4.66000000	      0.28726658	      0.06977768	      0.15929643
      4.66500000	      0.28722291	      0.06977238	      0.15914807
      4.67000000	      0.28685363	      0.06972751	      0.15911987
      4.67500000	      0.28705510	      0.06975199	      0.15906416
      4.68000000	      0.28670290	      0.06970919	      0.15897261
      4.68500000	      0.28622749	      0.06965137	      0.15881192
      4.69000000	      0.28633923	      0.06966496	      0.15877599
      4.69500000	      0.28656943	      0.06969296	      0.15883552
      4.70000000	      0.28585888	      0.06960651	      0.15866995
      4.70500000	      0.28576864	      0.06959552	      0.15859062
      4.71000000	      0.28535109	      0.06954466	      0.15846595
      4.71500000	      0.28527424	      0.06953529	      0.15845635
      4.72000000	      0.28488788	      0.06948819	      0.15826820
      4.72500000	      0.28473503	      0.06946954	      0.15811519
      4.73000000	      0.28406753	      0.06938807	      0.15795036
      4.73500000	      0.28338585	      0.06930476	      0.15769752
      4.74000000	      0.28301271	      0.06925912	      0.15750508
      4.74500000	      0.28254277	      0.06920159	      0.15734357
      4.75000000	      0.28234749	      0.06917767	      0.15728319
      4.75500000	      0.28193613	      0.06912726	      0.15697317
      4.76000000	      0.28116041	      0.06903210	      0.15683376
      4.76500000	      0.28108855	      0.06902328	      0.15658135
      4.77000000	      0.28020406	      0.06891459	      0.15635540
      4.77500000	      0.27968092	      0.06885023	      0.15619486
      4.78000000	      0.27884898	      0.06874776	      0.15588630
      4.78500000	      0.27867727	      0.06872659	      0.15570033
      4.79000000	      0.27776067	      0.06861347	      0.15554939
      4.79500000	      0.27718276	      0.06854205	      0.15515979
      4.80000000	      0.27582376	      0.06837382	      0.15490070
      4.80500000	      0.27555021	      0.06833990	      0.15466914
      4.81000000	      0.27519692	      0.06829608	      0.15440893
      4.81500000	      0.27360626	      0.06809842	      0.15407049
      4.82000000	      0.27304331	      0.06802832	      0.15378603
      4.82500000	      0.27172427	      0.06786381	      0.15333793
      4.83000000	      0.27091829	      0.06776308	      0.15046118
      4.83500000	      0.27029533	      0.06768513	      0.15305514
      4.84000000	      0.26935239	      0.06756696	      0.15127993
      4.84500000	      0.26944920	      0.06757911	      0.15268137
      4.85000000	      0.26737928	      0.06731903	      0.15211463
      4.85500000	      0.26608235	      0.06715557	      0.14883392
      4.86000000	      0.26572447	      0.06711039	      0.15156946
      4.86500000	      0.26564723	      0.06710064	      0.15129730
      4.87000000	      0.26529511	      0.06705615	      0.15104432
      4.87500000	      0.26350574	      0.06682963	      0.15064621
      4.88000000	      0.26088579	      0.06649656	      0.14793614
      4.88500000	      0.26081071	      0.06648699	      0.14737816
      4.89000000	      0.26019460	      0.06640842	      0.14843395
      4.89500000	      0.26961370	      0.06759973	      0.15625544
      4.90000000	      0.25810339	      0.06614101	      0.14893997
      4.90500000	      0.25538566	      0.06579187	      0.14559109
      4.91000000	      0.25452079	      0.06568038	      0.14584332
      4.91500000	      0.25391862	      0.06560263	      0.14534485
      4.92000000	      0.25243945	      0.06541127	      0.14489617
      4.92500000	      0.25137778	      0.06527358	      0.14446467
      4.93000000	      0.24865341	      0.06491891	      0.14389991
      4.93500000	      0.24829662	      0.06487232	      0.14369015
      4.94000000	      0.24689751	      0.06468928	      0.14322144
      4.94500000	      0.24580363	      0.06454582	      0.14320390
      4.95000000	      0.24543752	      0.06449774	      0.14277332
      4.95500000	      0.24329006	      0.06421495	      0.14244998
      4.96000000	      0.24239877	      0.06409722	      0.14198899
      4.96500000	      0.24123308	      0.06394291	      0.14185928
      4.97000000	      0.24025601	      0.06381329	      0.14136692
      4.97500000	      0.23864309	      0.06359873	      0.14113375
      4.98000000	      0.23641601	      0.06330127	      0.14051104
      4.98500000	      0.23457720	      0.06305462	      0.13999344
      4.99000000	      0.23445360	      0.06303800	      0.13999530
      4.99500000	      0.23153946	      0.06264501	      0.13937833
      5.00000000	      0.23173107	      0.06267093	      0.13927443
      5.00500000	      0.22902622	      0.06230410	      0.13874433
      5.01000000	      0.22859810	      0.06224584	      0.13841095
      5.01500000	      0.22601727	      0.06189347	      0.13789836
      5.02000000	      0.22528612	      0.06179327	      0.13770653
      5.02500000	      0.22371549	      0.06157750	      0.13730549
      5.03000000	      0.22214291	      0.06136069	      0.13709949
      5.03500000	      0.22041780	      0.06112197	      0.13642535
      5.04000000	      0.21810450	      0.06080038	      0.13581707
      5.04500000	      0.21739342	      0.06070119	      0.13564281
      5.05000000	      0.21431546	      0.06026994	      0.13478246
      5.05500000	      0.21421072	      0.06025521	      0.13480387
      5.06000000	      0.21134760	      0.05985117	      0.13430292
      5.06500000	      0.21092364	      0.05979111	      0.13396493
      5.07000000	      0.20893760	      0.05950895	      0.13355107
      5.07500000	      0.20824115	      0.05940969	      0.13333974
      5.08000000	      0.20567862	      0.05904302	      0.13248975
      5.08500000	      0.20473344	      0.05890720	      0.13227735
      5.09000000	      0.24959263	      0.06504140	      0.22568434
      5.09500000	      0.24784981	      0.06481392	      0.22546723
      5.10000000	      0.24596572	      0.06456710	      0.22531920
      5.10500000	      0.21471036	      0.06032544	      0.14618386
      5.11000000	      0.19636076	      0.05769011	      0.12999433
      5.11500000	      0.19490567	      0.05747596	      0.12959401
      5.12000000	      0.19282906	      0.05716895	      0.12911628
      5.12500000	      0.19134891	      0.05694912	      0.12863970
      5.13000000	      0.18931703	      0.05664595	      0.12841113
      5.13500000	      0.18826303	      0.05648804	      0.12818995
      5.14000000	      0.18620568	      0.05617854	      0.12754528
      5.14500000	      0.18529349	      0.05604077	      0.12744410
      5.15000000	      0.18261447	      0.05563417	      0.12660634
      5.15500000	      0.18113782	      0.05540878	      0.12632759
      5.16000000	      0.17835742	      0.05498188	      0.12541887
      5.16500000	      0.17755961	      0.05485877	      0.12511641
      5.17000000	      0.17492830	      0.05445077	      0.12440203
      5.17500000	      0.17330884	      0.05419814	      0.12409772
      5.18000000	      0.17082438	      0.05380826	      0.12317161
      5.18500000	      0.17047437	      0.05375310	      0.12329113
      5.19000000	      0.16729473	      0.05324945	      0.12229429
      5.19500000	      0.16595600	      0.05303596	      0.12190708
      5.20000000	      0.16376717	      0.05268505	      0.12118571
      5.20500000	      0.16178939	      0.05236595	      0.12064763
      5.21000000	      0.16022637	      0.05211239	      0.12030639
      5.21500000	      0.15876417	      0.05187406	      0.11969639
      5.22000000	      0.15719785	      0.05161754	      0.11912736
      5.22500000	      0.15544209	      0.05132847	      0.11846691
      5.23000000	      0.15360748	      0.05102467	      0.11778848
      5.23500000	      0.15168430	      0.05070424	      0.11731583
      5.24000000	      0.14968272	      0.05036859	      0.11681114
      5.24500000	      0.14807630	      0.05009758	      0.11615459
      5.25000000	      0.14642508	      0.04981748	      0.11541721
      5.25500000	      0.14549044	      0.04965823	      0.11484355
      5.26000000	      0.14321942	      0.04926914	      0.11409879
      5.26500000	      0.14140975	      0.04895687	      0.11352263
      5.27000000	      0.13974542	      0.04866792	      0.11282786
      5.27500000	      0.13825612	      0.04840789	      0.11225491
      5.28000000	      0.13695420	      0.04817943	      0.11146015
      5.28500000	      0.13472622	      0.04778593	      0.11104134
      5.29000000	      0.13301718	      0.04748188	      0.11030819
      5.29500000	      0.13173221	      0.04725198	      0.10969291
      5.30000000	      0.13004652	      0.04694868	      0.10891836
      5.30500000	      0.12840075	      0.04665066	      0.10842929
      5.31000000	      0.12661006	      0.04632422	      0.10741788
      5.31500000	      0.12470274	      0.04597397	      0.10674322
      5.32000000	      0.12302581	      0.04566381	      0.10587340
      5.32500000	      0.12145510	      0.04537137	      0.10516494
      5.33000000	      0.12002909	      0.04510423	      0.10464385
      5.33500000	      0.11793340	      0.04470874	      0.10373635
      5.34000000	      0.11596495	      0.04433405	      0.10288966
      5.34500000	      0.11430206	      0.04401503	      0.10247483
      5.35000000	      0.11263032	      0.04369197	      0.10132882
      5.35500000	      0.11075974	      0.04332763	      0.10061693
      5.36000000	      0.10916200	      0.04301399	      0.09980700
      5.36500000	      0.10773117	      0.04273116	      0.09926941
      5.37000000	      0.10661397	      0.04250902	      0.09843047
      5.37500000	      0.10483644	      0.04215316	      0.09769026
      5.38000000	      0.10312156	      0.04180697	      0.09694471
      5.38500000	      0.10147387	      0.04147163	      0.09601427
      5.39000000	      0.10039672	      0.04125093	      0.09518677
      5.39500000	      0.09851227	      0.04086196	      0.09409356
      5.40000000	      0.09711931	      0.04057203	      0.09357935
      5.40500000	      0.09542969	      0.04021756	      0.09302836
      5.41000000	      0.09369704	      0.03985079	      0.09276481
      5.41500000	      0.09209825	      0.03950933	      0.09278101
      5.42000000	      0.09060317	      0.03918733	      0.09279341
      5.42500000	      0.08925296	      0.03889424	      0.09299955
      5.43000000	      0.08729363	      0.03846496	      0.09283186
      5.43500000	      0.08571179	      0.03811486	      0.09290443
      5.44000000	      0.08448641	      0.03784142	      0.09277864
      5.44500000	      0.08303410	      0.03751476	      0.09281355
      5.45000000	      0.08125420	      0.03711051	      0.09276546
      5.45500000	      0.08039460	      0.03691369	      0.09256194
      5.46000000	      0.07862211	      0.03650449	      0.09254536
      5.46500000	      0.07692078	      0.03610737	      0.09260933
      5.47000000	      0.07567835	      0.03581458	      0.09241774
      5.47500000	      0.07425111	      0.03547525	      0.09237541
      5.48000000	      0.07290333	      0.03515181	      0.09233441
      5.48500000	      0.07151312	      0.03481504	      0.09216022
      5.49000000	      0.07007947	      0.03446429	      0.09215148
      5.49500000	      0.06866448	      0.03411458	      0.09210534
      5.50000000	      0.06715017	      0.03373631	      0.09202018
