Model Marker Errors from IK
version=1
nRows=406
nColumns=4
inDegrees=no
endheader
time	total_squared_error	marker_error_RMS	marker_error_max
      2.32500000	      0.09192635	      0.03881996	      0.12721884
      2.33000000	      0.09212364	      0.03886159	      0.12753637
      2.33500000	      0.09197210	      0.03882962	      0.12714956
      2.34000000	      0.09217058	      0.03887150	      0.12747511
      2.34500000	      0.09225482	      0.03888925	      0.12762500
      2.35000000	      0.09223341	      0.03888474	      0.12746490
      2.35500000	      0.09238442	      0.03891656	      0.12777614
      2.36000000	      0.09243815	      0.03892788	      0.12810620
      2.36500000	      0.09237532	      0.03891464	      0.12763295
      2.37000000	      0.09243553	      0.03892732	      0.12736892
      2.37500000	      0.09231846	      0.03890267	      0.12762935
      2.38000000	      0.09238087	      0.03891581	      0.12777481
      2.38500000	      0.09239484	      0.03891875	      0.12758498
      2.39000000	      0.09250238	      0.03894140	      0.12821272
      2.39500000	      0.09258954	      0.03895974	      0.12815661
      2.40000000	      0.09242425	      0.03892495	      0.12798383
      2.40500000	      0.09241189	      0.03892235	      0.12822767
      2.41000000	      0.09214460	      0.03886602	      0.12781679
      2.41500000	      0.09219957	      0.03887761	      0.12820852
      2.42000000	      0.09236917	      0.03891335	      0.12803608
      2.42500000	      0.09209042	      0.03885459	      0.12793724
      2.43000000	      0.09196377	      0.03882786	      0.12813314
      2.43500000	      0.09187318	      0.03880873	      0.12756130
      2.44000000	      0.09189088	      0.03881247	      0.12766731
      2.44500000	      0.09179354	      0.03879191	      0.12743458
      2.45000000	      0.09172956	      0.03877839	      0.12733107
      2.45500000	      0.09170780	      0.03877379	      0.12756897
      2.46000000	      0.09173504	      0.03877955	      0.12807834
      2.46500000	      0.09159061	      0.03874901	      0.12720524
      2.47000000	      0.09140480	      0.03870968	      0.12736180
      2.47500000	      0.09147287	      0.03872409	      0.12752480
      2.48000000	      0.09145712	      0.03872076	      0.12744407
      2.48500000	      0.09144029	      0.03871719	      0.12743777
      2.49000000	      0.09130660	      0.03868888	      0.12697373
      2.49500000	      0.09133321	      0.03869452	      0.12693781
      2.50000000	      0.09124048	      0.03867487	      0.12714621
      2.50500000	      0.09117755	      0.03866153	      0.12770050
      2.51000000	      0.09118525	      0.03866316	      0.12709961
      2.51500000	      0.09109155	      0.03864329	      0.12704595
      2.52000000	      0.09105738	      0.03863605	      0.12671587
      2.52500000	      0.09076021	      0.03857295	      0.12638000
      2.53000000	      0.09069872	      0.03855988	      0.12637406
      2.53500000	      0.09053646	      0.03852537	      0.12612214
      2.54000000	      0.09051519	      0.03852085	      0.12598970
      2.54500000	      0.09051192	      0.03852015	      0.12584736
      2.55000000	      0.09046975	      0.03851118	      0.12577676
      2.55500000	      0.09036119	      0.03848806	      0.12625919
      2.56000000	      0.09039069	      0.03849435	      0.12619094
      2.56500000	      0.09047936	      0.03851322	      0.12606509
      2.57000000	      0.09045019	      0.03850701	      0.12631322
      2.57500000	      0.09038794	      0.03849376	      0.12628259
      2.58000000	      0.09042369	      0.03850137	      0.12639279
      2.58500000	      0.09049262	      0.03851604	      0.12615096
      2.59000000	      0.09036368	      0.03848859	      0.12624765
      2.59500000	      0.09038302	      0.03849271	      0.12644334
      2.60000000	      0.09052493	      0.03852292	      0.12628763
      2.60500000	      0.09056902	      0.03853230	      0.12595367
      2.61000000	      0.09050574	      0.03851884	      0.12629433
      2.61500000	      0.09054964	      0.03852818	      0.12594780
      2.62000000	      0.09064714	      0.03854891	      0.12598238
      2.62500000	      0.09052778	      0.03852352	      0.12586185
      2.63000000	      0.09041626	      0.03849979	      0.12609119
      2.63500000	      0.09042777	      0.03850224	      0.12587054
      2.64000000	      0.09040820	      0.03849807	      0.12603676
      2.64500000	      0.09030284	      0.03847563	      0.12619860
      2.65000000	      0.09031981	      0.03847925	      0.12616871
      2.65500000	      0.09024843	      0.03846404	      0.12593158
      2.66000000	      0.09019277	      0.03845218	      0.12606889
      2.66500000	      0.08994549	      0.03839943	      0.12542649
      2.67000000	      0.08993549	      0.03839730	      0.12554325
      2.67500000	      0.09010111	      0.03843263	      0.12567033
      2.68000000	      0.09020398	      0.03845457	      0.12589968
      2.68500000	      0.09019703	      0.03845309	      0.12591349
      2.69000000	      0.08992721	      0.03839553	      0.12565498
      2.69500000	      0.08986854	      0.03838300	      0.12521137
      2.70000000	      0.08990277	      0.03839031	      0.12518146
      2.70500000	      0.08988084	      0.03838563	      0.12474160
      2.71000000	      0.08979350	      0.03836697	      0.12495180
      2.71500000	      0.08985378	      0.03837985	      0.12513364
      2.72000000	      0.08994305	      0.03839891	      0.12540710
      2.72500000	      0.08978744	      0.03836568	      0.12511159
      2.73000000	      0.08972939	      0.03835327	      0.12508296
      2.73500000	      0.08998122	      0.03840706	      0.12546826
      2.74000000	      0.08979399	      0.03836708	      0.12474041
      2.74500000	      0.08976866	      0.03836167	      0.12476637
      2.75000000	      0.08981234	      0.03837100	      0.12487736
      2.75500000	      0.08999988	      0.03841104	      0.12541212
      2.76000000	      0.08985648	      0.03838042	      0.12485913
      2.76500000	      0.08980326	      0.03836906	      0.12461778
      2.77000000	      0.08983323	      0.03837546	      0.12505390
      2.77500000	      0.08969542	      0.03834601	      0.12456984
      2.78000000	      0.08983304	      0.03837542	      0.12468280
      2.78500000	      0.08965819	      0.03833805	      0.12411967
      2.79000000	      0.08964723	      0.03833571	      0.12384181
      2.79500000	      0.08972415	      0.03835215	      0.12407060
      2.80000000	      0.08978334	      0.03836480	      0.12399830
      2.80500000	      0.08985049	      0.03837915	      0.12414568
      2.81000000	      0.08981183	      0.03837089	      0.12430820
      2.81500000	      0.08988931	      0.03838744	      0.12415370
      2.82000000	      0.08995029	      0.03840046	      0.12450636
      2.82500000	      0.08984082	      0.03837708	      0.12436350
      2.83000000	      0.09004832	      0.03842137	      0.12464157
      2.83500000	      0.08994886	      0.03840015	      0.12475921
      2.84000000	      0.09014985	      0.03844303	      0.12479476
      2.84500000	      0.09007034	      0.03842607	      0.12466890
      2.85000000	      0.09014100	      0.03844114	      0.12472187
      2.85500000	      0.09021781	      0.03845751	      0.12509622
      2.86000000	      0.09021319	      0.03845653	      0.12486682
      2.86500000	      0.09032676	      0.03848073	      0.12485183
      2.87000000	      0.09025047	      0.03846448	      0.12497288
      2.87500000	      0.09015557	      0.03844425	      0.12427770
      2.88000000	      0.09014380	      0.03844174	      0.12453380
      2.88500000	      0.09030440	      0.03847597	      0.12469995
      2.89000000	      0.09023329	      0.03846081	      0.12482260
      2.89500000	      0.09038844	      0.03849387	      0.12481689
      2.90000000	      0.09036649	      0.03848919	      0.12501971
      2.90500000	      0.09045676	      0.03850841	      0.12526248
      2.91000000	      0.09039796	      0.03849589	      0.12522720
      2.91500000	      0.09038020	      0.03849211	      0.12477025
      2.92000000	      0.09034074	      0.03848371	      0.12481381
      2.92500000	      0.09042629	      0.03850193	      0.12494733
      2.93000000	      0.09047533	      0.03851236	      0.12488202
      2.93500000	      0.09051479	      0.03852076	      0.12493189
      2.94000000	      0.09050148	      0.03851793	      0.12485159
      2.94500000	      0.09043332	      0.03850342	      0.12507082
      2.95000000	      0.09037601	      0.03849122	      0.12505612
      2.95500000	      0.09031758	      0.03847877	      0.12468351
      2.96000000	      0.09035593	      0.03848694	      0.12475216
      2.96500000	      0.09047692	      0.03851270	      0.12496372
      2.97000000	      0.09044758	      0.03850646	      0.12495741
      2.97500000	      0.09048374	      0.03851415	      0.12477118
      2.98000000	      0.09038370	      0.03849286	      0.12489840
      2.98500000	      0.09039164	      0.03849455	      0.12512130
      2.99000000	      0.09027976	      0.03847072	      0.12462915
      2.99500000	      0.09029402	      0.03847375	      0.12492922
      3.00000000	      0.09023976	      0.03846219	      0.12512061
      3.00500000	      0.09011392	      0.03843537	      0.12449696
      3.01000000	      0.09021495	      0.03845691	      0.12471262
      3.01500000	      0.09019995	      0.03845371	      0.12469848
      3.02000000	      0.09021489	      0.03845689	      0.12475883
      3.02500000	      0.09005111	      0.03842197	      0.12448152
      3.03000000	      0.09006264	      0.03842443	      0.12398544
      3.03500000	      0.09000732	      0.03841263	      0.12400724
      3.04000000	      0.08999335	      0.03840965	      0.12378755
      3.04500000	      0.09011514	      0.03843563	      0.12374785
      3.05000000	      0.09010850	      0.03843421	      0.12400776
      3.05500000	      0.08999235	      0.03840943	      0.12396483
      3.06000000	      0.08999725	      0.03841048	      0.12373716
      3.06500000	      0.08997624	      0.03840599	      0.12391058
      3.07000000	      0.08973271	      0.03835398	      0.12317947
      3.07500000	      0.08967916	      0.03834254	      0.12301035
      3.08000000	      0.08952194	      0.03830891	      0.12292414
      3.08500000	      0.08946671	      0.03829709	      0.12274381
      3.09000000	      0.08932823	      0.03826744	      0.12250604
      3.09500000	      0.08926217	      0.03825329	      0.12243706
      3.10000000	      0.08921474	      0.03824313	      0.12248172
      3.10500000	      0.08906216	      0.03821041	      0.12229894
      3.11000000	      0.08918610	      0.03823699	      0.12228476
      3.11500000	      0.08905050	      0.03820791	      0.12186469
      3.12000000	      0.08894475	      0.03818521	      0.12163598
      3.12500000	      0.08877163	      0.03814803	      0.12160150
      3.13000000	      0.08855919	      0.03810236	      0.12111505
      3.13500000	      0.08845263	      0.03807943	      0.12049187
      3.14000000	      0.08836619	      0.03806082	      0.12042217
      3.14500000	      0.08844805	      0.03807845	      0.12038000
      3.15000000	      0.08844922	      0.03807870	      0.12085204
      3.15500000	      0.08813729	      0.03801149	      0.12022471
      3.16000000	      0.08796497	      0.03797432	      0.11949985
      3.16500000	      0.08785875	      0.03795138	      0.11949675
      3.17000000	      0.08777713	      0.03793375	      0.11930835
      3.17500000	      0.08761379	      0.03789844	      0.11945311
      3.18000000	      0.08773298	      0.03792421	      0.11936475
      3.18500000	      0.08752950	      0.03788020	      0.11879489
      3.19000000	      0.08739002	      0.03785001	      0.11873559
      3.19500000	      0.08741895	      0.03785627	      0.11871113
      3.20000000	      0.08730999	      0.03783268	      0.11816722
      3.20500000	      0.08728153	      0.03782651	      0.11784241
      3.21000000	      0.08714133	      0.03779612	      0.11780765
      3.21500000	      0.08706005	      0.03777848	      0.11777398
      3.22000000	      0.08700877	      0.03776736	      0.11790179
      3.22500000	      0.08692754	      0.03774972	      0.11750822
      3.23000000	      0.08689936	      0.03774360	      0.11760847
      3.23500000	      0.08702104	      0.03777002	      0.11772526
      3.24000000	      0.08700574	      0.03776670	      0.11782462
      3.24500000	      0.08704199	      0.03777457	      0.11778386
      3.25000000	      0.08702552	      0.03777099	      0.11763405
      3.25500000	      0.08715962	      0.03780008	      0.11762734
      3.26000000	      0.08715885	      0.03779992	      0.11770570
      3.26500000	      0.08712918	      0.03779348	      0.11772305
      3.27000000	      0.08710498	      0.03778823	      0.11771198
      3.27500000	      0.08699523	      0.03776442	      0.11785612
      3.28000000	      0.08709087	      0.03778517	      0.11781527
      3.28500000	      0.08722627	      0.03781453	      0.11805287
      3.29000000	      0.08718831	      0.03780630	      0.11776729
      3.29500000	      0.08715886	      0.03779992	      0.11788362
      3.30000000	      0.08724087	      0.03781770	      0.11787030
      3.30500000	      0.08712657	      0.03779291	      0.11777260
      3.31000000	      0.08718742	      0.03780611	      0.11787861
      3.31500000	      0.08706856	      0.03778033	      0.11811746
      3.32000000	      0.08710194	      0.03778757	      0.11829960
      3.32500000	      0.08712403	      0.03779236	      0.11837356
      3.33000000	      0.08716156	      0.03780050	      0.11841444
      3.33500000	      0.08726378	      0.03782266	      0.11843247
      3.34000000	      0.08732760	      0.03783649	      0.11889552
      3.34500000	      0.08735017	      0.03784138	      0.11869276
      3.35000000	      0.08736554	      0.03784471	      0.11866798
      3.35500000	      0.08754944	      0.03788452	      0.11869531
      3.36000000	      0.08740855	      0.03785402	      0.11859090
      3.36500000	      0.08740339	      0.03785291	      0.11841565
      3.37000000	      0.08737271	      0.03784626	      0.11855445
      3.37500000	      0.08745786	      0.03786470	      0.11842774
      3.38000000	      0.08733562	      0.03783823	      0.11838230
      3.38500000	      0.08752902	      0.03788010	      0.11899531
      3.39000000	      0.08742192	      0.03785692	      0.11863797
      3.39500000	      0.08744667	      0.03786228	      0.11888264
      3.40000000	      0.08754386	      0.03788331	      0.11883056
      3.40500000	      0.08756758	      0.03788844	      0.11882712
      3.41000000	      0.08769161	      0.03791527	      0.11910741
      3.41500000	      0.08773058	      0.03792369	      0.11930585
      3.42000000	      0.08781232	      0.03794135	      0.11905490
      3.42500000	      0.08773533	      0.03792472	      0.11912224
      3.43000000	      0.08781390	      0.03794169	      0.11920415
      3.43500000	      0.08782245	      0.03794354	      0.11902671
      3.44000000	      0.08780884	      0.03794060	      0.11951852
      3.44500000	      0.08778524	      0.03793550	      0.11942764
      3.45000000	      0.08782528	      0.03794415	      0.11929072
      3.45500000	      0.08780315	      0.03793937	      0.11954258
      3.46000000	      0.08777205	      0.03793265	      0.11955630
      3.46500000	      0.08777087	      0.03793240	      0.11950766
      3.47000000	      0.08778800	      0.03793610	      0.11932686
      3.47500000	      0.08778511	      0.03793547	      0.11948737
      3.48000000	      0.08773889	      0.03792549	      0.11945969
      3.48500000	      0.08774308	      0.03792639	      0.11944977
      3.49000000	      0.08780782	      0.03794038	      0.11920851
      3.49500000	      0.08780585	      0.03793995	      0.11940973
      3.50000000	      0.08780564	      0.03793991	      0.11955835
      3.50500000	      0.08783177	      0.03794555	      0.11956900
      3.51000000	      0.08793336	      0.03796749	      0.11990264
      3.51500000	      0.08802144	      0.03798650	      0.11986657
      3.52000000	      0.08794263	      0.03796949	      0.11988385
      3.52500000	      0.08799470	      0.03798073	      0.11988678
      3.53000000	      0.08803640	      0.03798973	      0.11980657
      3.53500000	      0.08792261	      0.03796517	      0.11960477
      3.54000000	      0.08795180	      0.03797147	      0.11944329
      3.54500000	      0.08801221	      0.03798451	      0.11988443
      3.55000000	      0.08807856	      0.03799883	      0.12003046
      3.55500000	      0.08817591	      0.03801982	      0.12014898
      3.56000000	      0.08809629	      0.03800265	      0.12002270
      3.56500000	      0.08819612	      0.03802418	      0.12015703
      3.57000000	      0.08824949	      0.03803568	      0.12018970
      3.57500000	      0.08829278	      0.03804501	      0.12033216
      3.58000000	      0.08834869	      0.03805705	      0.12032659
      3.58500000	      0.08841693	      0.03807175	      0.12039763
      3.59000000	      0.08846981	      0.03808313	      0.12046389
      3.59500000	      0.08868514	      0.03812945	      0.12063646
      3.60000000	      0.08877313	      0.03814836	      0.12066254
      3.60500000	      0.08869620	      0.03813183	      0.12042820
      3.61000000	      0.08890963	      0.03817768	      0.12050347
      3.61500000	      0.08905741	      0.03820939	      0.12067844
      3.62000000	      0.08911200	      0.03822110	      0.12084893
      3.62500000	      0.08912521	      0.03822393	      0.12071549
      3.63000000	      0.08917776	      0.03823520	      0.12149872
      3.63500000	      0.08921504	      0.03824319	      0.12047826
      3.64000000	      0.08930834	      0.03826318	      0.12071819
      3.64500000	      0.08945600	      0.03829480	      0.12075198
      3.65000000	      0.08949696	      0.03830357	      0.12082008
      3.65500000	      0.08950366	      0.03830500	      0.12121133
      3.66000000	      0.08955552	      0.03831610	      0.12133136
      3.66500000	      0.08957419	      0.03832009	      0.12116249
      3.67000000	      0.08966159	      0.03833878	      0.12150168
      3.67500000	      0.08965130	      0.03833658	      0.12159365
      3.68000000	      0.08967383	      0.03834140	      0.12144785
      3.68500000	      0.08974909	      0.03835748	      0.12159235
      3.69000000	      0.08981051	      0.03837061	      0.12164969
      3.69500000	      0.08995363	      0.03840117	      0.12181401
      3.70000000	      0.09003033	      0.03841754	      0.12181436
      3.70500000	      0.09007978	      0.03842809	      0.12212085
      3.71000000	      0.09012272	      0.03843724	      0.12317333
      3.71500000	      0.09013739	      0.03844037	      0.12227521
      3.72000000	      0.09022980	      0.03846007	      0.12216878
      3.72500000	      0.09038943	      0.03849408	      0.12289683
      3.73000000	      0.09054113	      0.03852636	      0.12265956
      3.73500000	      0.09044708	      0.03850635	      0.12267345
      3.74000000	      0.09061965	      0.03854307	      0.12361152
      3.74500000	      0.09039564	      0.03849540	      0.12213039
      3.75000000	      0.09044231	      0.03850534	      0.12209448
      3.75500000	      0.09056634	      0.03853173	      0.12278659
      3.76000000	      0.09055929	      0.03853023	      0.12290657
      3.76500000	      0.09055174	      0.03852862	      0.12309143
      3.77000000	      0.09065851	      0.03855133	      0.12308222
      3.77500000	      0.09082198	      0.03858607	      0.12325447
      3.78000000	      0.09086001	      0.03859415	      0.12352198
      3.78500000	      0.09078755	      0.03857876	      0.12350294
      3.79000000	      0.09087384	      0.03859709	      0.12402493
      3.79500000	      0.09082088	      0.03858584	      0.12416008
      3.80000000	      0.09085132	      0.03859230	      0.12433827
      3.80500000	      0.09097736	      0.03861906	      0.12479007
      3.81000000	      0.09089833	      0.03860229	      0.12490575
      3.81500000	      0.09077464	      0.03857601	      0.12463372
      3.82000000	      0.09070852	      0.03856196	      0.12511013
      3.82500000	      0.09064567	      0.03854860	      0.12508835
      3.83000000	      0.09060176	      0.03853926	      0.12522123
      3.83500000	      0.09047729	      0.03851278	      0.12514738
      3.84000000	      0.09027015	      0.03846867	      0.12470102
      3.84500000	      0.09013597	      0.03844007	      0.12561230
      3.85000000	      0.09005963	      0.03842379	      0.12559232
      3.85500000	      0.08997159	      0.03840500	      0.12591412
      3.86000000	      0.08986568	      0.03838239	      0.12575587
      3.86500000	      0.08959497	      0.03832454	      0.12561839
      3.87000000	      0.08959080	      0.03832364	      0.12673794
      3.87500000	      0.08953068	      0.03831078	      0.12638634
      3.88000000	      0.08938583	      0.03827978	      0.12667108
      3.88500000	      0.08937246	      0.03827692	      0.12710468
      3.89000000	      0.08940156	      0.03828315	      0.12728943
      3.89500000	      0.08926812	      0.03825457	      0.12784039
      3.90000000	      0.08924227	      0.03824903	      0.12856009
      3.90500000	      0.08896563	      0.03818970	      0.12822458
      3.91000000	      0.08909867	      0.03821824	      0.12753863
      3.91500000	      0.08910080	      0.03821870	      0.12861523
      3.92000000	      0.08898809	      0.03819452	      0.12862908
      3.92500000	      0.08880841	      0.03815594	      0.12964557
      3.93000000	      0.08871280	      0.03813539	      0.12933555
      3.93500000	      0.08880089	      0.03815432	      0.12969997
      3.94000000	      0.08861219	      0.03811376	      0.13032330
      3.94500000	      0.08822178	      0.03802971	      0.13006430
      3.95000000	      0.08793957	      0.03796883	      0.13010116
      3.95500000	      0.08770301	      0.03791773	      0.13032362
      3.96000000	      0.08752933	      0.03788017	      0.13016034
      3.96500000	      0.08693033	      0.03775033	      0.12902470
      3.97000000	      0.08683555	      0.03772974	      0.12896484
      3.97500000	      0.08655508	      0.03766876	      0.12793680
      3.98000000	      0.08605698	      0.03756022	      0.12602742
      3.98500000	      0.08613894	      0.03757810	      0.12617337
      3.99000000	      0.08600900	      0.03754975	      0.12493734
      3.99500000	      0.08565302	      0.03747196	      0.12387267
      4.00000000	      0.08553487	      0.03744611	      0.12294437
      4.00500000	      0.08523535	      0.03738049	      0.12222032
      4.01000000	      0.08491444	      0.03731005	      0.12099748
      4.01500000	      0.08439092	      0.03719486	      0.11958996
      4.02000000	      0.08399328	      0.03710713	      0.11844281
      4.02500000	      0.08364080	      0.03702919	      0.11728573
      4.03000000	      0.08305619	      0.03689955	      0.11578188
      4.03500000	      0.08253766	      0.03678419	      0.11428504
      4.04000000	      0.08211809	      0.03669057	      0.11248080
      4.04500000	      0.08148749	      0.03654942	      0.11012354
      4.05000000	      0.08101890	      0.03644419	      0.10817661
      4.05500000	      0.08007892	      0.03623216	      0.10603271
      4.06000000	      0.08016508	      0.03625164	      0.10450374
      4.06500000	      0.07933723	      0.03606397	      0.10221207
      4.07000000	      0.07952591	      0.03610683	      0.10135791
      4.07500000	      0.07852724	      0.03587941	      0.09843509
      4.08000000	      0.07805330	      0.03577097	      0.09686999
      4.08500000	      0.07806766	      0.03577426	      0.09608204
      4.09000000	      0.07774622	      0.03570053	      0.09477809
      4.09500000	      0.07749307	      0.03564236	      0.09514164
      4.10000000	      0.07664982	      0.03544791	      0.09471453
      4.10500000	      0.07630066	      0.03536708	      0.09502446
      4.11000000	      0.07589781	      0.03527359	      0.09481438
      4.11500000	      0.07540343	      0.03515852	      0.09483932
      4.12000000	      0.07559184	      0.03520242	      0.09470891
      4.12500000	      0.07621324	      0.03534681	      0.09487652
      4.13000000	      0.07680926	      0.03548476	      0.09467869
      4.13500000	      0.07666294	      0.03545095	      0.09493126
      4.14000000	      0.07541933	      0.03516223	      0.09468895
      4.14500000	      0.07438572	      0.03492045	      0.09444716
      4.15000000	      0.07261421	      0.03450213	      0.09446036
      4.15500000	      0.07117584	      0.03415870	      0.09441620
      4.16000000	      0.06981819	      0.03383135	      0.09442291
      4.16500000	      0.06851663	      0.03351453	      0.09438209
      4.17000000	      0.06774454	      0.03332516	      0.09426949
      4.17500000	      0.06721379	      0.03319436	      0.09431461
      4.18000000	      0.06689825	      0.03311635	      0.09416154
      4.18500000	      0.06647749	      0.03301204	      0.09438791
      4.19000000	      0.06595611	      0.03288233	      0.09432790
      4.19500000	      0.06576902	      0.03283566	      0.09403762
      4.20000000	      0.06547790	      0.03276291	      0.09382454
      4.20500000	      0.06521514	      0.03269710	      0.09392168
      4.21000000	      0.06473159	      0.03257566	      0.09387372
      4.21500000	      0.06443509	      0.03250097	      0.09375108
      4.22000000	      0.06422909	      0.03244897	      0.09381692
      4.22500000	      0.06396057	      0.03238107	      0.09405793
      4.23000000	      0.06380049	      0.03234053	      0.09379687
      4.23500000	      0.06367514	      0.03230874	      0.09418276
      4.24000000	      0.06373066	      0.03232282	      0.09355735
      4.24500000	      0.06377467	      0.03233398	      0.09327033
      4.25000000	      0.06402731	      0.03239796	      0.09376269
      4.25500000	      0.06420087	      0.03244184	      0.09385573
      4.26000000	      0.06446522	      0.03250857	      0.09404309
      4.26500000	      0.06470501	      0.03256897	      0.09403065
      4.27000000	      0.06460497	      0.03254378	      0.09414930
      4.27500000	      0.06460832	      0.03254463	      0.09382507
      4.28000000	      0.06451871	      0.03252205	      0.09421773
      4.28500000	      0.06430937	      0.03246925	      0.09446841
      4.29000000	      0.06396212	      0.03238147	      0.09441535
      4.29500000	      0.06365923	      0.03230470	      0.09407056
      4.30000000	      0.06330617	      0.03221500	      0.09420187
      4.30500000	      0.06292139	      0.03211694	      0.09430169
      4.31000000	      0.06263681	      0.03204423	      0.09431045
      4.31500000	      0.06222504	      0.03193873	      0.09407984
      4.32000000	      0.06202630	      0.03188769	      0.09414141
      4.32500000	      0.06172207	      0.03180939	      0.09423474
      4.33000000	      0.06149536	      0.03175092	      0.09420483
      4.33500000	      0.06132623	      0.03170722	      0.09415321
      4.34000000	      0.06111439	      0.03165241	      0.09418956
      4.34500000	      0.06088350	      0.03159257	      0.09415801
      4.35000000	      0.06076610	      0.03156209	      0.09407347
