Model Marker Errors from IK
version=1
nRows=961
nColumns=4
inDegrees=no
endheader
time	total_squared_error	marker_error_RMS	marker_error_max
      1.00000000	      0.03929410	      0.02538042	      0.05981310
      1.00500000	      0.03928952	      0.02537894	      0.06000479
      1.01000000	      0.03936295	      0.02540264	      0.06021730
      1.01500000	      0.03931164	      0.02538608	      0.06041893
      1.02000000	      0.03935856	      0.02540123	      0.06064884
      1.02500000	      0.03931757	      0.02538799	      0.06058536
      1.03000000	      0.03936290	      0.02540263	      0.06070729
      1.03500000	      0.03934656	      0.02539735	      0.06089875
      1.04000000	      0.03925227	      0.02536690	      0.06105535
      1.04500000	      0.03923800	      0.02536229	      0.06103555
      1.05000000	      0.03924930	      0.02536594	      0.06137410
      1.05500000	      0.03912968	      0.02532726	      0.06083142
      1.06000000	      0.03907729	      0.02531030	      0.06101248
      1.06500000	      0.04020457	      0.02567277	      0.06111266
      1.07000000	      0.04028483	      0.02569839	      0.06209096
      1.07500000	      0.04034504	      0.02571758	      0.06214545
      1.08000000	      0.04016600	      0.02566046	      0.06210974
      1.08500000	      0.04016440	      0.02565994	      0.06235030
      1.09000000	      0.04009104	      0.02563650	      0.06273327
      1.09500000	      0.04002956	      0.02561684	      0.06307345
      1.10000000	      0.04004672	      0.02562233	      0.06344641
      1.10500000	      0.04002123	      0.02561417	      0.06359229
      1.11000000	      0.03996347	      0.02559568	      0.06390941
      1.11500000	      0.04014906	      0.02565504	      0.06413069
      1.12000000	      0.04000590	      0.02560926	      0.06418113
      1.12500000	      0.03985196	      0.02555995	      0.06428694
      1.13000000	      0.03994660	      0.02559028	      0.06457304
      1.13500000	      0.04002031	      0.02561387	      0.06497934
      1.14000000	      0.04001401	      0.02561186	      0.06532329
      1.14500000	      0.04003412	      0.02561830	      0.06579332
      1.15000000	      0.03996926	      0.02559753	      0.06572542
      1.15500000	      0.03995647	      0.02559344	      0.06578501
      1.16000000	      0.04000767	      0.02560983	      0.06607182
      1.16500000	      0.04009707	      0.02563843	      0.06642802
      1.17000000	      0.04007082	      0.02563003	      0.06673324
      1.17500000	      0.03977694	      0.02553588	      0.06708148
      1.18000000	      0.03973538	      0.02552253	      0.06733087
      1.18500000	      0.03976209	      0.02553111	      0.06732945
      1.19000000	      0.03978311	      0.02553786	      0.06758643
      1.19500000	      0.03983750	      0.02555531	      0.06779929
      1.20000000	      0.03984278	      0.02555700	      0.06804362
      1.20500000	      0.03976159	      0.02553095	      0.06727777
      1.21000000	      0.03971642	      0.02551644	      0.06844223
      1.21500000	      0.04012772	      0.02564823	      0.06858473
      1.22000000	      0.03971331	      0.02551544	      0.06855726
      1.22500000	      0.03983237	      0.02555366	      0.06903630
      1.23000000	      0.03988928	      0.02557191	      0.06917091
      1.23500000	      0.03994882	      0.02559099	      0.06940100
      1.24000000	      0.04003999	      0.02562017	      0.06985328
      1.24500000	      0.04004513	      0.02562182	      0.06986423
      1.25000000	      0.04006662	      0.02562869	      0.07022094
      1.25500000	      0.04005857	      0.02562612	      0.07011859
      1.26000000	      0.04015341	      0.02565643	      0.07021579
      1.26500000	      0.04022908	      0.02568060	      0.07077972
      1.27000000	      0.04034129	      0.02571639	      0.07113736
      1.27500000	      0.04040827	      0.02573773	      0.07112319
      1.28000000	      0.04058824	      0.02579498	      0.07127559
      1.28500000	      0.04055568	      0.02578463	      0.07134497
      1.29000000	      0.04068237	      0.02582487	      0.07167818
      1.29500000	      0.04081231	      0.02586608	      0.07176451
      1.30000000	      0.04086873	      0.02588396	      0.07219158
      1.30500000	      0.04110826	      0.02595970	      0.07253442
      1.31000000	      0.04121389	      0.02599303	      0.07258642
      1.31500000	      0.04135379	      0.02603711	      0.07257365
      1.32000000	      0.04153776	      0.02609496	      0.07258046
      1.32500000	      0.04161690	      0.02611980	      0.07287396
      1.33000000	      0.04183939	      0.02618953	      0.07281310
      1.33500000	      0.04204463	      0.02625369	      0.07323023
      1.34000000	      0.04213115	      0.02628069	      0.07322882
      1.34500000	      0.04238370	      0.02635934	      0.07343097
      1.35000000	      0.04242609	      0.02637252	      0.07315048
      1.35500000	      0.04257531	      0.02641885	      0.07338536
      1.36000000	      0.04272573	      0.02646548	      0.07344819
      1.36500000	      0.04292485	      0.02652708	      0.07348995
      1.37000000	      0.04300758	      0.02655263	      0.07358634
      1.37500000	      0.04323915	      0.02662402	      0.07378851
      1.38000000	      0.04341154	      0.02667704	      0.07364612
      1.38500000	      0.04362875	      0.02674370	      0.07391883
      1.39000000	      0.04367998	      0.02675939	      0.07382687
      1.39500000	      0.04400186	      0.02685781	      0.07406735
      1.40000000	      0.04425992	      0.02693645	      0.07415462
      1.40500000	      0.04437445	      0.02697128	      0.07431963
      1.41000000	      0.04465233	      0.02705560	      0.07466417
      1.41500000	      0.04494148	      0.02714306	      0.07472596
      1.42000000	      0.04496189	      0.02714922	      0.07447877
      1.42500000	      0.04537444	      0.02727349	      0.07474715
      1.43000000	      0.04549660	      0.02731018	      0.07474595
      1.43500000	      0.04587655	      0.02742398	      0.07488354
      1.44000000	      0.04590884	      0.02743363	      0.07429252
      1.44500000	      0.04629988	      0.02755022	      0.07513915
      1.45000000	      0.04647803	      0.02760317	      0.07495974
      1.45500000	      0.04677815	      0.02769215	      0.07517287
      1.46000000	      0.04705579	      0.02777420	      0.07505131
      1.46500000	      0.04746861	      0.02789577	      0.07520944
      1.47000000	      0.04768427	      0.02795907	      0.07520072
      1.47500000	      0.04786080	      0.02801077	      0.07525233
      1.48000000	      0.04820829	      0.02811227	      0.07508852
      1.48500000	      0.04862401	      0.02823322	      0.07531597
      1.49000000	      0.04885795	      0.02830106	      0.07535496
      1.49500000	      0.04909011	      0.02836822	      0.07535430
      1.50000000	      0.04939934	      0.02845743	      0.07535413
      1.50500000	      0.04973976	      0.02855531	      0.07540989
      1.51000000	      0.05012156	      0.02866470	      0.07534021
      1.51500000	      0.05042010	      0.02874994	      0.07557975
      1.52000000	      0.05085997	      0.02887508	      0.07543861
      1.52500000	      0.05117608	      0.02896467	      0.07577900
      1.53000000	      0.05152302	      0.02906269	      0.07572186
      1.53500000	      0.05181677	      0.02914542	      0.07562191
      1.54000000	      0.05224465	      0.02926550	      0.07574572
      1.54500000	      0.05259495	      0.02936345	      0.07561482
      1.55000000	      0.05297302	      0.02946880	      0.07570652
      1.55500000	      0.05321381	      0.02953570	      0.07517252
      1.56000000	      0.05366814	      0.02966152	      0.07576000
      1.56500000	      0.05399843	      0.02975265	      0.07567725
      1.57000000	      0.05440034	      0.02986317	      0.07606208
      1.57500000	      0.05485470	      0.02998762	      0.07622851
      1.58000000	      0.05526653	      0.03009998	      0.07662481
      1.58500000	      0.05551717	      0.03016816	      0.07683264
      1.59000000	      0.05588983	      0.03026924	      0.07723517
      1.59500000	      0.05609480	      0.03032469	      0.07725032
      1.60000000	      0.05662602	      0.03046794	      0.07769859
      1.60500000	      0.05690258	      0.03054225	      0.07788938
      1.61000000	      0.05737005	      0.03066745	      0.07815118
      1.61500000	      0.05766863	      0.03074715	      0.07851149
      1.62000000	      0.05812241	      0.03086788	      0.07873673
      1.62500000	      0.05831960	      0.03092020	      0.07933949
      1.63000000	      0.05863960	      0.03100492	      0.07926347
      1.63500000	      0.05902089	      0.03110556	      0.08011919
      1.64000000	      0.05936485	      0.03119606	      0.07990223
      1.64500000	      0.05971195	      0.03128713	      0.08020148
      1.65000000	      0.06004536	      0.03137436	      0.08032000
      1.65500000	      0.06041278	      0.03147020	      0.08072872
      1.66000000	      0.06076443	      0.03156166	      0.08094194
      1.66500000	      0.06112154	      0.03165427	      0.08112919
      1.67000000	      0.06133495	      0.03170948	      0.08126954
      1.67500000	      0.06177925	      0.03182412	      0.08195982
      1.68000000	      0.06191767	      0.03185975	      0.08173741
      1.68500000	      0.06253417	      0.03201797	      0.08193230
      1.69000000	      0.06277375	      0.03207924	      0.08221453
      1.69500000	      0.06327520	      0.03220712	      0.08274639
      1.70000000	      0.06349743	      0.03226363	      0.08259064
      1.70500000	      0.06371299	      0.03231834	      0.08286535
      1.71000000	      0.06411757	      0.03242079	      0.08343282
      1.71500000	      0.06438878	      0.03248929	      0.08312204
      1.72000000	      0.06479699	      0.03259211	      0.08352662
      1.72500000	      0.06517815	      0.03268783	      0.08374033
      1.73000000	      0.06539148	      0.03274128	      0.08383933
      1.73500000	      0.06564813	      0.03280547	      0.08417213
      1.74000000	      0.06593545	      0.03287718	      0.08458764
      1.74500000	      0.06620588	      0.03294453	      0.08445959
      1.75000000	      0.06637018	      0.03298539	      0.08449754
      1.75500000	      0.06657172	      0.03303543	      0.08464182
      1.76000000	      0.06689833	      0.03311637	      0.08476292
      1.76500000	      0.06714335	      0.03317696	      0.08498434
      1.77000000	      0.06734128	      0.03322582	      0.08501620
      1.77500000	      0.06768841	      0.03331135	      0.08539331
      1.78000000	      0.06791146	      0.03336619	      0.08542048
      1.78500000	      0.06809554	      0.03341138	      0.08562339
      1.79000000	      0.06846726	      0.03350245	      0.08589001
      1.79500000	      0.06870383	      0.03356028	      0.08589301
      1.80000000	      0.06890390	      0.03360911	      0.08597853
      1.80500000	      0.06912152	      0.03366214	      0.08622497
      1.81000000	      0.06959856	      0.03377810	      0.08660031
      1.81500000	      0.06979664	      0.03382613	      0.08660009
      1.82000000	      0.07014900	      0.03391141	      0.08667730
      1.82500000	      0.07035430	      0.03396100	      0.08673399
      1.83000000	      0.07077182	      0.03406162	      0.08706925
      1.83500000	      0.07132374	      0.03419418	      0.08714559
      1.84000000	      0.07133471	      0.03419680	      0.08751852
      1.84500000	      0.07170212	      0.03428476	      0.08763616
      1.85000000	      0.07264379	      0.03450915	      0.08863305
      1.85500000	      0.07244629	      0.03446221	      0.08773540
      1.86000000	      0.07275358	      0.03453522	      0.08821836
      1.86500000	      0.07301434	      0.03459706	      0.08828299
      1.87000000	      0.07334356	      0.03467497	      0.08825955
      1.87500000	      0.07360311	      0.03473627	      0.08847182
      1.88000000	      0.07385428	      0.03479549	      0.08846416
      1.88500000	      0.07418212	      0.03487263	      0.08894098
      1.89000000	      0.07454121	      0.03495693	      0.08886536
      1.89500000	      0.07486460	      0.03503268	      0.08902246
      1.90000000	      0.07513977	      0.03509700	      0.08904588
      1.90500000	      0.07548504	      0.03517754	      0.08922498
      1.91000000	      0.07570835	      0.03522954	      0.08928988
      1.91500000	      0.07614641	      0.03533131	      0.08958505
      1.92000000	      0.07639874	      0.03538981	      0.08947938
      1.92500000	      0.07666312	      0.03545099	      0.08965789
      1.93000000	      0.07701439	      0.03553211	      0.08986731
      1.93500000	      0.07735161	      0.03560982	      0.09017026
      1.94000000	      0.07762260	      0.03567214	      0.09008446
      1.94500000	      0.07791509	      0.03573929	      0.09030854
      1.95000000	      0.07816357	      0.03579623	      0.09047523
      1.95500000	      0.07860686	      0.03589759	      0.09086399
      1.96000000	      0.07887352	      0.03595843	      0.09073752
      1.96500000	      0.07929419	      0.03605419	      0.09109617
      1.97000000	      0.07959095	      0.03612160	      0.09104851
      1.97500000	      0.08001682	      0.03621811	      0.09143775
      1.98000000	      0.08032018	      0.03628670	      0.09139535
      1.98500000	      0.08058738	      0.03634700	      0.09131958
      1.99000000	      0.08098514	      0.03643659	      0.09142739
      1.99500000	      0.08146725	      0.03654489	      0.09176611
      2.00000000	      0.08197235	      0.03665800	      0.09252438
      2.00500000	      0.08205806	      0.03667716	      0.09201234
      2.01000000	      0.08246857	      0.03676879	      0.09193139
      2.01500000	      0.08277578	      0.03683721	      0.09202059
      2.02000000	      0.08308504	      0.03690596	      0.09228336
      2.02500000	      0.08336044	      0.03696707	      0.09242873
      2.03000000	      0.08382561	      0.03707007	      0.09255464
      2.03500000	      0.08405905	      0.03712165	      0.09250951
      2.04000000	      0.08444916	      0.03720769	      0.09278059
      2.04500000	      0.08482021	      0.03728935	      0.09279458
      2.05000000	      0.08498779	      0.03732616	      0.09281012
      2.05500000	      0.08539880	      0.03741631	      0.09307223
      2.06000000	      0.08577893	      0.03749949	      0.09333843
      2.06500000	      0.08618882	      0.03758898	      0.09340302
      2.07000000	      0.08661074	      0.03768087	      0.09349886
      2.07500000	      0.08693085	      0.03775044	      0.09366754
      2.08000000	      0.08731458	      0.03783367	      0.09383401
      2.08500000	      0.08781153	      0.03794118	      0.09384534
      2.09000000	      0.08813840	      0.03801173	      0.09410438
      2.09500000	      0.08867072	      0.03812635	      0.09448970
      2.10000000	      0.08899970	      0.03819701	      0.09453528
      2.10500000	      0.08940239	      0.03828332	      0.09451222
      2.11000000	      0.08982204	      0.03837307	      0.09470463
      2.11500000	      0.09033928	      0.03848340	      0.09507393
      2.12000000	      0.09075969	      0.03857284	      0.09496883
      2.12500000	      0.09129495	      0.03868641	      0.09535647
      2.13000000	      0.09177322	      0.03878761	      0.09557015
      2.13500000	      0.09217394	      0.03887220	      0.09565294
      2.14000000	      0.09274680	      0.03899281	      0.09594316
      2.14500000	      0.09302811	      0.03905190	      0.09608167
      2.15000000	      0.09352600	      0.03915626	      0.09642521
      2.15500000	      0.09391451	      0.03923751	      0.09630318
      2.16000000	      0.09508804	      0.03948190	      0.09821561
      2.16500000	      0.09489127	      0.03944103	      0.09722908
      2.17000000	      0.09517309	      0.03949955	      0.09668880
      2.17500000	      0.09567468	      0.03960350	      0.09707773
      2.18000000	      0.09598523	      0.03966772	      0.09707508
      2.18500000	      0.09665268	      0.03980540	      0.09729287
      2.19000000	      0.09763957	      0.04000811	      0.09885976
      2.19500000	      0.09750179	      0.03997987	      0.09767914
      2.20000000	      0.09799454	      0.04008077	      0.09783581
      2.20500000	      0.09850727	      0.04018549	      0.09802931
      2.21000000	      0.09910442	      0.04030710	      0.09812578
      2.21500000	      0.09965660	      0.04041924	      0.09851247
      2.22000000	      0.10025620	      0.04054065	      0.09860340
      2.22500000	      0.10065260	      0.04062072	      0.09876649
      2.23000000	      0.10105561	      0.04070196	      0.09885067
      2.23500000	      0.10177246	      0.04084606	      0.09929929
      2.24000000	      0.10208846	      0.04090943	      0.09927428
      2.24500000	      0.10259601	      0.04101100	      0.09938701
      2.25000000	      0.10299746	      0.04109115	      0.09967134
      2.25500000	      0.10345655	      0.04118263	      0.09980675
      2.26000000	      0.10419341	      0.04132903	      0.10105159
      2.26500000	      0.10398158	      0.04128700	      0.09998016
      2.27000000	      0.10438948	      0.04136790	      0.10030138
      2.27500000	      0.10526143	      0.04154031	      0.10155991
      2.28000000	      0.10513965	      0.04151627	      0.10059680
      2.28500000	      0.10545776	      0.04157903	      0.10048987
      2.29000000	      0.10576365	      0.04163929	      0.10059608
      2.29500000	      0.10608124	      0.04170176	      0.10076661
      2.30000000	      0.10653377	      0.04179061	      0.10090883
      2.30500000	      0.10682923	      0.04184852	      0.10100428
      2.31000000	      0.10717114	      0.04191544	      0.10101309
      2.31500000	      0.10730919	      0.04194242	      0.10095167
      2.32000000	      0.10769996	      0.04201872	      0.10120163
      2.32500000	      0.10809927	      0.04209655	      0.10150629
      2.33000000	      0.10832257	      0.04214000	      0.10112122
      2.33500000	      0.10879739	      0.04223226	      0.10169494
      2.34000000	      0.10895347	      0.04226254	      0.10161141
      2.34500000	      0.10933166	      0.04233583	      0.10161548
      2.35000000	      0.10946007	      0.04236068	      0.10155900
      2.35500000	      0.10975052	      0.04241685	      0.10167053
      2.36000000	      0.11013079	      0.04249027	      0.10190079
      2.36500000	      0.11046656	      0.04255499	      0.10188275
      2.37000000	      0.11079523	      0.04261825	      0.10194424
      2.37500000	      0.11112826	      0.04268225	      0.10205457
      2.38000000	      0.11143128	      0.04274041	      0.10234573
      2.38500000	      0.11194807	      0.04283940	      0.10266464
      2.39000000	      0.11198693	      0.04284683	      0.10224831
      2.39500000	      0.11226646	      0.04290028	      0.10225546
      2.40000000	      0.11264964	      0.04297343	      0.10253267
      2.40500000	      0.11286334	      0.04301417	      0.10250404
      2.41000000	      0.11355230	      0.04314526	      0.10336062
      2.41500000	      0.11353982	      0.04314289	      0.10259136
      2.42000000	      0.11390031	      0.04321132	      0.10299384
      2.42500000	      0.11400364	      0.04323092	      0.10269958
      2.43000000	      0.11436845	      0.04330003	      0.10281401
      2.43500000	      0.11475558	      0.04337325	      0.10300774
      2.44000000	      0.11509512	      0.04343737	      0.10298922
      2.44500000	      0.11542892	      0.04350031	      0.10298668
      2.45000000	      0.11588057	      0.04358534	      0.10322555
      2.45500000	      0.11631594	      0.04366713	      0.10328803
      2.46000000	      0.11670111	      0.04373937	      0.10362801
      2.46500000	      0.11707597	      0.04380957	      0.10313678
      2.47000000	      0.11724951	      0.04384202	      0.10344959
      2.47500000	      0.11776552	      0.04393839	      0.10361259
      2.48000000	      0.11812050	      0.04400456	      0.10370740
      2.48500000	      0.11843711	      0.04406350	      0.10373623
      2.49000000	      0.11886673	      0.04414334	      0.10397598
      2.49500000	      0.11924686	      0.04421387	      0.10409545
      2.50000000	      0.11966460	      0.04429125	      0.10435331
      2.50500000	      0.11974602	      0.04430631	      0.10444020
      2.51000000	      0.12021249	      0.04439253	      0.10458273
      2.51500000	      0.12051365	      0.04444810	      0.10479836
      2.52000000	      0.12096033	      0.04453040	      0.10500347
      2.52500000	      0.12128014	      0.04458923	      0.10512510
      2.53000000	      0.12190631	      0.04470418	      0.10601963
      2.53500000	      0.12183744	      0.04469156	      0.10544194
      2.54000000	      0.12224759	      0.04476672	      0.10555771
      2.54500000	      0.12253915	      0.04482007	      0.10569520
      2.55000000	      0.12281775	      0.04487099	      0.10585386
      2.55500000	      0.12350150	      0.04499572	      0.10665599
      2.56000000	      0.12366658	      0.04502578	      0.10625124
      2.56500000	      0.12403065	      0.04509201	      0.10640306
      2.57000000	      0.12434332	      0.04514881	      0.10650834
      2.57500000	      0.12503905	      0.04527494	      0.10758640
      2.58000000	      0.12531121	      0.04532419	      0.10691493
      2.58500000	      0.12562923	      0.04538167	      0.10701958
      2.59000000	      0.12643879	      0.04552765	      0.10798157
      2.59500000	      0.12655505	      0.04554858	      0.10738590
      2.60000000	      0.12685720	      0.04560292	      0.10758262
      2.60500000	      0.12761769	      0.04573941	      0.10850111
      2.61000000	      0.12768324	      0.04575115	      0.10781654
      2.61500000	      0.12817320	      0.04583885	      0.10791171
      2.62000000	      0.12914478	      0.04601225	      0.10901257
      2.62500000	      0.12896639	      0.04598046	      0.10820781
      2.63000000	      0.12962474	      0.04609768	      0.10917936
      2.63500000	      0.12967460	      0.04610654	      0.10839802
      2.64000000	      0.13006688	      0.04617623	      0.10857572
      2.64500000	      0.13043061	      0.04624075	      0.10868353
      2.65000000	      0.13109278	      0.04635798	      0.10960049
      2.65500000	      0.13121410	      0.04637942	      0.10887376
      2.66000000	      0.13156222	      0.04644091	      0.10904427
      2.66500000	      0.13185516	      0.04649258	      0.10906455
      2.67000000	      0.13218419	      0.04655055	      0.10920225
      2.67500000	      0.13258070	      0.04662032	      0.10936995
      2.68000000	      0.13292001	      0.04667994	      0.10964605
      2.68500000	      0.13344995	      0.04677290	      0.10961459
      2.69000000	      0.13390622	      0.04685279	      0.10977172
      2.69500000	      0.13436600	      0.04693316	      0.10987442
      2.70000000	      0.13467032	      0.04698628	      0.11015356
      2.70500000	      0.13507722	      0.04705721	      0.11027378
      2.71000000	      0.13549086	      0.04712920	      0.11045341
      2.71500000	      0.13575038	      0.04717432	      0.11029447
      2.72000000	      0.13608205	      0.04723191	      0.11034593
      2.72500000	      0.13631555	      0.04727241	      0.11051544
      2.73000000	      0.13647242	      0.04729961	      0.11059171
      2.73500000	      0.13673529	      0.04734514	      0.11074286
      2.74000000	      0.13692052	      0.04737720	      0.11072258
      2.74500000	      0.13717369	      0.04742098	      0.11076878
      2.75000000	      0.13734732	      0.04745098	      0.11065430
      2.75500000	      0.13746699	      0.04747165	      0.11074004
      2.76000000	      0.13764340	      0.04750210	      0.11078336
      2.76500000	      0.13777250	      0.04752437	      0.11078650
      2.77000000	      0.13793288	      0.04755202	      0.11092296
      2.77500000	      0.13799027	      0.04756191	      0.11089852
      2.78000000	      0.13840098	      0.04763264	      0.11152948
      2.78500000	      0.13884106	      0.04770831	      0.11215767
      2.79000000	      0.13837686	      0.04762849	      0.11092439
      2.79500000	      0.13858126	      0.04766365	      0.11088320
      2.80000000	      0.13873299	      0.04768974	      0.11093865
      2.80500000	      0.13888634	      0.04771609	      0.11102363
      2.81000000	      0.13899519	      0.04773478	      0.11105114
      2.81500000	      0.13910981	      0.04775446	      0.11127677
      2.82000000	      0.13915595	      0.04776238	      0.11149622
      2.82500000	      0.13912340	      0.04775679	      0.11151670
      2.83000000	      0.13916506	      0.04776394	      0.11159283
      2.83500000	      0.13918607	      0.04776755	      0.11162907
      2.84000000	      0.13918564	      0.04776748	      0.11162208
      2.84500000	      0.13930908	      0.04778865	      0.11161591
      2.85000000	      0.13952679	      0.04782598	      0.11193536
      2.85500000	      0.13947032	      0.04781630	      0.11176437
      2.86000000	      0.13957947	      0.04783501	      0.11190639
      2.86500000	      0.13959116	      0.04783701	      0.11192682
      2.87000000	      0.13982699	      0.04787740	      0.11199048
      2.87500000	      0.13988190	      0.04788680	      0.11207200
      2.88000000	      0.14019746	      0.04794079	      0.11230402
      2.88500000	      0.14059044	      0.04800793	      0.11303526
      2.89000000	      0.14041734	      0.04797837	      0.11234844
      2.89500000	      0.14062037	      0.04801304	      0.11249401
      2.90000000	      0.14069170	      0.04802522	      0.11252908
      2.90500000	      0.14122235	      0.04811570	      0.11351204
      2.91000000	      0.14102011	      0.04808123	      0.11280369
      2.91500000	      0.14111033	      0.04809661	      0.11272261
      2.92000000	      0.14160516	      0.04818087	      0.11363675
      2.92500000	      0.14157595	      0.04817590	      0.11281527
      2.93000000	      0.14176987	      0.04820888	      0.11305028
      2.93500000	      0.14206771	      0.04825950	      0.11322901
      2.94000000	      0.14245646	      0.04832548	      0.11385029
      2.94500000	      0.14303510	      0.04842352	      0.11465548
      2.95000000	      0.14276334	      0.04837750	      0.11335007
      2.95500000	      0.14282694	      0.04838828	      0.11348816
      2.96000000	      0.14309018	      0.04843285	      0.11354970
      2.96500000	      0.14345651	      0.04849480	      0.11437265
      2.97000000	      0.14334876	      0.04847659	      0.11359727
      2.97500000	      0.14350254	      0.04850258	      0.11370698
      2.98000000	      0.14388019	      0.04856636	      0.11424889
      2.98500000	      0.14384524	      0.04856046	      0.11385733
      2.99000000	      0.14403299	      0.04859214	      0.11381721
      2.99500000	      0.14447122	      0.04866601	      0.11449995
      3.00000000	      0.14446690	      0.04866528	      0.11401037
      3.00500000	      0.14461704	      0.04869057	      0.11407595
      3.01000000	      0.14499852	      0.04875474	      0.11458543
      3.01500000	      0.14504902	      0.04876323	      0.11420796
      3.02000000	      0.14519631	      0.04878798	      0.11425799
      3.02500000	      0.14561840	      0.04885885	      0.11491072
      3.03000000	      0.14555330	      0.04884792	      0.11456227
      3.03500000	      0.14657188	      0.04901855	      0.11632547
      3.04000000	      0.14597337	      0.04891836	      0.11492342
      3.04500000	      0.14642667	      0.04899426	      0.11549918
      3.05000000	      0.14636618	      0.04898414	      0.11502601
      3.05500000	      0.14651693	      0.04900935	      0.11509377
      3.06000000	      0.14680592	      0.04905766	      0.11560298
      3.06500000	      0.14686032	      0.04906675	      0.11512100
      3.07000000	      0.14696816	      0.04908476	      0.11525949
      3.07500000	      0.14702155	      0.04909368	      0.11505848
      3.08000000	      0.14739081	      0.04915529	      0.11570579
      3.08500000	      0.14766902	      0.04920166	      0.11629407
      3.09000000	      0.14731124	      0.04914202	      0.11525954
      3.09500000	      0.14741122	      0.04915870	      0.11512420
      3.10000000	      0.14769830	      0.04920654	      0.11577167
      3.10500000	      0.14753819	      0.04917986	      0.11517070
      3.11000000	      0.14763965	      0.04919677	      0.11510354
      3.11500000	      0.14772047	      0.04921023	      0.11516269
      3.12000000	      0.14772493	      0.04921098	      0.11518163
      3.12500000	      0.14799483	      0.04925591	      0.11543612
      3.13000000	      0.14829918	      0.04930653	      0.11615530
      3.13500000	      0.14801667	      0.04925954	      0.11512792
      3.14000000	      0.14830211	      0.04930702	      0.11576192
      3.14500000	      0.14815580	      0.04928269	      0.11517317
      3.15000000	      0.14821619	      0.04929273	      0.11531961
      3.15500000	      0.14816774	      0.04928468	      0.11522399
      3.16000000	      0.14828943	      0.04930491	      0.11511404
      3.16500000	      0.14812100	      0.04927690	      0.11516107
      3.17000000	      0.14842275	      0.04932707	      0.11582641
      3.17500000	      0.14867906	      0.04936964	      0.11626784
      3.18000000	      0.14821393	      0.04929236	      0.11503122
      3.18500000	      0.14816554	      0.04928431	      0.11516175
      3.19000000	      0.14840310	      0.04932380	      0.11584562
      3.19500000	      0.14818629	      0.04928776	      0.11534405
      3.20000000	      0.14805192	      0.04926541	      0.11524628
      3.20500000	      0.14813841	      0.04927980	      0.11530296
      3.21000000	      0.14808362	      0.04927068	      0.11524814
      3.21500000	      0.14816051	      0.04928347	      0.11529246
      3.22000000	      0.14817892	      0.04928654	      0.11538999
      3.22500000	      0.14841870	      0.04932640	      0.11601605
      3.23000000	      0.14817996	      0.04928671	      0.11534549
      3.23500000	      0.14817666	      0.04928616	      0.11526510
      3.24000000	      0.14817438	      0.04928578	      0.11534688
      3.24500000	      0.14822713	      0.04929455	      0.11525241
      3.25000000	      0.14816623	      0.04928442	      0.11519711
      3.25500000	      0.14847609	      0.04933593	      0.11592127
      3.26000000	      0.14817548	      0.04928596	      0.11529999
      3.26500000	      0.14862321	      0.04936037	      0.11607101
      3.27000000	      0.14828453	      0.04930410	      0.11528696
      3.27500000	      0.14869595	      0.04937245	      0.11607247
      3.28000000	      0.14897888	      0.04941940	      0.11665156
      3.28500000	      0.14851253	      0.04934199	      0.11573621
      3.29000000	      0.14888597	      0.04940398	      0.11640435
      3.29500000	      0.14857743	      0.04935277	      0.11569987
      3.30000000	      0.14863933	      0.04936305	      0.11581601
      3.30500000	      0.14890464	      0.04940708	      0.11645710
      3.31000000	      0.14852267	      0.04934367	      0.11559750
      3.31500000	      0.14842443	      0.04932735	      0.11556933
      3.32000000	      0.14834969	      0.04931493	      0.11553045
      3.32500000	      0.14863097	      0.04936166	      0.11623099
      3.33000000	      0.14827290	      0.04930216	      0.11559603
      3.33500000	      0.14806038	      0.04926682	      0.11545472
      3.34000000	      0.14790085	      0.04924027	      0.11539434
      3.34500000	      0.14774294	      0.04921397	      0.11543205
      3.35000000	      0.14778333	      0.04922070	      0.11595140
      3.35500000	      0.14780619	      0.04922451	      0.11633550
      3.36000000	      0.14705256	      0.04909886	      0.11502709
      3.36500000	      0.14707273	      0.04910222	      0.11554150
      3.37000000	      0.14709449	      0.04910586	      0.11600149
      3.37500000	      0.14621943	      0.04895957	      0.11515599
      3.38000000	      0.14596420	      0.04891683	      0.11491213
      3.38500000	      0.14557171	      0.04885101	      0.11479034
      3.39000000	      0.14555434	      0.04884810	      0.11545373
      3.39500000	      0.14490352	      0.04873877	      0.11472782
      3.40000000	      0.14434555	      0.04864484	      0.11460090
      3.40500000	      0.14385441	      0.04856201	      0.11439118
      3.41000000	      0.14366525	      0.04853007	      0.11417749
      3.41500000	      0.14332318	      0.04847226	      0.11392361
      3.42000000	      0.14302913	      0.04842251	      0.11378462
      3.42500000	      0.14267827	      0.04836309	      0.11377546
      3.43000000	      0.14229957	      0.04829886	      0.11377395
      3.43500000	      0.14201326	      0.04825025	      0.11383183
      3.44000000	      0.14178722	      0.04821183	      0.11370624
      3.44500000	      0.14143686	      0.04815223	      0.11360615
      3.45000000	      0.14112307	      0.04809878	      0.11350774
      3.45500000	      0.14088522	      0.04805823	      0.11357799
      3.46000000	      0.14072908	      0.04803159	      0.11338470
      3.46500000	      0.14062115	      0.04801317	      0.11344527
      3.47000000	      0.14042829	      0.04798024	      0.11364655
      3.47500000	      0.14020671	      0.04794237	      0.11352946
      3.48000000	      0.14005937	      0.04791717	      0.11334946
      3.48500000	      0.13985398	      0.04788202	      0.11332562
      3.49000000	      0.13958163	      0.04783538	      0.11337317
      3.49500000	      0.13943191	      0.04780972	      0.11325438
      3.50000000	      0.13931480	      0.04778963	      0.11323530
      3.50500000	      0.13912077	      0.04775634	      0.11316778
      3.51000000	      0.13886812	      0.04771296	      0.11296064
      3.51500000	      0.13868239	      0.04768104	      0.11288080
      3.52000000	      0.13858991	      0.04766514	      0.11301333
      3.52500000	      0.13868140	      0.04768087	      0.11288733
      3.53000000	      0.13843438	      0.04763839	      0.11289539
      3.53500000	      0.13826101	      0.04760855	      0.11280404
      3.54000000	      0.13813805	      0.04758737	      0.11269621
      3.54500000	      0.13792268	      0.04755026	      0.11271503
      3.55000000	      0.13783371	      0.04753492	      0.11269478
      3.55500000	      0.13750770	      0.04747868	      0.11243662
      3.56000000	      0.13728584	      0.04744036	      0.11242413
      3.56500000	      0.13720576	      0.04742652	      0.11257341
      3.57000000	      0.13687608	      0.04736951	      0.11243518
      3.57500000	      0.13672934	      0.04734411	      0.11243263
      3.58000000	      0.13651479	      0.04730695	      0.11222514
      3.58500000	      0.13636957	      0.04728178	      0.11236030
      3.59000000	      0.13609117	      0.04723349	      0.11219637
      3.59500000	      0.13579449	      0.04718198	      0.11207157
      3.60000000	      0.13548457	      0.04712811	      0.11193377
      3.60500000	      0.13540220	      0.04711378	      0.11201143
      3.61000000	      0.13513639	      0.04706751	      0.11193582
      3.61500000	      0.13480148	      0.04700915	      0.11177786
      3.62000000	      0.13461276	      0.04697623	      0.11167828
      3.62500000	      0.13449116	      0.04695501	      0.11184340
      3.63000000	      0.13415378	      0.04689608	      0.11162310
      3.63500000	      0.13379611	      0.04683352	      0.11169236
      3.64000000	      0.13354841	      0.04679015	      0.11132856
      3.64500000	      0.13329622	      0.04674595	      0.11153115
      3.65000000	      0.13316855	      0.04672356	      0.11145940
      3.65500000	      0.13291113	      0.04667838	      0.11135805
      3.66000000	      0.13270316	      0.04664184	      0.11130826
      3.66500000	      0.13244452	      0.04659637	      0.11127902
      3.67000000	      0.13217323	      0.04654862	      0.11122593
      3.67500000	      0.13187270	      0.04649567	      0.11103931
      3.68000000	      0.13176833	      0.04647727	      0.11103801
      3.68500000	      0.13170890	      0.04646679	      0.11115621
      3.69000000	      0.13134948	      0.04640334	      0.11098332
      3.69500000	      0.13123291	      0.04638275	      0.11080960
      3.70000000	      0.13090407	      0.04632460	      0.11076053
      3.70500000	      0.13072720	      0.04629329	      0.11067951
      3.71000000	      0.13039873	      0.04623510	      0.11046137
      3.71500000	      0.13000804	      0.04616578	      0.11052770
      3.72000000	      0.12984656	      0.04613710	      0.11025328
      3.72500000	      0.12945289	      0.04606711	      0.11013321
      3.73000000	      0.12917289	      0.04601726	      0.10998573
      3.73500000	      0.12901899	      0.04598984	      0.10996764
      3.74000000	      0.12862131	      0.04591891	      0.10982691
      3.74500000	      0.12822056	      0.04584732	      0.10965239
      3.75000000	      0.12795228	      0.04579933	      0.10955526
      3.75500000	      0.12754826	      0.04572696	      0.10950488
      3.76000000	      0.12735930	      0.04569308	      0.10957150
      3.76500000	      0.12694242	      0.04561823	      0.10905651
      3.77000000	      0.12661454	      0.04555928	      0.10915541
      3.77500000	      0.12641329	      0.04552306	      0.10932319
      3.78000000	      0.12587602	      0.04542622	      0.10899679
      3.78500000	      0.12552969	      0.04536368	      0.10876948
      3.79000000	      0.12531670	      0.04532518	      0.10888469
      3.79500000	      0.12494131	      0.04525724	      0.10884975
      3.80000000	      0.12464854	      0.04520419	      0.10855127
      3.80500000	      0.12456164	      0.04518843	      0.10865740
      3.81000000	      0.12391819	      0.04507156	      0.10825802
      3.81500000	      0.12351664	      0.04499848	      0.10829139
      3.82000000	      0.12322768	      0.04494581	      0.10813667
      3.82500000	      0.12289685	      0.04488544	      0.10803543
      3.83000000	      0.12251346	      0.04481537	      0.10786042
      3.83500000	      0.12215470	      0.04474971	      0.10778288
      3.84000000	      0.12195402	      0.04471293	      0.10777419
      3.84500000	      0.12147740	      0.04462547	      0.10747006
      3.85000000	      0.12120119	      0.04457471	      0.10750205
      3.85500000	      0.12101660	      0.04454075	      0.10756667
      3.86000000	      0.12062752	      0.04446909	      0.10735713
      3.86500000	      0.12026347	      0.04440194	      0.10726223
      3.87000000	      0.11999974	      0.04435323	      0.10725881
      3.87500000	      0.11975541	      0.04430805	      0.10709457
      3.88000000	      0.11941075	      0.04424425	      0.10711427
      3.88500000	      0.11908428	      0.04418372	      0.10693282
      3.89000000	      0.11875591	      0.04412276	      0.10685994
      3.89500000	      0.11853987	      0.04408261	      0.10669379
      3.90000000	      0.11820848	      0.04402095	      0.10657939
      3.90500000	      0.11789012	      0.04396163	      0.10656877
      3.91000000	      0.11767435	      0.04392138	      0.10645034
      3.91500000	      0.11736286	      0.04386321	      0.10626496
      3.92000000	      0.11715930	      0.04382516	      0.10626074
      3.92500000	      0.11672647	      0.04374413	      0.10599641
      3.93000000	      0.11651353	      0.04370421	      0.10601165
      3.93500000	      0.11637689	      0.04367857	      0.10587831
      3.94000000	      0.11588148	      0.04358551	      0.10572606
      3.94500000	      0.11545655	      0.04350552	      0.10558098
      3.95000000	      0.11523311	      0.04346340	      0.10550728
      3.95500000	      0.11480146	      0.04338192	      0.10538847
      3.96000000	      0.11444236	      0.04331402	      0.10508698
      3.96500000	      0.11425951	      0.04327940	      0.10525261
      3.97000000	      0.11381999	      0.04319608	      0.10493191
      3.97500000	      0.11353654	      0.04314226	      0.10485664
      3.98000000	      0.11317777	      0.04307404	      0.10471956
      3.98500000	      0.11273657	      0.04299000	      0.10465096
      3.99000000	      0.11235270	      0.04291675	      0.10428297
      3.99500000	      0.11211393	      0.04287112	      0.10440249
      4.00000000	      0.11180537	      0.04281209	      0.10420211
      4.00500000	      0.11151746	      0.04275693	      0.10402498
      4.01000000	      0.11106727	      0.04267054	      0.10403624
      4.01500000	      0.11099322	      0.04265631	      0.10380259
      4.02000000	      0.11033454	      0.04252955	      0.10333693
      4.02500000	      0.10988418	      0.04244267	      0.10344206
      4.03000000	      0.10954290	      0.04237671	      0.10308902
      4.03500000	      0.10924562	      0.04231917	      0.10293753
      4.04000000	      0.10895990	      0.04226379	      0.10291359
      4.04500000	      0.10823004	      0.04212200	      0.10238008
      4.05000000	      0.10753992	      0.04198749	      0.10230373
      4.05500000	      0.10705095	      0.04189193	      0.10197386
      4.06000000	      0.10637321	      0.04175911	      0.10170491
      4.06500000	      0.10582289	      0.04165095	      0.10153815
      4.07000000	      0.10554643	      0.04159651	      0.10143313
      4.07500000	      0.10487938	      0.04146485	      0.10102186
      4.08000000	      0.10424266	      0.04133880	      0.10093514
      4.08500000	      0.10374653	      0.04124031	      0.10086823
      4.09000000	      0.10331437	      0.04115432	      0.10055729
      4.09500000	      0.10279730	      0.04105121	      0.10029587
      4.10000000	      0.10221585	      0.04093494	      0.10015195
      4.10500000	      0.10170234	      0.04083199	      0.09984557
      4.11000000	      0.10122751	      0.04073656	      0.09974370
      4.11500000	      0.10059472	      0.04060904	      0.09947228
      4.12000000	      0.10012391	      0.04051389	      0.09913191
      4.12500000	      0.09972125	      0.04043235	      0.09911234
      4.13000000	      0.09928802	      0.04034442	      0.09889494
      4.13500000	      0.09864602	      0.04021378	      0.09853664
      4.14000000	      0.09804020	      0.04009010	      0.09842431
      4.14500000	      0.09767231	      0.04001481	      0.09825213
      4.15000000	      0.09711345	      0.03990017	      0.09809206
      4.15500000	      0.09676419	      0.03982836	      0.09788228
      4.16000000	      0.09630397	      0.03973353	      0.09782226
      4.16500000	      0.09573603	      0.03961620	      0.09752224
      4.17000000	      0.09503018	      0.03946988	      0.09737625
      4.17500000	      0.09431836	      0.03932178	      0.09703797
      4.18000000	      0.09364815	      0.03918183	      0.09666169
      4.18500000	      0.09317043	      0.03908176	      0.09643508
      4.19000000	      0.09253828	      0.03894895	      0.09609504
      4.19500000	      0.09213365	      0.03886371	      0.09587010
      4.20000000	      0.09123392	      0.03867348	      0.09559770
      4.20500000	      0.09075724	      0.03857232	      0.09535564
      4.21000000	      0.09013966	      0.03844085	      0.09519247
      4.21500000	      0.08956595	      0.03831833	      0.09492856
      4.22000000	      0.08899188	      0.03819533	      0.09468690
      4.22500000	      0.08844855	      0.03807855	      0.09450965
      4.23000000	      0.08775010	      0.03792791	      0.09414743
      4.23500000	      0.08707856	      0.03778250	      0.09395020
      4.24000000	      0.08642784	      0.03764107	      0.09375343
      4.24500000	      0.08580043	      0.03750419	      0.09335278
      4.25000000	      0.08524568	      0.03738275	      0.09312910
      4.25500000	      0.08459692	      0.03724023	      0.09280290
      4.26000000	      0.08397843	      0.03710385	      0.09255656
      4.26500000	      0.08336913	      0.03696900	      0.09227242
      4.27000000	      0.08268574	      0.03681717	      0.09215787
      4.27500000	      0.08187453	      0.03663612	      0.09172795
      4.28000000	      0.08136126	      0.03652110	      0.09139748
      4.28500000	      0.08075591	      0.03638499	      0.09116834
      4.29000000	      0.07995059	      0.03620311	      0.09069590
      4.29500000	      0.07934554	      0.03606586	      0.09056595
      4.30000000	      0.07871619	      0.03592255	      0.09034378
      4.30500000	      0.07808054	      0.03577721	      0.08982194
      4.31000000	      0.07738011	      0.03561638	      0.08946793
      4.31500000	      0.07662783	      0.03544283	      0.08916165
      4.32000000	      0.07596900	      0.03529013	      0.08882235
      4.32500000	      0.07533666	      0.03514295	      0.08842340
      4.33000000	      0.07459912	      0.03497051	      0.08786120
      4.33500000	      0.07386855	      0.03479885	      0.08761795
      4.34000000	      0.07303779	      0.03460261	      0.08724809
      4.34500000	      0.07228519	      0.03442387	      0.08687304
      4.35000000	      0.07154266	      0.03424661	      0.08705416
      4.35500000	      0.07046140	      0.03398683	      0.08699869
      4.36000000	      0.06979139	      0.03382486	      0.08718993
      4.36500000	      0.06902718	      0.03363916	      0.08742364
      4.37000000	      0.06824342	      0.03344764	      0.08756918
      4.37500000	      0.06766919	      0.03330662	      0.08769204
      4.38000000	      0.06714255	      0.03317676	      0.08786078
      4.38500000	      0.06649828	      0.03301720	      0.08798103
      4.39000000	      0.06596392	      0.03288428	      0.08819876
      4.39500000	      0.06518170	      0.03268872	      0.08760713
      4.40000000	      0.06487246	      0.03261109	      0.08848526
      4.40500000	      0.06414356	      0.03242736	      0.08853002
      4.41000000	      0.06360561	      0.03229110	      0.08860992
      4.41500000	      0.06305382	      0.03215073	      0.08899544
      4.42000000	      0.06249574	      0.03200813	      0.08907400
      4.42500000	      0.06188731	      0.03185194	      0.08925166
      4.43000000	      0.06131941	      0.03170546	      0.08941370
      4.43500000	      0.06074232	      0.03155591	      0.08966246
      4.44000000	      0.06027350	      0.03143390	      0.08997843
      4.44500000	      0.05969501	      0.03128269	      0.09029663
      4.45000000	      0.05920180	      0.03115319	      0.09058453
      4.45500000	      0.05845620	      0.03095639	      0.08988091
      4.46000000	      0.05813789	      0.03087200	      0.09110895
      4.46500000	      0.05759044	      0.03072630	      0.09080523
      4.47000000	      0.05721543	      0.03062610	      0.09125143
      4.47500000	      0.05677391	      0.03050770	      0.09130068
      4.48000000	      0.05618424	      0.03034886	      0.09115836
      4.48500000	      0.05585544	      0.03025992	      0.09173527
      4.49000000	      0.05532960	      0.03011715	      0.09197159
      4.49500000	      0.05492145	      0.03000586	      0.09248367
      4.50000000	      0.05448317	      0.02988589	      0.09224141
      4.50500000	      0.05409904	      0.02978036	      0.09246181
      4.51000000	      0.05376476	      0.02968820	      0.09246529
      4.51500000	      0.05343523	      0.02959708	      0.09326774
      4.52000000	      0.05305678	      0.02949209	      0.09310867
      4.52500000	      0.05271818	      0.02939783	      0.09357656
      4.53000000	      0.05221921	      0.02925838	      0.09326542
      4.53500000	      0.05190276	      0.02916959	      0.09370980
      4.54000000	      0.05158470	      0.02908008	      0.09350712
      4.54500000	      0.05123550	      0.02898148	      0.09383472
      4.55000000	      0.05099970	      0.02891471	      0.09420318
      4.55500000	      0.05052006	      0.02877843	      0.09358233
      4.56000000	      0.05030702	      0.02871768	      0.09397574
      4.56500000	      0.04998740	      0.02862631	      0.09444309
      4.57000000	      0.04968692	      0.02854014	      0.09466364
      4.57500000	      0.04936533	      0.02844763	      0.09449825
      4.58000000	      0.04910650	      0.02837296	      0.09470170
      4.58500000	      0.04884478	      0.02829724	      0.09462150
      4.59000000	      0.04855543	      0.02821330	      0.09474510
      4.59500000	      0.04828347	      0.02813418	      0.09464711
      4.60000000	      0.04809376	      0.02807886	      0.09494441
      4.60500000	      0.04755148	      0.02792011	      0.09377550
      4.61000000	      0.04746049	      0.02789338	      0.09445943
      4.61500000	      0.04728818	      0.02784270	      0.09430090
      4.62000000	      0.04706775	      0.02777773	      0.09421642
      4.62500000	      0.04678652	      0.02769462	      0.09411180
      4.63000000	      0.04660254	      0.02764012	      0.09389451
      4.63500000	      0.04648484	      0.02760519	      0.09372426
      4.64000000	      0.04627967	      0.02754420	      0.09353978
      4.64500000	      0.04598428	      0.02745616	      0.09308418
      4.65000000	      0.04574615	      0.02738498	      0.09300090
      4.65500000	      0.04622017	      0.02752649	      0.09264408
      4.66000000	      0.04611157	      0.02749413	      0.09264155
      4.66500000	      0.04497584	      0.02715343	      0.09099392
      4.67000000	      0.04492724	      0.02713876	      0.09142417
      4.67500000	      0.04472928	      0.02707890	      0.09088771
      4.68000000	      0.04452064	      0.02701567	      0.09048904
      4.68500000	      0.04503359	      0.02717086	      0.09028923
      4.69000000	      0.04425181	      0.02693398	      0.08961595
      4.69500000	      0.04407630	      0.02688052	      0.08921712
      4.70000000	      0.04386839	      0.02681705	      0.08862905
      4.70500000	      0.04378031	      0.02679011	      0.08823914
      4.71000000	      0.04366270	      0.02675410	      0.08763447
      4.71500000	      0.04351656	      0.02670929	      0.08710764
      4.72000000	      0.04342088	      0.02667991	      0.08645812
      4.72500000	      0.04334001	      0.02665505	      0.08590461
      4.73000000	      0.04319329	      0.02660990	      0.08528286
      4.73500000	      0.04314782	      0.02659589	      0.08486830
      4.74000000	      0.04313624	      0.02659232	      0.08457189
      4.74500000	      0.04269644	      0.02645641	      0.08263382
      4.75000000	      0.04339163	      0.02667092	      0.08317509
      4.75500000	      0.04271126	      0.02646100	      0.08235799
      4.76000000	      0.04274481	      0.02647139	      0.08189558
      4.76500000	      0.04257852	      0.02641985	      0.08153477
      4.77000000	      0.04238196	      0.02635880	      0.08008976
      4.77500000	      0.04239294	      0.02636221	      0.08014261
      4.78000000	      0.04231452	      0.02633782	      0.07964983
      4.78500000	      0.04221232	      0.02630599	      0.07932992
      4.79000000	      0.04208063	      0.02626493	      0.07892966
      4.79500000	      0.04193594	      0.02621973	      0.07760981
      4.80000000	      0.04182840	      0.02618609	      0.07719334
      4.80500000	      0.04190687	      0.02621064	      0.07731389
      4.81000000	      0.04180671	      0.02617930	      0.07712173
      4.81500000	      0.04173219	      0.02615596	      0.07690242
      4.82000000	      0.04162255	      0.02612158	      0.07663047
      4.82500000	      0.04154252	      0.02609645	      0.07623625
      4.83000000	      0.04133937	      0.02603257	      0.07585073
      4.83500000	      0.04130595	      0.02602204	      0.07583805
      4.84000000	      0.04124120	      0.02600164	      0.07568174
      4.84500000	      0.04118433	      0.02598371	      0.07544663
      4.85000000	      0.04096399	      0.02591410	      0.07427816
      4.85500000	      0.04107871	      0.02595037	      0.07500739
      4.86000000	      0.04100496	      0.02592706	      0.07459578
      4.86500000	      0.04096091	      0.02591313	      0.07443107
      4.87000000	      0.04101260	      0.02592947	      0.07448515
      4.87500000	      0.04105442	      0.02594269	      0.07439935
      4.88000000	      0.04107663	      0.02594971	      0.07433910
      4.88500000	      0.04112655	      0.02596547	      0.07425556
      4.89000000	      0.04110339	      0.02595816	      0.07398232
      4.89500000	      0.04117388	      0.02598041	      0.07411770
      4.90000000	      0.04120655	      0.02599072	      0.07412907
      4.90500000	      0.04131944	      0.02602629	      0.07427740
      4.91000000	      0.04137276	      0.02604308	      0.07423017
      4.91500000	      0.04136065	      0.02603927	      0.07415968
      4.92000000	      0.04149162	      0.02608046	      0.07432406
      4.92500000	      0.04145350	      0.02606848	      0.07423694
      4.93000000	      0.04143667	      0.02606319	      0.07410790
      4.93500000	      0.04144140	      0.02606467	      0.07414928
      4.94000000	      0.04143506	      0.02606268	      0.07410301
      4.94500000	      0.04149177	      0.02608051	      0.07411186
      4.95000000	      0.04146142	      0.02607097	      0.07417753
      4.95500000	      0.04145331	      0.02606842	      0.07412347
      4.96000000	      0.04144884	      0.02606701	      0.07404692
      4.96500000	      0.04144397	      0.02606548	      0.07392886
      4.97000000	      0.04140417	      0.02605296	      0.07379249
      4.97500000	      0.04134446	      0.02603417	      0.07349348
      4.98000000	      0.04128452	      0.02601529	      0.07346254
      4.98500000	      0.04125971	      0.02600747	      0.07347681
      4.99000000	      0.04120534	      0.02599033	      0.07327610
      4.99500000	      0.04113124	      0.02596695	      0.07302190
      5.00000000	      0.04081395	      0.02586660	      0.07152200
      5.00500000	      0.04076464	      0.02585097	      0.07124989
      5.01000000	      0.04069870	      0.02583006	      0.07116682
      5.01500000	      0.04063831	      0.02581089	      0.07095074
      5.02000000	      0.04054736	      0.02578198	      0.07077746
      5.02500000	      0.04052030	      0.02577338	      0.07065960
      5.03000000	      0.04050770	      0.02576937	      0.07058325
      5.03500000	      0.04058148	      0.02579283	      0.07111127
      5.04000000	      0.04051904	      0.02577298	      0.07088543
      5.04500000	      0.04048768	      0.02576301	      0.07073047
      5.05000000	      0.04051227	      0.02577083	      0.07066999
      5.05500000	      0.04045825	      0.02575364	      0.07059622
      5.06000000	      0.04045172	      0.02575156	      0.07061891
      5.06500000	      0.04032385	      0.02571083	      0.07037636
      5.07000000	      0.04036039	      0.02572248	      0.07040386
      5.07500000	      0.04032021	      0.02570967	      0.07026306
      5.08000000	      0.04034957	      0.02571903	      0.07030902
      5.08500000	      0.04037766	      0.02572798	      0.07042729
      5.09000000	      0.04038454	      0.02573017	      0.07054021
      5.09500000	      0.04035764	      0.02572160	      0.07052613
      5.10000000	      0.04034472	      0.02571748	      0.07036086
      5.10500000	      0.04030426	      0.02570458	      0.07047085
      5.11000000	      0.04032104	      0.02570993	      0.07068230
      5.11500000	      0.04033340	      0.02571387	      0.07057377
      5.12000000	      0.04033586	      0.02571466	      0.07043192
      5.12500000	      0.04034919	      0.02571891	      0.07049249
      5.13000000	      0.04034286	      0.02571689	      0.07041338
      5.13500000	      0.04033090	      0.02571308	      0.07053466
      5.14000000	      0.04032367	      0.02571077	      0.07060518
      5.14500000	      0.04037588	      0.02572741	      0.07063691
      5.15000000	      0.04035664	      0.02572128	      0.07052260
      5.15500000	      0.04015041	      0.02565548	      0.06946948
      5.16000000	      0.04019874	      0.02567091	      0.06937498
      5.16500000	      0.04026331	      0.02569152	      0.06944730
      5.17000000	      0.04032281	      0.02571050	      0.06948247
      5.17500000	      0.04032905	      0.02571249	      0.06954308
      5.18000000	      0.04032300	      0.02571056	      0.06923155
      5.18500000	      0.04033213	      0.02571347	      0.06910754
      5.19000000	      0.04032966	      0.02571268	      0.06909230
      5.19500000	      0.04036639	      0.02572439	      0.06905839
      5.20000000	      0.04041565	      0.02574008	      0.06902112
      5.20500000	      0.04042368	      0.02574264	      0.06894187
      5.21000000	      0.04043804	      0.02574721	      0.06873200
      5.21500000	      0.04041462	      0.02573975	      0.06857605
      5.22000000	      0.04052686	      0.02577547	      0.06932833
      5.22500000	      0.04030271	      0.02570409	      0.06836614
      5.23000000	      0.04039326	      0.02573295	      0.06894993
      5.23500000	      0.04038779	      0.02573120	      0.06897606
      5.24000000	      0.04034216	      0.02571667	      0.06858008
      5.24500000	      0.04031990	      0.02570957	      0.06844700
      5.25000000	      0.04033517	      0.02571444	      0.06837138
      5.25500000	      0.04031617	      0.02570838	      0.06822156
      5.26000000	      0.04029841	      0.02570272	      0.06833492
      5.26500000	      0.04026397	      0.02569173	      0.06809356
      5.27000000	      0.04025196	      0.02568790	      0.06801634
      5.27500000	      0.04024386	      0.02568532	      0.06789765
      5.28000000	      0.04023112	      0.02568125	      0.06769739
      5.28500000	      0.04021560	      0.02567629	      0.06754332
      5.29000000	      0.04014605	      0.02565408	      0.06738115
      5.29500000	      0.04014266	      0.02565300	      0.06731058
      5.30000000	      0.04013224	      0.02564967	      0.06719734
      5.30500000	      0.04008806	      0.02563555	      0.06694289
      5.31000000	      0.04010425	      0.02564072	      0.06707982
      5.31500000	      0.04012249	      0.02564655	      0.06684147
      5.32000000	      0.04016410	      0.02565985	      0.06684136
      5.32500000	      0.04018042	      0.02566506	      0.06670228
      5.33000000	      0.04010544	      0.02564110	      0.06631515
      5.33500000	      0.04006229	      0.02562731	      0.06637005
      5.34000000	      0.04011517	      0.02564421	      0.06630736
      5.34500000	      0.04012700	      0.02564799	      0.06629094
      5.35000000	      0.04017221	      0.02566244	      0.06630937
      5.35500000	      0.04018787	      0.02566744	      0.06630769
      5.36000000	      0.04019905	      0.02567101	      0.06646214
      5.36500000	      0.04018018	      0.02566498	      0.06632899
      5.37000000	      0.04021827	      0.02567715	      0.06628221
      5.37500000	      0.04023756	      0.02568330	      0.06628081
      5.38000000	      0.04018163	      0.02566545	      0.06619288
      5.38500000	      0.04016774	      0.02566101	      0.06623035
      5.39000000	      0.03995559	      0.02559316	      0.06484745
      5.39500000	      0.03991496	      0.02558014	      0.06486244
      5.40000000	      0.03991683	      0.02558074	      0.06482225
      5.40500000	      0.03994059	      0.02558835	      0.06481907
      5.41000000	      0.03988057	      0.02556912	      0.06474059
      5.41500000	      0.03985869	      0.02556210	      0.06468728
      5.42000000	      0.03997449	      0.02559921	      0.06532866
      5.42500000	      0.03984193	      0.02555673	      0.06454779
      5.43000000	      0.03982950	      0.02555274	      0.06450827
      5.43500000	      0.03981806	      0.02554907	      0.06433643
      5.44000000	      0.03983509	      0.02555454	      0.06441848
      5.44500000	      0.03980001	      0.02554328	      0.06438190
      5.45000000	      0.03981882	      0.02554932	      0.06440107
      5.45500000	      0.03988733	      0.02557129	      0.06505224
      5.46000000	      0.03985785	      0.02556184	      0.06503519
      5.46500000	      0.03987005	      0.02556574	      0.06492117
      5.47000000	      0.03985994	      0.02556251	      0.06489809
      5.47500000	      0.04067861	      0.02582368	      0.06521632
      5.48000000	      0.03985632	      0.02556134	      0.06486600
      5.48500000	      0.03987632	      0.02556776	      0.06498323
      5.49000000	      0.03990416	      0.02557668	      0.06487011
      5.49500000	      0.03990840	      0.02557804	      0.06490398
      5.50000000	      0.03992702	      0.02558401	      0.06493984
      5.50500000	      0.03992212	      0.02558244	      0.06468860
      5.51000000	      0.03990828	      0.02557800	      0.06470735
      5.51500000	      0.03995020	      0.02559143	      0.06487208
      5.52000000	      0.03993711	      0.02558724	      0.06466332
      5.52500000	      0.03993739	      0.02558733	      0.06471050
      5.53000000	      0.03993986	      0.02558812	      0.06460946
      5.53500000	      0.03993501	      0.02558657	      0.06450702
      5.54000000	      0.03993343	      0.02558606	      0.06455420
      5.54500000	      0.03995203	      0.02559202	      0.06444171
      5.55000000	      0.03999118	      0.02560455	      0.06446214
      5.55500000	      0.03996942	      0.02559759	      0.06438581
      5.56000000	      0.04085637	      0.02588004	      0.06459555
      5.56500000	      0.04073945	      0.02584298	      0.06472722
      5.57000000	      0.04073457	      0.02584143	      0.06447926
      5.57500000	      0.04074537	      0.02584486	      0.06445750
      5.58000000	      0.04074420	      0.02584449	      0.06442264
      5.58500000	      0.04078943	      0.02585883	      0.06426810
      5.59000000	      0.04078775	      0.02585830	      0.06438963
      5.59500000	      0.04078731	      0.02585816	      0.06436710
      5.60000000	      0.04076173	      0.02585005	      0.06424919
      5.60500000	      0.04080008	      0.02586221	      0.06425182
      5.61000000	      0.04076520	      0.02585115	      0.06417226
      5.61500000	      0.04075394	      0.02584758	      0.06396984
      5.62000000	      0.04072449	      0.02583824	      0.06392773
      5.62500000	      0.04049272	      0.02576461	      0.06256287
      5.63000000	      0.04034965	      0.02571905	      0.06256593
      5.63500000	      0.04033967	      0.02571587	      0.06327682
      5.64000000	      0.04016158	      0.02565905	      0.06317253
      5.64500000	      0.03994658	      0.02559027	      0.06229009
      5.65000000	      0.03993193	      0.02558558	      0.06297074
      5.65500000	      0.03990417	      0.02557668	      0.06283623
      5.66000000	      0.03980119	      0.02554366	      0.06257054
      5.66500000	      0.03983515	      0.02555456	      0.06254137
      5.67000000	      0.03977840	      0.02553635	      0.06255060
      5.67500000	      0.03979504	      0.02554169	      0.06245187
      5.68000000	      0.03980275	      0.02554416	      0.06243824
      5.68500000	      0.03986287	      0.02556344	      0.06246249
      5.69000000	      0.03986144	      0.02556298	      0.06224113
      5.69500000	      0.03983455	      0.02555436	      0.06203625
      5.70000000	      0.03986401	      0.02556381	      0.06200044
      5.70500000	      0.03984148	      0.02555658	      0.06189951
      5.71000000	      0.03981747	      0.02554888	      0.06194321
      5.71500000	      0.03982730	      0.02555204	      0.06185070
      5.72000000	      0.03980517	      0.02554494	      0.06170772
      5.72500000	      0.03979345	      0.02554117	      0.06163226
      5.73000000	      0.03982378	      0.02555091	      0.06142064
      5.73500000	      0.03977362	      0.02553481	      0.06138343
      5.74000000	      0.03978417	      0.02553820	      0.06135907
      5.74500000	      0.03978648	      0.02553894	      0.06123273
      5.75000000	      0.03975443	      0.02552865	      0.06112776
      5.75500000	      0.03972891	      0.02552045	      0.06108344
      5.76000000	      0.03977508	      0.02553528	      0.06106595
      5.76500000	      0.03975114	      0.02552759	      0.06090444
      5.77000000	      0.03970034	      0.02551128	      0.06072632
      5.77500000	      0.03973017	      0.02552086	      0.06056255
      5.78000000	      0.03966602	      0.02550025	      0.06027453
      5.78500000	      0.03969227	      0.02550868	      0.06023154
      5.79000000	      0.03969012	      0.02550799	      0.06028701
      5.79500000	      0.03968712	      0.02550703	      0.06017554
      5.80000000	      0.03966926	      0.02550129	      0.06001826
