Model Marker Errors from IK
version=1
nRows=136
nColumns=4
inDegrees=no
endheader
time	total_squared_error	marker_error_RMS	marker_error_max
      4.17000000	      0.12163734	      0.04465484	      0.19990585
      4.17500000	      0.12184254	      0.04469249	      0.19995800
      4.18000000	      0.12218525	      0.04475530	      0.20023277
      4.18500000	      0.12256830	      0.04482540	      0.20080490
      4.19000000	      0.12295052	      0.04489524	      0.20114686
      4.19500000	      0.12353884	      0.04500252	      0.20180064
      4.20000000	      0.12379847	      0.04504979	      0.20196249
      4.20500000	      0.12409615	      0.04510392	      0.20211652
      4.21000000	      0.12457487	      0.04519083	      0.20271429
      4.21500000	      0.12508767	      0.04528375	      0.20329159
      4.22000000	      0.12549729	      0.04535783	      0.20373241
      4.22500000	      0.12607107	      0.04546140	      0.20409014
      4.23000000	      0.12670486	      0.04557553	      0.20470342
      4.23500000	      0.12718627	      0.04566203	      0.20521315
      4.24000000	      0.12761889	      0.04573962	      0.20580498
      4.24500000	      0.12840365	      0.04588004	      0.20667569
      4.25000000	      0.12912483	      0.04600870	      0.20747961
      4.25500000	      0.12995681	      0.04615668	      0.20792012
      4.26000000	      0.13048840	      0.04625099	      0.20851888
      4.26500000	      0.13097991	      0.04633801	      0.20900748
      4.27000000	      0.13187660	      0.04649636	      0.21001676
      4.27500000	      0.13271851	      0.04664454	      0.21086659
      4.28000000	      0.13325243	      0.04673827	      0.21161452
      4.28500000	      0.13384346	      0.04684181	      0.21239160
      4.29000000	      0.13403307	      0.04687498	      0.21252690
      4.29500000	      0.13459601	      0.04697331	      0.21340153
      4.30000000	      0.13546579	      0.04712484	      0.21431621
      4.30500000	      0.13622400	      0.04725654	      0.21533713
      4.31000000	      0.13628336	      0.04726683	      0.21569353
      4.31500000	      0.13702148	      0.04739466	      0.21662324
      4.32000000	      0.13754829	      0.04748568	      0.21745812
      4.32500000	      0.13673771	      0.04734556	      0.21766257
      4.33000000	      0.13693146	      0.04737909	      0.21817281
      4.33500000	      0.13817412	      0.04759359	      0.21893503
      4.34000000	      0.13711489	      0.04741081	      0.21858154
      4.34500000	      0.13771134	      0.04751382	      0.21903326
      4.35000000	      0.13801158	      0.04756559	      0.21955243
      4.35500000	      0.13805788	      0.04757356	      0.21959649
      4.36000000	      0.13781117	      0.04753104	      0.21959980
      4.36500000	      0.13820785	      0.04759940	      0.21926223
      4.37000000	      0.13827530	      0.04761101	      0.21921431
      4.37500000	      0.13819330	      0.04759689	      0.21913350
      4.38000000	      0.13764461	      0.04750230	      0.21858605
      4.38500000	      0.13770957	      0.04751351	      0.21863435
      4.39000000	      0.13717740	      0.04742162	      0.21763595
      4.39500000	      0.13653624	      0.04731067	      0.21724726
      4.40000000	      0.13644270	      0.04729446	      0.21622326
      4.40500000	      0.13566423	      0.04715935	      0.21546761
      4.41000000	      0.13447990	      0.04695305	      0.21432822
      4.41500000	      0.13344705	      0.04677239	      0.21264024
      4.42000000	      0.13157777	      0.04644365	      0.21114694
      4.42500000	      0.13034562	      0.04622568	      0.20962461
      4.43000000	      0.12799085	      0.04580623	      0.20751119
      4.43500000	      0.12601613	      0.04545149	      0.20547892
      4.44000000	      0.12403760	      0.04509327	      0.20321443
      4.44500000	      0.12140064	      0.04461137	      0.20085315
      4.45000000	      0.11858776	      0.04409152	      0.19803988
      4.45500000	      0.11605798	      0.04361869	      0.19527920
      4.46000000	      0.11305818	      0.04305128	      0.19257910
      4.46500000	      0.11014840	      0.04249366	      0.18964767
      4.47000000	      0.10696425	      0.04187496	      0.18643604
      4.47500000	      0.10417406	      0.04132519	      0.18370621
      4.48000000	      0.10105087	      0.04070100	      0.18026335
      4.48500000	      0.09842936	      0.04016959	      0.17731271
      4.49000000	      0.09552286	      0.03957207	      0.17386868
      4.49500000	      0.09300330	      0.03904669	      0.17077159
      4.50000000	      0.09066132	      0.03855193	      0.16755532
      4.50500000	      0.08869859	      0.03813234	      0.16487542
      4.51000000	      0.08675884	      0.03771308	      0.16169973
      4.51500000	      0.08469242	      0.03726125	      0.15862122
      4.52000000	      0.08289820	      0.03686444	      0.15576977
      4.52500000	      0.08106004	      0.03645344	      0.15278951
      4.53000000	      0.07926209	      0.03604689	      0.14963994
      4.53500000	      0.07722234	      0.03558005	      0.14635902
      4.54000000	      0.07544247	      0.03516762	      0.14294577
      4.54500000	      0.07346671	      0.03470407	      0.13960184
      4.55000000	      0.07158739	      0.03425732	      0.13636515
      4.55500000	      0.06982041	      0.03383189	      0.13288409
      4.56000000	      0.06784407	      0.03334963	      0.12945204
      4.56500000	      0.06631379	      0.03297137	      0.12646121
      4.57000000	      0.06470355	      0.03256860	      0.12324881
      4.57500000	      0.06321028	      0.03219059	      0.12008057
      4.58000000	      0.06209206	      0.03190459	      0.11698343
      4.58500000	      0.06127994	      0.03169526	      0.11436238
      4.59000000	      0.06066016	      0.03153457	      0.11135654
      4.59500000	      0.06031686	      0.03144521	      0.10892360
      4.60000000	      0.05988833	      0.03133330	      0.10651986
      4.60500000	      0.05939017	      0.03120271	      0.10406505
      4.61000000	      0.05892147	      0.03107935	      0.10181305
      4.61500000	      0.05872751	      0.03102815	      0.09948870
      4.62000000	      0.05898503	      0.03109610	      0.09755569
      4.62500000	      0.05960602	      0.03125937	      0.09592297
      4.63000000	      0.06019019	      0.03141217	      0.09450904
      4.63500000	      0.06038620	      0.03146327	      0.09326319
      4.64000000	      0.06040198	      0.03146739	      0.09258273
      4.64500000	      0.06070011	      0.03154495	      0.09232552
      4.65000000	      0.06064308	      0.03153013	      0.09235369
      4.65500000	      0.06044821	      0.03147943	      0.09205398
      4.66000000	      0.06014345	      0.03139997	      0.09243531
      4.66500000	      0.05973792	      0.03129393	      0.09303182
      4.67000000	      0.05953366	      0.03124039	      0.09378928
      4.67500000	      0.05939779	      0.03120472	      0.09445784
      4.68000000	      0.05921689	      0.03115716	      0.09502046
      4.68500000	      0.05913747	      0.03113626	      0.09570514
      4.69000000	      0.05904402	      0.03111165	      0.09612653
      4.69500000	      0.05881177	      0.03105040	      0.09662798
      4.70000000	      0.05864917	      0.03100745	      0.09715667
      4.70500000	      0.05827413	      0.03090815	      0.09721605
      4.71000000	      0.05793792	      0.03081886	      0.09748157
      4.71500000	      0.05746609	      0.03069311	      0.09774399
      4.72000000	      0.05710091	      0.03059543	      0.09805425
      4.72500000	      0.05647192	      0.03042646	      0.09786252
      4.73000000	      0.05605773	      0.03031467	      0.09756231
      4.73500000	      0.05575371	      0.03023236	      0.09754789
      4.74000000	      0.05536107	      0.03012571	      0.09678532
      4.74500000	      0.05534747	      0.03012201	      0.09641037
      4.75000000	      0.05521786	      0.03008672	      0.09578738
      4.75500000	      0.05525838	      0.03009776	      0.09514985
      4.76000000	      0.05530993	      0.03011180	      0.09474142
      4.76500000	      0.05518087	      0.03007664	      0.09428832
      4.77000000	      0.05534517	      0.03012138	      0.09405598
      4.77500000	      0.05544100	      0.03014745	      0.09391158
      4.78000000	      0.05527604	      0.03010257	      0.09335501
      4.78500000	      0.05524649	      0.03009452	      0.09305499
      4.79000000	      0.05505535	      0.03004241	      0.09284592
      4.79500000	      0.05494182	      0.03001142	      0.09262401
      4.80000000	      0.05489962	      0.02999990	      0.09247731
      4.80500000	      0.05469459	      0.02994382	      0.09213212
      4.81000000	      0.05450719	      0.02989248	      0.09192654
      4.81500000	      0.05438222	      0.02985820	      0.09186494
      4.82000000	      0.05414693	      0.02979353	      0.09169554
      4.82500000	      0.05384827	      0.02971125	      0.09164783
      4.83000000	      0.05349723	      0.02961425	      0.09175604
      4.83500000	      0.05339619	      0.02958627	      0.09190795
      4.84000000	      0.05323786	      0.02954237	      0.09216719
      4.84500000	      0.05302845	      0.02948421	      0.09205994
