Inverse Dynamics Generalized Forces
version=1
nRows=136
nColumns=40
inDegrees=no
endheader
time	pelvis_tilt_moment	pelvis_list_moment	pelvis_rotation_moment	pelvis_tx_force	pelvis_ty_force	pelvis_tz_force	hip_flexion_r_moment	hip_adduction_r_moment	hip_rotation_r_moment	hip_flexion_l_moment	hip_adduction_l_moment	hip_rotation_l_moment	lumbar_extension_moment	lumbar_bending_moment	lumbar_rotation_moment	knee_angle_r_moment	knee_angle_r_beta_force	knee_angle_l_moment	knee_angle_l_beta_force	arm_flex_r_moment	arm_add_r_moment	arm_rot_r_moment	arm_flex_l_moment	arm_add_l_moment	arm_rot_l_moment	ankle_angle_r_moment	ankle_angle_l_moment	elbow_flex_r_moment	elbow_flex_l_moment	subtalar_angle_r_moment	subtalar_angle_l_moment	pro_sup_r_moment	pro_sup_l_moment	mtp_angle_r_moment	mtp_angle_l_moment	wrist_flex_r_moment	wrist_dev_r_moment	wrist_flex_l_moment	wrist_dev_l_moment
      4.17000000	   4316.46177779	-683581.41626358	  28959.22199833	     -1.67343905	    694.54269197	    720.77776699	 -24358.42913066	-116679.76027912	 637898.26592697	     24.73450783	     -5.68158762	      0.32036128	     72.18282999	      1.67203008	      0.13651262	-256039.55255592	     -0.02035103	      6.30087678	     -0.02189897	     -2.82653611	     -4.21463818	      1.52590051	     -2.93161598	     -3.93651129	      1.59413489	 222999.84167347	      0.91164701	      2.18613646	      2.41835362	-341268.14933945	     -0.17872199	     -0.00287873	     -0.00526282	     -0.03804015	     -0.03618504	      0.19552865	     -0.16931101	      0.20112380	     -0.18436676
      4.17500000	   5459.91205141	-686476.43495943	  29041.21420997	     -0.65900688	    701.81892581	    725.14849602	 -23523.40396372	-116679.53288600	 640293.37598061	     24.72286388	     -5.80982656	      0.34781122	     70.25151113	      2.07126735	      0.06395801	-258135.74161838	     -0.02025255	      6.37048167	     -0.02186146	     -2.91677671	     -4.25548785	      1.59538106	     -2.96829323	     -3.97416102	      1.64089004	 224847.04238301	      0.91082574	      2.21565711	      2.46108811	-342361.32989202	     -0.17913226	     -0.00227720	     -0.00536340	     -0.03854324	     -0.03626691	      0.20424786	     -0.17108054	      0.20819871	     -0.18743069
      4.18000000	   6421.85079857	-690350.54023471	  29013.76748795	      0.29681460	    709.40097924	    730.49858450	 -22918.55835234	-116977.44730551	 643636.98449357	     24.71961927	     -5.92816836	      0.37128319	     68.41322591	      2.48219500	     -0.01015885	-260422.57112620	     -0.02015844	      6.43815688	     -0.02182768	     -3.00652357	     -4.29731326	      1.66391597	     -3.00290081	     -4.01250069	      1.68590181	 226874.94112560	      0.91002752	      2.24559239	      2.50429393	-344074.29780269	     -0.17936047	     -0.00169692	     -0.00549908	     -0.03904068	     -0.03634821	      0.21283529	     -0.17289918	      0.21507714	     -0.19054777
      4.18500000	   7084.23213299	-695247.66990361	  28819.70603475	      1.61109254	    718.08496700	    736.81755175	 -22666.15722939	-117631.80199223	 647999.74858366	     24.72707488	     -6.03409229	      0.39051088	     66.72587293	      2.90553820	     -0.08666363	-262802.26637327	     -0.02007048	      6.50254111	     -0.02179918	     -3.09416030	     -4.34017245	      1.73018926	     -3.03313898	     -4.05168509	      1.72750063	 228996.93775149	      0.90927484	      2.27612680	      2.54790904	-346475.07027991	     -0.17942271	     -0.00116307	     -0.00569532	     -0.03952096	     -0.03642607	      0.22113587	     -0.17480095	      0.22157052	     -0.19372729
      4.19000000	   7726.03369965	-700954.26254977	  28602.99776931	      3.30861604	    727.25618186	    743.74458781	 -22472.83207902	-118454.18112039	 653124.53655079	     24.74756409	     -6.12538139	      0.40534643	     65.24547200	      3.34206172	     -0.16630025	-265446.94185644	     -0.01999034	      6.56223554	     -0.02177750	     -3.17817494	     -4.38417218	      1.79294934	     -3.05690787	     -4.09185529	      1.76413400	 231345.20832408	      0.90858413	      2.30744485	      2.59186588	-349273.95849079	     -0.17933422	     -0.00069930	     -0.00597479	     -0.03997291	     -0.03649746	      0.22900144	     -0.17681896	      0.22750185	     -0.19697571
      4.19500000	   8675.31380496	-707054.27802680	  28501.00647375	      5.40071175	    736.20843392	    750.78305893	 -21987.07300436	-119221.71902646	 658549.03481015	     24.78342402	     -6.20002118	      0.41574572	     64.02501624	      3.79252004	     -0.24978504	-268499.55111709	     -0.01991953	      6.61582866	     -0.02176410	     -3.25717664	     -4.42946490	      1.85102718	     -3.07240211	     -4.13315542	      1.79443995	 234030.90882954	      0.90796969	      2.33972142	      2.63608807	-352073.25896025	     -0.17911083	     -0.00032757	     -0.00635619	     -0.04038589	     -0.03655933	      0.23629282	     -0.17898444	      0.23271405	     -0.20029518
      4.20000000	  10065.15909649	-712564.87636743	  28381.48941513	      8.24631413	    745.28102370	    757.24546788	 -21035.05732326	-119857.60000844	 663297.00409185	     24.83698078	     -6.25609899	      0.42173576	     63.11391152	      4.25770649	     -0.33780399	-271717.90363155	     -0.01985951	      6.66191811	     -0.02176041	     -3.32990992	     -4.47625854	      1.90335285	     -3.07819410	     -4.17573913	      1.81730634	 236873.31843283	      0.90744559	      2.37310730	      2.68047750	-354425.87953038	     -0.17876850	     -0.00006779	     -0.00685306	     -0.04074952	     -0.03660878	      0.24288162	     -0.18132500	      0.23707597	     -0.20368086
      4.20500000	  11857.68828358	-716715.03318250	  28111.62898697	     12.12590123	    754.97015049	    762.63692009	 -19621.44770751	-120331.62268493	 666642.87847901	     24.91049435	     -6.29176117	      0.42338016	     62.55785880	      4.73827888	     -0.43106758	-274779.74603822	     -0.01981162	      6.69913289	     -0.02176780	     -3.39526470	     -4.52484595	      1.94896225	     -3.07330120	     -4.21976076	      1.83191185	 239609.75495434	      0.90702554	      2.40770577	      2.72490049	-356023.21454866	     -0.17832100	      0.00006253	     -0.00747280	     -0.04105355	     -0.03664316	      0.24865012	     -0.18386171	      0.24048626	     -0.20711888
      4.21000000	  13543.79366002	-720196.88981709	  27844.41720586	     16.65054017	    765.38310607	    767.42145059	 -18277.34646552	-120633.27439650	 669421.18266303	     25.00604718	     -6.30524499	      0.42076584	     62.39866616	      5.23421001	     -0.53044484	-277459.47632021	     -0.01977710	      6.72616615	     -0.02178741	     -3.45229032	     -4.57562677	      1.98699938	     -3.05723623	     -4.26536906	      1.83775352	 241963.50446991	      0.90672242	      2.44354649	      2.76917703	-357156.22302712	     -0.17777827	      0.00004860	     -0.00821567	     -0.04128808	     -0.03666047	      0.25349018	     -0.18660563	      0.24287596	     -0.21058536
      4.21500000	  14638.08419274	-724163.33156573	  27740.63832532	     21.34807130	    776.47312580	    772.39731038	 -17531.12180011	-120836.69550915	 672888.00740629	     25.12540029	     -6.29494872	      0.41401339	     62.67395852	      5.74407791	     -0.63700942	-279722.40574558	     -0.01975694	      6.74181751	     -0.02182005	     -3.50020961	     -4.62909380	      2.01671938	     -3.03004370	     -4.31271561	      1.83466146	 243827.23854622	      0.90654760	      2.48056797	      2.81307118	-358347.90652476	     -0.17714627	     -0.00012125	     -0.00907426	     -0.04144421	     -0.03665961	      0.25730269	     -0.18955539	      0.24420964	     -0.21404620
      4.22000000	  15203.85511287	-730118.57575190	  27697.81221394	     26.11057870	    787.98444318	    778.74222845	 -17387.75927768	-121346.27686108	 678404.12000755	     25.26984493	     -6.25947063	      0.40329038	     63.41702552	      6.26448043	     -0.75193181	-282177.22642659	     -0.01975190	      6.74503038	     -0.02186605	     -3.53842082	     -4.68579794	      2.03749062	     -2.99232357	     -4.36197073	      1.82280246	 245767.80973309	      0.90650932	      2.51860918	      2.85628986	-360455.24853896	     -0.17642760	     -0.00045517	     -0.01003351	     -0.04151479	     -0.03664047	      0.25999775	     -0.19269603	      0.24448514	     -0.21745789
      4.22500000	  15380.91703496	-739004.68691249	  27563.52657495	     30.90814401	    799.66311362	    787.15661389	 -17751.85493864	-122497.00639089	 686776.46410105	     25.44010766	     -6.19757460	      0.38880591	     64.65667722	      6.78971117	     -0.87627827	-285295.79669787	     -0.01976241	      6.73491315	     -0.02192522	     -3.56650923	     -4.74631231	      2.04881181	     -2.94523708	     -4.41333606	      1.80267357	 248245.38293318	      0.90660980	      2.55740334	      2.89850356	-364064.11557479	     -0.17562163	     -0.00095679	     -0.01107168	     -0.04149500	     -0.03660381	      0.26149720	     -0.19599756	      0.24373288	     -0.22077091
      4.23000000	  15077.18818614	-749138.49961627	  27268.47659771	     35.70524449	    811.49377377	    796.04907156	 -18635.84139656	-124009.53967630	 696461.73683992	     25.63637659	     -6.10807929	      0.37078548	     66.41680327	      7.31175240	     -1.01071964	-288366.32796991	     -0.01978859	      6.71075505	     -0.02199692	     -3.58430933	     -4.81118643	      2.05036940	     -2.89047868	     -4.46705269	      1.77507706	 250629.46335564	      0.90683856	      2.59657820	      2.93939221	-368334.21024257	     -0.17472299	     -0.00162340	     -0.01216205	     -0.04138195	     -0.03655051	      0.26174204	     -0.19941320	      0.24201395	     -0.22393604
      4.23500000	  14222.98460252	-758772.08538382	  26809.63559695	     40.48926911	    823.51113340	    803.94637593	 -20023.21430702	-125535.40984471	 705858.67186420	     25.85842386	     -5.98969955	      0.34943499	     68.71557522	      7.82060726	     -1.15516983	-290675.37390234	     -0.01983038	      6.67206290	     -0.02208022	     -3.59201415	     -4.88088515	      2.04212861	     -2.83020804	     -4.52341771	      1.74107474	 252277.27448323	      0.90716223	      2.63567225	      2.97869167	-372344.77082867	     -0.17371833	     -0.00244372	     -0.01327476	     -0.04117310	     -0.03648039	      0.26070426	     -0.20287891	      0.23941612	     -0.22691060
      4.24000000	  13063.60894035	-768596.72249099	  26330.35376835	     45.38313616	    835.72836236	    812.12621201	 -21690.14072714	-127079.95080384	 715557.92613131	     26.10568047	     -5.84092289	      0.32489627	     71.56452105	      8.30490563	     -1.30853687	-292695.67520460	     -0.01988778	      6.61862014	     -0.02217405	     -3.59027325	     -4.95573053	      2.02441088	     -2.76695629	     -4.58280425	      1.70193504	 253589.28171899	      0.90751917	      2.67414948	      3.01620440	-376299.19532737	     -0.17258383	     -0.00339662	     -0.01437800	     -0.04086524	     -0.03639151	      0.25839670	     -0.20631340	      0.23604853	     -0.22966001
      4.24500000	  11803.28304257	-779568.21019640	  25993.33270652	     50.43318740	    848.11890544	    821.96563985	 -23465.60979609	-128680.15704250	 726412.85116210	     26.37714134	     -5.66000035	      0.29720718	     74.96801002	      8.75261669	     -1.46877563	-294956.54034416	     -0.01996103	      6.55054446	     -0.02227722	     -3.58021743	     -5.03586915	      1.99790936	     -2.70351989	     -4.64564521	      1.65907983	 255007.19867414	      0.90782446	      2.71138711	      3.05177473	-380523.58088577	     -0.17128516	     -0.00445109	     -0.01543881	     -0.04045547	     -0.03628072	      0.25487435	     -0.20961676	      0.23203608	     -0.23215497
      4.25000000	  10177.53970869	-791225.79844608	  25924.82718508	     55.27595501	    860.52836685	    832.45886691	 -25582.46538362	-130123.86787023	 738099.74651234	     26.67112305	     -5.44503696	      0.26630225	     78.92353989	      9.15175070	     -1.63312988	-297033.36939605	     -0.02005068	      6.46833508	     -0.02238820	     -3.56340667	     -5.12128003	      1.96364671	     -2.64285119	     -4.71237604	      1.61402889	 256101.89448169	      0.90798009	      2.74666197	      3.08526396	-384694.78011753	     -0.16978014	     -0.00556758	     -0.01642408	     -0.03994299	     -0.03614475	      0.25022872	     -0.21267028	      0.22751368	     -0.23436871
      4.25500000	   7746.94608485	-802972.39800336	  26163.80097185	     59.43238185	    872.93534556	    842.41349904	 -28444.90191992	-131260.96832952	 750204.73022044	     26.98498724	     -5.19416261	      0.23208037	     83.42236501	      9.49112892	     -1.79822187	-298292.87556074	     -0.02015732	      6.37290686	     -0.02250507	     -3.54173754	     -5.21181813	      1.92291520	     -2.58795097	     -4.78338960	      1.56834105	 256270.01213369	      0.90788334	      2.77918446	      3.11654532	-388522.40125043	     -0.16802464	     -0.00670020	     -0.01730211	     -0.03933032	     -0.03598111	      0.24458238	     -0.21534270	      0.22262040	     -0.23627638
      4.26000000	   3840.07805268	-815008.08966972	  26383.26163513	     62.41480053	    885.99502428	    852.23043352	 -32738.58115685	-132458.69071160	 763062.94145060	     27.31492985	     -4.90585224	      0.19452476	     88.44964197	      9.76135367	     -1.95989100	-298187.62064995	     -0.02028136	      6.26560527	     -0.02262542	     -3.51732503	     -5.30725250	      1.87720974	     -2.54175996	     -4.85903313	      1.52355374	 255055.11380462	      0.90743296	      2.80818462	      3.14551710	-392473.57550225	     -0.16598215	     -0.00780005	     -0.01804450	     -0.03862350	     -0.03578830	      0.23808518	     -0.21750340	      0.21749364	     -0.23785630
      4.26500000	  -1884.01152790	-827879.61080526	  26263.79668359	     63.97005070	    900.16243265	    862.79487916	 -38835.94032155	-134149.61059168	 777228.82472255	     27.65584379	     -4.57940445	      0.15384870	     93.98400709	      9.95589647	     -2.11300421	-296603.92385205	     -0.02042285	      6.14821752	     -0.02274632	     -3.49238129	     -5.40726513	      1.82815413	     -2.50705069	     -4.93963519	      1.48112790	 252407.02923568	      0.90653857	      2.83302085	      3.17213695	-397148.94891544	     -0.16363706	     -0.00881909	     -0.01862804	     -0.03783238	     -0.03556615	      0.23091032	     -0.21903925	      0.21226484	     -0.23909375
      4.27000000	  -8209.98292049	-842813.57568498	  25930.44125957	     64.81812547	    914.41954600	    875.28806052	 -45570.28314608	-136476.42485815	 793481.80335577	     28.00116113	     -4.21547088	      0.11066312	     99.99727159	     10.07192846	     -2.25139967	-295108.86017562	     -0.02058159	      6.02301011	     -0.02286435	     -3.46912504	     -5.51143902	      1.77743695	     -2.48632491	     -5.02554701	      1.44239891	 249770.77273861	      0.90513690	      2.85327611	      3.19646753	-402922.46085102	     -0.16101042	     -0.00971356	     -0.01903629	     -0.03697222	     -0.03531652	      0.22325046	     -0.21986965	      0.20705664	     -0.23998646
      4.27500000	 -14023.76068416	-860592.90261315	  25550.05903127	     65.55768132	    927.77385922	    890.41620095	 -51853.13110742	-139454.14855166	 812231.28140390	     28.34267026	     -3.81657318	      0.06615677	    106.45496448	     10.11043429	     -2.36797531	-295011.00777903	     -0.02075595	      5.89278459	     -0.02297576	     -3.44968749	     -5.61927120	      1.72673940	     -2.48171609	     -5.11718598	      1.40852643	 248343.47632775	      0.90320926	      2.86880906	      3.21869065	-409911.01584306	     -0.15817497	     -0.01044677	     -0.01926059	     -0.03606556	     -0.03504408	      0.21531085	     -0.21995544	      0.20197901	     -0.24054733
      4.28000000	 -20161.99985800	-879451.14596829	  24999.12232059	     65.36260347	    940.81094228	    906.64431141	 -58441.64819242	-142882.63721406	 832063.58177643	     28.67048502	     -3.38754608	      0.02224515	    113.31784497	     10.07557116	     -2.45493494	-294895.02587415	     -0.02094316	      5.76089076	     -0.02307673	     -3.43597336	     -5.73018435	      1.67762677	     -2.49489390	     -5.21507556	      1.38044204	 246849.03780009	      0.90079381	      2.87976385	      3.23906520	-417443.45193441	     -0.15526569	     -0.01099229	     -0.01929989	     -0.03514254	     -0.03475644	      0.20729655	     -0.21930278	      0.19712352	     -0.24080086
      4.28500000	 -27567.51039350	-897570.73075656	  24162.55614320	     63.29845398	    954.19448223	    922.53004654	 -66201.22922678	-146554.52410330	 851542.81506573	     28.97336130	     -2.93578716	     -0.01836747	    120.54375354	      9.97374888	     -2.50416162	-293237.34438342	     -0.02113905	      5.63112879	     -0.02316387	     -3.42950853	     -5.84351391	      1.63142531	     -2.52697349	     -5.31988533	      1.35880246	 243914.55416769	      0.89799424	      2.88657349	      3.25785891	-424857.52803977	     -0.15248414	     -0.01133683	     -0.01915985	     -0.03423887	     -0.03446387	      0.19939732	     -0.21796582	      0.19255760	     -0.24077616
      4.29000000	 -35648.07061029	-915575.22231820	  23231.00661617	     59.49863275	    967.33937568	    939.21482994	 -74562.82990557	-150447.41782447	 871087.58682217	     29.23963249	     -2.47141365	     -0.05225285	    128.08899614	      9.81270372	     -2.50753288	-290813.20122233	     -0.02133817	      5.50748585	     -0.02323468	     -3.43130557	     -5.95852076	      1.58912293	     -2.57847373	     -5.43246145	      1.34396816	 240230.98564701	      0.89498486	      2.88996631	      3.27529691	-432267.67087944	     -0.15009230	     -0.01148203	     -0.01885172	     -0.03339216	     -0.03417882	      0.19177591	     -0.21604832	      0.18832127	     -0.24050084
      4.29500000	 -43668.02130002	-934379.84982788	  22382.43542267	     54.25278988	    979.65796611	    957.98281511	 -82826.59531172	-154610.96751954	 891346.44839739	     29.45891919	     -2.00751347	     -0.07550165	    135.90884643	      9.60054979	     -2.45702598	-288633.02008182	     -0.02153420	      5.39372479	     -0.02328790	     -3.44175405	     -6.07446415	      1.55131437	     -2.64937964	     -5.55383308	      1.33602915	 236706.93791743	      0.89200491	      2.89096252	      3.29155267	-439919.00721607	     -0.14838796	     -0.01144438	     -0.01839183	     -0.03263659	     -0.03391523	      0.18456209	     -0.21370113	      0.18442838	     -0.23999854
      4.30000000	 -51873.28358382	-953584.28191278	  21435.36008527	     47.38945584	    991.77538458	    978.17090799	 -91231.75241788	-159195.09359417	 911979.25415905	     29.62388486	     -1.56007451	     -0.08420525	    143.95724672	      9.34525739	     -2.34472501	-286335.65186306	     -0.02172072	      5.29302427	     -0.02332332	     -3.46057672	     -6.19067984	      1.51820012	     -2.73926555	     -5.68519778	      1.33486111	 233060.78401613	      0.88933475	      2.89084527	      3.30678596	-447840.94932436	     -0.14765947	     -0.01125347	     -0.01780165	     -0.03199797	     -0.03368767	      0.17785254	     -0.21111498	      0.18087155	     -0.23929107
      4.30500000	 -60634.72884669	-972571.12069224	  20165.01764157	     38.78185334	   1004.49196495	    998.73213804	-100138.55962915	-164355.80157490	 932470.15077577	     29.73085581	     -1.14678456	     -0.07514763	    152.18609115	      9.05513851	     -2.16285148	-283370.96687674	     -0.02189190	      5.20791300	     -0.02334131	     -3.48691483	     -6.30660686	      1.48965137	     -2.84738072	     -5.82787115	      1.34016656	 228849.25508476	      0.88725984	      2.89107599	      3.32119888	-456019.06300014	     -0.14813230	     -0.01094853	     -0.01710841	     -0.03149298	     -0.03351091	      0.17171539	     -0.20850714	      0.17762729	     -0.23840421
      4.31000000	 -69825.32890288	-991198.71620352	  18540.02512292	     28.77007938	   1018.00224948	   1019.22517384	-109425.08884315	-170157.85127314	 952626.89140791	     29.77923648	     -0.78465721	     -0.04655388	    160.54431203	      8.73998595	     -1.90381631	-279816.56929088	     -0.02204321	      5.14046127	     -0.02334237	     -3.51956367	     -6.42176492	      1.46535203	     -2.97267373	     -5.98317421	      1.35148621	 224172.84077245	      0.88604349	      2.89315285	      3.33507479	-464448.18416611	     -0.14992607	     -0.01057310	     -0.01634567	     -0.03113274	     -0.03340020	      0.16620073	     -0.20610236	      0.17465889	     -0.23737401
      4.31500000	 -79163.66861374	-1009380.13330378	  16619.50748498	     17.70526678	   1032.17628474	   1039.40165077	-118816.08351810	-176592.24815133	 972276.12240033	     29.77065431	     -0.48743867	      0.00129443	    168.97683438	      8.41174820	     -1.56054137	-275911.03896118	     -0.02217185	      5.09247523	     -0.02332718	     -3.55724094	     -6.53570210	      1.44494804	     -3.11378528	     -6.15230637	      1.36820424	 219265.15883689	      0.88592184	      2.89848594	      3.34880008	-473054.61419948	     -0.15303126	     -0.01017011	     -0.01555330	     -0.03092771	     -0.03337244	      0.16135183	     -0.20411677	      0.17191979	     -0.23625278
      4.32000000	 -88231.02329283	-1026722.46613096	  14635.76863648	      5.49103436	   1046.17514790	   1059.19285776	-127882.28829241	-183424.50563622	 990946.05161066	     29.70833223	     -0.26371786	      0.06571824	    177.42383934	      8.08400867	     -1.12732241	-271910.14248933	     -0.02227712	      5.06558120	     -0.02329677	     -3.59867689	     -6.64793625	      1.42807070	     -3.26903074	     -6.33626738	      1.38956868	 214350.56108664	      0.88710604	      2.90836673	      3.36287307	-481453.98001591	     -0.15730180	     -0.00978125	     -0.01477631	     -0.03089076	     -0.03344693	      0.15720475	     -0.20275605	      0.16935974	     -0.23511364
      4.32500000	 -96554.01467319	-1042883.10309507	  12739.83861691	     -7.93590244	   1059.19248919	   1078.58203501	-136148.17981436	-190508.69452193	1008183.80873011	     29.59674595	     -0.11610003	      0.14162443	    185.82076144	      7.77055146	     -0.60073039	-268144.51922716	     -0.02236069	      5.06122816	     -0.02325258	     -3.64250706	     -6.75792240	      1.41424500	     -3.43638082	     -6.53577782	      1.41470742	 209744.65275280	      0.88976527	      2.92400115	      3.37787746	-489354.35203304	     -0.16245542	     -0.00944995	     -0.01406318	     -0.03103717	     -0.03364384	      0.15377802	     -0.20222233	      0.16692900	     -0.23405000
      4.33000000	-103628.07874683	-1058096.53077694	  10515.84192384	    -21.99154395	   1071.32268763	   1097.49542740	-143154.47031575	-198364.32566648	1023971.84644396	     29.44174039	     -0.04147461	      0.22174954	    194.09868567	      7.48398458	      0.02026319	-265197.05293586	     -0.02242696	      5.08062116	     -0.02319654	     -3.68718368	     -6.86505625	      1.40285068	     -3.61343246	     -6.75112515	      1.44260539	 206113.83769775	      0.89398647	      2.94650346	      3.39442597	-497232.43334769	     -0.16807749	     -0.00922220	     -0.01346455	     -0.03138052	     -0.03398015	      0.15106846	     -0.20271100	      0.16457444	     -0.23316939
      4.33500000	-109091.54032084	-1072537.84253064	   7553.33032908	    -36.06586392	   1082.84131139	   1115.77048894	-148581.88842703	-207490.06470152	1038276.52698976	     29.25078274	     -0.03170605	      0.29700373	    202.18460213	      7.23507100	      0.73460225	-263495.73613610	     -0.02248305	      5.12466641	     -0.02313092	     -3.73101094	     -6.96867837	      1.39318105	     -3.79738631	     -6.98198215	      1.47206637	 203974.41181898	      0.89973404	      2.97682400	      3.41312463	-505546.25308784	     -0.17363487	     -0.00914345	     -0.01303313	     -0.03192842	     -0.03446521	      0.14905634	     -0.20439539	      0.16223267	     -0.23258837
      4.34000000	-113123.15143684	-1085504.49572921	   4147.95573827	    -50.22935545	   1093.83529401	   1132.95612447	-152589.59095550	-217505.16578732	1050521.93081718	     29.03284626	     -0.07398982	      0.35691612	    210.00154979	      7.03222242	      1.53891023	-262635.00882134	     -0.02253813	      5.19392221	     -0.02305833	     -3.77219974	     -7.06805344	      1.38448723	     -3.98510085	     -7.22727565	      1.50173193	 202911.15008791	      0.90683880	      3.01568171	      3.43459990	-513773.35510292	     -0.17851425	     -0.00925556	     -0.01282344	     -0.03268249	     -0.03509825	      0.14770840	     -0.20741496	      0.15983231	     -0.23243588
      4.34500000	-115930.64904755	-1096162.98804846	    708.52349355	    -64.59313290	   1104.35730595	   1148.57794914	-155356.62047409	-227871.71874995	1060040.78901226	     28.79825639	     -0.15171445	      0.39047071	    217.46912365	      6.88045179	      2.42691755	-262137.49614835	     -0.02260211	      5.28837959	     -0.02298192	     -3.80888938	     -7.16236336	      1.37598040	     -4.17326045	     -7.48510914	      1.53018340	 202418.86352565	      0.91502482	      3.06355676	      3.45958463	-521224.19333365	     -0.18208625	     -0.00959584	     -0.01289054	     -0.03364030	     -0.03586818	      0.14697709	     -0.21187329	      0.15730781	     -0.23286352
      4.35000000	-117333.36527422	-1104064.56921994	  -2701.44762805	    -78.84872015	   1114.51108564	   1162.26289286	-156699.72204213	-238447.53850853	1066354.55205453	     28.55868496	     -0.24678463	      0.38734513	    224.50481362	      6.78030702	      3.38934720	-262038.76775323	     -0.02268429	      5.40717315	     -0.02290575	     -3.83920062	     -7.25074698	      1.36685882	     -4.35857751	     -7.75271425	      1.55606643	 202549.49844028	      0.92395643	      3.12071170	      3.48898532	-527642.41457293	     -0.18377256	     -0.01019669	     -0.01328777	     -0.03479422	     -0.03675549	      0.14680311	     -0.21783766	      0.15461463	     -0.23405068
      4.35500000	-117172.83667318	-1109190.04455161	  -6092.14612563	    -92.64953054	   1124.39546285	   1173.94291374	-156471.32639029	-249230.99822987	1069382.63497314	     28.32674835	     -0.34239075	      0.33907540	    231.02627340	      6.72724147	      4.41399962	-262503.84871793	     -0.02279220	      5.54853487	     -0.02283478	     -3.86132451	     -7.33236559	      1.35635495	     -4.53792580	     -8.02641097	      1.57816905	 203474.22444097	      0.93328165	      3.18716328	      3.52383115	-533026.93525058	     -0.18309768	     -0.01108394	     -0.01406291	     -0.03612859	     -0.03773476	      0.14711829	     -0.22533167	      0.15173509	     -0.23619480
      4.36000000	-115752.86191322	-1112830.19377599	  -9418.23831748	   -106.05322843	   1134.02348982	   1184.74140546	-155022.80116807	-260441.17009082	1070413.75282951	     28.11511001	     -0.42512652	      0.23987062	    236.95409090	      6.71080166	      5.48555018	-263700.16887900	     -0.02293092	      5.70997705	     -0.02277474	     -3.87357815	     -7.40649172	      1.34375519	     -4.70839904	     -8.30157309	      1.59544892	 205288.07916099	      0.94266179	      3.26258318	      3.56511569	-537969.04491056	     -0.17972857	     -0.01227441	     -0.01525370	     -0.03761846	     -0.03877671	      0.14784300	     -0.23432004	      0.14867557	     -0.23949005
      4.36500000	-113497.81241520	-1116455.69117531	 -12611.81491145	   -119.18065319	   1143.41061861	   1195.90768758	-152823.03957708	-272335.52002910	1070938.94791048	     27.93542587	     -0.48661377	      0.08719327	    242.21409167	      6.71351395	      6.58521782	-265734.80709336	     -0.02310267	      5.88850421	     -0.02273168	     -3.87440319	     -7.47263959	      1.32839214	     -4.86731036	     -8.57262255	      1.60703017	 208010.78762618	      0.95178467	      3.34621509	      3.61365293	-543124.45444731	     -0.17350691	     -0.01377455	     -0.01688451	     -0.03922941	     -0.03984889	      0.14888145	     -0.24469603	      0.14546099	     -0.24410848
      4.37000000	-110861.13477953	-1120956.48421308	 -15504.98274559	   -132.05718504	   1152.66147393	   1208.11102308	-150338.42073083	-284968.88449788	1071930.70329468	     27.79726309	     -0.52470868	     -0.11783059	    246.73825329	      6.71048083	      7.69039456	-268485.43386997	     -0.02330669	      6.08080257	     -0.02271169	     -3.86233788	     -7.53071832	      1.30962637	     -5.01211140	     -8.83307153	      1.61217735	 211442.56821597	      0.96036399	      3.43691547	      3.67004236	-548786.50484052	     -0.16446991	     -0.01558214	     -0.01896598	     -0.04091780	     -0.04091550	      0.15012055	     -0.25628662	      0.14213155	     -0.25019450
      4.37500000	-108238.96922635	-1126833.95859001	 -17963.79092417	   -144.63949954	   1161.92166150	   1221.56397173	-147959.34470212	-298359.73043451	1073972.46641040	     27.70721079	     -0.54407848	     -0.37021569	    250.46454712	      6.67039992	      8.77422207	-271755.10935260	     -0.02353936	      6.28338394	     -0.02272077	     -3.83600018	     -7.58117959	      1.28682539	     -5.14025857	     -9.07561650	      1.61026301	 215336.77462623	      0.96813373	      3.53329690	      3.73471932	-555089.09993810	     -0.15285822	     -0.01769044	     -0.02149670	     -0.04263160	     -0.04193679	      0.15143190	     -0.26887439	      0.13874270	     -0.25786971
      4.38000000	-105754.57334097	-1133627.87702463	 -20093.44885572	   -156.69468436	   1171.43391837	   1235.33052204	-145773.02350605	-312531.15679920	1076619.17169260	     27.66857891	     -0.55629541	     -0.66113053	    253.33694259	      6.55762057	      9.80549619	-275295.59487317	     -0.02379448	      6.49258897	     -0.02276513	     -3.79413169	     -7.62513782	      1.25937413	     -5.24909554	     -9.29229799	      1.60074341	 219495.90753156	      0.97484296	      3.63385030	      3.80798952	-561900.06511309	     -0.13911316	     -0.02009116	     -0.02446465	     -0.04431110	     -0.04286813	      0.15267653	     -0.28221726	      0.13536469	     -0.26723433
      4.38500000	-103373.21353620	-1140384.90502691	 -21982.83207105	   -167.85965238	   1181.42904623	   1248.09488729	-143684.91897854	-327344.66022079	1078925.40047095	     27.68179491	     -0.57955299	     -0.97811790	    255.30593124	      6.33460354	     10.74928572	-278850.02283873	     -0.02406354	      6.70441649	     -0.02285156	     -3.73572279	     -7.66441037	      1.22674337	     -5.33578837	     -9.47475386	      1.58314621	 223731.37957844	      0.98024881	      3.73699501	      3.89000189	-568822.34384581	     -0.12386382	     -0.02277458	     -0.02784777	     -0.04588865	     -0.04365910	      0.15371415	     -0.29605645	      0.13207875	     -0.27835853
      4.39000000	-100747.48715369	-1145092.96569751	 -23409.60568285	   -177.39385482	   1192.02247344	   1258.22857613	-141234.25691243	-342032.64903147	1078963.83775834	     27.74554441	     -0.63734582	     -1.30593424	    256.32886417	      5.96474853	     11.56817787	-282106.65315814	     -0.02433619	      6.91422429	     -0.02298979	     -3.66013586	     -7.70143436	      1.18856428	     -5.39732044	     -9.61459455	      1.55708465	 227775.93170427	      0.98410504	      3.84110114	      3.98069904	-574648.53626334	     -0.10788047	     -0.02572851	     -0.03161397	     -0.04728850	     -0.04425319	      0.15441289	     -0.31012045	      0.12897389	     -0.29126940
      4.39500000	 -97520.35792570	-1146588.95899584	 -24159.90764583	   -184.56341706	   1203.20258364	   1264.86180453	-137976.46137881	-355997.43884914	1075614.96768933	     27.85706732	     -0.75822486	     -1.62633047	    256.36976274	      5.41579803	     12.22397580	-285051.48725475	     -0.02460240	      7.11646171	     -0.02318754	     -3.56715735	     -7.73905926	      1.14466208	     -5.43054871	     -9.70389524	      1.52230519	 231610.26854831	      0.98617042	      3.94450948	      4.07977714	-578570.53291000	     -0.09209301	     -0.02893786	     -0.03572117	     -0.04842811	     -0.04458766	      0.15465571	     -0.32413125	      0.12614677	     -0.30593895
      4.40000000	 -93550.37979416	-1148211.15586370	 -24381.55545073	   -189.04855887	   1214.55395411	   1270.48480891	-133848.49586891	-370291.64455024	1071873.63381825	     28.01342455	     -0.97389017	     -1.91915444	    255.39901217	      4.66363440	     12.67995980	-288954.75212666	     -0.02484931	      7.30439630	     -0.02345364	     -3.45703624	     -7.78022527	      1.09509005	     -5.43231483	     -9.73576101	      1.47874404	 236347.33718913	      0.98620727	      4.04555000	      4.18666174	-582277.83053101	     -0.07752917	     -0.03238353	     -0.04011789	     -0.04922036	     -0.04459493	      0.15434806	     -0.33781150	      0.12370174	     -0.32227542
      4.40500000	 -88833.24857711	-1153322.77696293	 -24228.46506461	   -190.77800187	   1225.68346736	   1277.63028492	-128922.53365121	-386138.55145722	1070743.43239151	     28.21240992	     -1.31738455	     -2.16346880	    253.39341329	      3.69593110	     12.90364411	-294964.53264218	     -0.02505939	      7.46997358	     -0.02379990	     -3.33054159	     -7.82757328	      1.04018641	     -5.39958252	     -9.70492408	      1.42656048	 242990.25757641	      0.98397567	      4.14257940	      4.30050363	-587530.77562112	     -0.06524771	     -0.03604047	     -0.04474510	     -0.04957597	     -0.04420422	      0.15342979	     -0.35089349	      0.12174713	     -0.34011962
      4.41000000	 -83738.10501038	-1160916.68751173	 -23540.39186236	   -190.23497754	   1236.67021021	   1285.55869639	-123481.52405783	-403205.28630663	1071385.14075272	     28.45243540	     -1.82208266	     -2.33815151	    250.33691565	      2.51522821	     12.86951341	-302439.04340973	     -0.02521906	      7.60388259	     -0.02423987	     -3.18898619	     -7.88306655	      0.98060924	     -5.32957556	     -9.60834531	      1.36614660	 250924.85819952	      0.97922612	      4.23403479	      4.42016684	-593757.91022153	     -0.05630047	     -0.03987617	     -0.04953837	     -0.04940723	     -0.04334275	      0.15188516	     -0.36313018	      0.12038867	     -0.35924306
      4.41500000	 -78578.53965508	-1169203.84131361	 -22157.22128426	   -187.81306136	   1247.61449414	   1292.89367933	-117729.24688392	-420858.61230658	1072247.77166930	     28.73192247	     -2.52028647	     -2.42280242	    246.22217418	      1.14127749	     12.56128112	-310538.03640023	     -0.02531702	      7.69582147	     -0.02478830	     -3.03422432	     -7.94768670	      0.91733928	     -5.21993298	     -9.44576627	      1.29813948	 259372.41583939	      0.97168109	      4.31847728	      4.54418451	-599997.52164717	     -0.05167752	     -0.04384974	     -0.05442894	     -0.04862957	     -0.04193734	      0.14974746	     -0.37430458	      0.11972281	     -0.37934384
      4.42000000	 -73057.46486177	-1177665.15418165	 -20231.50384774	   -182.90243993	   1258.20801532	   1298.85115947	-111318.51874120	-439133.83806485	1072684.57801742	     29.04807162	     -3.44145773	     -2.39882543	    241.05281454	     -0.38773761	     11.97345565	-319422.49532380	     -0.02534618	      7.73499688	     -0.02546005	     -2.86866905	     -8.02127484	      0.85167778	     -5.06890779	     -9.22010987	      1.22344447	 268541.10699115	      0.96101387	      4.39463836	      4.67072183	-606132.07190594	     -0.05224453	     -0.04791126	     -0.05934399	     -0.04716253	     -0.03991674	      0.14710150	     -0.38423843	      0.11983240	     -0.40004536
      4.42500000	 -66851.79984142	-1186466.83799047	 -17895.64617752	   -174.85524761	   1268.21584643	   1303.35552077	-103904.25071093	-458277.82728326	1072656.95007159	     29.39512610	     -4.61018493	     -2.25057620	    234.84636189	     -2.01613429	     11.11203728	-329502.40405245	     -0.02530561	      7.71080609	     -0.02626871	     -2.69528803	     -8.10257182	      0.78522488	     -4.87559307	     -8.93761472	      1.14324982	 278847.66939980	      0.94684018	      4.46149321	      4.79760080	-612370.44883756	     -0.05868295	     -0.05200233	     -0.06420747	     -0.04493086	     -0.03721566	      0.14408360	     -0.39280248	      0.12078416	     -0.42090612
      4.43000000	 -60131.50162010	-1197193.04989221	 -14875.79209163	   -163.69755304	   1278.08506189	   1308.39242940	 -95668.22119814	-478722.12763435	1073646.86372264	     29.76260078	     -6.04399590	     -1.96647551	    227.63761833	     -3.67451472	      9.99436075	-341188.34660044	     -0.02520229	      7.61358534	     -0.02722498	     -2.51754061	     -8.18941447	      0.71982818	     -4.64012966	     -8.60767269	      1.05901413	 290565.44517315	      0.92872570	      4.51834384	      4.92239189	-619331.74563700	     -0.07144160	     -0.05605798	     -0.06894212	     -0.04186686	     -0.03377975	      0.14087761	     -0.39992503	      0.12262648	     -0.44144069
      4.43500000	 -53068.96212929	-1211190.07820673	 -10911.74761934	   -149.61807225	   1288.29063318	   1315.75193317	 -86787.73818506	-500932.72438454	1076887.67639304	     30.13404642	     -7.75114296	     -1.54007156	    219.48147372	     -5.28565346	      8.64827121	-354822.59324397	     -0.02505226	      7.43539145	     -0.02833501	     -2.33931657	     -8.27900772	      0.65754335	     -4.36384916	     -8.24244592	      0.97242561	 303919.50154635	      0.90619927	      4.56488431	      5.04255174	-627566.37764966	     -0.09069726	     -0.06000861	     -0.07347223	     -0.03791387	     -0.02957024	      0.13771092	     -0.40559396	      0.12538761	     -0.46114725
      4.44000000	 -45385.57594978	-1227524.54503450	  -6304.18629691	   -132.60883537	   1298.70426040	   1324.20414910	 -76949.00904663	-525036.26844353	1081241.11911378	     30.48643539	     -9.72867210	     -0.97092651	    210.45395875	     -6.77105980	      7.11061722	-370426.61488544	     -0.02488159	      7.17092148	     -0.02959889	     -2.16490381	     -8.36823393	      0.60061490	     -4.04931919	     -7.85631970	      0.88533801	 319031.30087082	      0.87877909	      4.60123740	      5.15558548	-636949.09338210	     -0.11632778	     -0.06378189	     -0.07772702	     -0.03303079	     -0.02456819	      0.13485120	     -0.40985356	      0.12907523	     -0.47953865
      4.44500000	 -36862.16549579	-1244757.32923626	  -1390.34939331	   -112.80324006	   1309.12544394	   1332.12729941	 -65902.54070846	-550903.52853189	1085124.04805979	     30.78991430	    -11.96106692	     -0.26512481	    200.65120021	     -8.05736788	      5.42496137	-387786.55020809	     -0.02472726	      6.81863120	     -0.03100988	     -1.99892844	     -8.45396371	      0.55142831	     -3.70029871	     -7.46516693	      0.79968922	 335809.55640688	      0.84603431	      4.62795197	      5.25920879	-647124.46207974	     -0.14791002	     -0.06730489	     -0.08164375	     -0.02719759	     -0.01877964	      0.13259821	     -0.41279877	      0.13367739	     -0.49617472
      4.45000000	 -27940.45347427	-1261562.53792431	   3983.43223598	    -91.03892418	   1319.63244864	   1339.26291828	 -54069.08860814	-577898.44800408	1087455.43774219	     31.00800152	    -14.41960524	      0.56469182	    190.18661838	     -9.08214343	      3.63880236	-406083.81337530	     -0.02463826	      6.38190759	     -0.03255468	     -1.84621686	     -8.53331465	      0.51240406	     -3.32164676	     -7.08543054	      0.71742003	 353449.40229717	      0.80768823	      4.64597216	      5.35149351	-657405.43792120	     -0.18474966	     -0.07050757	     -0.08517013	     -0.02042084	     -0.01224159	      0.13126851	     -0.41457006	      0.13916550	     -0.51069291
      4.45500000	 -19066.62594638	-1277138.83275631	  10019.84831099	    -68.13636577	   1330.45675308	   1345.92143975	 -41908.91498884	-605491.83443313	1087679.19991008	     31.09864984	    -17.06240696	      1.49971966	    179.18673847	     -9.79861661	      1.80093374	-424657.71336738	     -0.02467618	      5.87006299	     -0.03421488	     -1.71155101	     -8.60381730	      0.48583812	     -2.91921143	     -6.73311842	      0.64040415	 371261.95367163	      0.76374808	      4.65661172	      5.43098851	-667326.57086520	     -0.22593814	     -0.07332734	     -0.08826587	     -0.01273909	     -0.00502744	      0.13117572	     -0.41535208	      0.14549864	     -0.52283387
      4.46000000	 -10060.95149657	-1292816.59935943	  16726.88711750	    -44.04431404	   1342.15337419	   1353.27850627	 -29318.70228094	-634330.35768068	1086804.26932055	     31.01637262	    -19.83511626	      2.51571674	    167.78596001	    -10.17886285	     -0.04068642	-444165.50447458	     -0.02489326	      5.29901147	     -0.03596849	     -1.59933303	     -8.66347894	      0.47371434	     -2.49968174	     -6.42282414	      0.57037967	 389815.26582364	      0.71463988	      4.66151782	      5.49678814	-677676.22293482	     -0.27042436	     -0.07571399	     -0.09090361	     -0.00422924	      0.00274923	      0.13260931	     -0.41537343	      0.15262653	     -0.53245740
      4.46500000	   -788.41634416	-1309673.25523993	  24097.66094002	    -18.82841352	   1355.15199169	   1362.17260318	 -16235.51727489	-665039.20788878	1085577.58970608	     30.71796390	    -22.66522353	      3.57934929	    156.12072541	    -10.21521577	     -1.84063293	-465133.60481842	     -0.02528539	      4.69141704	     -0.03771631	     -1.51323216	     -8.71076661	      0.47752648	     -2.07037689	     -6.16686572	      0.50887424	 409577.11967550	      0.66126835	      4.66257563	      5.54851695	-689167.59101614	     -0.31680024	     -0.07763306	     -0.09306866	      0.00498700	      0.01092939	      0.13581374	     -0.41489972	      0.16048927	     -0.53954482
      4.47000000	   8090.89143394	-1325519.18079145	  32091.61466078	      6.16185586	   1369.12339346	   1371.20908515	  -3361.03335767	-696568.38069915	1082256.92613141	     30.15886042	    -25.48462905	      4.66275562	    144.32348831	     -9.92000485	     -3.55745487	-486187.53227016	     -0.02597718	      4.07692251	     -0.03945578	     -1.45589827	     -8.74453051	      0.49814390	     -1.63898854	     -5.97460876	      0.45714098	 429255.48053133	      0.60536373	      4.66176812	      5.58623856	-700855.52614329	     -0.36422823	     -0.07906725	     -0.09475745	      0.01474571	      0.01931480	      0.14097053	     -0.41422042	      0.16901597	     -0.54418781
      4.47500000	  15963.29190386	-1338073.83826400	  40633.16367889	     29.55784717	   1383.66543778	   1378.95267538	   8613.41021129	-727636.67620078	1075122.18311068	     29.30349511	    -28.21597761	      5.73379511	    132.51702829	     -9.32376967	     -5.15486352	-505918.36623203	     -0.02705266	      3.49080757	     -0.04116114	     -1.42879022	     -8.76388187	      0.53573799	     -1.21334091	     -5.85201457	      0.41613729	 447518.78395873	      0.54944607	      4.66102715	      5.61031886	-711719.84853545	     -0.41183698	     -0.08001635	     -0.09597424	      0.02482952	      0.02765783	      0.14818595	     -0.41363373	      0.17812614	     -0.54656700
      4.48000000	  23194.74381908	-1348044.68433552	  49826.48258484	     51.21529596	   1398.95896887	   1386.09875105	  19937.79596015	-758354.52182191	1064750.16519583	     28.12778700	    -30.78089605	      6.76083653	    120.80993457	     -8.47206288	     -6.60251134	-524879.02985806	     -0.02859767	      2.97253355	     -0.04281811	     -1.43212585	     -8.76806103	      0.58977309	     -0.80123912	     -5.80144450	      0.38656873	 464829.06922731	      0.49696683	      4.66205667	      5.62125178	-722135.62551869	     -0.45901426	     -0.08049487	     -0.09672585	      0.03496612	      0.03566239	      0.15748384	     -0.41342611	      0.18773496	     -0.54692056
      4.48500000	  30437.23014067	-1356733.76868002	  59836.41713102	     71.38455466	   1415.19928895	   1393.90442398	  31154.59138812	-789196.77624572	1052112.62140059	     26.62365988	    -33.10235467	      7.71354810	    109.29366709	     -7.42126593	     -7.87624609	-544111.10152093	     -0.03069605	      2.56343163	     -0.04442847	     -1.46496420	     -8.75632296	      0.65907430	     -0.41040496	     -5.82172128	      0.36897806	 482107.47975929	      0.45229604	      4.66612068	      5.61945798	-732770.90562683	     -0.50542332	     -0.08052689	     -0.09701547	      0.04482585	      0.04298688	      0.16880486	     -0.41384424	      0.19775983	     -0.54550525
      4.49000000	  38479.24553297	-1364790.59260727	  70741.14677385	     90.64387880	   1432.18291587	   1403.81330267	  42953.76076596	-820398.82928822	1037553.44910223	     24.80278780	    -35.10696199	      8.56342259	     98.04091249	     -6.23406471	     -8.95802045	-564543.07216513	     -0.03342532	      2.30385058	     -0.04601362	     -1.52543039	     -8.72784902	      0.74197741	     -0.04839630	     -5.90838597	      0.36381545	 500213.82599756	      0.42059674	      4.67383819	      5.60509997	-744016.34761833	     -0.55097124	     -0.08013878	     -0.09683762	      0.05402318	      0.04925145	      0.18201428	     -0.41506411	      0.20812329	     -0.54255794
      4.49500000	  47691.17519498	-1372435.31365830	  82571.27174416	    109.18297796	   1449.67775046	   1416.75141047	  55614.02967626	-851994.13659701	1021172.38065870	     22.69866927	    -36.72755451	      9.28427054	     87.10492372	     -4.97487932	     -9.83576701	-586543.14014409	     -0.03694573	      2.22995764	     -0.04761638	     -1.61107383	     -8.68173293	      0.83654772	      0.27757658	     -6.05408269	      0.37144704	 519494.31648452	      0.40759298	      4.68501911	      5.57796628	-756102.28437651	     -0.59574724	     -0.07935085	     -0.09617631	      0.06211846	      0.05404919	      0.19691795	     -0.41716266	      0.21875063	     -0.53826688
      4.50000000	  56699.65163596	-1378920.03490791	  95245.97773271	    125.17109572	   1467.89597081	   1431.57071268	  67669.85961121	-883441.50424957	1002817.45807462	     20.37531437	    -37.89324487	      9.84511469	     76.51995578	     -3.70524805	    -10.50319240	-608440.48092236	     -0.04169021	      2.36982558	     -0.04939955	     -1.71933627	     -8.61707962	      0.94085118	      0.56088995	     -6.24905332	      0.39212292	 538389.61547687	      0.41914566	      4.69855742	      5.53745233	-768928.94499277	     -0.63943589	     -0.07816849	     -0.09500605	      0.06862312	      0.05695501	      0.21328546	     -0.42009485	      0.22956514	     -0.53275646
      4.50500000	  64176.90600398	-1383424.49170482	 108663.60640284	    136.90129940	   1486.97126462	   1447.05159412	  77705.32915183	-914071.20628660	 982342.80184358	     17.92592413	    -38.53224873	     10.21187063	     66.30323081	     -2.47932516	    -10.95924967	-628570.62555617	     -0.04757840	      2.74024684	     -0.05172049	     -1.84801713	     -8.53314330	      1.05321291	      0.79571920	     -6.48171766	      0.42593508	 555346.42044057	      0.46084777	      4.71241022	      5.48262518	-782329.67072459	     -0.68123764	     -0.07657508	     -0.09329535	      0.07305119	      0.05754374	      0.23087497	     -0.42368149	      0.24048315	     -0.52608344
      4.51000000	  70625.74584585	-1385703.82967639	 122857.52640059	    145.12108383	   1506.50534325	   1463.40901744	  86153.49838099	-943433.25488355	 959655.98819279	     15.43474073	    -38.62646259	     10.37892195	     56.45858672	     -1.33987637	    -11.20735499	-647162.57682710	     -0.05470349	      3.34513763	     -0.05461443	     -1.99555783	     -8.42937507	      1.17235733	      0.97723411	     -6.73926284	      0.47276092	 570637.20432297	      0.53792640	      4.72368936	      5.41233708	-796149.40205254	     -0.72183142	     -0.07452993	     -0.09101168	      0.07490605	      0.05543599	      0.24944896	     -0.42761394	      0.25140769	     -0.51824123
      4.51500000	  76807.30416590	-1385659.58720535	 137750.07842036	    151.01309607	   1525.59085388	   1480.86204450	  93722.22238204	-971220.25601656	 934671.29112750	     13.01270567	    -38.15379910	     10.33346928	     46.98112439	     -0.31533727	    -11.25457726	-664710.05651450	     -0.06312943	      4.17042258	     -0.05824481	     -2.16109835	     -8.30535312	      1.29740778	      1.10179661	     -7.00819041	      0.53219210	 584836.62553523	      0.65426511	      4.72885007	      5.32535926	-810318.19358775	     -0.76086015	     -0.07197200	     -0.08812730	      0.07372030	      0.05029521	      0.26877793	     -0.43147453	      0.26222106	     -0.50916989
      4.52000000	  82745.18568172	-1383295.44448267	 152741.66168044	    154.71371247	   1542.03905672	   1498.16078122	 100395.19079848	-997500.60859711	 907221.72951266	     10.77796993	    -37.11086356	     10.06923934	     37.86183566	      0.58140195	    -11.11095274	-681051.51221284	     -0.07247140	      5.18327423	     -0.06276779	     -2.34438779	     -8.16067486	      1.42780493	      1.16711774	     -7.27483849	      0.60348134	 597992.47461484	      0.81202067	      4.72393293	      5.22051672	-825222.73949840	     -0.79764770	     -0.06882722	     -0.08462455	      0.06905794	      0.04186478	      0.28863724	     -0.43476552	      0.27277996	     -0.49876979
      4.52500000	  88459.28380202	-1378741.51255067	 167245.61258036	    156.36080905	   1553.46288872	   1514.03879696	 106179.57454613	-1022359.16007197	 877211.04806593	      8.86790301	    -35.47422311	      9.56823913	     29.09177714	      1.35205556	    -10.78904414	-696003.14732552	     -0.08163092	      6.33307818	     -0.06809581	     -2.54557401	     -7.99485801	      1.56316913	      1.17235506	     -7.52589353	      0.68552479	 610193.78828082	      1.01079170	      4.70483548	      5.09680621	-841217.71776776	     -0.82962734	     -0.06501813	     -0.08049955	      0.06059484	      0.02997733	      0.30879940	     -0.43694297	      0.28291505	     -0.48691661
      4.53000000	  94654.80802050	-1372393.19924819	 181248.00473836	    156.88049954	   1558.25361704	   1528.54019776	 111803.81816035	-1045714.65324946	 844939.98979620	      7.41807392	    -33.22660314	      8.81798219	     20.66579449	      2.00981802	    -10.30371131	-710158.92250947	     -0.09023325	      7.55353264	     -0.07331832	     -2.76484167	     -7.80725450	      1.70310189	      1.11817290	     -7.74886033	      0.77686606	 622147.05395284	      1.24747152	      4.66759526	      4.95347588	-858248.66680358	     -0.85324444	     -0.06047552	     -0.07576453	      0.04817392	      0.01459078	      0.32902112	     -0.43745341	      0.29243279	     -0.47347487
      4.53500000	 101835.84222807	-1364586.59707789	 194872.10098970	    157.08723051	   1555.12656147	   1541.45843289	 117816.27906971	-1067401.89641716	 810856.85924281	      6.49130300	    -30.48722982	      7.87165306	     12.58550732	      2.57436078	     -9.67195547	-723913.43915930	     -0.09781299	      8.76242486	     -0.07820648	     -3.00192206	     -7.59698625	      1.84694680	      1.00671284	     -7.93244476	      0.87573880	 634342.98049453	      1.51698494	      4.60865123	      4.79006644	-876084.61334536	     -0.86872634	     -0.05515072	     -0.07044790	      0.03178472	     -0.00412583	      0.34902647	     -0.43576934	      0.30112090	     -0.45830886
      4.54000000	 109049.37716550	-1355196.05075939	 208164.98490548	    156.73516853	   1543.46174316	   1551.40875298	 123319.81158184	-1086957.06551625	 775532.17736088	      6.14819088	    -27.34167722	      6.76619529	      4.86087178	      3.06558915	     -8.91284055	-736121.28407204	     -0.10501114	      9.87266377	     -0.08245615	     -3.25554307	     -7.36286533	      1.99353884	      0.84140026	     -8.06682497	      0.98018560	 645807.87998341	      1.81077360	      4.52507945	      4.60644379	-894345.64076224	     -0.87394453	     -0.04902781	     -0.06459179	      0.01156393	     -0.02585031	      0.36848873	     -0.43142336	      0.30876265	     -0.44129348
      4.54500000	 115144.46410106	-1343711.49364776	 220922.87539299	    155.30363261	   1522.67991639	   1556.84326181	 127230.42542199	-1103700.74440674	 739251.53216630	      6.45861563	    -23.79851484	      5.51167442	     -2.49024958	      3.49693084	     -8.04752684	-745243.90405988	     -0.11285235	     10.79388866	     -0.08631446	     -3.52291349	     -7.10327904	      2.14098847	      0.62666646	     -8.14382757	      1.08821540	 655269.66766322	      2.11672205	      4.41481548	      4.40282782	-912464.65467197	     -0.86321226	     -0.04213455	     -0.05824801	     -0.01206157	     -0.05010433	      0.38701683	     -0.42404263	      0.31515659	     -0.42232619
      4.55000000	 119618.21602827	-1328554.67779998	 232064.71554057	    152.59638417	   1491.77884871	   1554.55446254	 129117.12451781	-1116296.27932841	 701011.22731552	      7.41782379	    -19.94203537	      4.15989391	     -9.44432459	      3.86892802	     -7.09933419	-749917.16180145	     -0.12110118	     11.45421878	     -0.09121068	     -3.79939043	     -6.81615575	      2.28658598	      0.36773945	     -8.15703352	      1.19791403	 661666.35823234	      2.42053318	      4.27683094	      4.17978530	-929291.15319957	     -0.83304333	     -0.03454865	     -0.05147446	     -0.03843563	     -0.07619372	      0.40415532	     -0.41337711	      0.32013129	     -0.40133727
      4.55500000	 122110.98344280	-1308149.36876676	 240598.40738675	    148.48408112	   1449.77693602	   1541.22293563	 128721.25588911	-1123162.85570956	 660015.68840665	      8.90520990	    -16.00086539	      2.81935897	    -15.97525501	      4.16431624	     -6.09373364	-748896.53418094	     -0.12773592	     11.81157432	     -0.09705677	     -4.07845562	     -6.49913898	      2.42687744	      0.07050399	     -8.10181247	      1.30749917	 663972.66925597	      2.70684337	      4.11120194	      3.93818396	-943289.96432777	     -0.78508191	     -0.02639663	     -0.04433240	     -0.06676250	     -0.10318944	      0.41940138	     -0.39931232	      0.32355265	     -0.37829619
      4.56000000	 122187.92042040	-1281892.19879545	 246850.89049163	    142.83281257	   1396.09229280	   1516.16085694	 125744.09902517	-1123029.34605982	 617182.44091409	     10.80502091	    -12.09702378	      1.55511142	    -22.05758182	      4.34600434	     -5.05821891	-741233.24601132	     -0.12915649	     11.85015081	     -0.10339438	     -4.35199079	     -6.14995476	      2.55787076	     -0.25867470	     -7.97530130	      1.41537728	 661301.24637035	      2.95859544	      3.91904183	      3.67913978	-952833.80293203	     -0.71782885	     -0.01784628	     -0.03688361	     -0.09600930	     -0.13005352	      0.43223161	     -0.38186416	      0.32533074	     -0.35321457
      4.56500000	 119500.62130526	-1249030.11058614	 251105.60503344	    135.37095580	   1330.38675377	   1479.32038033	 119981.03906832	-1114609.43362443	 573422.06569592	     13.06647110	     -8.12624583	      0.36470595	    -27.66945885	      4.35870147	     -4.02203922	-726113.71940980	     -0.12668634	     11.60120958	     -0.10550155	     -4.61077160	     -5.76685716	      2.67530299	     -0.61319049	     -7.77637629	      1.52022697	 652777.80446151	      3.15794223	      3.70233420	      3.40397765	-956207.13490226	     -0.62319580	     -0.00909537	     -0.02918691	     -0.12483720	     -0.15577355	      0.44213132	     -0.36116195	      0.32542941	     -0.32614642
      4.57000000	 114107.21601699	-1207282.84206403	 252243.00811025	    125.50679615	   1252.33368071	   1427.33814449	 111637.02242469	-1095643.22175947	 527917.30032617	     15.36394235	     -4.46197954	     -0.61112625	    -32.79487709	      4.13427587	     -3.01562669	-702460.17696282	     -0.12131599	     11.10639372	     -0.10457659	     -4.84513072	     -5.34901800	      2.77494044	     -0.98646099	     -7.50565441	      1.62108811	 637321.45832486	      3.29036936	      3.46373638	      3.11421341	-950933.31941260	     -0.51128197	     -0.00035844	     -0.02129479	     -0.15194512	     -0.17897955	      0.44862553	     -0.33742856	      0.32387662	     -0.29718701
      4.57500000	 106159.40991379	-1154462.38589816	 249148.32773825	    112.93434336	   1162.15917831	   1357.66137668	 101025.30329212	-1063856.54242916	 480037.99589533	     17.47810081	     -1.22307842	     -1.33157568	    -37.42469416	      3.60065086	     -2.06939539	-669348.04476247	     -0.11681612	     10.45257911	     -0.10076560	     -5.04573537	     -4.89676815	      2.85289713	     -1.37219480	     -7.16551698	      1.71743092	 613900.90865754	      3.34313162	      3.20640413	      2.81158157	-934421.31857448	     -0.38556400	      0.00814751	     -0.01325157	     -0.17609184	     -0.19846856	      0.45131253	     -0.31096379	      0.32077240	     -0.26647416
      4.58000000	  95858.37516800	-1090405.36434211	 242045.37956868	     97.56113649	   1061.58140583	   1272.64313559	  88501.27104065	-1018632.47542424	 430956.12685379	     19.31495596	      1.68112192	     -1.82077856	    -41.55648883	      2.69334298	     -1.21200100	-627026.88673951	     -0.11127962	      9.74310411	     -0.09712220	     -5.20436980	     -4.41170453	      2.90593023	     -1.76464514	     -6.76010219	      1.80919602	 582321.42038294	      3.30641001	      2.93384237	      2.49813294	-905385.55725205	     -0.24430168	      0.01621690	     -0.00509396	     -0.19604443	     -0.21323175	      0.44989535	     -0.28213183	      0.31629409	     -0.23419573
      4.58500000	  83248.89214095	-1015312.68109033	 231183.65640773	     78.99880051	    953.07185313	   1173.81875456	  74233.89720244	-959898.88495390	 381840.36682932	     20.59781565	      4.04168814	     -2.04187912	    -45.19324806	      1.36790461	     -0.46866157	-575954.57205132	     -0.10454038	      9.10131079	     -0.09324373	     -5.31464149	     -3.89673536	      2.93167883	     -2.15880888	     -6.29519361	      1.89679888	 542473.15822666	      3.17760297	      2.64976996	      2.17638973	-863187.43312542	     -0.09875296	      0.02366748	      0.00314639	     -0.21089821	     -0.22233892	      0.44420586	     -0.25135060	      0.31069861	     -0.20060246
      4.59000000	  67359.31175038	-927766.68853340	 215522.70431106	     55.92146144	    839.23715149	   1057.18095750	  57355.02459486	-886340.74320975	 332360.37968512	     21.16686411	      5.78472843	     -2.01472066	    -48.34108782	     -0.38866529	      0.14008919	-515041.49600524	     -0.09476709	      8.63551925	     -0.08847211	     -5.37262371	     -3.35610644	      2.92886868	     -2.55050980	     -5.77800156	      1.98107672	 492735.96090508	      2.95954794	      2.35800962	      1.84950983	-806512.11507672	      0.04275687	      0.03035029	      0.01143855	     -0.22019493	     -0.22521620	      0.43422404	     -0.21908212	      0.30431782	     -0.16602175
      4.59500000	  48096.58577342	-823410.71511713	 193816.07027077	     28.33484783	    722.73108936	    919.64859952	  37881.76529579	-793753.37330782	 281328.04015807	     21.00337709	      7.00637427	     -1.80150609	    -51.00686535	     -2.54935023	      0.59920891	-442608.87151459	     -0.08347414	      8.42998226	     -0.08197392	     -5.37737753	     -2.79542904	      2.89748341	     -2.93631966	     -5.21691262	      2.06316001	 430855.77461511	      2.66039176	      2.06241142	      1.52140130	-731171.50524822	      0.17667450	      0.03615744	      0.01974659	     -0.22369940	     -0.22174175	      0.42009369	     -0.18582414	      0.29754369	     -0.13086732
      4.60000000	  31610.67557522	-693976.24606775	 165520.89818926	      3.29532406	    604.82102374	    764.85220044	  22103.62562361	-674018.95962962	 226824.40350992	     20.13879848	      7.80281724	     -1.46273021	    -53.19638246	     -5.04301007	      0.89949246	-360818.24239215	     -0.07186102	      8.52860426	     -0.07310016	     -5.33113118	     -2.22168348	      2.83881384	     -3.31328948	     -4.62119857	      2.14425981	 358035.52657251	      2.29413039	      1.76680190	      1.19675886	-627745.97510115	      0.29908373	      0.04102552	      0.02802275	     -0.22167973	     -0.21220864	      0.40212500	     -0.15210357	      0.29080163	     -0.09564282
      4.60500000	  24090.78714149	-545049.36898091	 132352.57770477	    -13.67894646	    486.58445057	    598.56070422	  16116.55861483	-532693.61809563	 170758.69025892	     18.55022893	      8.05280411	     -1.03264761	    -54.91326796	     -7.75573829	      1.03757294	-278892.51603070	     -0.06044686	      8.91985636	     -0.06377222	     -5.23897766	     -1.64312888	      2.75532861	     -3.67852633	     -4.00058072	      2.22537607	 282215.23387273	      1.88111454	      1.47495979	      0.88104368	-499731.75516834	      0.39895694	      0.04493320	      0.03619936	     -0.21484279	     -0.19722759	      0.38077787	     -0.11847285	      0.28451325	     -0.06094280
      4.61000000	  20692.88799389	-407266.78658943	  99414.50099563	    -29.99183789	    369.10853844	    430.10974345	  14511.95404403	-400216.75064821	 121252.65131056	     16.37447143	      7.85316314	     -0.57208828	    -56.15863822	    -10.53775184	      1.01589518	-207912.81593748	     -0.04969115	      9.55585023	     -0.05447386	     -5.10817521	     -1.06911643	      2.65041201	     -4.02877508	     -3.36469609	      2.30699642	 214203.68279422	      1.44366771	      1.19061216	      0.58040978	-377267.56338629	      0.47389230	      0.04789452	      0.04418113	     -0.20420751	     -0.17789190	      0.35663170	     -0.08550696	      0.27905554	     -0.02745048
      4.61500000	  13242.30013039	-280419.03270822	  68147.59097851	    -52.73025117	    254.50884853	    270.40726566	   8948.45662468	-276769.37994173	  79606.74917085	     13.78483110	      7.30243870	     -0.12935429	    -56.93181019	    -13.21526517	      0.84274277	-140230.37820645	     -0.03976211	     10.34926671	     -0.04554231	     -4.94717963	     -0.50988123	      2.52802011	     -4.36017351	     -2.72270272	      2.38888885	 147123.93742131	      1.00549409	      0.91741645	      0.30150503	-262658.20777998	      0.52316790	      0.04994988	      0.05184201	     -0.19099018	     -0.15557604	      0.33034612	     -0.05379627	      0.27472624	      0.00407911
      4.62000000	   3355.70782335	-150694.79751332	  39060.90101091	    -74.98318340	    149.56411154	    133.94858734	   1101.55966905	-149081.53886483	  44097.94347412	     10.96434172	      6.46888314	      0.26280085	    -57.23207884	    -15.60648531	      0.53203393	 -70428.63547181	     -0.03078909	     11.18380765	     -0.03728421	     -4.76451696	      0.02365657	      2.39227814	     -4.66820417	     -2.08314467	      2.47002755	  75823.52376290	      0.58987081	      0.65890217	      0.05108899	-142953.33971957	      0.54687874	      0.05115547	      0.05902920	     -0.17645016	     -0.13179039	      0.30261335	     -0.02393154	      0.27171907	      0.03285908
      4.62500000	      7.11000815	 -58519.30724855	  17975.20229449	    -88.57043855	     60.96833709	     34.02725357	   -804.78164598	 -57939.92626165	  19560.60866114	      8.10792196	      5.42074876	      0.58376942	    -57.06091605	    -17.54022945	      0.10275205	 -25297.66405905	     -0.02293362	     11.93102817	     -0.02966387	     -4.56767220	      0.52015855	      2.24707189	     -4.94778413	     -1.45393075	      2.54861592	  28189.29344620	      0.21751300	      0.41838928	     -0.16446323	 -56037.87252469	      0.54693140	      0.05157232	      0.06557221	     -0.16174113	     -0.10804692	      0.27410803	      0.00351720	      0.27010716	      0.05812513
      4.63000000	    134.52735850	 -16849.45002009	   5701.65847813	    -94.30743540	     -8.38776219	    -24.02433830	    -51.94666803	 -16698.41126289	   6011.80321156	      5.38062486	      4.16363930	      0.82545097	    -56.42370662	    -18.87472057	     -0.42156935	  -7210.28490075	     -0.01626295	     12.46365843	     -0.02282720	     -4.36218943	      0.96826991	      2.09571401	     -5.19348527	     -0.84227676	      2.62216998	   8206.80482279	     -0.09448071	      0.19890869	     -0.33964522	 -16199.47174411	      0.52459319	      0.05125721	      0.07129331	     -0.14780166	     -0.08569397	      0.24544474	      0.02802452	      0.26983368	      0.07918856
      4.63500000	     31.71939636	  -2410.81666369	    734.88566397	    -95.25750054	    -58.73679452	    -41.20135586	     43.93118530	  -2376.27925722	    764.07943206	      2.91972756	      2.66876776	      0.98665628	    -55.33073643	    -19.51390619	     -1.01292984	  -1049.68068081	     -0.01075669	     12.67148586	     -0.01687338	     -4.15111262	      1.35708150	      1.94074722	     -5.39989010	     -0.25464292	      2.68765210	   1202.07346832	     -0.33380937	      0.00311157	     -0.47023688	  -2321.44879860	      0.48099552	      0.05025802	      0.07601779	     -0.13528757	     -0.06581952	      0.21715104	      0.04913595	      0.27070919	      0.09548133
      4.64000000	    -22.67455117	    -12.91159673	     -1.18997283	    -94.26498460	    -97.75547520	    -35.34165355	     17.01451413	      8.92634271	      0.08857349	      0.83135501	      0.88983744	      1.07009509	    -53.79757741	    -19.41937347	     -1.63906372	      5.67427540	     -0.00632892	     12.47287008	     -0.01184248	     -3.93483839	      1.67655942	      1.78389929	     -5.56198282	      0.30326010	      2.74164073	      0.37444680	     -0.49351732	     -0.16685819	     -0.55366910	      0.55225580	      0.41718727	      0.04861417	      0.07958468	     -0.12455537	     -0.04918712	      0.18965549	      0.06649783	      0.27241592	      0.10659607
      4.64500000	    -17.81259492	    -97.72684725	     21.08707153	    -93.32066374	   -132.65540847	    -24.98135737	     18.30982664	    -78.19903864	     22.46043295	     -0.80901460	     -1.21378143	      1.08064647	    -51.84501717	    -18.61639026	     -2.26461610	    -32.95718996	     -0.00285648	     11.82192195	     -0.00772071	     -3.71139619	      1.91799413	      1.62616451	     -5.67544976	      0.82638200	      2.78052281	     42.21002758	     -0.57208851	     -0.30951506	     -0.58933457	    -78.69560743	      0.33444098	      0.04636068	      0.08185848	     -0.11568783	     -0.03621449	      0.16328606	      0.07988759	      0.27452025	      0.11232289
      4.65000000	    -20.30524592	    -17.63337834	     -0.96826233	    -90.91150272	   -160.37158527	    -14.38873715	     13.64411453	     -2.34456407	     -0.01759135	     -1.95315965	     -3.65235928	      1.02471102	    -49.49879532	    -17.19265116	     -2.85313989	      2.17909344	     -0.00020497	     10.71110277	     -0.00445316	     -3.47710314	      2.07458375	      1.46798685	     -5.73688993	      1.31018267	      2.80071445	      0.54609914	     -0.57313545	     -0.42414214	     -0.57878251	      0.17238077	      0.23471621	      0.04353396	      0.08274083	     -0.10854649	     -0.02699091	      0.13827818	      0.08923526	      0.27649587	      0.11267787
      4.65500000	    -18.56565849	    -22.89263054	      0.76691295	    -85.24239507	   -176.82516812	     -4.23061618	     12.36424889	    -12.51542411	      1.40752241	     -2.57549627	     -6.38596128	      0.91007461	    -46.78939078	    -15.28923006	     -3.36922622	     -1.83507453	      0.00175227	      9.16951496	     -0.00195819	     -3.22749337	      2.14212749	      1.30952529	     -5.74396309	      1.75048239	      2.79889196	      3.17483491	     -0.50472157	     -0.51081262	     -0.52572936	     -5.31027377	      0.12109817	      0.04017781	      0.08217917	     -0.10283662	     -0.02132554	      0.11479382	      0.09462874	      0.27775614	      0.10791531
      4.66000000	    -15.94599402	    -16.18158008	     -0.24514100	    -76.62549064	   -183.67540761	      4.79870859	     11.88304584	    -11.35313924	     -0.15381821	     -2.66887494	     -9.31474947	      0.74563809	    -43.75212360	    -13.08493154	     -3.78067038	     -1.74684588	      0.00312379	      7.25767463	     -0.00013993	     -2.95838621	      2.11963765	      1.15095837	     -5.69541889	      2.14336973	      2.77218737	      0.81452854	     -0.37838671	     -0.57035801	     -0.43589112	     -0.15379389	     -0.00196222	      0.03634903	      0.08017119	     -0.09817402	     -0.01881549	      0.09294650	      0.09630627	      0.27768987	      0.09852212
      4.66500000	    -12.78899081	    -14.14439609	      0.36762584	    -65.83799604	   -183.63069342	     12.17289381	     11.66651631	    -15.16525547	     -0.07270596	     -2.24201161	    -12.28228533	      0.54066246	    -40.42808489	    -10.77622709	     -4.06076068	     -3.95755197	      0.00399703	      5.05993800	      0.00110245	     -2.66692336	      2.00972529	      0.99276708	     -5.59100481	      2.48518015	      2.71834234	      1.25423272	     -0.20798980	     -0.60433234	     -0.31667512	     -0.77851700	     -0.12871899	      0.03212200	      0.07676595	     -0.09414630	     -0.01892013	      0.07282456	      0.09464182	      0.27569854	      0.08519700
      4.67000000	     -9.28825927	    -10.36668786	      0.69819928	    -53.20889716	   -177.84157853	     17.63491906	     11.52687841	    -17.07663852	     -0.25865472	     -1.31911666	    -15.09172372	      0.30364698	    -36.86600324	     -8.55505576	     -4.19031204	     -5.45916223	      0.00444067	      2.67585332	      0.00186807	     -2.35242288	      1.81876582	      0.83595108	     -5.43137021	      2.77255068	      2.63585829	      1.07968579	     -0.00849685	     -0.61495861	     -0.17674052	     -0.39310976	     -0.25253749	      0.02759194	      0.07206280	     -0.09036296	     -0.02103022	      0.05450992	      0.09012261	      0.27123802	      0.06881422
      4.67500000	     -5.23295973	     -6.98334714	      1.15994920	    -39.03939831	   -167.08563964	     21.15187498	     11.69072751	    -18.72245027	     -0.30584037	      0.05854176	    -17.53196603	      0.04129792	    -33.12416844	     -6.58696207	     -4.15889629	     -7.04263416	      0.00451000	      0.21154482	      0.00224967	     -2.01695253	      1.55686763	      0.68215511	     -5.21804775	      3.00256552	      2.52414613	      1.17491557	      0.20516699	     -0.60502605	     -0.02545017	     -0.48345087	     -0.36657110	      0.02287573	      0.06620789	     -0.08649012	     -0.02452506	      0.03809210	      0.08331695	      0.26386186	      0.05037347
      4.68000000	     -0.79335455	     -3.96136343	      1.58259120	    -23.83075166	   -152.43043304	     22.86409127	     12.03475648	    -19.67941805	     -0.36513788	      1.83035134	    -19.40877778	     -0.24189335	    -29.27133117	     -4.99260273	     -3.96503099	     -8.42045682	      0.00425312	     -2.22811511	      0.00233043	     -1.66553996	      1.23761503	      0.53367988	     -4.95347324	      3.17298137	      2.38362636	      1.26917356	      0.41910459	     -0.57774392	      0.12771374	     -0.54099065	     -0.46457224	      0.01810964	      0.05938757	     -0.08226803	     -0.02881484	      0.02367445	      0.07483594	      0.25325688	      0.03094193
      4.68500000	      3.77960417	     -1.69262326	      1.94676928	     -8.15768548	   -134.91079234	     23.04810242	     12.39275822	    -20.07711569	     -0.43506228	      3.91510729	    -20.57503392	     -0.54315494	    -25.38616176	     -3.83573810	     -3.61551791	     -9.50676545	      0.00371691	     -4.54613592	      0.00218207	     -1.30595626	      0.87755441	      0.39335486	     -4.64099911	      3.28248557	      2.21575293	      1.33022980	      0.62121163	     -0.53658348	      0.27369736	     -0.59276311	     -0.54167465	      0.01344326	      0.05181939	     -0.07751306	     -0.03336865	      0.01136867	      0.06529540	      0.23926543	      0.01159491
      4.69000000	      8.26452274	     -0.39398668	      2.23660064	      7.40922362	   -115.36812479	     22.06380427	     12.66711251	    -20.01832349	     -0.52908400	      6.21212438	    -20.95451193	     -0.86008862	    -21.55525027	     -3.11966952	     -3.12427395	    -10.26349368	      0.00295203	     -6.65854042	      0.00186418	     -0.94808576	      0.49543077	      0.26428524	     -4.28493200	      3.33093739	      2.02298958	      1.34379636	      0.80168040	     -0.48512666	      0.40435281	     -0.61010510	     -0.59499727	      0.00903032	      0.04374200	     -0.07210951	     -0.03773005	      0.00127797	      0.05528260	      0.22189743	     -0.00664197
      4.69500000	     12.43153230	     -0.16796781	      2.46022841	     22.29551103	    -94.56622830	     20.29174558	     12.77798093	    -19.65819277	     -0.64147748	      8.60496894	    -20.55482696	     -1.18888565	    -17.86961524	     -2.79223572	     -2.51084875	    -10.69793809	      0.00201651	     -8.49769727	      0.00142502	     -0.60296276	      0.11121927	      0.14951391	     -3.89062407	      3.31955779	      1.80876572	      1.33178051	      0.95321617	     -0.42691688	      0.51283643	     -0.61977880	     -0.62395753	      0.00501736	      0.03540493	     -0.06599758	     -0.04152163	     -0.00652647	      0.04532793	      0.20133507	     -0.02284745
      4.70000000	     16.02711668	     -0.90839134	      2.61846071	     35.93868782	    -73.26489299	     18.08027354	     12.63256250	    -19.10075972	     -0.77049923	     10.96744348	    -19.46721915	     -1.52270256	    -14.41986492	     -2.75808729	     -1.79872504	    -10.80065277	      0.00097717	    -10.01380171	      0.00090361	     -0.28161219	     -0.25500725	      0.05165742	     -3.46458955	      3.25105998	      1.57740523	      1.29210790	      1.07098000	     -0.36531490	      0.59391327	     -0.62068258	     -0.63023819	      0.00153207	      0.02705822	     -0.05916251	     -0.04444094	     -0.01202973	      0.03588252	      0.17792921	     -0.03625347
      4.70500000	     18.81283299	     -2.36366532	      2.71147275	     47.83218182	    -52.21026909	     15.70986119	     12.14954963	    -18.42383218	     -0.91124120	     13.17133873	    -17.85344876	     -1.85078353	    -11.29045557	     -2.89612811	     -1.01356553	    -10.57043331	     -0.00009166	    -11.17484687	      0.00033252	      0.00611662	     -0.58432083	     -0.02741595	     -3.01458905	      3.12974010	      1.33401023	      1.22128796	      1.15233121	     -0.30337551	      0.64414886	     -0.61095596	     -0.61741877	     -0.00132680	      0.01894225	     -0.05162662	     -0.04625273	     -0.01529217	      0.02730396	      0.15218528	     -0.04628388
      4.71000000	     20.59641261	     -4.19457066	      2.73943083	     57.55818529	    -32.11998888	     13.37364857	     11.27573703	    -17.68365670	     -1.05505506	     15.09518223	    -15.92225229	     -2.15869020	     -8.55364285	     -3.07931614	     -0.18167876	    -10.02383533	     -0.00111219	    -11.96556424	     -0.00025936	      0.25254640	     -0.86017475	     -0.08681987	     -2.54959991	      2.96151154	      1.08428114	      1.12191606	      1.19647040	     -0.24375590	      0.66198236	     -0.59281461	     -0.59034125	     -0.00349673	      0.01127816	     -0.04344474	     -0.04678271	     -0.01646055	      0.01985085	      0.12473756	     -0.05258034
      4.71500000	     21.24641267	     -6.02926959	      2.70041074	     64.80326607	    -13.67125701	     11.17376232	      9.98740491	    -16.91187900	     -1.19139407	     16.63296825	    -13.89935086	     -2.42963971	     -6.26385701	     -3.19358729	      0.67102522	     -9.19010890	     -0.00200891	    -12.38571352	     -0.00084497	      0.45287279	     -1.06948463	     -0.12677364	     -2.07956820	      2.75380377	      0.83425425	      0.99841639	      1.20406581	     -0.18865799	      0.64768861	     -0.56916580	     -0.55432203	     -0.00495531	      0.00425894	     -0.03470250	     -0.04591569	     -0.01577066	      0.01368549	      0.09631227	     -0.05501483
      4.72000000	     20.70294547	     -7.52023894	      2.59039395	     69.36918738	      2.52622752	      9.13430498	      8.29111769	    -16.11687420	     -1.30953382	     17.70194516	    -11.99581585	     -2.64660046	     -4.45334943	     -3.15289561	      1.51950860	     -8.10742060	     -0.00271498	    -12.44803629	     -0.00139842	      0.60547789	     -1.20342723	     -0.14859685	     -1.61490348	      2.51528591	      0.58996218	      0.85433203	      1.17691335	     -0.13979326	      0.60324446	     -0.54098333	     -0.51434432	     -0.00572069	     -0.00195885	     -0.02551669	     -0.04359746	     -0.01353970	      0.00888180	      0.06768192	     -0.05368891
      4.72500000	     18.98471146	     -8.39756613	      2.40629697	     71.18190747	     15.96918388	      7.22860714	      6.22521929	    -15.29194159	     -1.39912391	     18.24858915	    -10.37976165	     -2.79455942	     -3.12987648	     -2.90827806	      2.33968700	     -6.82279770	     -0.00317832	    -12.17614164	     -0.00189541	      0.71182760	     -1.25787549	     -0.15457143	     -1.16580572	      2.25544935	      0.35706660	      0.69352169	      1.11766053	     -0.09834849	      0.53212499	     -0.50853723	     -0.47436293	     -0.00584858	     -0.00726195	     -0.01603561	     -0.03983866	     -0.01014727	      0.00543440	      0.03961742	     -0.04892017
      4.73000000	     16.18736994	     -8.50528609	      2.14930952	     70.29416560	     26.30079250	      5.41262056	      3.85752301	    -14.42379774	     -1.45077802	     18.25198451	     -9.15590055	     -2.86235103	     -2.27682404	     -2.45026861	      3.10845888	     -5.39067886	     -0.00336677	    -11.60247457	     -0.00231462	      0.77602928	     -1.23346020	     -0.14770371	     -0.74157511	      1.98408808	      0.14052770	      0.52075270	      1.02960720	     -0.06494805	      0.43906174	     -0.47211231	     -0.43682993	     -0.00542660	     -0.01158511	     -0.00643789	     -0.03471817	     -0.00600749	      0.00326623	      0.01284486	     -0.04121808
      4.73500000	     12.47319032	     -7.81587882	      1.82720037	     66.88010139	     33.34665765	      3.65451721	      1.27901817	    -13.49965050	     -1.45682913	     17.72428279	     -8.35618450	     -2.84367880	     -1.85555935	     -1.80536620	      3.80397863	     -3.86973589	     -0.00327153	    -10.76641693	     -0.00263983	      0.80416728	     -1.13531516	     -0.13142635	     -0.35002491	      1.71071252	     -0.05564748	      0.34126825	      0.91657841	     -0.03963010	      0.32978101	     -0.43187299	     -0.40250995	     -0.00456642	     -0.01491310	      0.00307162	     -0.02838390	     -0.00153639	      0.00223637	     -0.01198893	     -0.03125110
      4.74000000	      8.05495611	     -6.42362741	      1.45517322	     61.22288681	     37.14356339	      1.95407424	     -1.40431542	    -12.51313686	     -1.41198265	     16.70844133	     -7.94263225	     -2.73733410	     -1.80930059	     -1.02780259	      4.40622638	     -2.31959554	     -0.00290835	     -9.71253786	     -0.00286239	      0.80350150	     -0.97256725	     -0.10926993	      0.00294074	      1.44394329	     -0.22856008	      0.16046518	      0.78285435	     -0.02184679	      0.21070990	     -0.38788517	     -0.37060519	     -0.00339442	     -0.01727951	      0.01226859	     -0.02104913	      0.00288207	      0.00214913	     -0.03434150	     -0.01980389
      4.74500000	      3.17652825	     -4.51950645	      1.05489427	     53.69594752	     37.95688111	      0.34976107	     -4.08044480	    -11.46847504	     -1.31379752	     15.27374458	     -7.82115858	     -2.54683655	     -2.06776853	     -0.18801937	      4.89776364	     -0.79788971	     -0.00231661	     -8.48898296	     -0.00298341	      0.78162569	     -0.75761080	     -0.08454777	      0.31357025	      1.19092634	     -0.37647734	     -0.01618939	      0.63313638	     -0.01049381	      0.08863391	     -0.34038113	     -0.33915619	     -0.00204236	     -0.01876200	      0.02091843	     -0.01298400	      0.00692618	      0.00276461	     -0.05379152	     -0.00772393
      4.75000000	     -1.90826610	     -2.35277484	      0.65167450	     44.73879585	     36.28311795	     -1.08620716	     -6.64057773	    -10.38190944	     -1.16299153	     13.50975722	     -7.86331280	     -2.27974746	     -2.55212824	      0.64010556	      5.26467358	      0.64257467	     -0.00155623	     -7.14596551	     -0.00301545	      0.74572571	     -0.50523877	     -0.06010247	      0.58032472	      0.95683868	     -0.49880749	     -0.18331092	      0.47252026	     -0.00398862	     -0.02967040	     -0.28994358	     -0.30563202	     -0.00063869	     -0.01947488	      0.02878731	     -0.00450226	      0.01035755	      0.00381238	     -0.07004813	      0.00413695
      4.75500000	     -6.95676804	     -0.18699391	      0.27063701	     34.82940983	     32.83720480	     -2.26265444	     -8.98785999	     -9.28041249	     -0.96354156	     11.51920248	     -7.93161663	     -1.94688748	     -3.18001608	      1.39088865	      5.49775225	      1.95637473	     -0.00070310	     -5.73432408	     -0.00298340	      0.70205493	     -0.23172962	     -0.03813967	      0.80374896	      0.74457081	     -0.59600660	     -0.33584400	      0.30644820	     -0.00039129	     -0.13778256	     -0.23755575	     -0.26759171	      0.00069883	     -0.01956050	      0.03565453	      0.00405565	      0.01303187	      0.00500767	     -0.08295369	      0.01497761
      4.76000000	    -11.75704903	      1.74139899	     -0.06693960	     24.45493884	     28.52659867	     -3.08960974	    -11.04407629	     -8.19834805	     -0.72256195	      9.40992577	     -7.90390798	     -1.56160780	     -3.87051000	      2.01546741	      5.59371590	      3.10738199	      0.00015627	     -4.30409974	     -0.00292424	      0.65566593	      0.04606107	     -0.02015854	      0.98618298	      0.55461148	     -0.66942807	     -0.46930178	      0.14062341	      0.00248178	     -0.22993940	     -0.18458333	     -0.22329447	      0.00186823	     -0.01917992	      0.04132567	      0.01234125	      0.01490074	      0.00606437	     -0.09247947	      0.02409443
      4.76500000	    -16.14395868	      3.25522038	     -0.34627869	     14.08249946	     24.41423504	     -3.49846102	    -12.75348755	     -7.17304807	     -0.44993943	      7.28635122	     -7.69271574	     -1.13916778	     -4.54855322	      2.48636006	      5.55591794	      4.06981424	      0.00093021	     -2.90309097	     -0.00288563	      0.61036954	      0.31156580	     -0.00697702	      1.13137761	      0.38512179	     -0.72112996	     -0.57996534	     -0.01912182	      0.00697004	     -0.30128254	     -0.13269922	     -0.17215527	      0.00278531	     -0.01850304	      0.04564496	      0.02001619	      0.01600427	      0.00670306	     -0.09871424	      0.03091765
      4.77000000	    -20.00937192	      4.25503811	     -0.56031372	      4.13337933	     21.67206865	     -3.45771453	    -14.08367106	     -6.24020749	     -0.15773931	      5.24144726	     -7.25691326	     -0.69622201	     -5.14816316	      2.79768321	      5.39429527	      4.82844039	      0.00152674	     -1.57538105	     -0.00292346	      0.56887090	      0.54923089	      0.00116510	      1.24407664	      0.23220618	     -0.75366823	     -0.66504132	     -0.16701638	      0.01547009	     -0.34803584	     -0.08374771	     -0.11497525	      0.00338346	     -0.01769878	      0.04850533	      0.02676940	      0.01645435	      0.00665966	     -0.10184772	      0.03503457
      4.77500000	    -23.30540778	      4.72276597	     -0.70928208	     -5.03572281	     21.52788425	     -2.98168656	    -15.02368521	     -5.42980928	      0.14055253	      3.35026744	     -6.60440140	     -0.25032769	     -5.61418234	      2.96170776	      5.12461945	      5.37803327	      0.00185766	     -0.35986933	     -0.00309870	      0.53303379	      0.74503347	      0.00445199	      1.32962205	      0.09035785	     -0.76990599	     -0.72276027	     -0.29759989	      0.03031057	     -0.36759398	     -0.03957216	     -0.05391704	      0.00361248	     -0.01692670	      0.04985433	      0.03233297	      0.01641137	      0.00569709	     -0.10215153	      0.03619714
      4.78000000	    -26.04110990	      4.71199428	     -0.79900674	    -13.14308160	     25.20912897	     -2.13101760	    -15.58025215	     -4.76311005	      0.43087902	      1.66596351	     -5.78623272	      0.18064558	     -5.90303436	      3.00314652	      4.76722638	      5.72217826	      0.00184163	      0.71105745	     -0.00347390	      0.50420517	      0.88682966	      0.00331732	      1.39361720	     -0.04700009	     -0.77284788	     -0.75239672	     -0.40599944	      0.05363662	     -0.35852400	     -0.00183993	      0.00775732	      0.00343666	     -0.01633034	      0.04969504	      0.03649478	      0.01605939	      0.00361506	     -0.09995865	      0.03431542
      4.78500000	    -28.27391263	      4.32871492	     -0.83854140	    -19.98412404	     33.88783564	     -1.00538589	    -15.77288387	     -4.25100374	      0.69946712	      0.21905966	     -4.88416300	      0.57921486	     -5.98324079	      2.95263180	      4.34539194	      5.87159926	      0.00140655	      1.61249800	     -0.00410987	      0.48350325	      0.96460704	     -0.00171155	      1.44164794	     -0.18693268	     -0.76549260	     -0.75420925	     -0.48818331	      0.08733342	     -0.32049208	      0.02810884	      0.06612300	      0.00283237	     -0.01603232	      0.04808212	      0.03910592	      0.01558470	      0.00025516	     -0.09564113	      0.02944036
      4.79000000	    -30.09717747	      3.70709109	     -0.83795635	    -25.42632411	     48.62937009	      0.26982800	    -15.62881442	     -3.89382136	      0.93360733	     -0.97997971	     -3.99461096	      0.92907581	     -5.83581025	      2.84063063	      3.88345092	      5.84221988	      0.00049124	      2.32754465	     -0.00506275	      0.47197251	      0.97066290	     -0.01011098	      1.47907606	     -0.33638747	     -0.75071215	     -0.72931386	     -0.54115989	      0.13298367	     -0.25412432	      0.04937026	      0.11711749	      0.00178624	     -0.01613121	      0.04511369	      0.04008247	      0.01516186	     -0.00449775	     -0.08958768	      0.02173810
      4.79500000	    -31.62507136	      2.98493102	     -0.80692677	    -29.39926561	     70.34500856	      1.56007598	    -15.17840663	     -3.68238841	      1.12231682	     -1.93584889	     -3.21217987	      1.21599529	     -5.45395455	      2.69275720	      3.40468279	      5.65317818	     -0.00095328	      2.84734734	     -0.00638148	      0.47057340	      0.89968626	     -0.02138853	      1.51094408	     -0.50160782	     -0.73118075	     -0.67950893	     -0.56310710	      0.19183660	     -0.16081915	      0.06153293	      0.15706706	      0.00029494	     -0.01670079	      0.04092027	      0.03940267	      0.01494739	     -0.01071487	     -0.08218462	      0.01145835
      4.80000000	    -32.97676572	      2.28272898	     -0.75432497	    -31.88283670	     99.74737650	      2.73817774	    -14.45159907	     -3.59992093	      1.25687152	     -2.66242791	     -2.61540220	      1.42870315	     -4.84203796	      2.52694234	      2.92919110	      5.32501257	     -0.00296256	      3.17077117	     -0.00810527	      0.48007157	      0.74873546	     -0.03507118	      1.54196706	     -0.68764476	     -0.70934466	     -0.60707327	     -0.55342361	      0.26476639	     -0.04254648	      0.06468082	      0.18313634	     -0.00163391	     -0.01779085	      0.03565189	      0.03710042	      0.01507726	     -0.01842214	     -0.07380084	     -0.00109861
      4.80500000	    -34.26263240	      1.68883098	     -0.68839334	    -32.89618688	    137.30961002	      3.69829616	    -13.47581680	     -3.62429635	      1.33119643	     -3.17698752	     -2.25656648	      1.55959744	     -4.01429877	      2.35240789	      2.47231264	      4.87820769	     -0.00555731	      3.30371298	     -0.01026117	      0.50092559	      0.51715312	     -0.05069313	      1.57649523	     -0.89803972	     -0.68738420	     -0.51456492	     -0.51270189	      0.35222155	      0.09833057	      0.05935058	      0.19364159	     -0.00398103	     -0.01942807	      0.02946488	      0.03325664	      0.01566420	     -0.02759918	     -0.06477393	     -0.01561007
      4.81000000	    -35.57425191	      1.25191594	     -0.61687219	    -32.48977904	    183.23034444	      4.36607688	    -12.27536218	     -3.73046284	      1.34211129	     -3.49579137	     -2.15665981	      1.60516321	     -2.99355250	      2.17022556	      2.04396390	      4.33218060	     -0.00874179	      3.25818078	     -0.01286183	      0.53321770	      0.20647762	     -0.06779597	      1.61835011	     -1.13468296	     -0.66713536	     -0.40464790	     -0.44263093	      0.45418334	      0.25920414	      0.04645370	      0.18819477	     -0.00671572	     -0.02161635	      0.02251057	      0.02798953	      0.01679469	     -0.03818053	     -0.05539573	     -0.03175258
      4.81500000	    -36.97818635	      0.98109718	     -0.54679389	    -30.74131480	    237.40624824	      4.70461460	    -10.87183320	     -3.89280915	      1.28943291	     -3.63183889	     -2.30562389	      1.56609014	     -1.80948906	      1.97538444	      1.64884702	      3.70467564	     -0.01250231	      3.05120220	     -0.01590342	      0.57659543	     -0.17962644	     -0.08592818	      1.67055414	     -1.39778151	     -0.64998941	     -0.27996507	     -0.34584279	      0.57014011	      0.43735522	      0.02717681	      0.16767338	     -0.00979653	     -0.02433738	      0.01492770	      0.02144494	      0.01852694	     -0.05005881	     -0.04589876	     -0.04921891
      4.82000000	    -38.51276062	      0.85294671	     -0.48402879	    -27.75497001	    299.41421318	      4.71534401	     -9.28502360	     -4.08715825	      1.17593785	     -3.59479827	     -2.66729722	      1.44707938	     -0.49628062	      1.75999636	      1.28720774	      3.01148698	     -0.01680609	      2.70358698	     -0.01936411	      0.63018791	     -0.63542270	     -0.10463249	      1.73505425	     -1.68588640	     -0.63681326	     -0.14306112	     -0.22571886	      0.69907703	      0.63006144	      0.00287587	      0.13403476	     -0.01317213	     -0.02755203	      0.00683859	      0.01378787	      0.02089068	     -0.06308890	     -0.03644802	     -0.06772988
      4.82500000	    -40.18757581	      0.82309044	     -0.43274169	    -23.66308927	    368.50582963	      4.43280492	     -7.53400642	     -4.29215082	      1.00719617	     -3.39277373	     -3.18776201	      1.25637792	      0.91024907	      1.51653428	      0.95593540	      2.26643368	     -0.02160053	      2.23862280	     -0.02320335	      0.69254446	     -1.15315851	     -0.12344099	      1.81251673	     -1.99599430	     -0.62791547	      0.00365372	     -0.08617153	      0.83948278	      0.83465346	     -0.02502392	      0.09001246	     -0.01678300	     -0.03120226	     -0.00165141	      0.00519529	      0.02388657	     -0.07709258	     -0.02714037	     -0.08703904
      4.83000000	    -41.98549719	      0.83931949	     -0.39484493	    -18.62766575	    443.61640487	      3.91437287	     -5.63818088	     -4.49006399	      0.79128240	     -3.03523412	     -3.80544797	      1.00515913	      2.37532809	      1.24011059	      0.64985163	      1.48151892	     -0.02681321	      1.68084858	     -0.02736238	      0.76168147	     -1.72317610	     -0.14190902	      1.90220050	     -2.32374747	     -0.62305014	      0.15790968	      0.06857413	      0.98936698	      1.04852953	     -0.05511684	      0.03874738	     -0.02056414	     -0.03521348	     -0.01045239	     -0.00414930	      0.02748194	     -0.09186328	     -0.01800951	     -0.10693206
      4.83500000	    -43.86645969	      0.85404799	     -0.36954470	    -12.83811006	    523.39161557	      3.22786223	     -3.61795268	     -4.66719240	      0.53835797	     -2.53618586	     -4.46131066	      0.70685749	      3.86737474	      0.92972472	      0.36296665	      0.66718076	     -0.03235312	      1.05502051	     -0.03176590	      0.83524541	     -2.33413999	     -0.15968421	      2.00190711	     -2.66372555	     -0.62144299	      0.31756216	      0.23417126	      1.14628336	      1.26915330	     -0.08609055	     -0.01658873	     -0.02444873	     -0.03949700	     -0.01948625	     -0.01405896	      0.03160365	     -0.10717013	     -0.00903335	     -0.12722350
      4.84000000	    -45.77271577	      0.83478630	     -0.35309001	     -6.50541097	    606.23567763	      2.43998554	     -1.49497941	     -4.81387016	      0.26014593	     -1.91689057	     -5.10764136	      0.37651364	      5.35954338	      0.58886482	      0.08948380	     -0.16741315	     -0.03811334	      0.38533449	     -0.03632528	      0.91071524	     -2.97336782	     -0.17657288	      2.10806203	     -3.00981622	     -0.62185061	      0.48056354	      0.40630119	      1.30738002	      1.49403437	     -0.11678098	     -0.07312886	     -0.02837174	     -0.04395297	     -0.02868191	     -0.02434401	      0.03613306	     -0.12276249	     -0.00014395	     -0.14774994
      4.84500000	    -47.63628927	      0.77172495	     -0.33887055	      0.14304489	    690.38401072	      1.60757709	      0.70752779	     -4.92411930	     -0.03063142	     -1.20787938	     -5.71450468	      0.03018320	      6.83064847	      0.22570220	     -0.17558770	     -1.01394391	     -0.04397529	     -0.30505019	     -0.04094303	      0.98556654	     -3.62721109	     -0.19256688	      2.21599215	     -3.35564474	     -0.62267513	      0.64492807	      0.58078270	      1.46951725	      1.72070174	     -0.14620310	     -0.12856986	     -0.03227327	     -0.04847415	     -0.03797023	     -0.03481148	      0.04090875	     -0.13837860	      0.00875830	     -0.16836062
