_ik_marker_errors_all.sto
version=1
nRows=126
nColumns=62
in_degrees=yes
endheader
time	FHD	LBHD	RBHD	C7	T10	CLAV	LSHO	LUUPA	LMUPA	LDUPA	LLEP	LMEP	LRAD	LUL	LRFIN	RSHO	RUPA1	RMUPA	RDUPA	RLEP	RMEP	RRAD	RUL	RUFIN	LASI	RASI	USACR	LSACR	LTHI1	LTHI2	LTHI3	LTHI4	LLFC	LMFC	LTIB1	LTIB2	LTIB3	LTIB4	LLMAL	LMMAL	LHEE	LMT1	LMT2	LMT5	RTHI	RTHI2	RTHI3	RTHI4	RLFC	RMFC	RTIB1	RTIB2	RTIB3	RTIB4	RLMAL	RMMAL	RHEE	RMT1	RMT2	RMT5	RSACR
5.635000	0.130090	0.044922	0.082115	0.051814	0.024118	0.068206	0.058740	0.020142	0.019976	0.019828	0.025794	0.029557	0.061784	0.060565	0.079820	0.071050	0.018023	0.024834	0.018800	0.028502	0.029547	0.065407	0.054987	0.088442	0.017635	0.016462	0.003418	0.013971	0.022901	0.028549	0.028848	0.034404	0.042042	0.049175	0.010687	0.006132	0.006851	0.012152	0.013917	0.024670	0.025069	0.026531	0.019482	0.025392	0.010016	0.013976	0.014985	0.017449	0.038703	0.051107	0.016601	0.010308	0.012936	0.018265	0.016899	0.026471	0.020885	0.012253	0.022078	0.031411	0.013068
5.640000	0.131094	0.045803	0.083156	0.052362	0.024687	0.067898	0.060801	0.020452	0.019617	0.019619	0.025521	0.030061	0.061468	0.060610	0.080012	0.069154	0.018052	0.024351	0.018565	0.028347	0.028807	0.065531	0.055011	0.088821	0.017026	0.013814	0.003845	0.013860	0.023007	0.028679	0.028838	0.034306	0.043014	0.050106	0.011200	0.005981	0.007174	0.012214	0.013868	0.024585	0.025372	0.026507	0.019580	0.025922	0.008822	0.013132	0.014269	0.016936	0.040017	0.052522	0.017615	0.010922	0.013482	0.018542	0.016851	0.026545	0.020928	0.012295	0.022198	0.031487	0.013178
5.645000	0.131996	0.046113	0.083129	0.052013	0.024606	0.068332	0.058527	0.020111	0.019561	0.019435	0.025625	0.029305	0.061887	0.060691	0.080072	0.071768	0.018122	0.024395	0.018288	0.028806	0.029855	0.065319	0.054584	0.089038	0.016737	0.014251	0.003672	0.013631	0.023224	0.028802	0.028997	0.034412	0.042814	0.049832	0.011127	0.006099	0.007193	0.012302	0.014008	0.024534	0.025331	0.026302	0.019559	0.025957	0.008875	0.013141	0.014318	0.016831	0.039930	0.052308	0.017462	0.010813	0.013289	0.018354	0.016933	0.026574	0.020848	0.012212	0.022058	0.031429	0.013089
5.650000	0.133029	0.046218	0.083360	0.051648	0.024471	0.068457	0.059095	0.020298	0.019691	0.019537	0.025652	0.029662	0.062027	0.060638	0.080042	0.071626	0.018214	0.024460	0.018462	0.028629	0.029477	0.065430	0.054565	0.089120	0.017212	0.014839	0.003480	0.013471	0.023369	0.028717	0.029043	0.034343	0.042725	0.049984	0.010958	0.005653	0.007112	0.012287	0.013941	0.024508	0.025115	0.026291	0.019561	0.026053	0.008936	0.013149	0.014376	0.016796	0.039779	0.052117	0.017350	0.010729	0.013149	0.018240	0.016958	0.026460	0.020852	0.012233	0.022446	0.031354	0.012941
5.655000	0.133817	0.046593	0.083446	0.051523	0.024536	0.068455	0.058946	0.020216	0.019614	0.019431	0.025430	0.029566	0.061918	0.060550	0.080287	0.072030	0.018082	0.024363	0.018032	0.028516	0.029563	0.065267	0.054560	0.089321	0.017582	0.014502	0.003384	0.013237	0.023515	0.028866	0.029155	0.034413	0.043142	0.050367	0.011157	0.006143	0.007215	0.012220	0.013925	0.024505	0.025099	0.026202	0.019485	0.027036	0.008766	0.013121	0.014322	0.016713	0.039972	0.052406	0.017572	0.010771	0.013290	0.018384	0.017037	0.026573	0.020879	0.012282	0.022354	0.031286	0.012927
5.660000	0.134498	0.047165	0.083870	0.051367	0.024603	0.068327	0.060084	0.020247	0.019725	0.019524	0.025351	0.030030	0.061589	0.060441	0.080473	0.071268	0.017935	0.024269	0.017902	0.028434	0.029308	0.065429	0.054610	0.089589	0.017177	0.014893	0.003331	0.013182	0.023584	0.028857	0.029310	0.034485	0.043103	0.050686	0.011534	0.006046	0.007321	0.012302	0.014041	0.024640	0.025067	0.026344	0.019480	0.026897	0.008733	0.013085	0.014294	0.016699	0.039906	0.052207	0.017442	0.010703	0.013232	0.018375	0.017114	0.026454	0.020822	0.012230	0.022321	0.031625	0.012849
5.665000	0.136034	0.047429	0.084092	0.050731	0.024632	0.068320	0.060852	0.020394	0.019993	0.019734	0.025311	0.030532	0.061474	0.060021	0.080356	0.070442	0.018005	0.024413	0.018160	0.028365	0.029013	0.065609	0.054460	0.089793	0.014605	0.013355	0.003423	0.012818	0.023722	0.028801	0.029454	0.034854	0.043328	0.051090	0.011523	0.005957	0.007234	0.012324	0.014042	0.024560	0.025024	0.026385	0.019457	0.026778	0.008772	0.013075	0.014326	0.016560	0.039909	0.052273	0.017420	0.010637	0.013193	0.018334	0.017143	0.026566	0.020829	0.012289	0.022419	0.031183	0.012877
5.670000	0.136918	0.047195	0.083446	0.050559	0.024248	0.068553	0.061261	0.020655	0.020352	0.020026	0.025374	0.030942	0.061293	0.059730	0.080513	0.070453	0.018370	0.024657	0.018518	0.028008	0.029071	0.065403	0.054449	0.089992	0.016081	0.013943	0.002928	0.012753	0.023657	0.028446	0.029297	0.034568	0.042189	0.049062	0.010350	0.006300	0.006549	0.011827	0.013942	0.024134	0.024280	0.026002	0.019180	0.026565	0.010232	0.014162	0.015400	0.017084	0.038539	0.050823	0.016418	0.009768	0.012332	0.017677	0.017153	0.026338	0.020665	0.012243	0.022275	0.031167	0.012611
5.675000	0.137339	0.047573	0.083655	0.050278	0.024105	0.068831	0.060130	0.020801	0.020534	0.019869	0.025288	0.030505	0.061428	0.059308	0.080679	0.072196	0.018298	0.024379	0.018350	0.028232	0.029795	0.065113	0.054277	0.090181	0.016497	0.013811	0.002687	0.012494	0.023963	0.028648	0.029384	0.034591	0.041874	0.048781	0.010113	0.006400	0.006427	0.011773	0.014072	0.024126	0.024200	0.026027	0.019095	0.026596	0.010376	0.014426	0.015545	0.017149	0.038302	0.050282	0.016118	0.009621	0.012173	0.017528	0.017197	0.026218	0.020557	0.012161	0.022257	0.031077	0.012633
5.680000	0.139007	0.047850	0.084063	0.050053	0.023922	0.068918	0.062760	0.020930	0.020804	0.020357	0.025452	0.031627	0.061049	0.059129	0.080615	0.069958	0.018544	0.024348	0.018608	0.028003	0.029045	0.065359	0.054459	0.090426	0.017409	0.015151	0.002473	0.012270	0.024234	0.029029	0.029554	0.034694	0.041573	0.048580	0.009901	0.006372	0.006499	0.011743	0.014021	0.024086	0.024135	0.025766	0.019049	0.026578	0.010678	0.014508	0.015731	0.017177	0.037942	0.049814	0.015744	0.009443	0.011963	0.017370	0.017276	0.026126	0.020500	0.012085	0.022248	0.030944	0.012654
5.685000	0.140914	0.049048	0.084919	0.049395	0.023848	0.068486	0.062950	0.020546	0.021375	0.020513	0.025454	0.031166	0.061638	0.058993	0.080554	0.069084	0.018291	0.024972	0.018903	0.027820	0.028333	0.066210	0.054404	0.090333	0.016084	0.014973	0.002475	0.012309	0.024389	0.029139	0.029385	0.034692	0.041983	0.048920	0.010319	0.005674	0.006977	0.011869	0.014134	0.024190	0.024152	0.025947	0.019069	0.026725	0.010642	0.014440	0.015746	0.017210	0.038079	0.049878	0.015759	0.009585	0.011942	0.017227	0.017390	0.026161	0.020500	0.012095	0.022141	0.030880	0.012575
5.690000	0.141036	0.049255	0.085027	0.050391	0.024065	0.069456	0.063765	0.020829	0.020969	0.020267	0.025301	0.031874	0.060711	0.058543	0.081325	0.070376	0.018162	0.024245	0.018117	0.028192	0.029188	0.065169	0.053998	0.091058	0.015987	0.015753	0.002318	0.011959	0.024731	0.029217	0.029820	0.034984	0.041875	0.048859	0.010036	0.006342	0.006935	0.011775	0.013998	0.024013	0.023872	0.025615	0.018941	0.025489	0.010642	0.014561	0.015818	0.017264	0.038165	0.049865	0.015702	0.009525	0.011950	0.016945	0.017404	0.025990	0.020438	0.011887	0.022245	0.030877	0.012531
5.695000	0.142481	0.050201	0.085627	0.049947	0.024231	0.069403	0.064202	0.020694	0.021146	0.020275	0.025078	0.031930	0.060750	0.058774	0.081602	0.070488	0.018016	0.024226	0.018039	0.028331	0.029119	0.065081	0.053737	0.091589	0.018090	0.014568	0.002278	0.011827	0.024746	0.028953	0.029720	0.034614	0.041760	0.048464	0.009871	0.005877	0.006769	0.011422	0.013937	0.023505	0.023289	0.025334	0.018668	0.027149	0.010807	0.014749	0.016187	0.017565	0.038229	0.050145	0.015889	0.009426	0.011855	0.016826	0.017380	0.026020	0.020321	0.011684	0.022262	0.031104	0.012591
5.700000	0.143477	0.050821	0.086724	0.050685	0.024314	0.069328	0.066729	0.020596	0.020896	0.020180	0.025796	0.033146	0.060375	0.058091	0.081434	0.068934	0.017685	0.024156	0.017932	0.027705	0.028454	0.065090	0.054369	0.091938	0.016566	0.015101	0.002333	0.011728	0.024888	0.029082	0.029903	0.034772	0.042012	0.048951	0.010213	0.006096	0.006885	0.011752	0.014051	0.023784	0.023569	0.025413	0.018657	0.026296	0.010918	0.014773	0.016091	0.017639	0.037945	0.049611	0.015532	0.009132	0.011684	0.016446	0.017711	0.025942	0.020463	0.012057	0.022354	0.030699	0.012622
5.705000	0.145339	0.051481	0.087502	0.050844	0.024394	0.069482	0.066937	0.020177	0.021343	0.020391	0.025376	0.032900	0.060569	0.057758	0.081948	0.069170	0.017846	0.024219	0.018054	0.027820	0.028399	0.065129	0.053699	0.092156	0.016908	0.016952	0.002479	0.011252	0.024935	0.029424	0.030224	0.035096	0.041866	0.048991	0.009912	0.006136	0.006609	0.011492	0.013979	0.023582	0.023066	0.025247	0.018564	0.025669	0.011051	0.014915	0.016309	0.017794	0.037857	0.049520	0.015282	0.008878	0.011514	0.016249	0.017641	0.025835	0.020241	0.011490	0.022209	0.030941	0.012528
5.710000	0.146520	0.052467	0.088553	0.050611	0.024729	0.069841	0.066906	0.020012	0.020809	0.020011	0.025593	0.032821	0.060670	0.057582	0.081722	0.069988	0.017499	0.023795	0.017462	0.028084	0.028497	0.065025	0.053434	0.092925	0.017379	0.015337	0.002513	0.011049	0.025156	0.029543	0.030189	0.035055	0.042015	0.049278	0.009904	0.005699	0.006830	0.011593	0.013943	0.023269	0.022982	0.025145	0.018630	0.026734	0.010619	0.014672	0.015888	0.017446	0.038502	0.050224	0.015756	0.009400	0.011875	0.016168	0.017752	0.025821	0.020322	0.011715	0.022301	0.030779	0.012614
5.715000	0.148607	0.053190	0.089300	0.050803	0.024692	0.070051	0.066962	0.020019	0.021268	0.019878	0.025376	0.032731	0.060096	0.057584	0.082033	0.070068	0.017412	0.024074	0.017685	0.028241	0.028133	0.065138	0.053545	0.092747	0.018175	0.016636	0.002658	0.010895	0.025326	0.029794	0.030426	0.035150	0.041925	0.049269	0.009882	0.006058	0.006813	0.011661	0.013864	0.023277	0.022862	0.025229	0.018518	0.026418	0.010671	0.014814	0.016088	0.017405	0.038279	0.049880	0.015429	0.009305	0.011691	0.015787	0.017859	0.025713	0.020294	0.011639	0.022181	0.030718	0.012529
5.720000	0.149274	0.054148	0.090145	0.050828	0.024933	0.070547	0.065074	0.019700	0.020865	0.019397	0.025347	0.031621	0.060545	0.056753	0.082467	0.073613	0.016447	0.023162	0.016586	0.028933	0.029623	0.064233	0.053155	0.093213	0.017085	0.016089	0.002885	0.010870	0.025643	0.030003	0.030505	0.035081	0.042203	0.049679	0.010100	0.005497	0.006797	0.011647	0.013962	0.023063	0.022860	0.025086	0.018413	0.026555	0.010639	0.014614	0.015918	0.017622	0.038416	0.050072	0.015582	0.009279	0.011693	0.015715	0.017861	0.025721	0.020173	0.011516	0.022238	0.030705	0.012455
5.725000	0.150848	0.054619	0.090712	0.050285	0.024923	0.070786	0.065160	0.019696	0.021139	0.019511	0.025171	0.031323	0.060070	0.056949	0.082614	0.074031	0.016389	0.023335	0.016629	0.028822	0.029293	0.064742	0.052338	0.093458	0.015998	0.015958	0.002939	0.010223	0.026018	0.030224	0.030972	0.035358	0.041831	0.049701	0.009999	0.005330	0.006678	0.011704	0.013814	0.023015	0.022626	0.025064	0.018292	0.026449	0.010863	0.014931	0.016182	0.017440	0.038262	0.049866	0.015375	0.009134	0.011586	0.015439	0.017927	0.025678	0.020201	0.011423	0.022206	0.030672	0.012593
5.730000	0.153012	0.055662	0.091448	0.049824	0.024966	0.070837	0.065269	0.019525	0.021282	0.019726	0.024870	0.031350	0.060500	0.057138	0.082715	0.073900	0.016325	0.023547	0.016682	0.028654	0.029088	0.064577	0.052076	0.093732	0.017847	0.017598	0.003076	0.009987	0.025865	0.029937	0.030968	0.035670	0.041466	0.048876	0.009372	0.005387	0.006437	0.011466	0.013860	0.022602	0.021925	0.024602	0.018268	0.026302	0.011464	0.015384	0.016870	0.017796	0.037624	0.049099	0.014857	0.008847	0.011314	0.015109	0.018143	0.025853	0.020038	0.011590	0.021992	0.030317	0.012681
5.735000	0.153629	0.056566	0.092349	0.050730	0.025318	0.071191	0.066236	0.019234	0.020454	0.018973	0.025398	0.031467	0.059899	0.056155	0.083222	0.074708	0.015808	0.023004	0.016200	0.028496	0.028929	0.063960	0.051884	0.094730	0.018205	0.016420	0.003283	0.009995	0.026252	0.030231	0.030889	0.035446	0.041821	0.049008	0.009609	0.005421	0.006689	0.011450	0.013750	0.022207	0.021697	0.024446	0.017710	0.027027	0.011082	0.015198	0.016391	0.017686	0.038206	0.049851	0.015501	0.008950	0.011661	0.014750	0.018042	0.025635	0.020166	0.011306	0.022179	0.030647	0.012520
5.740000	0.155371	0.057410	0.093197	0.050607	0.025076	0.071088	0.066424	0.018793	0.020754	0.018865	0.025071	0.031309	0.059952	0.056091	0.083198	0.074751	0.015547	0.023025	0.015932	0.028549	0.028794	0.064081	0.052183	0.094339	0.016569	0.015456	0.003363	0.009923	0.026421	0.030413	0.031230	0.035672	0.041899	0.048895	0.009496	0.005800	0.006778	0.011532	0.013608	0.022333	0.021496	0.024179	0.017860	0.026594	0.011245	0.015194	0.016485	0.017803	0.038202	0.049557	0.015391	0.008968	0.011763	0.014629	0.018159	0.025570	0.020110	0.011349	0.022253	0.030469	0.012516
5.745000	0.155878	0.057562	0.093077	0.051111	0.025505	0.072295	0.067641	0.019071	0.020495	0.018846	0.025191	0.031767	0.059265	0.055590	0.083538	0.075336	0.015504	0.022353	0.015602	0.029257	0.029565	0.063575	0.051525	0.094918	0.017653	0.019132	0.003891	0.009576	0.027045	0.030529	0.031509	0.035676	0.040988	0.047740	0.008847	0.006188	0.006695	0.010795	0.013586	0.022020	0.021105	0.023817	0.017527	0.026816	0.011981	0.015711	0.017228	0.018177	0.037285	0.048276	0.014609	0.008427	0.011231	0.014293	0.018285	0.025386	0.019936	0.011179	0.022208	0.030393	0.012609
5.750000	0.157402	0.059008	0.094361	0.050886	0.025888	0.071935	0.067836	0.018241	0.020249	0.018385	0.025178	0.031372	0.058690	0.055432	0.083741	0.075552	0.015318	0.022384	0.015164	0.029210	0.028895	0.063485	0.050946	0.095373	0.019021	0.016047	0.003813	0.009405	0.026530	0.030637	0.031418	0.035515	0.041661	0.048015	0.009048	0.006008	0.006565	0.010766	0.013705	0.021852	0.020851	0.023816	0.017065	0.026756	0.011758	0.015472	0.016677	0.018157	0.038000	0.049385	0.015307	0.008869	0.011637	0.014624	0.018232	0.025333	0.019963	0.011260	0.022325	0.030449	0.012709
5.755000	0.159285	0.059847	0.095025	0.051215	0.025910	0.072148	0.067825	0.018333	0.020343	0.018224	0.025276	0.031385	0.059174	0.054807	0.083674	0.075401	0.015415	0.022610	0.015399	0.028828	0.028590	0.063879	0.051096	0.094810	0.018194	0.019205	0.004103	0.009539	0.027497	0.030997	0.031656	0.036108	0.043136	0.048470	0.008755	0.005763	0.006391	0.010728	0.013560	0.021739	0.020337	0.023881	0.017196	0.026311	0.011820	0.015933	0.016926	0.017926	0.037598	0.048542	0.014854	0.008772	0.011440	0.014445	0.018802	0.025169	0.019996	0.011061	0.022148	0.030298	0.012613
5.760000	0.160913	0.061299	0.096202	0.050632	0.026474	0.072417	0.068291	0.017964	0.020524	0.017995	0.025221	0.031037	0.059622	0.054977	0.083642	0.075617	0.014889	0.022447	0.014936	0.029089	0.028480	0.063940	0.050793	0.095145	0.018713	0.016855	0.004003	0.009353	0.027622	0.031198	0.031748	0.036050	0.042697	0.048285	0.008904	0.005770	0.006455	0.010780	0.013570	0.021724	0.020438	0.023754	0.017143	0.026273	0.011555	0.015817	0.016731	0.017904	0.037773	0.048617	0.014739	0.008914	0.011398	0.014337	0.018508	0.025191	0.019918	0.011141	0.022137	0.030094	0.012664
5.765000	0.161114	0.061128	0.096651	0.051697	0.026878	0.072981	0.069743	0.017973	0.020018	0.017953	0.025135	0.031890	0.058465	0.054138	0.084230	0.075825	0.014821	0.021628	0.014968	0.029629	0.029348	0.062883	0.050723	0.095707	0.018750	0.020137	0.004455	0.008968	0.027890	0.031423	0.032228	0.036146	0.042788	0.048194	0.008829	0.005793	0.006379	0.010802	0.013658	0.021395	0.020252	0.023551	0.016896	0.026512	0.011799	0.016021	0.016885	0.018126	0.037500	0.048200	0.014423	0.008917	0.011130	0.013699	0.018675	0.024789	0.019689	0.010710	0.022295	0.030198	0.012683
5.770000	0.162694	0.062470	0.097881	0.051737	0.027450	0.072968	0.070554	0.017484	0.019671	0.017642	0.025550	0.031666	0.058840	0.053706	0.084166	0.075908	0.014438	0.021860	0.014127	0.029387	0.028677	0.062668	0.050066	0.096350	0.018280	0.016590	0.004664	0.008844	0.027569	0.030377	0.031880	0.036312	0.042870	0.048735	0.009177	0.005403	0.006679	0.010839	0.013646	0.021128	0.020085	0.023267	0.016764	0.024984	0.011534	0.015673	0.016579	0.018137	0.038201	0.049394	0.014706	0.009343	0.011360	0.013766	0.018680	0.024904	0.019741	0.010770	0.022418	0.030268	0.012842
5.775000	0.164579	0.062759	0.098144	0.051658	0.027614	0.073329	0.070162	0.017852	0.020110	0.017874	0.025595	0.031825	0.058129	0.054120	0.084112	0.075841	0.014352	0.022053	0.014249	0.029298	0.028796	0.063116	0.049975	0.095483	0.018147	0.018762	0.004941	0.008659	0.027595	0.030894	0.032359	0.035947	0.042466	0.048315	0.008935	0.005566	0.006638	0.010313	0.013436	0.020580	0.019593	0.022901	0.016655	0.026461	0.012024	0.016024	0.016939	0.018140	0.037538	0.048377	0.014636	0.009087	0.011143	0.013432	0.018859	0.024739	0.019752	0.010621	0.022283	0.030043	0.012730
5.780000	0.165161	0.063408	0.099057	0.051890	0.027959	0.073331	0.070966	0.017491	0.020032	0.017404	0.025544	0.031869	0.058147	0.053223	0.084507	0.076002	0.013964	0.021851	0.013676	0.029472	0.028406	0.062422	0.049486	0.097022	0.018480	0.017137	0.004997	0.008554	0.027698	0.031360	0.032494	0.036131	0.042398	0.048042	0.008895	0.005386	0.006639	0.010291	0.013543	0.020410	0.019158	0.022541	0.016197	0.025749	0.011957	0.016054	0.016963	0.018225	0.037722	0.048535	0.014558	0.009023	0.011223	0.013325	0.018800	0.024292	0.019901	0.010555	0.022844	0.030525	0.012876
5.785000	0.166165	0.063710	0.099502	0.052002	0.028283	0.073776	0.071767	0.017555	0.020238	0.017484	0.025643	0.032301	0.057659	0.052566	0.084602	0.076185	0.013848	0.021751	0.013675	0.029616	0.028823	0.062090	0.049513	0.096763	0.019363	0.020950	0.005359	0.008519	0.027864	0.031785	0.032541	0.036243	0.041315	0.047807	0.008799	0.005476	0.006615	0.010214	0.013648	0.020268	0.018955	0.022355	0.016001	0.025783	0.012374	0.016042	0.017167	0.018052	0.036876	0.047439	0.013565	0.008825	0.010746	0.013312	0.019062	0.024122	0.020060	0.010591	0.022718	0.030213	0.013071
5.790000	0.167569	0.065178	0.100761	0.053347	0.028774	0.073665	0.072124	0.017250	0.019816	0.017089	0.025541	0.032011	0.057650	0.052440	0.084681	0.076375	0.013612	0.021475	0.013270	0.029571	0.028415	0.062144	0.049040	0.096989	0.018529	0.016978	0.005339	0.008296	0.027854	0.031927	0.032292	0.036401	0.042185	0.048250	0.009026	0.005022	0.006425	0.010283	0.013421	0.020044	0.018602	0.022035	0.015807	0.025601	0.011509	0.015904	0.016836	0.018003	0.037705	0.048730	0.015042	0.009328	0.011365	0.013723	0.018946	0.024276	0.020051	0.010663	0.022788	0.030232	0.013150
5.795000	0.169025	0.065388	0.100927	0.053256	0.028702	0.073520	0.073476	0.017366	0.020480	0.017243	0.025496	0.032343	0.057570	0.052117	0.084479	0.076017	0.013916	0.021749	0.013649	0.029721	0.028732	0.062570	0.049385	0.096339	0.019539	0.019051	0.005754	0.008165	0.027831	0.032637	0.032753	0.036335	0.041775	0.047621	0.008280	0.005056	0.006121	0.010128	0.013572	0.019781	0.018151	0.021811	0.015554	0.025439	0.012318	0.016513	0.017247	0.018429	0.037118	0.047739	0.014293	0.009140	0.011071	0.013358	0.019045	0.024045	0.020064	0.010371	0.022841	0.030107	0.013169
5.800000	0.169526	0.065820	0.101916	0.053263	0.029195	0.074050	0.074137	0.017399	0.020167	0.016926	0.025458	0.032376	0.057452	0.050929	0.084917	0.076360	0.013551	0.021361	0.013225	0.029558	0.028212	0.061932	0.048427	0.097532	0.017951	0.018703	0.005834	0.008086	0.028191	0.031676	0.032403	0.036118	0.042164	0.047952	0.008744	0.004443	0.006415	0.010105	0.013383	0.019597	0.018017	0.021531	0.015371	0.025589	0.012097	0.016498	0.017001	0.018081	0.037306	0.047821	0.014049	0.009340	0.011002	0.013064	0.019101	0.024062	0.020110	0.010268	0.022801	0.030027	0.013442
5.805000	0.170866	0.066004	0.101879	0.053405	0.029108	0.074364	0.074023	0.017155	0.020650	0.016985	0.025529	0.032631	0.057045	0.051021	0.084416	0.075967	0.013187	0.021368	0.013040	0.029731	0.028546	0.062559	0.049004	0.096704	0.017243	0.018361	0.006057	0.008165	0.028383	0.032122	0.032727	0.036047	0.041719	0.047194	0.008132	0.004536	0.006373	0.009883	0.013325	0.019342	0.017713	0.021332	0.015235	0.024473	0.012198	0.016528	0.017234	0.018214	0.036890	0.047335	0.013418	0.009318	0.010794	0.013161	0.019254	0.023947	0.019951	0.010234	0.022837	0.029919	0.013411
5.810000	0.171372	0.062668	0.102209	0.053285	0.029493	0.074554	0.075200	0.017701	0.020887	0.016826	0.024968	0.032968	0.056516	0.050552	0.084905	0.076221	0.013356	0.021380	0.012837	0.029567	0.028176	0.061494	0.048114	0.097623	0.018294	0.021163	0.006546	0.008017	0.027864	0.032060	0.032593	0.036036	0.042105	0.046088	0.007421	0.004596	0.006217	0.009456	0.013240	0.018674	0.016971	0.020264	0.014819	0.025615	0.012716	0.017059	0.017772	0.018681	0.036095	0.046635	0.013048	0.009036	0.010613	0.012905	0.019197	0.023903	0.019775	0.010205	0.022820	0.029965	0.013622
5.815000	0.172851	0.063917	0.103229	0.053607	0.029923	0.074382	0.075342	0.017473	0.020612	0.016502	0.025486	0.032807	0.056128	0.049899	0.084990	0.076195	0.013179	0.021215	0.012339	0.029627	0.027856	0.061345	0.047971	0.097557	0.020725	0.019189	0.006545	0.007831	0.027509	0.031497	0.032220	0.035421	0.041505	0.046411	0.007668	0.004874	0.005849	0.009586	0.013428	0.018700	0.016844	0.020045	0.014630	0.024817	0.012195	0.016717	0.017258	0.017995	0.036792	0.047520	0.014141	0.009577	0.011071	0.013307	0.019339	0.023950	0.019782	0.010190	0.022927	0.029931	0.013768
5.820000	0.173686	0.063506	0.103418	0.053857	0.030369	0.074058	0.075398	0.017257	0.020737	0.016141	0.024862	0.032606	0.056066	0.049622	0.085172	0.076037	0.012728	0.020755	0.011698	0.029906	0.027571	0.061164	0.047611	0.097948	0.018791	0.019840	0.006634	0.007691	0.028093	0.032153	0.031752	0.036227	0.042195	0.047199	0.008134	0.004558	0.006050	0.009681	0.013223	0.018791	0.016952	0.020128	0.014757	0.025003	0.011864	0.016319	0.016774	0.018073	0.036971	0.047334	0.013578	0.009680	0.011186	0.013026	0.019371	0.023542	0.019705	0.009872	0.023144	0.029909	0.013853
5.825000	0.174255	0.063407	0.104405	0.053264	0.030744	0.074381	0.075977	0.017143	0.021122	0.016198	0.025067	0.032787	0.055753	0.049456	0.085089	0.076026	0.012632	0.020568	0.011713	0.029944	0.027391	0.061124	0.047319	0.098202	0.016906	0.019137	0.006865	0.007655	0.028356	0.032355	0.031535	0.035694	0.042197	0.046967	0.008062	0.004063	0.006160	0.009603	0.013284	0.018557	0.016656	0.019918	0.014602	0.024954	0.011560	0.016072	0.016495	0.017797	0.036806	0.047032	0.013676	0.009814	0.011016	0.012760	0.019489	0.023461	0.019866	0.009824	0.023211	0.029971	0.013968
5.830000	0.175014	0.063867	0.103835	0.053030	0.030920	0.074493	0.076441	0.017212	0.021210	0.016354	0.025175	0.033234	0.055427	0.048178	0.084990	0.075889	0.012640	0.020693	0.011842	0.029713	0.027408	0.061007	0.047365	0.098219	0.019458	0.020786	0.007438	0.007623	0.028441	0.032178	0.031661	0.035759	0.041546	0.045282	0.007621	0.004076	0.005665	0.009455	0.013229	0.018265	0.016014	0.019528	0.014260	0.024795	0.011850	0.016471	0.016814	0.017959	0.036680	0.046783	0.013074	0.009730	0.010963	0.012738	0.019588	0.023337	0.019927	0.009687	0.023225	0.029972	0.014035
5.835000	0.175454	0.064746	0.104565	0.053676	0.031357	0.074684	0.077026	0.017103	0.021437	0.016135	0.024901	0.032874	0.054499	0.047469	0.085193	0.075914	0.012459	0.020382	0.011282	0.029888	0.026823	0.060738	0.046497	0.098315	0.018764	0.019214	0.007464	0.007427	0.027999	0.031900	0.031479	0.035278	0.041921	0.045556	0.007606	0.003718	0.005343	0.009454	0.013096	0.017907	0.015691	0.019187	0.014053	0.024770	0.011666	0.016196	0.016432	0.017705	0.036717	0.047077	0.013587	0.010175	0.011402	0.013106	0.019586	0.023375	0.019773	0.009397	0.023367	0.029935	0.014350
5.840000	0.175797	0.064840	0.104284	0.053173	0.031627	0.074326	0.077304	0.017351	0.021849	0.016417	0.025102	0.033224	0.054408	0.047471	0.085131	0.075737	0.012721	0.020530	0.011041	0.029839	0.026918	0.060097	0.046404	0.098267	0.017363	0.019843	0.007764	0.007434	0.028177	0.032199	0.031294	0.035349	0.041635	0.045158	0.007453	0.003703	0.005438	0.009344	0.013068	0.017903	0.015410	0.019136	0.014145	0.024878	0.011580	0.015976	0.016333	0.017745	0.036682	0.046405	0.013271	0.010332	0.011553	0.013085	0.019862	0.023258	0.019661	0.009198	0.023138	0.029659	0.014283
5.845000	0.176269	0.065129	0.103839	0.053345	0.031786	0.074471	0.077989	0.017991	0.022223	0.016513	0.025043	0.033582	0.054574	0.046792	0.085088	0.075550	0.012981	0.020808	0.011433	0.029607	0.026642	0.059934	0.045687	0.098528	0.019559	0.020700	0.007784	0.007378	0.027681	0.031926	0.031015	0.035349	0.041294	0.048144	0.006910	0.003570	0.005101	0.009074	0.013175	0.017342	0.014869	0.018686	0.013774	0.024724	0.011962	0.016127	0.016594	0.017494	0.036252	0.046302	0.013103	0.010274	0.011000	0.013013	0.019742	0.023278	0.019619	0.008965	0.023495	0.030142	0.014475
5.850000	0.176430	0.065717	0.104075	0.052770	0.032065	0.074631	0.078229	0.017778	0.022734	0.016772	0.024803	0.033844	0.054178	0.046423	0.084800	0.075594	0.012929	0.020899	0.011210	0.029546	0.026229	0.059741	0.045067	0.098550	0.017816	0.019295	0.007865	0.007599	0.027560	0.031778	0.031064	0.035141	0.041387	0.044887	0.007220	0.003254	0.005262	0.009218	0.012939	0.017274	0.014632	0.018729	0.013935	0.024732	0.011210	0.015813	0.016396	0.017371	0.036482	0.046083	0.013526	0.010560	0.011563	0.013052	0.020067	0.023130	0.019457	0.009069	0.023576	0.029800	0.014471
5.855000	0.175905	0.065205	0.103193	0.052406	0.032330	0.074559	0.079364	0.018648	0.023392	0.017571	0.025126	0.034468	0.053269	0.046209	0.084956	0.075531	0.013555	0.021223	0.011517	0.029429	0.026259	0.059353	0.044606	0.098683	0.020722	0.022307	0.008778	0.007425	0.027447	0.031786	0.030894	0.034804	0.041312	0.048688	0.006828	0.003469	0.005275	0.008772	0.013053	0.017017	0.014432	0.018331	0.013610	0.024808	0.011738	0.015866	0.016483	0.017739	0.036190	0.045602	0.013296	0.010765	0.011484	0.012403	0.020099	0.022871	0.019716	0.008752	0.023655	0.029864	0.014726
5.860000	0.175709	0.066324	0.103940	0.053179	0.033036	0.074046	0.079278	0.019136	0.023807	0.017836	0.025047	0.034570	0.053103	0.046096	0.085078	0.075306	0.013289	0.021068	0.011176	0.029216	0.026016	0.059142	0.044367	0.098594	0.016728	0.020037	0.007777	0.007439	0.026569	0.031563	0.030174	0.034046	0.041671	0.048687	0.007399	0.002888	0.005524	0.009021	0.012536	0.016578	0.013821	0.018324	0.014624	0.024627	0.010444	0.015225	0.015466	0.017072	0.036520	0.046031	0.013562	0.011180	0.011791	0.012744	0.019968	0.022629	0.019001	0.008675	0.023926	0.030016	0.014459
5.865000	0.175649	0.065534	0.102835	0.052167	0.032930	0.074368	0.079816	0.020303	0.024272	0.018936	0.025153	0.035779	0.053916	0.045324	0.083638	0.074881	0.013788	0.021454	0.011761	0.028919	0.026244	0.059411	0.044296	0.097755	0.017157	0.020470	0.008352	0.007489	0.026319	0.031006	0.029929	0.033738	0.041667	0.047233	0.006543	0.002834	0.005006	0.008468	0.012763	0.016340	0.013474	0.017919	0.014315	0.024579	0.011206	0.015710	0.016236	0.017631	0.035728	0.044910	0.013076	0.011100	0.011791	0.012414	0.020435	0.022646	0.019067	0.008880	0.023523	0.029766	0.014486
5.870000	0.174804	0.064874	0.101838	0.052016	0.032921	0.074817	0.080131	0.021659	0.025666	0.020110	0.025065	0.036739	0.052543	0.044795	0.084737	0.074893	0.014898	0.021767	0.012818	0.028641	0.026192	0.058669	0.043206	0.098473	0.017228	0.019382	0.008554	0.007544	0.026007	0.030998	0.029540	0.033247	0.040697	0.046191	0.006290	0.002627	0.004847	0.008122	0.012547	0.015796	0.012947	0.017387	0.013616	0.024735	0.011033	0.015425	0.016073	0.017293	0.035726	0.046164	0.013232	0.011141	0.011685	0.012252	0.019962	0.022516	0.018900	0.008870	0.023899	0.030023	0.014775
5.875000	0.174040	0.064377	0.100980	0.050999	0.032904	0.074976	0.080435	0.023033	0.027082	0.021458	0.024981	0.037804	0.052110	0.044736	0.084761	0.074618	0.015942	0.022317	0.013302	0.028236	0.026375	0.058122	0.042811	0.098183	0.017468	0.019797	0.008549	0.007919	0.025697	0.030459	0.029366	0.032909	0.040687	0.045506	0.005731	0.002659	0.004240	0.007804	0.012635	0.015520	0.012538	0.017113	0.013459	0.024349	0.011513	0.015849	0.016364	0.017721	0.035085	0.044830	0.012662	0.011294	0.011981	0.012377	0.019877	0.022208	0.018718	0.008890	0.023984	0.029843	0.014668
5.880000	0.172549	0.062516	0.099746	0.051318	0.033064	0.074951	0.081475	0.024749	0.028184	0.022705	0.025463	0.039620	0.052174	0.043749	0.084403	0.074691	0.016701	0.022589	0.014444	0.028362	0.027317	0.057732	0.042191	0.097916	0.017514	0.019764	0.008889	0.007891	0.024947	0.030106	0.029164	0.032255	0.040091	0.045335	0.005017	0.002624	0.003900	0.007403	0.012678	0.015225	0.012144	0.016917	0.013184	0.024552	0.011914	0.016089	0.016662	0.017712	0.034773	0.043883	0.012236	0.011257	0.011697	0.012033	0.020249	0.022246	0.018939	0.008835	0.024172	0.029809	0.014584
5.885000	0.171474	0.061901	0.098634	0.050528	0.033034	0.075362	0.081695	0.026220	0.030103	0.024411	0.025631	0.040687	0.051886	0.043527	0.084550	0.074418	0.017734	0.023480	0.015344	0.027411	0.027211	0.057393	0.041835	0.097969	0.017568	0.019593	0.008902	0.008254	0.024295	0.029969	0.028810	0.031853	0.039527	0.043082	0.004867	0.002502	0.003856	0.007012	0.012647	0.015016	0.011455	0.016578	0.013328	0.024306	0.011989	0.016086	0.016852	0.017665	0.033854	0.043086	0.011787	0.011150	0.011379	0.011679	0.020193	0.022081	0.019025	0.008682	0.023005	0.029671	0.014618
5.890000	0.170749	0.060417	0.097372	0.049770	0.032877	0.075284	0.081609	0.027801	0.031789	0.025979	0.026154	0.042105	0.052072	0.042417	0.084212	0.074336	0.018936	0.024174	0.016610	0.026830	0.027723	0.057008	0.040916	0.098004	0.017576	0.019298	0.009047	0.008447	0.023595	0.029398	0.028223	0.030998	0.039275	0.040799	0.003997	0.002374	0.003460	0.006678	0.012872	0.014851	0.011171	0.016625	0.012966	0.024404	0.012252	0.016502	0.017033	0.017757	0.033496	0.042333	0.011549	0.010987	0.011391	0.011639	0.020053	0.021795	0.018714	0.008888	0.024227	0.029582	0.014558
5.895000	0.169403	0.058892	0.096026	0.049231	0.032950	0.075512	0.082590	0.029790	0.033533	0.027726	0.027156	0.044299	0.051402	0.042084	0.083915	0.074200	0.020333	0.024936	0.017943	0.026502	0.028720	0.056739	0.040689	0.097611	0.017726	0.019208	0.009313	0.008508	0.023272	0.029042	0.027818	0.030355	0.039138	0.038378	0.003732	0.002704	0.003183	0.006156	0.012723	0.014371	0.010632	0.016015	0.012300	0.023501	0.012602	0.016551	0.017268	0.017927	0.033082	0.041515	0.011381	0.010885	0.011358	0.011388	0.020161	0.022060	0.018918	0.008176	0.024369	0.029581	0.014655
5.900000	0.167998	0.057718	0.094413	0.048341	0.032629	0.075460	0.082194	0.031422	0.035507	0.029179	0.027926	0.045492	0.051193	0.041564	0.083988	0.074184	0.021542	0.026073	0.018870	0.025700	0.029041	0.056519	0.039944	0.097401	0.017742	0.018632	0.009310	0.008835	0.022725	0.028970	0.027522	0.029809	0.038198	0.037430	0.002979	0.002684	0.003326	0.005751	0.012461	0.013978	0.010115	0.015190	0.012986	0.025154	0.012345	0.016307	0.016906	0.017897	0.032481	0.040940	0.011426	0.011256	0.011469	0.011421	0.020298	0.021669	0.018708	0.008883	0.023823	0.029341	0.014544
5.905000	0.166935	0.055973	0.092762	0.046976	0.032043	0.075607	0.082550	0.032892	0.037013	0.031001	0.028978	0.047083	0.050954	0.041074	0.084007	0.074589	0.022618	0.027225	0.020311	0.024909	0.029700	0.055755	0.039568	0.096909	0.017962	0.018852	0.009665	0.008886	0.021824	0.028532	0.026833	0.029029	0.037916	0.036132	0.003037	0.002818	0.002919	0.005636	0.013014	0.014023	0.009490	0.015112	0.011994	0.024364	0.012847	0.016428	0.017291	0.017944	0.032001	0.040056	0.010976	0.010838	0.011266	0.010943	0.020183	0.021741	0.019006	0.008202	0.023921	0.029246	0.014710
5.910000	0.165438	0.056237	0.090875	0.045946	0.031620	0.075478	0.082707	0.034268	0.038734	0.032586	0.030009	0.048605	0.051348	0.040451	0.084432	0.075329	0.023712	0.028189	0.021307	0.024392	0.030427	0.055379	0.038862	0.096398	0.018010	0.018812	0.009935	0.009261	0.020979	0.027898	0.026100	0.028134	0.037500	0.035508	0.002907	0.003003	0.003055	0.005381	0.013046	0.013621	0.010033	0.014977	0.012755	0.024292	0.012994	0.016714	0.017329	0.017814	0.031932	0.039607	0.010575	0.010667	0.011194	0.010898	0.020373	0.022156	0.018690	0.008377	0.023207	0.029156	0.014878
5.915000	0.162956	0.053114	0.089544	0.046374	0.031805	0.075399	0.086677	0.035009	0.039615	0.033772	0.031466	0.051622	0.050361	0.039761	0.084365	0.072966	0.025676	0.029294	0.022908	0.023837	0.030886	0.055584	0.038874	0.096345	0.018034	0.018247	0.010134	0.009297	0.020329	0.027240	0.025623	0.027388	0.037504	0.034182	0.002885	0.003239	0.003725	0.005273	0.012715	0.013441	0.009021	0.014914	0.012083	0.023803	0.012866	0.017009	0.017641	0.017713	0.031107	0.038793	0.010404	0.010383	0.010767	0.010766	0.020216	0.021738	0.018436	0.008414	0.023524	0.029267	0.014947
5.920000	0.161867	0.051636	0.087451	0.045466	0.031271	0.074817	0.086904	0.036555	0.041355	0.035572	0.032802	0.053167	0.050132	0.039667	0.085008	0.073423	0.026727	0.030852	0.024250	0.023206	0.031349	0.055166	0.038525	0.096009	0.017823	0.018038	0.010451	0.009513	0.019361	0.026024	0.025198	0.026735	0.036661	0.033132	0.003090	0.003559	0.003618	0.004739	0.012400	0.013071	0.008571	0.014025	0.013119	0.024661	0.013292	0.016909	0.017604	0.018029	0.030453	0.038032	0.009879	0.010263	0.010755	0.010444	0.019816	0.022086	0.018580	0.008533	0.023346	0.029144	0.014877
5.925000	0.160334	0.050346	0.085274	0.044293	0.030477	0.074823	0.087033	0.037731	0.042460	0.037222	0.033918	0.054765	0.049950	0.039374	0.085529	0.073977	0.028302	0.031965	0.025673	0.022846	0.032250	0.054471	0.038429	0.095595	0.017770	0.017317	0.010557	0.009615	0.019165	0.024924	0.024114	0.025760	0.036754	0.032073	0.003566	0.003603	0.003561	0.005053	0.012555	0.013234	0.008762	0.014603	0.012137	0.024458	0.013326	0.016902	0.017794	0.017868	0.029904	0.037311	0.010071	0.009874	0.010813	0.010052	0.019685	0.020226	0.018409	0.010421	0.023419	0.029272	0.014956
5.930000	0.158608	0.048664	0.082914	0.043794	0.029838	0.074636	0.087899	0.039069	0.043773	0.038721	0.035157	0.056079	0.050242	0.039311	0.086179	0.074669	0.029322	0.033404	0.026707	0.022813	0.033228	0.054321	0.037339	0.095410	0.017355	0.017370	0.011088	0.010051	0.018708	0.024297	0.023646	0.025335	0.036391	0.030595	0.003480	0.003680	0.003970	0.004506	0.012432	0.012899	0.008240	0.013990	0.012202	0.024344	0.013850	0.017173	0.017934	0.017429	0.029554	0.036697	0.009491	0.009934	0.010528	0.010033	0.020016	0.021918	0.018163	0.008984	0.022747	0.029512	0.015055
5.935000	0.156437	0.046034	0.080487	0.043261	0.029386	0.075063	0.089060	0.040129	0.044682	0.040197	0.037345	0.058430	0.049717	0.039590	0.086403	0.075212	0.030322	0.034562	0.028066	0.022990	0.034566	0.053317	0.037529	0.094829	0.017545	0.017115	0.011326	0.010042	0.018890	0.024135	0.023486	0.025006	0.035330	0.029825	0.003859	0.004127	0.003583	0.004089	0.012262	0.013075	0.008097	0.014457	0.010276	0.024565	0.013930	0.017162	0.018037	0.017324	0.028780	0.035421	0.009551	0.010098	0.010798	0.009778	0.019425	0.020616	0.018243	0.009387	0.023095	0.029517	0.015210
5.940000	0.155039	0.045219	0.078337	0.042396	0.028688	0.074719	0.089298	0.041460	0.045884	0.041488	0.038087	0.059831	0.049454	0.039193	0.087198	0.075088	0.031589	0.035836	0.028943	0.022810	0.035050	0.053249	0.037207	0.094419	0.017320	0.016662	0.012022	0.010273	0.018495	0.023594	0.023647	0.024483	0.034979	0.029130	0.004303	0.004714	0.004516	0.004140	0.011637	0.012258	0.008252	0.014464	0.010985	0.024393	0.014090	0.017221	0.017893	0.017171	0.028197	0.034740	0.009117	0.009292	0.010351	0.009984	0.018904	0.020838	0.018370	0.009826	0.022950	0.029630	0.015133
5.945000	0.153075	0.042370	0.075600	0.041922	0.027938	0.074880	0.089913	0.042325	0.047062	0.042739	0.038893	0.061087	0.049433	0.038925	0.087687	0.075509	0.032676	0.037036	0.030010	0.022962	0.035989	0.052677	0.036813	0.094070	0.016746	0.016439	0.012265	0.010150	0.018027	0.022912	0.022926	0.023544	0.034844	0.026662	0.004600	0.004861	0.004876	0.004066	0.011387	0.012532	0.008011	0.014351	0.011108	0.025040	0.013975	0.017170	0.017829	0.016741	0.027885	0.033725	0.009021	0.008992	0.010308	0.009734	0.018898	0.021441	0.018311	0.009264	0.023277	0.029695	0.015597
5.950000	0.151211	0.041401	0.073435	0.041271	0.027209	0.074272	0.089915	0.043446	0.048047	0.043933	0.039724	0.062489	0.049465	0.038942	0.088339	0.075456	0.033365	0.037951	0.031050	0.023004	0.036490	0.052546	0.036819	0.093759	0.016367	0.016107	0.012640	0.010163	0.017582	0.022360	0.021788	0.022964	0.034816	0.025977	0.005660	0.005567	0.004903	0.003845	0.011453	0.012250	0.008185	0.014506	0.011291	0.024935	0.013925	0.016905	0.017697	0.016278	0.027571	0.032956	0.008955	0.009019	0.010195	0.009897	0.018621	0.021259	0.018420	0.009084	0.022879	0.029330	0.015741
5.955000	0.149289	0.038965	0.070656	0.040627	0.026623	0.074622	0.090345	0.044698	0.049439	0.045218	0.040423	0.063582	0.048763	0.039047	0.088455	0.075475	0.034260	0.038989	0.032035	0.023574	0.037460	0.052071	0.036790	0.093223	0.016823	0.015587	0.012838	0.010038	0.017881	0.022208	0.022223	0.022562	0.034870	0.025210	0.005730	0.005889	0.004876	0.003722	0.011174	0.012121	0.008475	0.014257	0.011557	0.025283	0.013964	0.016747	0.017516	0.015527	0.027414	0.031803	0.009336	0.008948	0.010080	0.009361	0.018573	0.021807	0.018778	0.009569	0.021757	0.029186	0.015591
5.960000	0.147530	0.037152	0.068048	0.039980	0.026062	0.074412	0.090273	0.045711	0.050383	0.046285	0.041234	0.064720	0.048506	0.038846	0.089034	0.075690	0.034889	0.039808	0.032931	0.024294	0.038007	0.051587	0.036843	0.092744	0.016726	0.015039	0.013171	0.010130	0.017631	0.021413	0.021460	0.021802	0.035111	0.024275	0.005914	0.005850	0.005567	0.003680	0.011034	0.012059	0.008583	0.014342	0.011456	0.025956	0.013870	0.016173	0.017216	0.015051	0.027090	0.031299	0.009143	0.008554	0.010209	0.009789	0.018517	0.022199	0.018455	0.009313	0.021899	0.029742	0.016012
5.965000	0.145528	0.034651	0.065197	0.039290	0.025393	0.074222	0.090263	0.046810	0.051145	0.047224	0.041734	0.065652	0.048229	0.039074	0.089316	0.075756	0.035817	0.040330	0.033459	0.024652	0.038661	0.051200	0.036809	0.092297	0.016057	0.014595	0.013352	0.009624	0.016812	0.020448	0.020722	0.020874	0.035429	0.023572	0.006676	0.006549	0.005787	0.003778	0.011031	0.011560	0.008399	0.014561	0.010827	0.025913	0.013610	0.016109	0.017099	0.014527	0.027724	0.030835	0.009406	0.008408	0.010292	0.009737	0.017908	0.021815	0.018232	0.009504	0.022210	0.029950	0.016361
5.970000	0.143589	0.032655	0.062629	0.038875	0.025447	0.074278	0.090629	0.047729	0.052084	0.048144	0.042335	0.066678	0.048206	0.038636	0.089705	0.075282	0.036823	0.041224	0.034462	0.025451	0.039226	0.050988	0.036681	0.092237	0.016214	0.014243	0.013723	0.009639	0.017202	0.020180	0.020077	0.020234	0.035508	0.022866	0.007331	0.006927	0.005858	0.004288	0.010903	0.011617	0.008566	0.013811	0.010800	0.026477	0.013466	0.015020	0.016420	0.013792	0.027851	0.030454	0.009598	0.008269	0.010476	0.009783	0.017331	0.022087	0.018014	0.009651	0.022473	0.030325	0.016565
5.975000	0.141526	0.030738	0.059906	0.038537	0.025262	0.074491	0.090266	0.048411	0.052961	0.049061	0.042964	0.067107	0.047567	0.038841	0.089511	0.074927	0.037457	0.042188	0.035343	0.026189	0.040209	0.050837	0.036694	0.091255	0.016884	0.014318	0.013595	0.009149	0.016652	0.019496	0.019606	0.019564	0.036816	0.022604	0.008019	0.007009	0.006270	0.004512	0.011338	0.011355	0.008412	0.014582	0.011722	0.025725	0.012920	0.014799	0.015973	0.013505	0.028644	0.030171	0.010123	0.008427	0.011136	0.009961	0.017058	0.021415	0.018062	0.009284	0.022356	0.030958	0.016596
5.980000	0.139501	0.028892	0.057262	0.037681	0.024945	0.074267	0.089749	0.049436	0.053630	0.049900	0.043134	0.066846	0.047436	0.038655	0.090323	0.074066	0.038444	0.042600	0.036173	0.026311	0.040285	0.050536	0.036770	0.091964	0.017076	0.013672	0.013883	0.008909	0.015893	0.018299	0.018426	0.018416	0.037107	0.022457	0.008290	0.007358	0.006371	0.004619	0.010731	0.010874	0.008285	0.015254	0.011021	0.026574	0.012238	0.014186	0.015132	0.013021	0.028880	0.030265	0.010433	0.008584	0.011468	0.010335	0.016707	0.021285	0.018009	0.010247	0.022560	0.031340	0.016704
5.985000	0.136951	0.027109	0.055476	0.037101	0.024512	0.074030	0.089478	0.050300	0.053948	0.050207	0.043697	0.067575	0.046921	0.038503	0.089928	0.073427	0.038758	0.043062	0.036783	0.026660	0.040836	0.050329	0.036780	0.091168	0.016165	0.013561	0.014188	0.008676	0.014856	0.017135	0.017503	0.017292	0.037735	0.022394	0.009271	0.007799	0.007477	0.005121	0.010922	0.010214	0.007579	0.015522	0.011036	0.025944	0.011625	0.013679	0.014861	0.013028	0.029879	0.030518	0.011315	0.008620	0.011969	0.010629	0.016192	0.020926	0.017626	0.010226	0.023185	0.031602	0.017145
5.990000	0.134888	0.025371	0.052624	0.036615	0.024784	0.073863	0.089390	0.050728	0.054644	0.050674	0.044081	0.067460	0.046985	0.038282	0.089696	0.072158	0.039834	0.043381	0.037432	0.027023	0.041045	0.050262	0.036429	0.091565	0.017453	0.013599	0.013886	0.008492	0.014464	0.016529	0.017100	0.016832	0.038142	0.021906	0.009855	0.007891	0.007669	0.005730	0.010497	0.009345	0.007155	0.015454	0.011062	0.027514	0.011118	0.012904	0.014189	0.012705	0.030162	0.030313	0.011663	0.009050	0.012008	0.011281	0.016097	0.020311	0.017758	0.009984	0.023491	0.032569	0.016749
5.995000	0.132282	0.024136	0.050418	0.035704	0.024426	0.073589	0.088435	0.051221	0.055433	0.051022	0.044382	0.067869	0.046552	0.038631	0.089608	0.071033	0.039719	0.043669	0.037941	0.026415	0.041263	0.050585	0.035895	0.091140	0.016829	0.013861	0.014012	0.007951	0.013599	0.015131	0.016295	0.015703	0.038702	0.021896	0.010553	0.008712	0.008836	0.006492	0.010379	0.008438	0.007677	0.015609	0.012062	0.027599	0.010530	0.012484	0.013774	0.012780	0.030618	0.030366	0.012871	0.009483	0.012664	0.011586	0.015416	0.019379	0.017621	0.010518	0.024091	0.033181	0.016881
6.000000	0.129931	0.022651	0.048241	0.035157	0.024582	0.073443	0.087770	0.051915	0.055942	0.051477	0.044393	0.068169	0.046088	0.038570	0.089064	0.069589	0.040482	0.044264	0.038527	0.027669	0.041583	0.050666	0.035771	0.091299	0.016354	0.014109	0.014196	0.007875	0.013689	0.014683	0.016083	0.015419	0.038938	0.021886	0.010735	0.008911	0.008984	0.008232	0.009755	0.007627	0.007430	0.015703	0.013550	0.026479	0.010169	0.012008	0.013416	0.012587	0.031075	0.029989	0.013516	0.009996	0.013017	0.012348	0.014418	0.018419	0.017326	0.011877	0.024964	0.034273	0.016726
6.005000	0.127730	0.021444	0.046309	0.034477	0.024614	0.073124	0.087153	0.052403	0.056411	0.051995	0.044656	0.067609	0.045285	0.038459	0.088434	0.067875	0.040769	0.044503	0.039093	0.027627	0.041391	0.050625	0.035721	0.091675	0.018613	0.014504	0.014049	0.007755	0.014018	0.014504	0.015884	0.015181	0.039439	0.022417	0.011232	0.008849	0.009677	0.008649	0.009485	0.007199	0.007776	0.015593	0.015089	0.024892	0.009920	0.011401	0.013013	0.011906	0.030951	0.028987	0.014366	0.010861	0.013431	0.013319	0.012708	0.015615	0.016732	0.011419	0.026133	0.034927	0.016244
6.010000	0.125054	0.020546	0.044666	0.033707	0.024545	0.072572	0.086087	0.052733	0.056693	0.052069	0.044528	0.067986	0.045132	0.038306	0.087607	0.066395	0.040743	0.044382	0.039479	0.026809	0.041086	0.051047	0.034871	0.091989	0.018020	0.014923	0.014336	0.007593	0.013831	0.013624	0.014875	0.014115	0.038935	0.021016	0.010453	0.008425	0.009357	0.008384	0.009941	0.008043	0.008573	0.016110	0.017505	0.021988	0.010585	0.011545	0.012915	0.012076	0.031635	0.028475	0.014691	0.011669	0.013874	0.013395	0.011925	0.013995	0.016458	0.012678	0.027440	0.034527	0.016492
6.015000	0.121803	0.020380	0.043433	0.032870	0.024272	0.071815	0.085263	0.053048	0.056879	0.052245	0.044220	0.067917	0.044586	0.038425	0.086584	0.064428	0.041114	0.044417	0.039394	0.026526	0.040832	0.050103	0.034956	0.092424	0.017245	0.015152	0.014261	0.007371	0.014179	0.013080	0.013919	0.012972	0.039097	0.020760	0.009649	0.008313	0.009317	0.008618	0.011675	0.008610	0.010798	0.016328	0.021046	0.019445	0.011478	0.011902	0.012837	0.012027	0.032126	0.028009	0.014633	0.011844	0.014342	0.014444	0.011731	0.013073	0.016186	0.013620	0.028107	0.034485	0.018053
6.020000	0.119594	0.019802	0.042677	0.031792	0.023906	0.070787	0.083776	0.053386	0.057020	0.052479	0.043926	0.067077	0.044642	0.038192	0.085644	0.062426	0.040694	0.044071	0.039226	0.026353	0.040204	0.046882	0.034831	0.092298	0.018704	0.016133	0.014034	0.007702	0.014236	0.013098	0.013402	0.012482	0.039328	0.019506	0.009441	0.009050	0.009039	0.008308	0.013173	0.009391	0.012611	0.015858	0.020349	0.018025	0.012233	0.011854	0.011537	0.012415	0.032872	0.028627	0.014563	0.012416	0.014289	0.014113	0.012596	0.011446	0.017620	0.014386	0.027946	0.033440	0.016331
6.025000	0.116644	0.020574	0.041906	0.031392	0.023591	0.069763	0.082691	0.053568	0.056766	0.052229	0.043406	0.066118	0.043933	0.038315	0.084048	0.060764	0.040675	0.043402	0.038819	0.025578	0.039130	0.047713	0.034169	0.092605	0.019579	0.016578	0.014503	0.007767	0.014745	0.012940	0.011927	0.012908	0.040009	0.023215	0.008792	0.009123	0.009230	0.008782	0.014958	0.009782	0.014022	0.015785	0.018879	0.018783	0.013153	0.011849	0.011008	0.014345	0.036029	0.032817	0.014855	0.013561	0.015514	0.015059	0.013329	0.012024	0.019228	0.014773	0.028108	0.032120	0.017442
6.030000	0.113955	0.022741	0.042172	0.030087	0.022752	0.068209	0.080554	0.053297	0.056468	0.051935	0.042723	0.065388	0.043979	0.038301	0.082908	0.058573	0.039269	0.042314	0.037944	0.024790	0.037886	0.048116	0.034003	0.092427	0.020257	0.017681	0.014382	0.007670	0.014029	0.012355	0.010357	0.013609	0.040367	0.025435	0.008444	0.010276	0.009628	0.008988	0.018116	0.009570	0.016014	0.016166	0.017162	0.020950	0.013594	0.011452	0.009585	0.018166	0.040212	0.039280	0.015834	0.014354	0.016929	0.016497	0.013609	0.012931	0.020349	0.014781	0.029149	0.031428	0.016209
6.035000	0.111762	0.024880	0.042676	0.029534	0.021957	0.066302	0.078754	0.052497	0.055267	0.050946	0.041479	0.063735	0.043990	0.038244	0.081567	0.056510	0.038580	0.040994	0.036657	0.023802	0.036121	0.048530	0.034636	0.092135	0.020878	0.018287	0.014340	0.007578	0.013628	0.011853	0.008807	0.013788	0.040504	0.028464	0.008823	0.009981	0.009885	0.009724	0.018828	0.008991	0.017879	0.015904	0.016787	0.023148	0.013643	0.011233	0.009144	0.020994	0.042883	0.045340	0.018143	0.016137	0.018888	0.018480	0.014133	0.013364	0.021784	0.013435	0.027690	0.031353	0.016314
6.040000	0.108973	0.023887	0.043714	0.029114	0.021036	0.064603	0.077130	0.051326	0.054101	0.049651	0.039843	0.062320	0.043874	0.038442	0.080270	0.054832	0.036890	0.039336	0.034941	0.022714	0.034143	0.049064	0.034941	0.091578	0.020800	0.018541	0.014228	0.007549	0.013709	0.011688	0.009064	0.013363	0.040362	0.030501	0.009502	0.011007	0.010403	0.010362	0.020042	0.009068	0.020586	0.016650	0.017394	0.025744	0.013759	0.010645	0.008670	0.020313	0.042618	0.047828	0.019026	0.017154	0.020199	0.018855	0.015105	0.014276	0.023466	0.011629	0.025673	0.032864	0.016411
6.045000	0.107826	0.028034	0.044834	0.028388	0.019989	0.062975	0.074783	0.049681	0.052439	0.048010	0.038271	0.059474	0.044706	0.038776	0.079102	0.052680	0.035342	0.037084	0.033258	0.020922	0.031041	0.049795	0.035549	0.091095	0.020181	0.017776	0.014785	0.007260	0.014267	0.012551	0.010857	0.012886	0.039485	0.031771	0.009819	0.010469	0.010028	0.010784	0.020913	0.009635	0.020894	0.014842	0.014094	0.027733	0.013907	0.010146	0.008833	0.017116	0.040852	0.047869	0.018263	0.017266	0.019641	0.018703	0.015826	0.014793	0.024994	0.009454	0.024288	0.035532	0.018019
6.050000	0.106256	0.027100	0.045962	0.028505	0.018876	0.061463	0.072909	0.048053	0.050266	0.046197	0.035935	0.057623	0.045371	0.039566	0.078473	0.051462	0.033622	0.034866	0.031047	0.019781	0.028590	0.050628	0.036389	0.090112	0.018971	0.018202	0.014659	0.007665	0.014890	0.013917	0.012277	0.013266	0.037920	0.030353	0.010023	0.010422	0.010823	0.010775	0.021537	0.010342	0.021764	0.014882	0.011708	0.028642	0.014590	0.010839	0.010342	0.014023	0.038474	0.045834	0.017197	0.016945	0.019311	0.018141	0.017059	0.015196	0.026371	0.006264	0.022402	0.038388	0.017582
6.055000	0.105975	0.028090	0.047049	0.028460	0.018488	0.060495	0.071460	0.045995	0.048097	0.044188	0.034748	0.054502	0.045712	0.040199	0.077703	0.050162	0.031577	0.033092	0.028736	0.018568	0.025680	0.051447	0.037376	0.089889	0.018896	0.017249	0.015564	0.008242	0.015726	0.015485	0.014174	0.014323	0.036696	0.028928	0.010442	0.010207	0.010323	0.010873	0.022797	0.011444	0.021760	0.015593	0.010214	0.028298	0.015548	0.012514	0.011960	0.012456	0.035624	0.042424	0.015748	0.016617	0.018136	0.017124	0.018615	0.016369	0.028079	0.006041	0.020560	0.039106	0.019518
6.060000	0.106157	0.029385	0.048333	0.029132	0.018203	0.059449	0.069979	0.043387	0.045447	0.041630	0.032359	0.051946	0.045516	0.040827	0.077013	0.049276	0.029134	0.030877	0.026355	0.017781	0.022565	0.052351	0.037877	0.089442	0.018358	0.017646	0.015351	0.008354	0.015458	0.016169	0.014504	0.015077	0.035557	0.024262	0.010589	0.009653	0.010379	0.010361	0.022646	0.012224	0.022125	0.015962	0.009714	0.027008	0.016094	0.014314	0.013768	0.012717	0.032838	0.035549	0.014434	0.016031	0.016830	0.015698	0.020268	0.017770	0.029925	0.007217	0.018987	0.038175	0.018090
6.065000	0.105821	0.029696	0.049048	0.029609	0.018251	0.059132	0.068977	0.041093	0.043168	0.039114	0.030472	0.049146	0.046863	0.040652	0.077423	0.048421	0.027379	0.029376	0.024065	0.017569	0.020089	0.055246	0.038460	0.088613	0.017622	0.016572	0.015895	0.007636	0.014536	0.015777	0.014686	0.015327	0.035228	0.022338	0.011269	0.009261	0.009824	0.009780	0.022848	0.013252	0.021839	0.017710	0.010009	0.027425	0.016008	0.015342	0.014508	0.014166	0.030875	0.031530	0.013876	0.015947	0.016050	0.014691	0.021475	0.019660	0.031091	0.009081	0.017744	0.034969	0.020036
6.070000	0.106529	0.030001	0.050042	0.030234	0.018540	0.058908	0.068183	0.038710	0.040736	0.036587	0.028870	0.046772	0.047673	0.042108	0.077061	0.047939	0.025366	0.027301	0.021783	0.017967	0.018206	0.055113	0.039764	0.088081	0.017444	0.016060	0.015885	0.007780	0.013174	0.014784	0.014614	0.014633	0.035022	0.020870	0.012447	0.009032	0.010892	0.009251	0.022733	0.013389	0.021792	0.018644	0.010028	0.025716	0.014792	0.015727	0.015107	0.015207	0.029551	0.028070	0.013882	0.015511	0.015150	0.014393	0.022247	0.020619	0.031688	0.009739	0.017131	0.033366	0.020172
6.075000	0.107173	0.030064	0.050810	0.030997	0.019363	0.059421	0.067345	0.036263	0.038375	0.033921	0.027234	0.043753	0.048101	0.042029	0.077522	0.048167	0.023364	0.025868	0.019281	0.018371	0.016107	0.055838	0.039718	0.087806	0.017299	0.015504	0.015327	0.007761	0.012767	0.014321	0.014328	0.014215	0.035273	0.020225	0.013057	0.008655	0.011257	0.009816	0.022278	0.013762	0.020495	0.019835	0.010011	0.025283	0.013640	0.015782	0.015519	0.016378	0.028882	0.025774	0.014229	0.015903	0.015420	0.014321	0.022594	0.021055	0.031366	0.011412	0.017015	0.032672	0.018713
6.080000	0.108072	0.029861	0.051273	0.031674	0.019921	0.059698	0.067251	0.034020	0.036094	0.031781	0.026350	0.042010	0.049041	0.042236	0.077469	0.048267	0.022613	0.025128	0.017710	0.019136	0.015700	0.055562	0.039421	0.087025	0.017010	0.014895	0.015136	0.009127	0.012566	0.013865	0.015253	0.013427	0.035418	0.021066	0.014100	0.009133	0.011727	0.010158	0.021231	0.013881	0.019758	0.021191	0.012814	0.025362	0.011997	0.015254	0.015411	0.016899	0.028636	0.024926	0.014832	0.015936	0.015299	0.014349	0.021906	0.020610	0.030715	0.011901	0.017633	0.032300	0.017563
6.085000	0.109257	0.029017	0.051212	0.031686	0.019954	0.060328	0.065984	0.032422	0.034726	0.029676	0.025260	0.039579	0.049534	0.042589	0.078153	0.049729	0.021204	0.024890	0.016370	0.019792	0.015727	0.053868	0.038530	0.086391	0.016070	0.015111	0.014863	0.008951	0.012987	0.013317	0.015391	0.012343	0.035661	0.021510	0.014035	0.009571	0.012020	0.010437	0.019451	0.013924	0.018191	0.022562	0.013611	0.026421	0.011645	0.014760	0.015213	0.016734	0.029238	0.025577	0.015878	0.016355	0.016082	0.015266	0.020447	0.020408	0.028494	0.012455	0.018909	0.033352	0.016758
6.090000	0.109692	0.028481	0.051774	0.032429	0.020667	0.061318	0.066283	0.030892	0.033109	0.027759	0.024417	0.038157	0.049985	0.042209	0.078616	0.050512	0.021271	0.024790	0.016023	0.020463	0.015819	0.053730	0.038257	0.085653	0.016551	0.013402	0.014172	0.008812	0.014144	0.013777	0.016578	0.012164	0.036470	0.021915	0.014177	0.010812	0.013569	0.011240	0.017936	0.013891	0.017239	0.024529	0.016247	0.027545	0.010787	0.013632	0.014028	0.015739	0.029073	0.025764	0.016435	0.016422	0.016920	0.015747	0.018961	0.019455	0.027208	0.012905	0.019600	0.033583	0.016006
6.095000	0.110248	0.028201	0.052202	0.032700	0.020858	0.061865	0.065987	0.029931	0.031792	0.026394	0.024222	0.037422	0.050286	0.042102	0.078480	0.050985	0.020753	0.024865	0.015913	0.020414	0.015788	0.053735	0.037590	0.085254	0.015458	0.013306	0.013868	0.008584	0.015785	0.014747	0.017616	0.012394	0.037196	0.021196	0.014298	0.011282	0.013901	0.011874	0.016945	0.014536	0.016859	0.025567	0.017423	0.028862	0.011049	0.012887	0.013594	0.014676	0.030130	0.026106	0.017205	0.017178	0.017868	0.016693	0.018076	0.019366	0.026362	0.013745	0.020848	0.033656	0.015739
6.100000	0.110938	0.027037	0.052654	0.032653	0.020879	0.062092	0.066011	0.029420	0.031237	0.025418	0.023398	0.036721	0.050820	0.042061	0.078641	0.051952	0.020404	0.025124	0.016093	0.020328	0.016145	0.053443	0.037215	0.084595	0.016142	0.012640	0.013465	0.008859	0.017657	0.015826	0.019072	0.013084	0.038024	0.021860	0.014710	0.012702	0.014618	0.012097	0.015972	0.014544	0.016267	0.025895	0.018614	0.029335	0.011981	0.012770	0.013187	0.014039	0.030593	0.026310	0.017407	0.017234	0.017959	0.017457	0.017518	0.019532	0.025630	0.014726	0.021305	0.033333	0.014729
6.105000	0.110416	0.027325	0.052906	0.032709	0.020368	0.061984	0.065927	0.028881	0.030793	0.024751	0.023040	0.035699	0.050630	0.041751	0.078633	0.052822	0.020844	0.025543	0.016333	0.020197	0.016608	0.052903	0.036996	0.084192	0.014516	0.012513	0.012821	0.008825	0.019215	0.016693	0.020050	0.013655	0.038300	0.021423	0.014109	0.013702	0.014017	0.012294	0.015359	0.015205	0.016563	0.025760	0.018548	0.028821	0.012881	0.013027	0.013234	0.014108	0.031345	0.026286	0.017572	0.017258	0.018207	0.017629	0.016549	0.019205	0.024615	0.014648	0.022401	0.033224	0.014513
6.110000	0.110818	0.026764	0.053681	0.032332	0.020430	0.061908	0.065578	0.028933	0.030462	0.024653	0.023565	0.035589	0.051047	0.041508	0.078411	0.053749	0.020494	0.025835	0.016702	0.020111	0.016815	0.053070	0.036764	0.083993	0.015403	0.012296	0.012382	0.009210	0.020468	0.017590	0.021005	0.014423	0.038732	0.021449	0.014111	0.014261	0.013842	0.012203	0.015172	0.014614	0.015768	0.025009	0.018242	0.028637	0.014117	0.013713	0.013233	0.014622	0.031652	0.025909	0.017333	0.017099	0.018001	0.017537	0.016082	0.018918	0.024239	0.014898	0.022484	0.033041	0.013792
6.115000	0.110324	0.027160	0.054394	0.032597	0.019970	0.061690	0.065473	0.028914	0.030682	0.024535	0.022728	0.035167	0.050601	0.041014	0.078587	0.054461	0.020560	0.025907	0.017102	0.020045	0.017882	0.052596	0.036194	0.083581	0.013642	0.011909	0.011988	0.009112	0.020800	0.017361	0.020420	0.014436	0.038428	0.020806	0.012803	0.015799	0.013512	0.011319	0.015179	0.014792	0.015785	0.023339	0.016977	0.028161	0.014660	0.013721	0.013017	0.015742	0.032177	0.025804	0.016923	0.016797	0.017543	0.017013	0.015532	0.018452	0.023415	0.014047	0.022957	0.033088	0.013848
6.120000	0.110433	0.028103	0.054468	0.032312	0.019869	0.061712	0.064930	0.028854	0.030276	0.024672	0.022632	0.035133	0.050803	0.041685	0.077714	0.054922	0.020840	0.025890	0.017736	0.019903	0.018387	0.052570	0.036298	0.083472	0.014574	0.011563	0.011606	0.009378	0.020570	0.017266	0.019935	0.014459	0.038432	0.020874	0.012197	0.015985	0.012976	0.011017	0.015329	0.014037	0.015262	0.021507	0.016673	0.027345	0.015085	0.013855	0.013060	0.015584	0.032243	0.025747	0.016109	0.016199	0.016876	0.016402	0.015305	0.017794	0.023083	0.012956	0.023222	0.033394	0.012907
6.125000	0.110247	0.027657	0.054721	0.031960	0.019097	0.061230	0.064409	0.029364	0.030450	0.025047	0.022520	0.035407	0.050250	0.041229	0.077662	0.055608	0.020964	0.025809	0.017887	0.019805	0.018609	0.052419	0.035707	0.083343	0.012989	0.011757	0.011616	0.008907	0.018923	0.015964	0.018023	0.013794	0.037363	0.020201	0.011172	0.015473	0.012138	0.009926	0.015643	0.013557	0.014926	0.019505	0.014832	0.027870	0.015210	0.014036	0.013396	0.015815	0.032371	0.026427	0.015376	0.015621	0.016250	0.015568	0.014930	0.017556	0.023054	0.011799	0.023422	0.033589	0.014651
6.130000	0.109846	0.028705	0.055479	0.032006	0.018889	0.060732	0.063960	0.029119	0.030414	0.024991	0.022248	0.035299	0.050310	0.041115	0.077217	0.055989	0.020637	0.026017	0.017975	0.019754	0.018627	0.052559	0.035609	0.082877	0.013706	0.011329	0.011295	0.009329	0.017317	0.014650	0.016352	0.012862	0.036410	0.020760	0.010330	0.015762	0.011550	0.009404	0.016364	0.012751	0.015095	0.018007	0.014676	0.027537	0.014684	0.013501	0.012432	0.015438	0.031199	0.026989	0.014423	0.014951	0.014934	0.014640	0.015151	0.016701	0.023900	0.010887	0.023280	0.033569	0.013109
6.135000	0.109906	0.029177	0.055704	0.031822	0.018530	0.060210	0.063258	0.029170	0.030358	0.025612	0.022344	0.035558	0.050275	0.040937	0.076715	0.056352	0.020528	0.025935	0.018213	0.019880	0.018855	0.052536	0.035672	0.082545	0.012055	0.011381	0.011537	0.008921	0.015219	0.012727	0.014093	0.011608	0.035112	0.020453	0.009789	0.014785	0.011108	0.008631	0.017123	0.012347	0.015469	0.016317	0.013926	0.027286	0.013876	0.012774	0.012349	0.014744	0.030887	0.027775	0.013991	0.014504	0.014462	0.013855	0.014979	0.015555	0.023929	0.009894	0.023283	0.034179	0.014748
6.140000	0.109272	0.030981	0.056359	0.031937	0.018381	0.060004	0.063226	0.028850	0.030122	0.025405	0.021995	0.035559	0.050180	0.041155	0.076146	0.056777	0.020479	0.025603	0.018429	0.020045	0.018483	0.052518	0.035430	0.082441	0.013023	0.011494	0.011184	0.009083	0.013409	0.012084	0.012622	0.011026	0.034599	0.021194	0.009321	0.013081	0.010708	0.008325	0.017105	0.011451	0.015551	0.015582	0.014163	0.026830	0.013010	0.012378	0.011739	0.014031	0.029852	0.028478	0.013403	0.013834	0.013993	0.013506	0.015226	0.015228	0.024381	0.008962	0.023616	0.034834	0.014232
6.145000	0.109272	0.030245	0.056619	0.031331	0.017992	0.059438	0.062607	0.029098	0.030076	0.025700	0.022005	0.035801	0.049893	0.041361	0.075709	0.056966	0.020388	0.025353	0.018030	0.020363	0.018312	0.052301	0.035611	0.082181	0.012448	0.011483	0.011003	0.009186	0.011651	0.010952	0.011315	0.010069	0.033624	0.020892	0.008994	0.011945	0.010375	0.007759	0.017649	0.011131	0.016177	0.014887	0.013630	0.027719	0.012397	0.011933	0.011287	0.012929	0.029438	0.029495	0.013138	0.013620	0.013515	0.013038	0.014876	0.014991	0.024570	0.008809	0.023733	0.035034	0.013500
6.150000	0.108523	0.031527	0.056648	0.032035	0.018066	0.059269	0.062251	0.028874	0.029846	0.025549	0.021736	0.035660	0.050171	0.041344	0.075282	0.057528	0.020083	0.025162	0.017937	0.020649	0.018171	0.052070	0.035529	0.081801	0.012263	0.011229	0.011071	0.008862	0.010762	0.012003	0.013009	0.009995	0.033245	0.020837	0.009278	0.010997	0.010115	0.007649	0.017748	0.010822	0.016048	0.014065	0.012896	0.028063	0.011675	0.011283	0.010908	0.012469	0.029057	0.029992	0.012538	0.013063	0.013398	0.012644	0.015186	0.015158	0.024710	0.008495	0.023965	0.036515	0.014727
6.155000	0.108612	0.032146	0.057291	0.032045	0.017812	0.058849	0.061910	0.028705	0.029344	0.025536	0.021827	0.035005	0.050457	0.040190	0.074808	0.057755	0.019756	0.024382	0.017462	0.021437	0.017948	0.052293	0.035785	0.080991	0.011955	0.011040	0.011013	0.008688	0.009908	0.011734	0.012611	0.009926	0.033049	0.021030	0.009290	0.010112	0.009676	0.007316	0.018122	0.010509	0.016953	0.013181	0.011975	0.027998	0.010997	0.011197	0.010981	0.012006	0.028731	0.030028	0.012020	0.012574	0.012743	0.012326	0.015230	0.014260	0.025278	0.007648	0.024482	0.037167	0.014739
6.160000	0.108025	0.032717	0.057813	0.032356	0.017720	0.058313	0.061645	0.028269	0.028962	0.025237	0.021542	0.034462	0.049796	0.041381	0.074466	0.058156	0.018896	0.024044	0.016940	0.021522	0.017510	0.051961	0.036038	0.080871	0.011856	0.010971	0.010583	0.009356	0.009416	0.010498	0.010840	0.009886	0.032913	0.020202	0.009745	0.008952	0.009658	0.007106	0.018528	0.010235	0.017681	0.012554	0.012134	0.028371	0.011031	0.011100	0.010990	0.011913	0.028645	0.030062	0.012141	0.012291	0.012713	0.012260	0.015127	0.014031	0.025710	0.007737	0.024329	0.037668	0.013694
6.165000	0.108308	0.032993	0.058564	0.032518	0.017823	0.058156	0.061389	0.028116	0.028835	0.025072	0.021624	0.034248	0.050502	0.040807	0.073922	0.058196	0.018240	0.023576	0.016284	0.021830	0.017555	0.052504	0.035999	0.080122	0.011612	0.010759	0.010936	0.009330	0.009325	0.011928	0.013066	0.010454	0.033012	0.020555	0.010562	0.008309	0.010152	0.007574	0.017764	0.009808	0.017106	0.012635	0.012506	0.028404	0.010968	0.011248	0.011219	0.011840	0.028551	0.029414	0.012063	0.012322	0.012849	0.012083	0.015289	0.014084	0.025741	0.007562	0.023906	0.038590	0.013814
6.170000	0.108207	0.034133	0.059064	0.032893	0.018207	0.058014	0.061215	0.027118	0.028071	0.024290	0.021398	0.033453	0.050594	0.041223	0.073263	0.058234	0.017954	0.023600	0.015861	0.022088	0.017323	0.052412	0.036692	0.079482	0.012107	0.010637	0.010756	0.008933	0.009273	0.012032	0.012738	0.010371	0.033246	0.019740	0.011308	0.007881	0.010313	0.007950	0.017823	0.010006	0.017237	0.013009	0.011146	0.029142	0.010998	0.011428	0.011184	0.011826	0.028536	0.028576	0.012108	0.012235	0.012878	0.012436	0.015206	0.013886	0.025877	0.007079	0.024228	0.038749	0.014436
6.175000	0.107438	0.034600	0.059457	0.033289	0.017852	0.057742	0.061182	0.026852	0.027534	0.023979	0.021475	0.033369	0.050924	0.041391	0.073002	0.058455	0.017067	0.022961	0.014920	0.022686	0.017196	0.052660	0.036862	0.078974	0.012275	0.010432	0.010866	0.009619	0.008815	0.010118	0.010751	0.009660	0.033187	0.018764	0.011942	0.008031	0.011362	0.008368	0.017585	0.009743	0.016826	0.012360	0.012094	0.029353	0.010836	0.011334	0.011289	0.011535	0.028335	0.027533	0.012375	0.012250	0.012948	0.012285	0.015079	0.013900	0.025845	0.007493	0.024273	0.039158	0.013581
6.180000	0.107351	0.035140	0.060193	0.033528	0.017997	0.057089	0.060763	0.026220	0.027063	0.023322	0.021326	0.032538	0.051330	0.041483	0.072657	0.058390	0.016253	0.022428	0.014248	0.023163	0.017129	0.053049	0.036941	0.078373	0.011517	0.010297	0.010767	0.009458	0.008236	0.010608	0.011975	0.009184	0.032951	0.018722	0.011869	0.007446	0.010836	0.008421	0.017666	0.010762	0.016837	0.013073	0.010623	0.030006	0.010432	0.011257	0.010817	0.011867	0.028308	0.026834	0.012605	0.012015	0.012755	0.012479	0.015363	0.014170	0.025660	0.007790	0.024415	0.039385	0.013907
6.185000	0.106779	0.035581	0.060617	0.034177	0.018095	0.057113	0.060957	0.025571	0.026179	0.022580	0.021444	0.032328	0.051713	0.041256	0.072346	0.058564	0.015928	0.022280	0.013156	0.023608	0.017303	0.053139	0.037238	0.077724	0.011452	0.010204	0.010771	0.008740	0.008061	0.009038	0.010164	0.008461	0.032712	0.017877	0.012338	0.008188	0.011795	0.008604	0.017070	0.010707	0.016842	0.013613	0.011456	0.030446	0.010621	0.011114	0.010735	0.011670	0.028257	0.025606	0.012898	0.012000	0.012900	0.012665	0.014604	0.014042	0.025315	0.007085	0.024783	0.039633	0.015058
6.190000	0.106680	0.036080	0.061140	0.034450	0.017817	0.056277	0.060316	0.024724	0.025179	0.021619	0.021211	0.031243	0.051391	0.041726	0.072262	0.058396	0.015403	0.022041	0.012403	0.023801	0.016995	0.053327	0.037892	0.077132	0.011431	0.010152	0.010570	0.009174	0.007859	0.008526	0.010147	0.007833	0.032728	0.017377	0.012584	0.008324	0.011768	0.008671	0.017045	0.011304	0.017027	0.013919	0.012793	0.030159	0.010477	0.011224	0.010516	0.011794	0.028205	0.024845	0.013018	0.011977	0.013095	0.012651	0.014651	0.014327	0.025490	0.007462	0.024686	0.039781	0.014929
6.195000	0.106275	0.036115	0.062244	0.034934	0.018034	0.055952	0.060370	0.024089	0.024796	0.020940	0.021256	0.031038	0.051595	0.041822	0.072066	0.058618	0.014690	0.021845	0.011909	0.024287	0.017302	0.053549	0.038355	0.076300	0.011815	0.010309	0.010683	0.009938	0.008329	0.008686	0.010617	0.007857	0.032840	0.017514	0.012582	0.008719	0.011996	0.008636	0.016770	0.011685	0.016523	0.014964	0.011637	0.030756	0.010366	0.010906	0.010565	0.011506	0.027826	0.023866	0.013098	0.011730	0.012768	0.012551	0.014363	0.014115	0.025058	0.007675	0.024939	0.039876	0.013443
6.200000	0.105926	0.036174	0.061946	0.035248	0.017943	0.055891	0.060218	0.023583	0.024234	0.020074	0.021230	0.030718	0.052030	0.041862	0.071515	0.058339	0.014763	0.022126	0.011700	0.024400	0.017555	0.053518	0.038551	0.076090	0.011416	0.010144	0.010812	0.009265	0.008763	0.008427	0.012329	0.007098	0.032756	0.017126	0.012292	0.009028	0.011644	0.008709	0.016337	0.012112	0.016579	0.014563	0.013847	0.030956	0.010203	0.010642	0.010373	0.011541	0.027697	0.023275	0.013303	0.011785	0.012701	0.012686	0.013958	0.014521	0.024803	0.007631	0.025079	0.039987	0.014910
6.205000	0.105066	0.036345	0.063250	0.035507	0.017910	0.055256	0.060070	0.023012	0.023538	0.019293	0.021280	0.030213	0.052188	0.042289	0.071498	0.058340	0.014030	0.021677	0.010854	0.024871	0.017397	0.054188	0.038766	0.075393	0.011044	0.010227	0.010460	0.009941	0.008867	0.008856	0.012648	0.006823	0.032424	0.016940	0.011981	0.009180	0.011515	0.008246	0.016185	0.012602	0.016922	0.015204	0.012640	0.031645	0.010243	0.010369	0.010205	0.011480	0.027479	0.022665	0.013244	0.011408	0.012744	0.012345	0.013629	0.014219	0.024632	0.007330	0.025283	0.040242	0.013632
6.210000	0.104809	0.036302	0.062813	0.035528	0.017896	0.054951	0.059906	0.022561	0.023141	0.018547	0.021433	0.029873	0.052845	0.042404	0.071304	0.058129	0.013872	0.021631	0.010815	0.024938	0.017606	0.054285	0.038821	0.075091	0.011298	0.010200	0.010727	0.010104	0.009694	0.009070	0.012481	0.007262	0.032658	0.016746	0.011507	0.010198	0.011339	0.008168	0.016015	0.013132	0.016833	0.014810	0.013197	0.031314	0.010319	0.010420	0.010224	0.011591	0.027496	0.022160	0.013308	0.011280	0.012689	0.012552	0.013398	0.014267	0.024328	0.007744	0.025384	0.040403	0.013297
6.215000	0.104273	0.036338	0.063248	0.035863	0.017642	0.054368	0.059885	0.022213	0.022732	0.018158	0.020952	0.029874	0.052701	0.042697	0.070912	0.058102	0.013977	0.021671	0.010532	0.024955	0.017536	0.054577	0.039131	0.074612	0.011277	0.010064	0.010443	0.010199	0.010197	0.009805	0.013976	0.007209	0.032423	0.017173	0.011383	0.010945	0.011310	0.007873	0.016031	0.013543	0.016679	0.014894	0.013421	0.031803	0.010515	0.010522	0.009910	0.011602	0.027040	0.022048	0.013142	0.010762	0.012445	0.012356	0.012786	0.014485	0.023989	0.007503	0.025883	0.040874	0.013261
6.220000	0.103655	0.036394	0.063387	0.036101	0.017292	0.054206	0.059730	0.022060	0.021997	0.017708	0.021636	0.029697	0.053401	0.042662	0.070302	0.057876	0.014042	0.021471	0.010051	0.025373	0.017829	0.055048	0.039385	0.074235	0.011025	0.010148	0.010970	0.010342	0.010351	0.009634	0.012973	0.007208	0.032359	0.016576	0.011153	0.011790	0.010934	0.007433	0.015678	0.014282	0.016919	0.014942	0.013721	0.032296	0.010777	0.010810	0.010052	0.011878	0.026800	0.021494	0.013247	0.010903	0.012434	0.012413	0.012409	0.014650	0.023383	0.007472	0.026023	0.041310	0.013226
6.225000	0.102509	0.036508	0.063443	0.036071	0.017193	0.053993	0.059941	0.021816	0.021921	0.017482	0.021494	0.029650	0.053385	0.042770	0.069947	0.057748	0.014213	0.021115	0.009948	0.025756	0.018215	0.055326	0.039476	0.073707	0.010999	0.009933	0.010507	0.009993	0.010238	0.009599	0.012684	0.007275	0.032140	0.015990	0.010239	0.012807	0.010846	0.007549	0.015681	0.014830	0.016972	0.014946	0.013728	0.032262	0.011072	0.011205	0.010177	0.011918	0.026581	0.021225	0.013271	0.010890	0.012149	0.012208	0.012029	0.014719	0.023195	0.007876	0.026408	0.041708	0.014098
6.230000	0.102035	0.036934	0.063778	0.036206	0.016818	0.053272	0.059101	0.021586	0.021791	0.017064	0.021432	0.028807	0.053498	0.042758	0.070265	0.057394	0.013812	0.021066	0.009532	0.025909	0.017994	0.055210	0.039954	0.073964	0.010962	0.010616	0.010283	0.011012	0.010359	0.009938	0.013935	0.006587	0.031846	0.015840	0.010542	0.012620	0.010734	0.007336	0.015730	0.014448	0.017270	0.013544	0.013636	0.032245	0.010403	0.010386	0.009613	0.011231	0.026585	0.021148	0.012947	0.010353	0.012059	0.012000	0.011710	0.013689	0.023122	0.008151	0.027080	0.041983	0.012710
6.235000	0.101296	0.036987	0.063782	0.036091	0.016366	0.052709	0.059377	0.021578	0.021435	0.016973	0.021273	0.028725	0.053677	0.042735	0.070044	0.057261	0.014021	0.020674	0.009444	0.026106	0.017910	0.055570	0.039778	0.073742	0.010940	0.010752	0.010244	0.011153	0.009923	0.009598	0.013202	0.006295	0.031742	0.015636	0.010106	0.012630	0.010846	0.007110	0.015953	0.014832	0.017244	0.013437	0.013923	0.031736	0.010572	0.010254	0.009601	0.011270	0.026473	0.021244	0.012870	0.010520	0.012085	0.012142	0.011414	0.014255	0.023020	0.007958	0.026973	0.042072	0.012723
6.240000	0.100951	0.037112	0.064020	0.035989	0.016183	0.052404	0.058846	0.021575	0.021094	0.016934	0.021695	0.028638	0.053812	0.042810	0.069809	0.057067	0.013467	0.020643	0.009284	0.025993	0.018045	0.055363	0.040538	0.073479	0.011563	0.010614	0.010133	0.011158	0.009259	0.008612	0.011708	0.005952	0.031511	0.015444	0.009903	0.012948	0.010644	0.007023	0.015829	0.014831	0.017322	0.013132	0.013457	0.031748	0.009957	0.010011	0.009049	0.010714	0.026479	0.020909	0.012653	0.010299	0.012125	0.012121	0.010974	0.013822	0.022774	0.008471	0.027791	0.042056	0.013438
6.245000	0.100344	0.037322	0.064841	0.035679	0.015658	0.051727	0.056347	0.021445	0.020989	0.016579	0.021132	0.027139	0.054539	0.043478	0.069621	0.058642	0.013103	0.020605	0.008773	0.026478	0.018259	0.055556	0.039759	0.073264	0.011626	0.011185	0.009485	0.010988	0.008841	0.008678	0.012324	0.005145	0.030907	0.014730	0.010071	0.012656	0.010930	0.006982	0.016015	0.014882	0.017680	0.012228	0.013587	0.032288	0.009401	0.009480	0.008759	0.010110	0.026001	0.020031	0.012645	0.010055	0.011857	0.012074	0.010732	0.013847	0.022648	0.007712	0.028280	0.042950	0.013246
6.250000	0.100191	0.037305	0.064189	0.035343	0.015255	0.051412	0.056511	0.021368	0.020592	0.016582	0.021985	0.027349	0.054932	0.043995	0.068763	0.058037	0.012895	0.020270	0.008870	0.026676	0.018316	0.055828	0.039893	0.073191	0.011341	0.011164	0.009676	0.011192	0.008461	0.008022	0.012152	0.004907	0.030909	0.014847	0.010020	0.012352	0.010825	0.006974	0.016080	0.014533	0.017522	0.011379	0.013421	0.033219	0.008935	0.009189	0.008390	0.009596	0.025955	0.019871	0.012389	0.009857	0.011364	0.012080	0.010416	0.013819	0.022638	0.007972	0.028383	0.043275	0.013246
6.255000	0.099216	0.037369	0.063869	0.034901	0.014907	0.050972	0.055991	0.021230	0.020249	0.016516	0.021911	0.027032	0.054344	0.044012	0.068623	0.057790	0.012809	0.019935	0.008783	0.027047	0.018369	0.056028	0.039956	0.073047	0.011683	0.010923	0.009491	0.011274	0.007838	0.007929	0.011721	0.004730	0.030678	0.014861	0.010005	0.012208	0.010665	0.007086	0.015974	0.014383	0.017487	0.011151	0.014081	0.032790	0.007984	0.008359	0.008003	0.009270	0.025635	0.019381	0.012407	0.009559	0.011330	0.011670	0.010041	0.013938	0.022554	0.007386	0.028867	0.043262	0.013174
6.260000	0.098310	0.037402	0.063392	0.035189	0.014710	0.050507	0.055724	0.021063	0.019937	0.016379	0.021809	0.026498	0.054566	0.043413	0.068728	0.057448	0.012777	0.019639	0.008576	0.027206	0.018461	0.056081	0.040148	0.072785	0.011544	0.011113	0.009256	0.011272	0.007347	0.007468	0.011338	0.004325	0.030356	0.014479	0.010254	0.011630	0.010727	0.007051	0.016015	0.014336	0.017757	0.010364	0.014217	0.033352	0.007344	0.007720	0.007492	0.008752	0.025417	0.019146	0.012280	0.009366	0.011103	0.011414	0.009674	0.014388	0.022268	0.006806	0.029184	0.043239	0.013282
