Model Marker Errors from IK
version=1
nRows=126
nColumns=4
inDegrees=no
endheader
time	total_squared_error	marker_error_RMS	marker_error_max
      5.63500000	      0.09726449	      0.03993119	      0.13111944
      5.64000000	      0.09829100	      0.04014135	      0.13160305
      5.64500000	      0.09848725	      0.04018140	      0.13220575
      5.65000000	      0.09882082	      0.04024939	      0.13309742
      5.65500000	      0.09935709	      0.04035845	      0.13366704
      5.66000000	      0.09973889	      0.04043592	      0.13417121
      5.66500000	      0.10011794	      0.04051269	      0.13481708
      5.67000000	      0.09956732	      0.04040113	      0.13547527
      5.67500000	      0.09971770	      0.04043163	      0.13610874
      5.68000000	      0.09995680	      0.04048007	      0.13649809
      5.68500000	      0.10077148	      0.04064470	      0.13855277
      5.69000000	      0.10121205	      0.04073345	      0.13784306
      5.69500000	      0.10175248	      0.04084206	      0.13910471
      5.70000000	      0.10260903	      0.04101360	      0.13973100
      5.70500000	      0.10314336	      0.04112025	      0.14090772
      5.71000000	      0.10415606	      0.04132162	      0.14186737
      5.71500000	      0.10488731	      0.04146642	      0.14309665
      5.72000000	      0.10588315	      0.04166280	      0.14362566
      5.72500000	      0.10638675	      0.04176177	      0.14503408
      5.73000000	      0.10672972	      0.04182903	      0.14623933
      5.73500000	      0.10783284	      0.04204464	      0.14672864
      5.74000000	      0.10850765	      0.04217599	      0.14798029
      5.74500000	      0.10865858	      0.04220531	      0.14826577
      5.75000000	      0.10970589	      0.04240822	      0.14928036
      5.75500000	      0.11019445	      0.04250255	      0.15063726
      5.76000000	      0.11124781	      0.04270521	      0.15183068
      5.76500000	      0.11211063	      0.04287049	      0.15190668
      5.77000000	      0.11292110	      0.04302517	      0.15291730
      5.77500000	      0.11322859	      0.04308371	      0.15442597
      5.78000000	      0.11382237	      0.04319653	      0.15495408
      5.78500000	      0.11423433	      0.04327463	      0.15538156
      5.79000000	      0.11522370	      0.04346163	      0.15639239
      5.79500000	      0.11565156	      0.04354225	      0.15769753
      5.80000000	      0.11654016	      0.04370920	      0.15815173
      5.80500000	      0.11652459	      0.04370628	      0.15877171
      5.81000000	      0.11650546	      0.04370270	      0.15930326
      5.81500000	      0.11671591	      0.04374215	      0.16017197
      5.82000000	      0.11740052	      0.04387025	      0.16086735
      5.82500000	      0.11747259	      0.04388371	      0.16150510
      5.83000000	      0.11725046	      0.04384220	      0.16169227
      5.83500000	      0.11761040	      0.04390944	      0.16225471
      5.84000000	      0.11748967	      0.04388690	      0.16241113
      5.84500000	      0.11697755	      0.04379115	      0.16228232
      5.85000000	      0.11757252	      0.04390237	      0.16256008
      5.85500000	      0.11671385	      0.04374176	      0.16221900
      5.86000000	      0.11714762	      0.04382297	      0.16189242
      5.86500000	      0.11611061	      0.04362858	      0.16150613
      5.87000000	      0.11524709	      0.04346604	      0.16074208
      5.87500000	      0.11419537	      0.04326725	      0.15981139
      5.88000000	      0.11315308	      0.04306935	      0.15843895
      5.88500000	      0.11188053	      0.04282648	      0.15744755
      5.89000000	      0.11054116	      0.04256936	      0.15621488
      5.89500000	      0.10916624	      0.04230379	      0.15483330
      5.90000000	      0.10795973	      0.04206937	      0.15380301
      5.90500000	      0.10636763	      0.04175801	      0.15223793
      5.91000000	      0.10494693	      0.04147820	      0.15094847
      5.91500000	      0.10381568	      0.04125405	      0.14848294
      5.92000000	      0.10261399	      0.04101459	      0.14717824
      5.92500000	      0.10129834	      0.04075081	      0.14569787
      5.93000000	      0.10000234	      0.04048929	      0.14382082
      5.93500000	      0.09900248	      0.04028637	      0.14197001
      5.94000000	      0.09772430	      0.04002546	      0.14032462
      5.94500000	      0.09644481	      0.03976258	      0.13831810
      5.95000000	      0.09510631	      0.03948569	      0.13655906
      5.95500000	      0.09408925	      0.03927400	      0.13475045
      5.96000000	      0.09261881	      0.03896590	      0.13271878
      5.96500000	      0.09121913	      0.03867034	      0.13073588
      5.97000000	      0.09002950	      0.03841736	      0.12892205
      5.97500000	      0.08883457	      0.03816156	      0.12694816
      5.98000000	      0.08733086	      0.03783720	      0.12489004
      5.98500000	      0.08589787	      0.03752548	      0.12258399
      5.99000000	      0.08464290	      0.03725035	      0.12042157
      5.99500000	      0.08316006	      0.03692262	      0.11823164
      6.00000000	      0.08192181	      0.03664670	      0.11591625
      6.00500000	      0.08072095	      0.03637711	      0.11372928
      6.01000000	      0.07897850	      0.03598235	      0.11152752
      6.01500000	      0.07733480	      0.03560595	      0.10915598
      6.02000000	      0.07574865	      0.03523892	      0.10667890
      6.02500000	      0.07414828	      0.03486468	      0.10427677
      6.03000000	      0.07342088	      0.03469324	      0.10237926
      6.03500000	      0.07361866	      0.03473994	      0.09979603
      6.04000000	      0.07324351	      0.03465131	      0.09780395
      6.04500000	      0.07234721	      0.03443864	      0.09651622
      6.05000000	      0.07104671	      0.03412770	      0.09515410
      6.05500000	      0.06944538	      0.03374091	      0.09491829
      6.06000000	      0.06758223	      0.03328521	      0.09473688
      6.06500000	      0.06573412	      0.03282695	      0.09575299
      6.07000000	      0.06443636	      0.03250129	      0.09570726
      6.07500000	      0.06376405	      0.03233129	      0.09708028
      6.08000000	      0.06327010	      0.03220582	      0.09817009
      6.08500000	      0.06317731	      0.03218219	      0.09975054
      6.09000000	      0.06317594	      0.03218184	      0.10067938
      6.09500000	      0.06353175	      0.03227234	      0.10146338
      6.10000000	      0.06400015	      0.03239109	      0.10236941
      6.10500000	      0.06426558	      0.03245819	      0.10257531
      6.11000000	      0.06430378	      0.03246783	      0.10307066
      6.11500000	      0.06440050	      0.03249224	      0.10292644
      6.12000000	      0.06410507	      0.03241763	      0.10331876
      6.12500000	      0.06376856	      0.03233243	      0.10309265
      6.13000000	      0.06315414	      0.03217629	      0.10339553
      6.13500000	      0.06273432	      0.03206917	      0.10352209
      6.14000000	      0.06234175	      0.03196867	      0.10321234
      6.14500000	      0.06220072	      0.03193249	      0.10327691
      6.15000000	      0.06201468	      0.03188470	      0.10312431
      6.15500000	      0.06204232	      0.03189180	      0.10300312
      6.16000000	      0.06201588	      0.03188501	      0.10299970
      6.16500000	      0.06202972	      0.03188857	      0.10328563
      6.17000000	      0.06220523	      0.03193365	      0.10360131
      6.17500000	      0.06212521	      0.03191310	      0.10308496
      6.18000000	      0.06210203	      0.03190715	      0.10324816
      6.18500000	      0.06201090	      0.03188373	      0.10278063
      6.19000000	      0.06193586	      0.03186443	      0.10287205
      6.19500000	      0.06189879	      0.03185489	      0.10270494
      6.20000000	      0.06185743	      0.03184425	      0.10263784
      6.20500000	      0.06172899	      0.03181117	      0.10218942
      6.21000000	      0.06176250	      0.03181981	      0.10200155
      6.21500000	      0.06155565	      0.03176648	      0.10155270
      6.22000000	      0.06156207	      0.03176813	      0.10128393
      6.22500000	      0.06152627	      0.03175889	      0.10077410
      6.23000000	      0.06118133	      0.03166974	      0.10010664
      6.23500000	      0.06107700	      0.03164273	      0.09962073
      6.24000000	      0.06083538	      0.03158008	      0.09950379
      6.24500000	      0.06046015	      0.03148253	      0.09928047
      6.25000000	      0.06026022	      0.03143044	      0.09873621
      6.25500000	      0.06003848	      0.03137256	      0.09859894
      6.26000000	      0.05944788	      0.03121787	      0.09785950
