Coordinates
version=1
nRows=126
nColumns=40
inDegrees=yes

Units are S.I. units (second, meters, Newtons, ...)
If the header above contains a line with 'inDegrees', this indicates whether rotational values are in degrees (yes) or radians (no).

endheader
time	pelvis_tilt	pelvis_list	pelvis_rotation	pelvis_tx	pelvis_ty	pelvis_tz	hip_flexion_r	hip_adduction_r	hip_rotation_r	knee_angle_r	knee_angle_r_beta	ankle_angle_r	subtalar_angle_r	mtp_angle_r	hip_flexion_l	hip_adduction_l	hip_rotation_l	knee_angle_l	knee_angle_l_beta	ankle_angle_l	subtalar_angle_l	mtp_angle_l	lumbar_extension	lumbar_bending	lumbar_rotation	arm_flex_r	arm_add_r	arm_rot_r	elbow_flex_r	pro_sup_r	wrist_flex_r	wrist_dev_r	arm_flex_l	arm_add_l	arm_rot_l	elbow_flex_l	pro_sup_l	wrist_flex_l	wrist_dev_l
      5.63500000	    -35.89071162	      1.38871466	      1.68766551	     -0.51102062	      0.58081986	     -0.91273375	    103.31708790	    -11.53421642	     10.83354014	    109.17198832	      1.90541065	     42.69514066	      0.00000000	      0.00000000	    104.73676331	    -16.55933803	      2.22758346	    108.97667295	      1.90200175	     39.73548188	      0.00000000	      0.00000000	    -18.91678198	     -3.05850303	     -2.30983049	     -2.22541141	    -46.25679582	     63.38264894	     84.63239578	     87.88540094	      0.00000000	      0.00000000	    -20.80799742	    -43.75388431	     39.78051731	     90.25842945	     87.91254301	      0.00000000	      0.00000000
      5.64000000	    -35.17992131	      1.20876974	      1.77864738	     -0.50985206	      0.58210918	     -0.91285029	    102.39129788	    -11.74347234	     10.55315757	    109.21397916	      1.90614353	     42.79108550	      0.00000000	      0.00000000	    103.97355112	    -16.48386877	      2.37385277	    109.07218809	      1.90366880	     39.90914803	      0.00000000	      0.00000000	    -19.83624847	     -2.80167899	     -1.54552546	     -3.66940412	    -46.15387686	     61.51319789	     84.56729432	     87.89425329	      0.00000000	      0.00000000	    -18.87598761	    -44.11096593	     41.90370515	     89.94421623	     87.90077867	      0.00000000	      0.00000000
      5.64500000	    -35.28846759	      1.16538803	      1.71322392	     -0.51016603	      0.58166330	     -0.91244737	    102.53169345	    -11.62200238	     10.50448606	    109.22122148	      1.90626993	     42.82636510	      0.00000000	      0.00000000	    104.16844645	    -16.54994539	      2.49572534	    109.09530669	      1.90407230	     39.86521009	      0.00000000	      0.00000000	    -19.79383137	     -2.80272300	     -2.36630928	     -1.70277065	    -46.26635892	     63.84229471	     84.51203491	     87.88605547	      0.00000000	      0.00000000	    -20.72875815	    -43.71445694	     39.76304182	     90.21315181	     87.90963773	      0.00000000	      0.00000000
      5.65000000	    -35.41400099	      1.13482267	      1.74958777	     -0.51043117	      0.58138360	     -0.91232312	    102.68632129	    -11.64100448	     10.47382064	    109.22880131	      1.90640222	     42.75365156	      0.00000000	      0.00000000	    104.33041081	    -16.51036233	      2.54981707	    109.07428499	      1.90370540	     39.93775929	      0.00000000	      0.00000000	    -19.74896732	     -2.77804710	     -2.21371782	     -2.13118207	    -46.24719680	     63.33921161	     84.57408043	     87.88592652	      0.00000000	      0.00000000	    -20.40799945	    -43.88718187	     40.19142590	     90.29694557	     87.91936134	      0.00000000	      0.00000000
      5.65500000	    -35.36678671	      1.09937587	      1.80556989	     -0.51031858	      0.58155863	     -0.91229805	    102.59886342	    -11.71454484	     10.44055377	    109.20182790	      1.90593145	     42.84008850	      0.00000000	      0.00000000	    104.27501608	    -16.43208358	      2.59562931	    109.05789011	      1.90341926	     39.94835623	      0.00000000	      0.00000000	    -19.86698384	     -2.72124229	     -2.37432146	     -1.72699742	    -46.26004225	     63.85250857	     84.52842739	     87.87237669	      0.00000000	      0.00000000	    -20.51490257	    -43.87196187	     40.10697144	     90.29150706	     87.91448898	      0.00000000	      0.00000000
      5.66000000	    -35.41987673	      1.11223207	      1.71993804	     -0.51032142	      0.58174678	     -0.91193522	    102.61667247	    -11.57355963	     10.42406602	    109.14406132	      1.90492323	     42.82768188	      0.00000000	      0.00000000	    104.29859139	    -16.53528841	      2.60423426	    108.99436940	      1.90231061	     39.89686014	      0.00000000	      0.00000000	    -19.85992251	     -2.78141966	     -1.97012803	     -2.30651642	    -46.21987393	     63.18687333	     84.54221802	     87.87883650	      0.00000000	      0.00000000	    -19.78050149	    -44.15085756	     41.00885263	     90.25384189	     87.91420372	      0.00000000	      0.00000000
      5.66500000	    -35.45965820	      1.09503608	      1.75604796	     -0.51035124	      0.58191287	     -0.91187265	    102.63248716	    -11.60681542	     10.39198489	    109.11330794	      1.90438648	     42.77273028	      0.00000000	      0.00000000	    104.31953951	    -16.46752231	      2.63855159	    108.95202065	      1.90157149	     39.84669066	      0.00000000	      0.00000000	    -19.86489236	     -2.75980019	     -1.74629094	     -2.82862448	    -46.23200904	     62.55132341	     84.63145220	     87.90945190	      0.00000000	      0.00000000	    -19.26528285	    -44.37403057	     41.61899514	     90.35099705	     87.93070312	      0.00000000	      0.00000000
      5.67000000	    -36.38633505	      1.25627124	      2.14266672	     -0.51196057	      0.58063269	     -0.91262635	    103.78882703	    -11.90791075	     10.76448882	    109.04460415	      1.90318737	     42.62696220	      0.00000000	      0.00000000	    105.26293673	    -15.92107681	      2.43777793	    108.74251983	      1.89791501	     39.63851080	      0.00000000	      0.00000000	    -18.84391096	     -2.81621418	     -2.10945070	     -2.92953314	    -46.34428795	     62.66693086	     84.79280327	     87.88793338	      0.00000000	      0.00000000	    -19.18313366	    -44.57344493	     41.98486905	     90.48273934	     87.90900410	      0.00000000	      0.00000000
      5.67500000	    -36.64141394	      1.10195255	      2.12913496	     -0.51224185	      0.58076165	     -0.91231312	    103.95251125	    -11.82728981	     10.61304645	    108.92859742	      1.90116267	     42.60009952	      0.00000000	      0.00000000	    105.56712957	    -15.88819723	      2.63954115	    108.63424116	      1.89602519	     39.57614187	      0.00000000	      0.00000000	    -18.53071635	     -2.68262815	     -2.61092888	     -1.47568258	    -46.44493071	     64.46397845	     84.71634293	     87.87296270	      0.00000000	      0.00000000	    -20.13972833	    -44.37755250	     41.01067315	     90.58936156	     87.90791705	      0.00000000	      0.00000000
      5.68000000	    -36.84232939	      1.00794623	      2.03633872	     -0.51236151	      0.58121103	     -0.91192221	    104.04698348	    -11.67677207	     10.47674366	    108.77060196	      1.89840513	     42.52448457	      0.00000000	      0.00000000	    105.75140884	    -15.94234670	      2.78652124	    108.51431827	      1.89393214	     39.51010619	      0.00000000	      0.00000000	    -18.29083022	     -2.63827649	     -1.61322415	     -3.31549744	    -46.39366294	     62.27190392	     84.82900072	     87.91541417	      0.00000000	      0.00000000	    -18.24581724	    -44.96379921	     43.30727054	     90.51449370	     87.92137788	      0.00000000	      0.00000000
      5.68500000	    -36.78946061	      1.10976450	      1.97163769	     -0.51178138	      0.58226424	     -0.91169350	    103.86931293	    -11.56394516	     10.55618587	    108.64039290	      1.89613256	     42.54601254	      0.00000000	      0.00000000	    105.50379459	    -16.03555115	      2.66368948	    108.40167088	      1.89196607	     39.55055110	      0.00000000	      0.00000000	    -18.38719483	     -2.76699639	     -1.43435675	     -3.94239305	    -46.31927141	     61.32873309	     84.93445200	     87.90595013	      0.00000000	      0.00000000	    -18.25275046	    -44.97906919	     43.04116333	     90.62787180	     87.89472593	      0.00000000	      0.00000000
      5.69000000	    -36.89762262	      0.85368321	      2.10478728	     -0.51167804	      0.58310938	     -0.91166510	    103.77782172	    -11.68749683	     10.29037838	    108.49690909	      1.89362829	     42.59663657	      0.00000000	      0.00000000	    105.60220814	    -15.77313830	      2.95361594	    108.22592025	      1.88889864	     39.49361581	      0.00000000	      0.00000000	    -18.07365582	     -2.45981515	     -1.59985918	     -2.89776686	    -46.40977151	     62.90517930	     84.66168186	     87.89460074	      0.00000000	      0.00000000	    -17.57104823	    -45.16334998	     44.22166828	     90.35892010	     87.90046019	      0.00000000	      0.00000000
      5.69500000	    -36.89331497	      0.96319063	      2.50212879	     -0.51125080	      0.58448483	     -0.91257903	    103.64633460	    -12.14525060	     10.47272231	    108.35561941	      1.89116232	     42.78925987	      0.00000000	      0.00000000	    105.31029965	    -15.24916308	      2.72633422	    108.00963218	      1.88512371	     39.72346599	      0.00000000	      0.00000000	    -18.03736044	     -2.41227116	     -2.00640561	     -2.74891401	    -46.40176670	     63.02230866	     84.52672796	     87.86231972	      0.00000000	      0.00000000	    -17.32234550	    -45.19684871	     44.53795249	     90.24236208	     87.86280871	      0.00000000	      0.00000000
      5.70000000	    -36.91143323	      1.06761441	      2.21625100	     -0.51071621	      0.58596221	     -0.91178464	    103.49880297	    -11.75800067	     10.48293700	    108.11637198	      1.88698667	     42.42835385	      0.00000000	      0.00000000	    105.11956726	    -15.56155497	      2.66771672	    107.80220175	      1.88150336	     39.51135531	      0.00000000	      0.00000000	    -17.89071978	     -2.64130630	     -1.00682263	     -4.19241960	    -46.21609778	     61.33900851	     84.48824275	     87.95312682	      0.00000000	      0.00000000	    -15.36521105	    -45.77130537	     46.88471473	     90.14443776	     87.90929289	      0.00000000	      0.00000000
      5.70500000	    -36.97636191	      0.85998746	      2.23050809	     -0.51039503	      0.58733642	     -0.91150815	    103.29362180	    -11.72287509	     10.23304180	    107.88133228	      1.88288445	     42.73962798	      0.00000000	      0.00000000	    105.07933282	    -15.46698612	      2.90882113	    107.58651144	      1.87773886	     39.64414875	      0.00000000	      0.00000000	    -17.70269911	     -2.43690815	     -1.01291228	     -3.95967749	    -46.25076453	     61.51257186	     84.36403129	     87.88599738	      0.00000000	      0.00000000	    -15.32710975	    -45.76232816	     46.90554266	     90.07372187	     87.83354152	      0.00000000	      0.00000000
      5.71000000	    -36.70841138	      0.64815509	      2.53056254	     -0.50926627	      0.58965197	     -0.91189505	    102.67586321	    -12.09548475	      9.98439253	    107.67289315	      1.87924650	     42.65445117	      0.00000000	      0.00000000	    104.59581458	    -15.09316004	      3.02420450	    107.34879037	      1.87358984	     39.60775502	      0.00000000	      0.00000000	    -17.83722375	     -2.09621538	     -1.43538753	     -3.13684548	    -46.25759888	     62.41692521	     84.12865090	     87.90062231	      0.00000000	      0.00000000	    -15.16467948	    -45.80763190	     47.23188781	     90.00189743	     87.91213613	      0.00000000	      0.00000000
      5.71500000	    -36.77001210	      0.60299411	      2.47860939	     -0.50872461	      0.59140944	     -0.91147270	    102.48134131	    -11.96110139	      9.89827820	    107.39303907	      1.87436213	     42.61427600	      0.00000000	      0.00000000	    104.44353073	    -15.11019270	      3.06624510	    107.04732045	      1.86832820	     39.53630443	      0.00000000	      0.00000000	    -17.61074691	     -2.10099209	     -1.43894768	     -3.00323045	    -46.23435523	     62.52750863	     84.12064210	     87.89924179	      0.00000000	      0.00000000	    -15.16129874	    -45.88677979	     47.26604266	     90.02000133	     87.91751354	      0.00000000	      0.00000000
      5.72000000	    -36.54070839	      0.61977025	      2.48679942	     -0.50753407	      0.59400692	     -0.91131547	    101.89908108	    -11.95199214	      9.81593847	    107.08557980	      1.86899595	     42.68739582	      0.00000000	      0.00000000	    103.87445066	    -15.07299308	      3.00324273	    106.77738831	      1.86361699	     39.57953012	      0.00000000	      0.00000000	    -17.59663376	     -2.11527162	     -2.52693141	      0.07247265	    -46.24942738	     66.34955733	     83.64130465	     87.86160450	      0.00000000	      0.00000000	    -16.63701239	    -45.58274881	     45.65599510	     89.98090143	     87.90119479	      0.00000000	      0.00000000
      5.72500000	    -36.62081384	      0.53923028	      2.48680932	     -0.50691238	      0.59590688	     -0.91109019	    101.70181335	    -11.88913126	      9.70715189	    106.79375951	      1.86390272	     42.63714924	      0.00000000	      0.00000000	    103.72574734	    -15.00490323	      3.08398361	    106.46235216	      1.85811857	     39.52445284	      0.00000000	      0.00000000	    -17.28812938	     -2.05057506	     -2.59017932	      0.20255638	    -46.21974193	     66.32553931	     83.59364581	     87.86096262	      0.00000000	      0.00000000	    -16.63600640	    -45.61433296	     45.77851571	     89.98792112	     87.91007121	      0.00000000	      0.00000000
      5.73000000	    -36.84323945	      0.58022690	      2.67784064	     -0.50663066	      0.59810547	     -0.91153431	    101.65408859	    -12.06841217	      9.72914360	    106.35499519	      1.85624484	     42.57198450	      0.00000000	      0.00000000	    103.61811114	    -14.62944394	      3.01366849	    106.03659232	      1.85068766	     39.44568125	      0.00000000	      0.00000000	    -16.84861992	     -2.03922546	     -2.81757714	      0.35987707	    -46.21235646	     66.43100879	     83.50396795	     87.86855895	      0.00000000	      0.00000000	    -16.43529338	    -45.68538427	     45.97910683	     90.02369292	     87.91883452	      0.00000000	      0.00000000
      5.73500000	    -36.50674502	      0.54445195	      2.90437146	     -0.50496167	      0.60137410	     -0.91169957	    100.91541050	    -12.35295091	      9.57908335	    106.10573181	      1.85189438	     42.60531908	      0.00000000	      0.00000000	    102.87041572	    -14.32628898	      2.98798248	    105.69835127	      1.84478424	     39.80564041	      0.00000000	      0.00000000	    -16.87367096	     -1.93312695	     -3.09532840	      0.98597948	    -46.04214543	     67.21089015	     83.00084044	     87.88477431	      0.00000000	      0.00000000	    -15.64427977	    -45.87399768	     47.06255203	     89.75077196	     87.94747206	      0.00000000	      0.00000000
      5.74000000	    -36.54265746	      0.50529038	      2.81832441	     -0.50386594	      0.60396151	     -0.91122093	    100.56580991	    -12.19401538	      9.46458277	    105.70656038	      1.84492752	     42.54579964	      0.00000000	      0.00000000	    102.55931928	    -14.35688680	      3.03040477	    105.30807199	      1.83797259	     39.66635081	      0.00000000	      0.00000000	    -16.52927120	     -1.96526651	     -3.02399120	      1.04955293	    -46.01627356	     67.28459643	     82.98145737	     87.88460848	      0.00000000	      0.00000000	    -15.61112738	    -45.96677896	     47.15512468	     89.76824405	     87.94380610	      0.00000000	      0.00000000
      5.74500000	    -36.91247867	      0.54868124	      2.80327482	     -0.50365322	      0.60629245	     -0.91119252	    100.64649591	    -12.10948165	      9.46957872	    105.21833006	      1.83640629	     42.47403683	      0.00000000	      0.00000000	    102.60869070	    -14.24787826	      2.98123110	    104.87026585	      1.83033143	     39.65662470	      0.00000000	      0.00000000	    -15.72855950	     -2.04101664	     -2.99786727	      1.66316824	    -46.02577489	     68.21941142	     82.75990836	     87.88194477	      0.00000000	      0.00000000	    -14.76136414	    -46.20612252	     48.40774983	     89.65686142	     87.92818767	      0.00000000	      0.00000000
      5.75000000	    -36.40826825	      0.43976718	      3.18756152	     -0.50149256	      0.61042512	     -0.91195307	     99.59534999	    -12.63017434	      9.23535116	    104.84707518	      1.82992667	     42.50541976	      0.00000000	      0.00000000	    101.60634048	    -13.70258097	      2.98804497	    104.40624830	      1.82223279	     39.69593585	      0.00000000	      0.00000000	    -15.94631508	     -1.79561722	     -3.34296316	      1.89064049	    -45.90624005	     68.33928943	     82.38444351	     87.87265495	      0.00000000	      0.00000000	    -14.34909022	    -46.16663879	     48.82043034	     89.42520505	     87.91957359	      0.00000000	      0.00000000
      5.75500000	    -36.42424722	      0.45143801	      2.93284557	     -0.50032039	      0.61363799	     -0.91105513	     99.19946272	    -12.27447628	      9.07981026	    104.35206998	      1.82128720	     42.41178670	      0.00000000	      0.00000000	    101.17294287	    -13.86975853	      3.07306015	    103.90643487	      1.81350940	     39.54927842	      0.00000000	      0.00000000	    -15.56906130	     -1.95190425	     -3.19459173	      2.01871513	    -45.80172564	     68.37789282	     82.34696150	     87.86958123	      0.00000000	      0.00000000	    -14.27623289	    -46.32204798	     48.88218532	     89.46006717	     87.91766467	      0.00000000	      0.00000000
      5.76000000	    -36.18778474	      0.34661175	      3.02441200	     -0.49856773	      0.61770116	     -0.91127744	     98.40574638	    -12.36587847	      8.87003718	    103.81223549	      1.81186531	     42.31563176	      0.00000000	      0.00000000	    100.47018528	    -13.75235120	      3.01649995	    103.40530053	      1.80476296	     39.45195700	      0.00000000	      0.00000000	    -15.43569109	     -1.81540128	     -3.25328602	      2.23062028	    -45.72980793	     68.51381919	     82.03015707	     87.86770639	      0.00000000	      0.00000000	    -13.96824840	    -46.27146609	     49.09237220	     89.35848380	     87.92013055	      0.00000000	      0.00000000
      5.76500000	    -36.02748170	      0.31205388	      2.74611668	     -0.49705970	      0.62128800	     -0.91052428	     97.75541147	    -12.02078590	      8.66624340	    103.31129564	      1.80312226	     42.38231507	      0.00000000	      0.00000000	     99.89169695	    -13.95256533	      3.13565194	    103.00282248	      1.79773839	     39.52489579	      0.00000000	      0.00000000	    -15.05336670	     -1.88255473	     -2.93803702	      2.86999030	    -45.62774406	     69.57127682	     81.62643021	     87.86854290	      0.00000000	      0.00000000	    -12.94645662	    -46.54934933	     50.58225928	     89.14136395	     87.93251735	      0.00000000	      0.00000000
      5.77000000	    -35.36598682	      0.34727732	      3.11153591	     -0.49446660	      0.62632499	     -0.91140864	     96.49395806	    -12.53488752	      8.52370539	    102.84180594	      1.79492812	     42.33409479	      0.00000000	      0.00000000	     98.57428745	    -13.42922944	      2.99510993	    102.45997820	      1.78826397	     39.51199457	      0.00000000	      0.00000000	    -15.34599245	     -1.77898072	     -3.33923245	      3.08953277	    -45.47106568	     69.58485066	     81.13177022	     87.85411272	      0.00000000	      0.00000000	    -12.51199083	    -46.49769326	     50.95165559	     88.87421049	     87.91542925	      0.00000000	      0.00000000
      5.77500000	    -35.45515325	      0.35102045	      2.95548754	     -0.49334891	      0.62994881	     -0.91086556	     96.13825856	    -12.30937609	      8.38925232	    102.24307795	      1.78447835	     42.22351818	      0.00000000	      0.00000000	     98.18677624	    -13.45551873	      3.05350603	    101.92306640	      1.77889309	     39.46447301	      0.00000000	      0.00000000	    -14.79084439	     -1.88691675	     -3.26221693	      3.17734418	    -45.42600918	     69.59729014	     81.13245736	     87.85329900	      0.00000000	      0.00000000	    -12.48120642	    -46.60344777	     51.03050431	     88.89845697	     87.92026194	      0.00000000	      0.00000000
      5.78000000	    -35.22062774	      0.35981929	      3.11163419	     -0.49131942	      0.63454151	     -0.91130754	     95.31636549	    -12.49479334	      8.28271665	    101.65246773	      1.77417025	     42.16093006	      0.00000000	      0.00000000	     97.34868684	    -13.14114979	      2.96541748	    101.28366131	      1.76773337	     39.48506119	      0.00000000	      0.00000000	    -14.49661836	     -1.85196048	     -3.40009641	      3.48522650	    -45.22094108	     69.93385673	     80.45495672	     87.85809437	      0.00000000	      0.00000000	    -11.93808858	    -46.57666043	     51.59697466	     88.60102592	     87.93080686	      0.00000000	      0.00000000
      5.78500000	    -35.21526353	      0.31369787	      2.74355740	     -0.48983136	      0.63874468	     -0.91049765	     94.76909982	    -12.02119953	      8.07885050	    100.94701926	      1.76185786	     41.90826663	      0.00000000	      0.00000000	     96.84040917	    -13.44228777	      3.04374775	    100.72345914	      1.75795600	     39.47040473	      0.00000000	      0.00000000	    -13.92474775	     -1.94096249	     -3.05391410	      3.77197722	    -45.12635449	     70.38978007	     80.18662952	     87.85845951	      0.00000000	      0.00000000	    -11.44654324	    -46.70178337	     52.22644987	     88.50886536	     87.92777753	      0.00000000	      0.00000000
      5.79000000	    -34.32762241	      0.42898420	      3.11063237	     -0.48664528	      0.64481775	     -0.91147243	     93.17647523	    -12.59437089	      7.92588998	    100.37296755	      1.75183876	     41.90640502	      0.00000000	      0.00000000	     95.14146868	    -12.87686502	      2.84762164	    100.05645424	      1.74631456	     39.50855922	      0.00000000	      0.00000000	    -14.36075019	     -1.91184565	     -3.44855681	      4.05053936	    -44.93284545	     70.51073571	     79.69067922	     87.84695188	      0.00000000	      0.00000000	    -10.86477030	    -46.61473074	     52.74695399	     88.14853871	     87.91419602	      0.00000000	      0.00000000
      5.79500000	    -34.42758383	      0.42367714	      2.88563491	     -0.48525573	      0.64899778	     -0.91079440	     92.74253573	    -12.25832674	      7.80503754	     99.66164789	      1.73942389	     41.77930152	      0.00000000	      0.00000000	     94.70690342	    -12.99513418	      2.87853263	     99.39873314	      1.73483517	     39.41092653	      0.00000000	      0.00000000	    -13.67415952	     -2.01930344	     -3.28923958	      4.15446051	    -44.85584327	     70.56500762	     79.59896807	     87.84617264	      0.00000000	      0.00000000	    -10.76660226	    -46.74579308	     52.85371687	     88.19372967	     87.91716797	      0.00000000	      0.00000000
      5.80000000	    -33.88956861	      0.52539000	      2.71247030	     -0.48259016	      0.65473144	     -0.91053937	     91.53089179	    -12.07767206	      7.72372072	     98.93777601	      1.72678995	     41.65840468	      0.00000000	      0.00000000	     93.40789413	    -13.10881851	      2.68259208	     98.72215244	      1.72302660	     39.50034325	      0.00000000	      0.00000000	    -13.62664958	     -2.16913290	     -3.18662132	      4.55644723	    -44.51361151	     70.96750929	     78.77204521	     87.85000350	      0.00000000	      0.00000000	    -10.18275350	    -46.72692373	     53.48320619	     87.84201594	     87.91972397	      0.00000000	      0.00000000
      5.80500000	    -33.87222846	      0.46632346	      2.70450302	     -0.48073637	      0.65958277	     -0.91037852	     90.88958133	    -12.03179864	      7.51177183	     98.18026504	      1.71356889	     41.47588057	      0.00000000	      0.00000000	     92.78729857	    -12.99657609	      2.71822635	     97.98125490	      1.71009550	     39.33999907	      0.00000000	      0.00000000	    -13.01127431	     -2.15518334	     -3.22443308	      4.60602948	    -44.43928328	     71.01261677	     78.65669488	     87.84653415	      0.00000000	      0.00000000	    -10.11155631	    -46.77515160	     53.59783139	     87.83824414	     87.91927051	      0.00000000	      0.00000000
      5.81000000	    -33.78137433	      0.66408600	      2.90509604	     -0.47894225	      0.66483127	     -0.91106693	     90.24265356	    -12.35814843	      7.50737551	     97.43243049	      1.70051671	     41.20678912	      0.00000000	      0.00000000	     91.94359917	    -12.51387481	      2.51775162	     97.16385025	      1.69582910	     39.33823995	      0.00000000	      0.00000000	    -12.44913993	     -2.31212912	     -3.51006803	      4.90594636	    -44.19057226	     71.41573102	     77.95240935	     87.85558916	      0.00000000	      0.00000000	     -9.55067539	    -46.75784497	     54.30485106	     87.51554848	     87.91312631	      0.00000000	      0.00000000
      5.81500000	    -33.00068353	      0.61367863	      3.27709784	     -0.47571354	      0.67162981	     -0.91193238	     88.60950393	    -12.86300453	      7.14805696	     96.63673845	      1.68662926	     41.08893682	      0.00000000	      0.00000000	     90.36441412	    -11.97633784	      2.49101302	     96.27853203	      1.68037738	     39.12241636	      0.00000000	      0.00000000	    -12.67017908	     -2.14085809	     -3.94123903	      5.17254257	    -43.94424738	     71.58833062	     77.32066598	     87.84070002	      0.00000000	      0.00000000	     -9.04929121	    -46.61243657	     54.74616316	     87.11664175	     87.91284724	      0.00000000	      0.00000000
      5.82000000	    -32.36803471	      0.47368424	      2.59137880	     -0.47251732	      0.67797377	     -0.91014295	     87.11315219	    -11.97196907	      6.81759025	     95.72550665	      1.67072527	     40.96081166	      0.00000000	      0.00000000	     88.98043712	    -12.78857167	      2.51633152	     95.57078785	      1.66802492	     39.17012455	      0.00000000	      0.00000000	    -12.59744328	     -2.20926981	     -3.34250362	      5.46249041	    -43.56735739	     71.88358872	     76.65034019	     87.84054990	      0.00000000	      0.00000000	     -8.71210976	    -46.60106326	     55.09375151	     86.85633273	     87.90428541	      0.00000000	      0.00000000
      5.82500000	    -31.80110414	      0.35039885	      2.53733442	     -0.46972458	      0.68444050	     -0.90983914	     85.74474595	    -11.91378764	      6.41568008	     94.86224288	      1.65565847	     40.71079320	      0.00000000	      0.00000000	     87.66746954	    -12.78851111	      2.57112336	     94.71263506	      1.65304733	     39.11503257	      0.00000000	      0.00000000	    -12.47887950	     -2.10837391	     -3.33742172	      5.75403839	    -43.27047971	     72.18963165	     76.07895706	     87.83781430	      0.00000000	      0.00000000	     -8.26609988	    -46.59238604	     55.59854534	     86.61289228	     87.90781289	      0.00000000	      0.00000000
      5.83000000	    -31.72283829	      0.31174496	      2.80122618	     -0.46757468	      0.69011174	     -0.91041260	     84.94731672	    -12.21240638	      6.16882910	     93.98453724	      1.64033962	     40.50277960	      0.00000000	      0.00000000	     86.88414207	    -12.32576968	      2.60151256	     93.77519121	      1.63668584	     38.97855423	      0.00000000	      0.00000000	    -11.79956216	     -2.01259964	     -3.68845619	      5.90569456	    -43.09321499	     72.44763903	     75.63796950	     87.83503407	      0.00000000	      0.00000000	     -7.89852191	    -46.54803861	     56.11332065	     86.35917025	     87.90905086	      0.00000000	      0.00000000
      5.83500000	    -30.80342933	      0.43317854	      2.81749381	     -0.46397831	      0.69770882	     -0.91063600	     83.13887454	    -12.34096367	      5.95489028	     93.01720975	      1.62345657	     40.29993501	      0.00000000	      0.00000000	     84.98434329	    -12.19960724	      2.33857385	     92.80638116	      1.61977692	     38.96226514	      0.00000000	      0.00000000	    -12.04069081	     -2.10636478	     -3.80280179	      6.18570063	    -42.75366980	     72.72490887	     74.93290088	     87.83556967	      0.00000000	      0.00000000	     -7.37719844	    -46.34801971	     56.62930945	     85.84840085	     87.89039592	      0.00000000	      0.00000000
      5.84000000	    -30.34989408	      0.28626257	      2.51457479	     -0.46116524	      0.70440208	     -0.90977096	     81.84903806	    -11.90889295	      5.61878698	     92.00189568	      1.60573600	     39.98404056	      0.00000000	      0.00000000	     83.75130643	    -12.52240549	      2.35782231	     91.87620000	      1.60354219	     38.87091466	      0.00000000	      0.00000000	    -11.71674405	     -2.03873280	     -3.58013928	      6.43849723	    -42.45032229	     73.09160628	     74.41370139	     87.83253714	      0.00000000	      0.00000000	     -6.95579947	    -46.31720731	     57.12611875	     85.59776965	     87.86957793	      0.00000000	      0.00000000
      5.84500000	    -29.97329904	      0.35716958	      2.74954177	     -0.45837592	      0.71118531	     -0.91046752	     80.68864558	    -12.25534789	      5.37046239	     91.05860511	      1.58927247	     39.63945593	      0.00000000	      0.00000000	     82.51967662	    -12.08068788	      2.25503388	     90.83040936	      1.58528970	     38.70002349	      0.00000000	      0.00000000	    -11.29879470	     -2.04517891	     -3.93835875	      6.65079491	    -42.19236934	     73.34304321	     73.90316576	     87.82371113	      0.00000000	      0.00000000	     -6.50475898	    -46.16314059	     57.66101114	     85.17623878	     87.87027696	      0.00000000	      0.00000000
      5.85000000	    -29.12326133	      0.20686894	      2.48431280	     -0.45460470	      0.71900317	     -0.90980343	     78.82584417	    -11.88272741	      5.02316253	     89.90564123	      1.56914946	     39.31400561	      0.00000000	      0.00000000	     80.73881256	    -12.43739311	      2.17329707	     89.80831219	      1.56745074	     38.57590817	      0.00000000	      0.00000000	    -11.34759508	     -1.94138243	     -3.77364595	      6.87008285	    -41.82943003	     73.64331381	     73.27616721	     87.81919245	      0.00000000	      0.00000000	     -6.14433580	    -45.96342062	     58.05134099	     84.69871729	     87.87203607	      0.00000000	      0.00000000
      5.85500000	    -28.67186352	      0.11585290	      2.32955234	     -0.45167103	      0.72607588	     -0.90963671	     77.53632133	    -11.71199393	      4.69496707	     88.84086020	      1.55056552	     38.92314725	      0.00000000	      0.00000000	     79.45938688	    -12.52457917	      2.13370795	     88.78820203	      1.54964646	     38.40001338	      0.00000000	      0.00000000	    -10.92780256	     -1.85293740	     -3.72191954	      7.16188918	    -41.59734116	     74.15554477	     72.88123386	     87.81738330	      0.00000000	      0.00000000	     -5.60324965	    -45.83346872	     58.78808718	     84.26822476	     87.86646216	      0.00000000	      0.00000000
      5.86000000	    -27.15348962	      0.13887409	      2.20232132	     -0.44693150	      0.73581528	     -0.90955187	     74.88354475	    -11.64744927	      4.33660562	     87.63470904	      1.52951421	     38.49485036	      0.00000000	      0.00000000	     76.69637882	    -12.68627610	      1.78987998	     87.50972893	      1.52733290	     38.38489559	      0.00000000	      0.00000000	    -11.71866277	     -1.83293493	     -3.73349927	      7.49009122	    -41.20225897	     74.46883280	     72.19274466	     87.80755193	      0.00000000	      0.00000000	     -4.99545966	    -45.51274003	     59.29856959	     83.52847102	     87.85247658	      0.00000000	      0.00000000
      5.86500000	    -27.06578053	      0.13236327	      2.31293351	     -0.44450293	      0.74260517	     -0.91008383	     73.99331467	    -11.77256460	      4.11969822	     86.44185412	      1.50869497	     38.13078464	      0.00000000	      0.00000000	     75.79941886	    -12.42406990	      1.70318462	     86.34316231	      1.50697247	     38.11801517	      0.00000000	      0.00000000	    -10.92344445	     -1.78053555	     -3.96984002	      7.50799071	    -41.13327301	     74.54163068	     72.20098968	     87.80820579	      0.00000000	      0.00000000	     -4.85466599	    -45.41230824	     59.46118584	     83.45885543	     87.85530732	      0.00000000	      0.00000000
      5.87000000	    -26.39639428	      0.09793778	      2.48103467	     -0.44106282	      0.75057904	     -0.91077241	     72.39229014	    -12.03131317	      3.69273517	     85.34173915	      1.48949434	     37.45095505	      0.00000000	      0.00000000	     74.17474300	    -12.12470763	      1.67222933	     85.14324247	      1.48602992	     37.92387928	      0.00000000	      0.00000000	    -10.69043350	     -1.64456889	     -4.26018484	      7.81323853	    -40.85066749	     75.05001212	     71.61735314	     87.81233771	      0.00000000	      0.00000000	     -4.25941702	    -45.07898086	     60.31907010	     82.64723050	     87.85305191	      0.00000000	      0.00000000
      5.87500000	    -26.06082916	      0.02655489	      2.39198064	     -0.43806363	      0.75830719	     -0.91076137	     71.13508287	    -11.88638852	      3.44893011	     84.04958676	      1.46694202	     36.77425476	      0.00000000	      0.00000000	     72.92844167	    -12.11375520	      1.62856212	     83.88755835	      1.46411409	     37.42259040	      0.00000000	      0.00000000	    -10.09619551	     -1.55993205	     -4.31219548	      7.94483152	    -40.62882085	     75.34544084	     71.31314262	     87.80600545	      0.00000000	      0.00000000	     -3.89422432	    -44.85376292	     60.80071127	     82.16025185	     87.84335385	      0.00000000	      0.00000000
      5.88000000	    -25.46452386	      0.06294473	      2.38230219	     -0.43476365	      0.76654921	     -0.91114767	     69.63408965	    -11.94954419	      3.18680971	     82.78882949	      1.44493766	     36.11914208	      0.00000000	      0.00000000	     71.29968776	    -12.00946945	      1.40473281	     82.54315496	      1.44064983	     37.13987400	      0.00000000	      0.00000000	     -9.73729767	     -1.54271550	     -4.34780045	      8.12438973	    -40.47727829	     75.74603759	     71.07515338	     87.77889028	      0.00000000	      0.00000000	     -2.98466958	    -44.70470954	     62.04697868	     81.72002931	     87.82997137	      0.00000000	      0.00000000
      5.88500000	    -25.02185113	      0.09782929	      2.33860739	     -0.43148963	      0.77481576	     -0.91147733	     68.29628333	    -11.95343261	      2.97762136	     81.49428339	      1.42234357	     35.24395167	      0.00000000	      0.00000000	     69.80766316	    -11.90786464	      1.18764079	     81.13331325	      1.41604345	     36.64480373	      0.00000000	      0.00000000	     -9.25680379	     -1.53784534	     -4.49038659	      8.14189834	    -40.25824906	     75.77250710	     70.76647880	     87.77335598	      0.00000000	      0.00000000	     -2.77518715	    -44.43285658	     62.35522661	     81.19998579	     87.82870044	      0.00000000	      0.00000000
      5.89000000	    -24.49963868	      0.12058870	      2.30295004	     -0.42808220	      0.78338542	     -0.91176050	     66.82306944	    -11.94132917	      2.71820493	     80.15833855	      1.39902693	     34.29439839	      0.00000000	      0.00000000	     68.26122320	    -11.81336423	      0.98925418	     79.73403570	      1.39162145	     36.10287465	      0.00000000	      0.00000000	     -8.84942850	     -1.52130531	     -4.63829686	      8.24763732	    -40.03492265	     75.92444897	     70.46610655	     87.77751090	      0.00000000	      0.00000000	     -2.44311133	    -44.20739756	     62.83437850	     80.76236934	     87.84220710	      0.00000000	      0.00000000
      5.89500000	    -23.92452061	      0.10525702	      2.27121057	     -0.42465532	      0.79213139	     -0.91204195	     65.28520030	    -11.95652248	      2.40778571	     78.75199475	      1.37448160	     33.50847143	      0.00000000	      0.00000000	     66.63894079	    -11.78619570	      0.74994961	     78.29348288	      1.36647906	     35.90486455	      0.00000000	      0.00000000	     -8.44258149	     -1.46364101	     -4.61914194	      8.25810893	    -39.92625188	     76.12039086	     70.38230673	     87.75933339	      0.00000000	      0.00000000	     -1.45853585	    -44.07845520	     64.37434325	     80.35269953	     87.82983575	      0.00000000	      0.00000000
      5.90000000	    -23.17778356	     -0.15724341	      2.24820214	     -0.42066000	      0.80142647	     -0.91209244	     63.40708249	    -11.78901387	      1.83745140	     77.23712426	      1.34804212	     32.42906906	      0.00000000	      0.00000000	     64.83918218	    -11.89546839	      0.78978836	     76.81830856	      1.34073241	     35.44437972	      0.00000000	      0.00000000	     -8.22648862	     -1.15397430	     -4.74168595	      8.27414387	    -39.71737808	     76.15630227	     70.11993084	     87.76597138	      0.00000000	      0.00000000	     -1.14527277	    -43.79392311	     64.85110915	     79.82878351	     87.83142499	      0.00000000	      0.00000000
      5.90500000	    -22.64854760	     -0.02474656	      2.16605811	     -0.41706613	      0.81058094	     -0.91253975	     61.91201374	    -11.82052432	      1.71873713	     75.72729008	      1.32169055	     31.43271058	      0.00000000	      0.00000000	     63.15949005	    -11.74088371	      0.50162975	     75.17514705	      1.31205383	     34.76500315	      0.00000000	      0.00000000	     -7.79156115	     -1.24942861	     -4.89589980	      8.34563997	    -39.60007204	     76.31328307	     69.98854260	     87.76627392	      0.00000000	      0.00000000	     -0.84900381	    -43.54264163	     65.37262536	     79.31509408	     87.82953221	      0.00000000	      0.00000000
      5.91000000	    -21.92185094	     -0.01024566	      2.12090005	     -0.41302169	      0.82032268	     -0.91293326	     60.09908431	    -11.84125851	      1.36106218	     74.11685970	      1.29358323	     30.25717196	      0.00000000	      0.00000000	     61.26110378	    -11.71142386	      0.20494506	     73.56090564	      1.28388000	     33.90605880	      0.00000000	      0.00000000	     -7.54060893	     -1.21248014	     -5.06207087	      8.50385682	    -39.44435456	     76.56023265	     69.80870751	     87.76228933	      0.00000000	      0.00000000	     -0.42365771	    -43.23350900	     66.12953172	     78.68336518	     87.82729247	      0.00000000	      0.00000000
      5.91500000	    -21.20676616	      0.04501318	      2.03717900	     -0.40901439	      0.83037186	     -0.91340865	     58.25081009	    -11.83891810	      1.09919794	     72.38976034	      1.26343966	     29.11183792	      0.00000000	      0.00000000	     59.28423325	    -11.65690578	     -0.15370556	     71.77204403	      1.25265848	     33.46397037	      0.00000000	      0.00000000	     -7.22188702	     -1.24497046	     -3.90705589	      6.65440656	    -39.56561775	     74.33820702	     69.82410346	     87.73559672	      0.00000000	      0.00000000	      2.92581274	    -42.98173603	     70.72542132	     77.93536544	     87.79687576	      0.00000000	      0.00000000
      5.92000000	    -20.55105711	      0.04224590	      1.98524309	     -0.40497728	      0.84049726	     -0.91371453	     56.44933779	    -11.81402515	      0.78968499	     70.61229524	      1.23241704	     27.75195223	      0.00000000	      0.00000000	     57.41758738	    -11.57492850	     -0.28153317	     70.02479050	      1.22216315	     32.39011025	      0.00000000	      0.00000000	     -6.92646766	     -1.20843444	     -4.09542010	      6.81809368	    -39.43179989	     74.63144348	     69.71356605	     87.75718638	      0.00000000	      0.00000000	      3.11002649	    -42.64371241	     71.15136153	     77.24505409	     87.80085694	      0.00000000	      0.00000000
      5.92500000	    -19.84800627	      0.06287367	      1.96132785	     -0.40068641	      0.85097390	     -0.91427502	     54.54498838	    -11.84848107	      0.47680056	     68.77234394	      1.20030384	     26.28640767	      0.00000000	      0.00000000	     55.44711529	    -11.46654286	     -0.50494683	     68.09254115	      1.18843904	     31.39872361	      0.00000000	      0.00000000	     -6.64388082	     -1.14169334	     -4.27133258	      7.03981481	    -39.36253612	     75.04633281	     69.66056142	     87.76631258	      0.00000000	      0.00000000	      3.40743956	    -42.28117164	     71.78296905	     76.54636355	     87.80472386	      0.00000000	      0.00000000
      5.93000000	    -19.12400949	      0.12785091	      1.89958540	     -0.39637364	      0.86169975	     -0.91467434	     52.63466092	    -11.89222030	      0.10105649	     66.81486013	      1.16613930	     25.10389576	      0.00000000	      0.00000000	     53.37821092	    -11.35885785	     -0.77973996	     66.10547354	      1.15375817	     30.21909237	      0.00000000	      0.00000000	     -6.36202433	     -1.15049334	     -4.39073991	      7.29938289	    -39.29424881	     75.48156377	     69.54491279	     87.75795621	      0.00000000	      0.00000000	      3.82366160	    -41.92406486	     72.59854136	     75.80749761	     87.79933229	      0.00000000	      0.00000000
      5.93500000	    -18.46146364	     -0.11186531	      1.91779245	     -0.39232210	      0.87260680	     -0.91517684	     50.59174474	    -11.69537795	     -0.32812857	     64.65001727	      1.12835566	     23.50990774	      0.00000000	      0.00000000	     51.47320768	    -11.41226907	     -0.79601804	     64.00776049	      1.11714617	     29.20398298	      0.00000000	      0.00000000	     -6.01581174	     -0.81460996	     -4.43869956	      7.56971923	    -39.35205846	     76.14672342	     69.63729558	     87.74165662	      0.00000000	      0.00000000	      4.66389393	    -41.59150770	     74.10462564	     75.18976526	     87.80275834	      0.00000000	      0.00000000
      5.94000000	    -17.77508160	     -0.11680014	      1.93986547	     -0.38798769	      0.88397619	     -0.91581597	     48.56426332	    -11.73647184	     -0.74772784	     62.43705089	      1.08973211	     21.75107543	      0.00000000	      0.00000000	     49.40996687	    -11.22973673	     -0.87344352	     61.85272020	      1.07953362	     27.55407022	      0.00000000	      0.00000000	     -5.75332091	     -0.72152082	     -4.53719128	      7.64427164	    -39.32900163	     76.31413851	     69.56227399	     87.72834809	      0.00000000	      0.00000000	      5.07390529	    -41.19010005	     74.86414078	     74.37889728	     87.79501157	      0.00000000	      0.00000000
      5.94500000	    -16.94498162	     -0.00158967	      1.77610784	     -0.38326109	      0.89583975	     -0.91653812	     46.33211674	    -11.71591244	     -0.85067607	     60.06302064	      1.04829747	     19.83952832	      0.00000000	      0.00000000	     47.03092374	    -11.10710994	     -1.27165606	     59.47276148	      1.03799550	     26.12870736	      0.00000000	      0.00000000	     -5.58547912	     -0.73490634	     -4.42604276	      7.74176462	    -39.36484016	     76.59433858	     69.48412179	     87.72648063	      0.00000000	      0.00000000	      5.55124683	    -40.74665910	     75.76287071	     73.60710125	     87.78668303	      0.00000000	      0.00000000
      5.95000000	    -16.26431376	     -0.01937774	      1.72494592	     -0.37862773	      0.90778283	     -0.91712017	     44.16342632	    -11.62651344	     -1.15055950	     57.47577225	      1.00314147	     17.88303187	      0.00000000	      0.00000000	     44.85409763	    -10.96073982	     -1.34751653	     57.00530290	      0.99493023	     24.26415565	      0.00000000	      0.00000000	     -5.28644265	     -0.64609581	     -4.43559489	      7.78994304	    -39.35133702	     76.78436653	     69.39799022	     87.71690270	      0.00000000	      0.00000000	      5.90508968	    -40.37499217	     76.54600828	     72.91376357	     87.78136314	      0.00000000	      0.00000000
      5.95500000	    -15.81353366	     -0.28302381	      1.83717550	     -0.37453056	      0.91947566	     -0.91763379	     42.17034845	    -11.39344595	     -1.68302609	     54.76380722	      0.95580875	     15.84720530	      0.00000000	      0.00000000	     43.05545201	    -10.92384557	     -1.07598383	     54.50688259	      0.95132457	     22.47855163	      0.00000000	      0.00000000	     -4.76155026	     -0.30437502	     -4.53152823	      7.80958036	    -39.40735864	     76.94351823	     69.41246593	     87.71516826	      0.00000000	      0.00000000	      6.23533885	    -40.11753698	     77.26917678	     72.48610351	     87.78898897	      0.00000000	      0.00000000
      5.96000000	    -15.08465067	     -0.23614365	      1.77019985	     -0.36970460	      0.93194633	     -0.91815310	     39.84377560	    -11.36788851	     -2.10791859	     51.95758597	      0.90683095	     13.53546077	      0.00000000	      0.00000000	     40.70907685	    -10.79233948	     -1.34516346	     51.82247981	      0.90447290	     20.48040203	      0.00000000	      0.00000000	     -4.51991586	     -0.29743257	     -4.47388724	      7.76646289	    -39.36977029	     77.03022779	     69.24393474	     87.70553329	      0.00000000	      0.00000000	      6.58547803	    -39.82346547	     78.00388318	     71.95565841	     87.77369950	      0.00000000	      0.00000000
      5.96500000	    -14.50093897	      0.13604636	      1.58975402	     -0.36482197	      0.94457058	     -0.91884945	     37.68105312	    -11.48076033	     -1.95863250	     49.00312681	      0.85526591	     11.20582158	      0.00000000	      0.00000000	     38.26883693	    -10.30334465	     -1.63335052	     48.74428283	      0.85074823	     18.20929030	      0.00000000	      0.00000000	     -4.11850093	     -0.62924761	     -4.36006381	      7.69129315	    -39.31142694	     77.06529778	     69.07219049	     87.69505654	      0.00000000	      0.00000000	      6.75642068	    -39.61898680	     78.52053988	     71.61848136	     87.76599710	      0.00000000	      0.00000000
      5.97000000	    -13.74883261	      0.15191638	      1.60109615	     -0.36003116	      0.95748335	     -0.91911413	     35.18125627	    -11.43978276	     -2.50878810	     45.84680628	      0.80017772	      8.58271738	      0.00000000	      0.00000000	     35.79289855	    -10.15040997	     -1.82128989	     45.68378912	      0.79733253	     15.76549659	      0.00000000	      0.00000000	     -3.91792913	     -0.62041949	     -4.31717599	      7.52033539	    -39.13331970	     76.91663710	     68.73438921	     87.67659473	      0.00000000	      0.00000000	      7.19031600	    -39.51450847	     79.32139052	     71.35383607	     87.75526041	      0.00000000	      0.00000000
      5.97500000	    -13.41155726	      0.35143698	      1.59885766	     -0.35554066	      0.97013261	     -0.91955653	     33.12515207	    -11.44820412	     -2.52463859	     42.54639615	      0.74257470	      5.98792602	      0.00000000	      0.00000000	     33.66815883	     -9.68895823	     -1.75103548	     42.34088085	      0.73898778	     12.79940114	      0.00000000	      0.00000000	     -3.29006489	     -0.79175919	     -4.32215196	      7.34534992	    -39.02342492	     76.79931604	     68.58137837	     87.66887620	      0.00000000	      0.00000000	      7.26803262	    -39.51424674	     79.69500373	     71.35057192	     87.75094323	      0.00000000	      0.00000000
      5.98000000	    -12.42830747	      0.67815970	      1.44875169	     -0.34995281	      0.98400779	     -0.91984780	     30.20394337	    -11.60803699	     -2.87695614	     38.90506888	      0.67902155	      2.52362996	      0.00000000	      0.00000000	     30.60342319	     -9.29337021	     -2.19157532	     38.80093228	      0.67720402	     10.00834217	      0.00000000	      0.00000000	     -3.33188276	     -1.12391552	     -4.13152103	      6.99411418	    -38.70583629	     76.46719232	     67.96347642	     87.65485865	      0.00000000	      0.00000000	      7.46972264	    -39.39788079	     80.12756730	     71.08248491	     87.73883847	      0.00000000	      0.00000000
      5.98500000	    -11.72613287	      1.27932054	      1.19202526	     -0.34440403	      0.99756409	     -0.92024065	     27.61504420	    -11.90951167	     -2.70705031	     35.19226128	      0.61422083	     -0.92447870	      0.00000000	      0.00000000	     27.62408808	     -8.48303595	     -2.38460092	     34.75980151	      0.60667298	      6.53893272	      0.00000000	      0.00000000	     -3.03335001	     -1.73251708	     -3.96307719	      6.67962815	    -38.48047246	     76.20692750	     67.66116971	     87.64552706	      0.00000000	      0.00000000	      7.42547485	    -39.53830893	     80.36019416	     71.25213717	     87.72758732	      0.00000000	      0.00000000
      5.99000000	    -11.11492381	      1.44246242	      1.24094402	     -0.33944606	      1.01114999	     -0.92030545	     24.93049309	    -11.89134300	     -3.08082979	     31.14845867	      0.54364316	     -4.83643158	      0.00000000	      0.00000000	     25.00485619	     -8.06145056	     -2.26401148	     30.87380317	      0.53884952	      2.87053055	      0.00000000	      0.00000000	     -2.71530637	     -1.93057612	     -3.94949153	      6.22260796	    -38.09897557	     75.73071452	     67.00778844	     87.62708568	      0.00000000	      0.00000000	      7.44139050	    -39.67821426	     80.41033396	     71.38041102	     87.70481963	      0.00000000	      0.00000000
      5.99500000	    -10.33101658	      1.89808687	      0.92854019	     -0.33359106	      1.02503396	     -0.92046992	     22.03142694	    -12.00806655	     -2.96726253	     26.88332350	      0.46920251	     -9.20820493	      0.00000000	      0.00000000	     21.90814887	     -7.41838879	     -2.43433727	     26.62579197	      0.46470774	     -1.50015279	      0.00000000	      0.00000000	     -2.50431626	     -2.39886981	     -3.71565119	      5.78540326	    -37.79133239	     75.24060264	     66.56365525	     87.62145441	      0.00000000	      0.00000000	      7.18760136	    -39.82392912	     80.35759805	     71.56690441	     87.70418516	      0.00000000	      0.00000000
      6.00000000	     -9.66137438	      2.15952854	      0.87202272	     -0.32812521	      1.03863795	     -0.92060398	     19.12929169	    -12.00025678	     -3.08554233	     22.41584589	      0.39123032	    -13.85273799	      0.00000000	      0.00000000	     19.06367467	     -6.89975735	     -2.36941219	     22.33025701	      0.38973651	     -6.09297289	      0.00000000	      0.00000000	     -2.20477652	     -2.66444291	     -3.62063084	      5.17391072	    -37.48135356	     74.61885298	     66.08766623	     87.60428607	      0.00000000	      0.00000000	      6.97889246	    -40.03577161	     80.10710467	     71.87055507	     87.70120127	      0.00000000	      0.00000000
      6.00500000	     -9.17155211	      2.18262607	      0.92686389	     -0.32317015	      1.05201794	     -0.92062490	     16.36069125	    -11.72994906	     -3.17868176	     17.80411320	      0.31074040	    -18.76893582	      0.00000000	      0.00000000	     16.53811022	     -6.57832938	     -1.75288469	     18.07901674	      0.31553837	    -10.61344517	      0.00000000	      0.00000000	     -1.75544372	     -2.70578513	     -3.59095206	      4.50799532	    -37.07642146	     73.90575207	     65.48960321	     87.61066485	      0.00000000	      0.00000000	      6.74226320	    -40.25149717	     79.71944835	     72.16295149	     87.68797365	      0.00000000	      0.00000000
      6.01000000	     -8.51280985	      2.69481854	      0.61241190	     -0.31729766	      1.06557050	     -0.92079573	     13.51268972	    -11.95580905	     -2.90713385	     13.08633287	      0.22839960	    -24.14698860	      0.00000000	      0.00000000	     13.52287852	     -5.82691787	     -1.62492947	     13.45862449	      0.23489731	    -14.98884564	      0.00000000	      0.00000000	     -1.40264100	     -3.23178336	     -3.33225971	      3.87864258	    -36.68787499	     73.22567973	     64.88954287	     87.60824016	      0.00000000	      0.00000000	      6.32258165	    -40.50790580	     79.29792580	     72.54467844	     87.66260299	      0.00000000	      0.00000000
      6.01500000	     -8.05146065	      2.85045830	      0.46763687	     -0.31200888	      1.07868878	     -0.92083643	     10.90265443	    -11.83391761	     -2.75715531	      8.43441416	      0.14720830	    -29.14068357	      0.00000000	      0.00000000	     10.91271986	     -5.45542517	     -0.81588548	      9.19451886	      0.16047463	    -18.05361443	      0.00000000	      0.00000000	     -0.88016271	     -3.37673157	     -3.13041775	      3.13666007	    -36.34999896	     72.48778110	     64.37803931	     87.60270820	      0.00000000	      0.00000000	      5.91840184	    -40.72308316	     78.74217632	     72.92416635	     87.67083671	      0.00000000	      0.00000000
      6.02000000	     -8.04184415	      2.66683734	      0.31184385	     -0.30765450	      1.09105907	     -0.92049836	      9.07182196	    -11.37562892	     -2.61195672	      4.35797866	      0.07606108	    -33.18759050	      0.00000000	      0.00000000	      9.09823806	     -5.54130354	     -0.20995594	      5.64843924	      0.09858386	    -19.41316740	      0.00000000	      0.00000000	      0.02185984	     -3.18425498	     -2.95193589	      2.42593838	    -36.02074727	     71.57424414	     63.97161654	     87.59903585	      0.00000000	      0.00000000	      5.41288049	    -40.89671170	     77.95991024	     73.23485620	     87.67114705	      0.00000000	      0.00000000
      6.02500000	     -7.86898632	      2.79749767	      0.26415912	     -0.30332130	      1.10332111	     -0.92067495	      7.52223092	    -11.33830204	     -3.41196890	      1.57495898	      0.02748822	    -35.08715974	      0.00000000	      0.00000000	      7.46110979	     -5.29462760	     -0.39002415	      3.10271436	      0.05415258	    -19.77063144	      0.00000000	      0.00000000	      0.79924327	     -3.29552775	     -2.91503163	      1.93861260	    -35.58153530	     70.92320689	     63.40599692	     87.46896695	      0.00000000	      0.00000000	      5.12282756	    -41.16100439	     77.60273901	     73.79122342	     87.67628444	      0.00000000	      0.00000000
      6.03000000	     -7.88160390	      2.87475807	     -0.06791858	     -0.29983896	      1.11557724	     -0.92050245	      6.98886724	    -11.21433962	     -4.84446938	      0.59444715	      0.01037506	    -34.78399220	      0.00000000	      0.00000000	      6.37762207	     -5.16203599	     -1.93541212	      1.50811360	      0.02632155	    -19.98212352	      0.00000000	      0.00000000	      1.62121078	     -3.34362587	     -2.56071177	      1.35668537	    -35.32749266	     70.12714233	     63.01494200	     87.45805645	      0.00000000	      0.00000000	      4.78071336	    -41.27550795	     76.91989223	     74.00631162	     87.66648243	      0.00000000	      0.00000000
      6.03500000	     -7.82031336	      3.01156970	     -0.18289328	     -0.29671051	      1.12768299	     -0.92056974	      6.56501740	    -11.18857592	     -7.00718905	      0.37947581	      0.00662310	    -33.25193245	      0.00000000	      0.00000000	      5.69663752	     -4.90807823	     -4.30239131	      1.04030943	      0.01815682	    -19.73837686	      0.00000000	      0.00000000	      2.35599117	     -3.45487171	     -2.40460139	      0.96087190	    -34.99359935	     69.66718289	     62.53780190	     87.44783628	      0.00000000	      0.00000000	      4.63362870	    -41.38940924	     76.52374518	     74.26582825	     87.67052639	      0.00000000	      0.00000000
      6.04000000	     -7.73836865	      3.09436846	     -0.41846906	     -0.29356847	      1.13959577	     -0.92056313	      6.12331015	    -11.05500686	     -9.25792030	      0.32177585	      0.00561605	    -31.72673653	      0.00000000	      0.00000000	      5.06516894	     -4.68557110	     -6.91071193	      0.84377902	      0.01472672	    -19.27109152	      0.00000000	      0.00000000	      3.09031661	     -3.48618383	     -2.19528115	      0.63358092	    -34.70638925	     69.27910254	     62.08458870	     87.40657448	      0.00000000	      0.00000000	      4.42417060	    -41.46265563	     76.18273572	     74.43013048	     87.62018245	      0.00000000	      0.00000000
      6.04500000	     -7.41661565	      3.23115294	     -0.58975710	     -0.29030053	      1.15147087	     -0.92057559	      5.36011125	    -10.99624329	    -11.47689108	      0.31659155	      0.00552556	    -30.69678996	      0.00000000	      0.00000000	      4.21563960	     -4.37543065	     -9.48045994	      0.83096318	      0.01450304	    -18.70154949	      0.00000000	      0.00000000	      3.46080643	     -3.57500284	     -2.00451020	     -0.03953398	    -34.37930578	     68.18223013	     61.63263231	     87.47503154	      0.00000000	      0.00000000	      4.04794348	    -41.46645391	     75.37786830	     74.52938411	     87.67223297	      0.00000000	      0.00000000
      6.05000000	     -7.40814154	      3.45868200	     -0.80444483	     -0.28761255	      1.16257214	     -0.92051722	      4.99957427	    -11.02683833	    -13.05181495	      0.37298953	      0.00650990	    -30.61390040	      0.00000000	      0.00000000	      3.74101679	     -3.96221913	    -11.16128647	      0.94505519	      0.01649432	    -18.69811251	      0.00000000	      0.00000000	      4.20490115	     -3.77155734	     -1.81080274	     -0.31217306	    -34.15809938	     67.94703285	     61.31054009	     87.38778233	      0.00000000	      0.00000000	      3.86091857	    -41.44864967	     75.15395797	     74.54344751	     87.59101847	      0.00000000	      0.00000000
      6.05500000	     -7.08504625	      3.59925019	     -0.75371072	     -0.28536711	      1.17356332	     -0.92069202	      4.22819858	    -11.00322033	    -14.46863876	      0.45761193	      0.00798683	    -31.93041354	      0.00000000	      0.00000000	      3.07279958	     -3.62877757	    -12.14194059	      1.31353568	      0.02292552	    -18.99305014	      0.00000000	      0.00000000	      4.46938361	     -3.91150772	     -1.88863222	     -0.63210895	    -33.93251493	     67.44816070	     60.98106559	     87.42044783	      0.00000000	      0.00000000	      3.68004741	    -41.46338933	     74.70986307	     74.57559045	     87.62913165	      0.00000000	      0.00000000
      6.06000000	     -7.09123993	      3.77217357	     -0.80596822	     -0.28393942	      1.18416495	     -0.92048791	      3.88502841	    -10.95658773	    -14.73018081	      0.64538064	      0.01126402	    -33.56535848	      0.00000000	      0.00000000	      2.85431410	     -3.30255121	    -12.30875681	      1.92218143	      0.03354839	    -19.28033803	      0.00000000	      0.00000000	      5.04655423	     -4.09316894	     -1.88252097	     -0.84947101	    -33.68089671	     67.12244661	     60.62942001	     87.46932027	      0.00000000	      0.00000000	      3.53661579	    -41.37019985	     74.35764739	     74.41480450	     87.65547311	      0.00000000	      0.00000000
      6.06500000	     -6.71930806	      4.02696329	     -0.74858024	     -0.28194159	      1.19446170	     -0.92081935	      3.09573767	    -11.03321678	    -14.75026047	      1.05307059	      0.01837955	    -34.37009017	      0.00000000	      0.00000000	      2.28653800	     -2.83899141	    -12.16567860	      2.76158116	      0.04819868	    -19.26910543	      0.00000000	      0.00000000	      5.22306453	     -4.35634299	     -1.99525214	     -1.06514584	    -33.61060607	     66.88346025	     60.58979728	     87.54092130	      0.00000000	      0.00000000	      3.35978937	    -41.24833270	     73.96417821	     74.21909168	     87.66449849	      0.00000000	      0.00000000
      6.07000000	     -6.51263846	      4.06255387	     -0.86813706	     -0.28066790	      1.20445827	     -0.92065871	      2.73205291	    -10.82147406	    -14.03592819	      1.88022562	      0.03281613	    -34.69007323	      0.00000000	      0.00000000	      1.93344396	     -2.64045270	    -11.69639549	      3.68474025	      0.06431085	    -19.60959461	      0.00000000	      0.00000000	      5.51353881	     -4.39758433	     -1.91831103	     -1.26828225	    -33.58915472	     66.87227837	     60.52630204	     87.49363216	      0.00000000	      0.00000000	      3.22657612	    -41.12096354	     73.71920676	     74.12260710	     87.57471401	      0.00000000	      0.00000000
      6.07500000	     -6.62405668	      4.18244618	     -0.65641373	     -0.28070021	      1.21377604	     -0.92070259	      2.78196953	    -10.73275786	    -13.39566194	      2.90727503	      0.05074152	    -34.48281078	      0.00000000	      0.00000000	      2.30502883	     -2.38570211	    -11.21760207	      5.15209441	      0.08992101	    -19.32410762	      0.00000000	      0.00000000	      5.99662998	     -4.59671705	     -2.34407360	     -1.17181583	    -33.37443306	     66.74824303	     60.21964444	     87.65097834	      0.00000000	      0.00000000	      2.82323214	    -40.99936278	     72.94381356	     73.81826728	     87.70390026	      0.00000000	      0.00000000
      6.08000000	     -6.28379744	      4.22195242	     -0.60573951	     -0.27988587	      1.22311004	     -0.92069317	      2.31611291	    -10.53659977	    -12.85891828	      3.86767786	      0.06750371	    -34.74941930	      0.00000000	      0.00000000	      1.88305456	     -2.12924452	    -10.62034217	      5.96952554	      0.10418788	    -19.78094509	      0.00000000	      0.00000000	      6.04502902	     -4.68506182	     -2.49001449	     -1.18951034	    -33.38043722	     66.77192277	     60.22182399	     87.66685784	      0.00000000	      0.00000000	      2.76890835	    -40.91990567	     72.75133436	     73.67112665	     87.69963251	      0.00000000	      0.00000000
      6.08500000	     -5.99386772	      4.48730375	     -0.64900816	     -0.27921724	      1.23210830	     -0.92107277	      2.16895240	    -10.66955638	    -12.90665343	      5.28031782	      0.09215893	    -34.30621486	      0.00000000	      0.00000000	      1.59340821	     -1.62765692	    -10.39882472	      6.95829992	      0.12144524	    -19.44707325	      0.00000000	      0.00000000	      6.12780603	     -4.95118743	     -3.12521202	     -0.45832181	    -33.44054608	     67.72046078	     60.20435687	     87.69054770	      0.00000000	      0.00000000	      1.32320237	    -40.72524232	     70.73832908	     73.35556191	     87.73525109	      0.00000000	      0.00000000
      6.09000000	     -5.70441674	      4.37686503	     -0.43538475	     -0.27883193	      1.24081774	     -0.92137011	      1.81212321	    -10.35619930	    -13.25842256	      6.16876524	      0.10766526	    -34.74859486	      0.00000000	      0.00000000	      1.19698306	     -1.51388963	     -9.58232806	      7.47930009	      0.13053841	    -19.80093461	      0.00000000	      0.00000000	      6.18237317	     -4.89501728	     -3.47859599	     -0.37690420	    -33.48478169	     67.79464433	     60.22091060	     87.61773696	      0.00000000	      0.00000000	      1.18780986	    -40.54419911	     70.46744940	     73.02645547	     87.73719132	      0.00000000	      0.00000000
      6.09500000	     -5.42243815	      4.54463870	     -0.64115493	     -0.27790945	      1.24920908	     -0.92145151	      1.44599566	    -10.32787015	    -12.98896727	      6.74285356	      0.11768500	    -35.14871785	      0.00000000	      0.00000000	      0.62559626	     -1.06163338	     -9.10659672	      7.65659467	      0.13363279	    -19.91214646	      0.00000000	      0.00000000	      6.30938921	     -5.08513570	     -3.40321032	     -0.43180830	    -33.54593875	     67.78478419	     60.23902913	     87.60392342	      0.00000000	      0.00000000	      0.98348797	    -40.43549660	     70.28682913	     72.83870012	     87.72922015	      0.00000000	      0.00000000
      6.10000000	     -5.26012241	      4.45531003	     -0.49977935	     -0.27723244	      1.25728119	     -0.92156687	      1.01573339	     -9.98475360	    -13.23805551	      6.96507517	      0.12156349	    -35.37576918	      0.00000000	      0.00000000	     -0.01007811	     -0.87301366	     -7.77184375	      7.21804136	      0.12597859	    -20.18770515	      0.00000000	      0.00000000	      6.49455042	     -5.08079614	     -3.76923774	     -0.50442556	    -33.61818888	     67.73109557	     60.37400574	     87.58611614	      0.00000000	      0.00000000	      0.47828094	    -40.31569192	     69.67294981	     72.53995602	     87.72943063	      0.00000000	      0.00000000
      6.10500000	     -4.93366847	      4.55922458	     -0.77298792	     -0.27563339	      1.26548254	     -0.92176880	      0.33831116	     -9.84571230	    -12.72977794	      6.87126167	      0.11992614	    -35.37517866	      0.00000000	      0.00000000	     -0.96114157	     -0.44704998	     -7.14206963	      6.58306069	      0.11489608	    -20.33207141	      0.00000000	      0.00000000	      6.66721499	     -5.16966598	     -3.59370940	     -0.69495805	    -33.75432141	     67.75579997	     60.52313004	     87.57144718	      0.00000000	      0.00000000	      0.05629500	    -40.08308911	     69.29015079	     72.18996130	     87.75211710	      0.00000000	      0.00000000
      6.11000000	     -4.75025067	      4.35065277	     -0.62333922	     -0.27473700	      1.27321340	     -0.92185538	     -0.43775119	     -9.28474887	    -12.31012367	      6.22390396	      0.10862762	    -35.25770694	      0.00000000	      0.00000000	     -1.69082968	     -0.46709736	     -5.68600276	      5.91793127	      0.10328739	    -20.41344227	      0.00000000	      0.00000000	      6.81699883	     -5.04969023	     -3.92333049	     -0.82361816	    -33.82478574	     67.60618628	     60.64467557	     87.55207990	      0.00000000	      0.00000000	     -0.32939676	    -40.03061851	     68.90042848	     71.98179071	     87.74313287	      0.00000000	      0.00000000
      6.11500000	     -4.35770849	      4.35133621	     -0.86537775	     -0.27294887	      1.28109238	     -0.92210335	     -1.35747046	     -9.02480404	    -11.68607299	      5.65403850	      0.09868159	    -35.11360521	      0.00000000	      0.00000000	     -2.72544491	     -0.23336211	     -5.41120991	      5.19035773	      0.09058883	    -20.33613575	      0.00000000	      0.00000000	      6.91641658	     -5.01518959	     -3.75147765	     -1.07788788	    -34.05998997	     67.57119447	     60.94837857	     87.55239699	      0.00000000	      0.00000000	     -0.66326782	    -39.81344777	     68.66711486	     71.59307056	     87.75389783	      0.00000000	      0.00000000
      6.12000000	     -4.22661266	      3.97232393	     -0.78709525	     -0.27184327	      1.28837740	     -0.92207253	     -2.05574512	     -8.31572751	    -11.16880674	      4.92802260	      0.08601022	    -35.02808252	      0.00000000	      0.00000000	     -3.26719171	     -0.54749949	     -4.58109978	      4.75844964	      0.08305061	    -20.50124373	      0.00000000	      0.00000000	      7.14736077	     -4.64853128	     -3.91783631	     -1.35802352	    -34.17200374	     67.38137439	     61.22024057	     87.53360591	      0.00000000	      0.00000000	     -0.93559617	    -39.78097298	     68.46831306	     71.55066203	     87.75314362	      0.00000000	      0.00000000
      6.12500000	     -4.01656258	      3.99347647	     -1.10021066	     -0.26984019	      1.29552580	     -0.92225153	     -2.69530327	     -8.15934360	    -10.79571523	      4.38105571	      0.07646385	    -35.01161485	      0.00000000	      0.00000000	     -3.99174878	     -0.37426346	     -4.80941525	      4.26740735	      0.07448031	    -20.23645096	      0.00000000	      0.00000000	      7.44703553	     -4.65403056	     -3.65278712	     -1.67093291	    -34.33780930	     67.28155644	     61.46085223	     87.52994427	      0.00000000	      0.00000000	     -1.31034287	    -39.68429675	     68.26980085	     71.37564107	     87.74838604	      0.00000000	      0.00000000
      6.13000000	     -3.83729936	      3.65206434	     -1.12535439	     -0.26856833	      1.30260972	     -0.92216986	     -3.43685163	     -7.54397838	     -9.79793717	      3.53227731	      0.06164987	    -35.28579075	      0.00000000	      0.00000000	     -4.51437568	     -0.69869928	     -4.75241214	      3.99453795	      0.06971784	    -20.39539174	      0.00000000	      0.00000000	      7.65785533	     -4.30317390	     -3.69333634	     -2.08908656	    -34.47157029	     66.82129801	     61.78738313	     87.51097290	      0.00000000	      0.00000000	     -1.60426583	    -39.59014804	     67.97189171	     71.21591480	     87.74795772	      0.00000000	      0.00000000
      6.13500000	     -3.36234834	      3.64723953	     -1.35777550	     -0.26662196	      1.30959616	     -0.92231734	     -4.47898622	     -7.36436043	     -9.01046053	      2.79631763	      0.04880495	    -35.24840421	      0.00000000	      0.00000000	     -5.40357545	     -0.60647826	     -5.33162741	      3.72029383	      0.06493138	    -20.26523928	      0.00000000	      0.00000000	      7.60085144	     -4.27087328	     -3.49826688	     -2.46881384	    -34.68337875	     66.53525460	     62.18956516	     87.50472818	      0.00000000	      0.00000000	     -1.92997089	    -39.56568526	     67.70303734	     71.22669669	     87.74288010	      0.00000000	      0.00000000
      6.14000000	     -3.35737576	      3.29040458	     -1.36732450	     -0.26561266	      1.31588267	     -0.92228855	     -4.82145173	     -6.79728752	     -8.62442721	      2.40450440	      0.04196652	    -35.18438453	      0.00000000	      0.00000000	     -5.59184286	     -0.99010649	     -5.75499614	      3.77287218	      0.06584904	    -19.94523561	      0.00000000	      0.00000000	      8.00515963	     -3.88715084	     -3.48297169	     -2.79057248	    -34.81868369	     66.32410792	     62.43469875	     87.49154071	      0.00000000	      0.00000000	     -2.09905895	    -39.52802037	     67.62857109	     71.20204306	     87.73957838	      0.00000000	      0.00000000
      6.14500000	     -3.13057683	      3.28947731	     -1.55599011	     -0.26381328	      1.32213329	     -0.92256307	     -5.38973428	     -6.67579791	     -8.47235828	      2.06816310	      0.03609626	    -35.02172934	      0.00000000	      0.00000000	     -6.15592352	     -0.91993426	     -6.55675714	      3.61158389	      0.06303403	    -19.52419161	      0.00000000	      0.00000000	      8.20458790	     -3.85069241	     -3.32011113	     -3.11779618	    -35.01521308	     66.20859573	     62.76115404	     87.48835713	      0.00000000	      0.00000000	     -2.39827713	    -39.49217406	     67.49012719	     71.23505107	     87.73109177	      0.00000000	      0.00000000
      6.15000000	     -2.74756029	      3.15266996	     -1.59142188	     -0.26243166	      1.32828907	     -0.92273350	     -6.12110397	     -6.38273992	     -8.28135192	      1.79330523	      0.03129908	    -34.75207608	      0.00000000	      0.00000000	     -6.76755939	     -1.03274666	     -7.16650528	      3.68049716	      0.06423679	    -19.15158465	      0.00000000	      0.00000000	      8.22426648	     -3.68150047	     -3.31446519	     -3.39976489	    -35.18852205	     66.01665108	     63.09782085	     87.47386419	      0.00000000	      0.00000000	     -2.55437890	    -39.47993452	     67.34855391	     71.25653860	     87.72024466	      0.00000000	      0.00000000
      6.15500000	     -2.57967281	      3.04765054	     -1.73808622	     -0.26122904	      1.33409294	     -0.92278322	     -6.52354733	     -6.15507085	     -8.01375283	      1.65430087	      0.02887300	    -34.63023588	      0.00000000	      0.00000000	     -7.10602770	     -1.12049373	     -7.74090258	      3.78886722	      0.06612821	    -18.97196585	      0.00000000	      0.00000000	      8.41600327	     -3.54380231	     -3.17179442	     -3.72816949	    -35.34251881	     65.69649143	     63.38219074	     87.45198784	      0.00000000	      0.00000000	     -2.78669560	    -39.45162190	     67.13674983	     71.29905802	     87.71979155	      0.00000000	      0.00000000
      6.16000000	     -2.51169378	      3.05453300	     -1.78339559	     -0.26031997	      1.33948442	     -0.92293356	     -6.74774123	     -6.04470989	     -8.02002841	      1.65977169	      0.02896848	    -34.63248606	      0.00000000	      0.00000000	     -7.33799094	     -1.08730069	     -7.88894550	      3.87130526	      0.06756702	    -18.97665305	      0.00000000	      0.00000000	      8.72136818	     -3.53155711	     -3.17023834	     -3.89244610	    -35.36547928	     65.65804142	     63.40049016	     87.44826549	      0.00000000	      0.00000000	     -2.98721302	    -39.45351696	     67.17550338	     71.34157298	     87.72268401	      0.00000000	      0.00000000
      6.16500000	     -2.13876654	      2.94751221	     -1.75741562	     -0.25939160	      1.34476116	     -0.92302190	     -7.38298116	     -5.78791466	     -8.21701520	      1.56061876	      0.02723794	    -34.48619017	      0.00000000	      0.00000000	     -7.84531126	     -1.18714699	     -8.75148151	      4.03642061	      0.07044883	    -18.86312404	      0.00000000	      0.00000000	      8.62675966	     -3.43304300	     -3.25103623	     -4.14071530	    -35.48143220	     65.29911163	     63.70811391	     87.42599030	      0.00000000	      0.00000000	     -3.12038540	    -39.51368510	     66.95440264	     71.53229450	     87.71197238	      0.00000000	      0.00000000
      6.17000000	     -2.04433023	      2.87490504	     -1.62227799	     -0.25902369	      1.34967782	     -0.92316341	     -7.63309032	     -5.57137375	     -8.44872081	      1.61756820	      0.02823189	    -34.48604917	      0.00000000	      0.00000000	     -7.94849685	     -1.29065635	     -8.76366780	      4.31610090	      0.07533017	    -18.65535214	      0.00000000	      0.00000000	      8.78984569	     -3.36589190	     -3.34654370	     -4.52779817	    -35.50575429	     64.76058337	     63.89302454	     87.42424825	      0.00000000	      0.00000000	     -3.27744048	    -39.54098529	     66.68569181	     71.62694921	     87.70862696	      0.00000000	      0.00000000
      6.17500000	     -2.03622456	      2.88813505	     -1.69100266	     -0.25835331	      1.35436428	     -0.92330274	     -7.77039571	     -5.47903766	     -8.45702395	      1.67624275	      0.02925595	    -34.51452190	      0.00000000	      0.00000000	     -8.09791764	     -1.22960566	     -8.77404450	      4.39708342	      0.07674358	    -18.70974397	      0.00000000	      0.00000000	      9.12618965	     -3.39456367	     -3.33509243	     -4.61396331	    -35.52241056	     64.74638320	     63.88006437	     87.42500714	      0.00000000	      0.00000000	     -3.38925263	    -39.53083923	     66.71169421	     71.61664106	     87.71037686	      0.00000000	      0.00000000
      6.18000000	     -1.76557670	      3.00352743	     -1.80796866	     -0.25770639	      1.35903925	     -0.92344060	     -8.13847072	     -5.51923430	     -8.56330379	      1.84842956	      0.03226118	    -34.63454556	      0.00000000	      0.00000000	     -8.47926109	     -1.05475895	     -9.21170123	      4.47848709	      0.07816435	    -18.91688777	      0.00000000	      0.00000000	      9.11415497	     -3.49594597	     -3.24714252	     -4.82274334	    -35.52763000	     64.40625926	     63.91771630	     87.41812099	      0.00000000	      0.00000000	     -3.59674913	    -39.50587853	     66.42978301	     71.65340711	     87.70874503	      0.00000000	      0.00000000
      6.18500000	     -1.76323465	      3.03136508	     -1.82788599	     -0.25740739	      1.36314294	     -0.92359890	     -8.27629927	     -5.44152055	     -8.55786142	      1.90020567	      0.03316485	    -34.65163165	      0.00000000	      0.00000000	     -8.60758336	     -0.98582399	     -9.17641403	      4.54274367	      0.07928583	    -18.95951205	      0.00000000	      0.00000000	      9.40671482	     -3.51983993	     -3.26549111	     -4.85970830	    -35.53881706	     64.38549217	     63.91777552	     87.41836765	      0.00000000	      0.00000000	     -3.63985688	    -39.49718257	     66.42763505	     71.65158973	     87.70970190	      0.00000000	      0.00000000
      6.19000000	     -2.02758934	      3.14245317	     -1.80186723	     -0.25726536	      1.36687263	     -0.92386487	     -8.00473297	     -5.47974467	     -8.67536735	      2.15386554	      0.03759205	    -34.87202104	      0.00000000	      0.00000000	     -8.35264726	     -0.84073437	     -8.89114811	      4.69101845	      0.08187372	    -19.47084013	      0.00000000	      0.00000000	      9.92139802	     -3.62658789	     -3.31991624	     -5.15906663	    -35.46927963	     63.93636126	     63.88204742	     87.42629071	      0.00000000	      0.00000000	     -4.01380529	    -39.41350888	     66.03263763	     71.53860179	     87.70679133	      0.00000000	      0.00000000
      6.19500000	     -2.07009144	      3.09418111	     -1.65992359	     -0.25754173	      1.37042133	     -0.92393165	     -8.01817667	     -5.30305439	     -8.64554177	      2.35786951	      0.04115259	    -34.96271311	      0.00000000	      0.00000000	     -8.32591438	     -0.90557817	     -8.69381979	      4.77354749	      0.08331412	    -19.47393440	      0.00000000	      0.00000000	     10.16272737	     -3.65852114	     -3.49780842	     -5.19230238	    -35.39298287	     63.80593112	     63.79613838	     87.42715138	      0.00000000	      0.00000000	     -4.06472212	    -39.43390654	     65.92873881	     71.51417624	     87.70451820	      0.00000000	      0.00000000
      6.20000000	     -1.97716338	      3.27375830	     -1.70306029	     -0.25710164	      1.37386077	     -0.92436709	     -8.17584209	     -5.45190997	     -8.71997541	      2.57217201	      0.04489287	    -35.05292655	      0.00000000	      0.00000000	     -8.51800823	     -0.64974929	     -8.38164290	      4.89154448	      0.08537356	    -19.69678557	      0.00000000	      0.00000000	     10.32482645	     -3.80441209	     -3.43572047	     -5.31897389	    -35.37763999	     63.65849961	     63.72654404	     87.43416908	      0.00000000	      0.00000000	     -4.21999407	    -39.34905187	     65.70945305	     71.43492582	     87.70106604	      0.00000000	      0.00000000
      6.20500000	     -2.15821446	      3.35973830	     -1.68567768	     -0.25721561	      1.37701838	     -0.92466877	     -7.96237147	     -5.48379605	     -8.61189427	      2.86519169	      0.05000703	    -35.18671858	      0.00000000	      0.00000000	     -8.41260142	     -0.53973028	     -8.03095468	      4.83650654	      0.08441296	    -19.79580743	      0.00000000	      0.00000000	     10.73476635	     -3.91528824	     -3.48059989	     -5.36086914	    -35.26177087	     63.47997655	     63.53711862	     87.44318938	      0.00000000	      0.00000000	     -4.43212179	    -39.27881789	     65.46761701	     71.30509999	     87.70471765	      0.00000000	      0.00000000
      6.21000000	     -2.22328364	      3.37994055	     -1.55037969	     -0.25729176	      1.37968046	     -0.92504939	     -7.93335055	     -5.44058974	     -8.65581747	      3.08753263	      0.05388761	    -35.18732333	      0.00000000	      0.00000000	     -8.39669667	     -0.51368008	     -7.49596819	      4.85949972	      0.08481427	    -20.00393701	      0.00000000	      0.00000000	     10.97744485	     -3.95619667	     -3.64601427	     -5.42872513	    -35.21273553	     63.34114831	     63.48627574	     87.45555953	      0.00000000	      0.00000000	     -4.57631934	    -39.25228035	     65.23784487	     71.26017483	     87.71245035	      0.00000000	      0.00000000
      6.21500000	     -2.34264799	      3.32668641	     -1.53273671	     -0.25733713	      1.38221724	     -0.92533533	     -7.78709398	     -5.34469014	     -8.67755057	      3.37428504	      0.05889238	    -35.22283931	      0.00000000	      0.00000000	     -8.40540367	     -0.55060020	     -7.14313496	      4.69075461	      0.08186911	    -20.22410096	      0.00000000	      0.00000000	     11.30378446	     -3.91215468	     -3.72452851	     -5.45705059	    -35.15123241	     63.29103458	     63.38223106	     87.47400614	      0.00000000	      0.00000000	     -4.80560577	    -39.19500482	     64.97470093	     71.22840487	     87.73703599	      0.00000000	      0.00000000
      6.22000000	     -2.33510675	      3.34595206	     -1.53507544	     -0.25737139	      1.38457674	     -0.92562338	     -7.87256392	     -5.31999161	     -8.65668167	      3.41399285	      0.05958542	    -35.23588875	      0.00000000	      0.00000000	     -8.47007612	     -0.53898291	     -7.11473812	      4.71263654	      0.08225102	    -20.23821584	      0.00000000	      0.00000000	     11.48491103	     -3.93229912	     -3.72453012	     -5.44911963	    -35.14179911	     63.28064827	     63.38191917	     87.47368467	      0.00000000	      0.00000000	     -4.80216987	    -39.19517711	     64.95230278	     71.22312159	     87.73556802	      0.00000000	      0.00000000
      6.22500000	     -2.32803769	      3.35797647	     -1.51781723	     -0.25743838	      1.38667954	     -0.92593931	     -7.94471043	     -5.30953794	     -8.61465115	      3.46699546	      0.06051049	    -35.25852548	      0.00000000	      0.00000000	     -8.52020210	     -0.54224407	     -7.06838452	      4.72716075	      0.08250452	    -20.25431958	      0.00000000	      0.00000000	     11.66202821	     -3.94588717	     -3.72832775	     -5.45799628	    -35.12832889	     63.27441845	     63.37754944	     87.47404478	      0.00000000	      0.00000000	     -4.82032679	    -39.18599106	     64.93653279	     71.21497387	     87.73541764	      0.00000000	      0.00000000
      6.23000000	     -2.66472221	      3.37327001	     -1.60666710	     -0.25790625	      1.38839726	     -0.92615689	     -7.45792242	     -5.33962220	     -7.76506914	      3.85322337	      0.06725143	    -35.31258969	      0.00000000	      0.00000000	     -8.27671981	     -0.53911806	     -6.17747775	      4.53732161	      0.07919120	    -20.45712647	      0.00000000	      0.00000000	     12.14526023	     -3.93139558	     -3.72782001	     -5.46366475	    -34.98300874	     63.22319349	     63.11487825	     87.49512701	      0.00000000	      0.00000000	     -5.15063365	    -39.00626355	     64.43917682	     70.91534301	     87.72696890	      0.00000000	      0.00000000
      6.23500000	     -2.63319496	      3.39075336	     -1.58901295	     -0.25787766	      1.38987984	     -0.92659603	     -7.53654103	     -5.35599009	     -7.74708499	      3.87534406	      0.06763751	    -35.31357734	      0.00000000	      0.00000000	     -8.33615525	     -0.56607911	     -6.15808046	      4.55546768	      0.07950791	    -20.46366012	      0.00000000	      0.00000000	     12.28548326	     -3.93166182	     -3.73233064	     -5.45292869	    -34.98323346	     63.21169517	     63.11714672	     87.49476270	      0.00000000	      0.00000000	     -5.16303901	    -39.00215854	     64.42550392	     70.92234905	     87.72749106	      0.00000000	      0.00000000
      6.24000000	     -2.57024498	      3.34863837	     -1.40062520	     -0.25833474	      1.39126458	     -0.92696881	     -7.63200635	     -5.28012912	     -7.42497348	      3.97948270	      0.06945508	    -35.31087570	      0.00000000	      0.00000000	     -8.36710023	     -0.70659339	     -5.76168782	      4.62152064	      0.08066075	    -20.46342158	      0.00000000	      0.00000000	     12.28158520	     -3.94802362	     -3.99344847	     -5.43291940	    -34.91610363	     63.17205088	     63.13561654	     87.49759579	      0.00000000	      0.00000000	     -5.23535423	    -39.04346696	     64.30351912	     70.95131679	     87.73326852	      0.00000000	      0.00000000
      6.24500000	     -2.54534625	      3.32563189	     -1.56929733	     -0.25858107	      1.39268302	     -0.92725659	     -7.73928485	     -5.27831686	     -6.75562354	      3.79045639	      0.06615594	    -35.22160717	      0.00000000	      0.00000000	     -8.49398883	     -0.74345532	     -5.45061098	      4.48584755	      0.07829281	    -20.46624832	      0.00000000	      0.00000000	     12.36635599	     -3.84422736	     -4.69763021	     -4.15001619	    -34.99821091	     64.80620150	     62.94236764	     87.52715622	      0.00000000	      0.00000000	     -6.99328496	    -38.71677276	     61.83638802	     70.88658824	     87.76829167	      0.00000000	      0.00000000
      6.25000000	     -2.51146965	      3.28932142	     -1.55499587	     -0.25851134	      1.39338703	     -0.92745469	     -7.88004175	     -5.23382326	     -6.36430276	      3.65951936	      0.06387066	    -35.20537443	      0.00000000	      0.00000000	     -8.55508359	     -0.86858149	     -5.26574048	      4.53064895	      0.07907474	    -20.27105605	      0.00000000	      0.00000000	     12.46139598	     -3.78839787	     -4.69656925	     -4.31137061	    -35.00735117	     64.57245221	     63.05096197	     87.47217185	      0.00000000	      0.00000000	     -6.99304811	    -38.85102501	     61.97640094	     71.15165424	     87.80085357	      0.00000000	      0.00000000
      6.25500000	     -2.47260098	      3.14077375	     -1.48399872	     -0.25869762	      1.39398745	     -0.92779377	     -8.03110305	     -5.07762690	     -6.09534067	      3.48607898	      0.06084356	    -35.13368760	      0.00000000	      0.00000000	     -8.58563265	     -1.13792968	     -5.25230273	      4.61923608	      0.08062088	    -20.23523283	      0.00000000	      0.00000000	     12.52185043	     -3.63008884	     -4.84234464	     -4.28491010	    -35.01560068	     64.56717411	     63.05262487	     87.42924858	      0.00000000	      0.00000000	     -7.03935314	    -38.82544757	     61.94833416	     71.15946201	     87.85580734	      0.00000000	      0.00000000
      6.26000000	     -2.38681205	      3.12717743	     -1.52620428	     -0.25890327	      1.39446025	     -0.92799798	     -8.16695211	     -5.09476234	     -5.82409992	      3.38247619	      0.05903535	    -35.06965307	      0.00000000	      0.00000000	     -8.68507320	     -1.23254340	     -5.20211276	      4.59654344	      0.08022482	    -20.11132911	      0.00000000	      0.00000000	     12.52566761	     -3.59432405	     -4.83226590	     -4.32553392	    -35.01396975	     64.45639049	     63.08703141	     87.45918451	      0.00000000	      0.00000000	     -7.10631154	    -38.78590387	     61.72068445	     71.08649768	     87.87086037	      0.00000000	      0.00000000
