Model Marker Errors from IK
version=1
nRows=801
nColumns=4
inDegrees=no
endheader
time	total_squared_error	marker_error_RMS	marker_error_max
      1.40000000	      0.03349015	      0.02343115	      0.09741343
      1.40500000	      0.03357746	      0.02346167	      0.09756422
      1.41000000	      0.03363963	      0.02348338	      0.09767868
      1.41500000	      0.03360449	      0.02347112	      0.09785243
      1.42000000	      0.03356783	      0.02345831	      0.09787251
      1.42500000	      0.03351880	      0.02344117	      0.09801944
      1.43000000	      0.03350468	      0.02343623	      0.09805127
      1.43500000	      0.03349512	      0.02343289	      0.09812146
      1.44000000	      0.03351295	      0.02343912	      0.09826840
      1.44500000	      0.03351393	      0.02343947	      0.09830579
      1.45000000	      0.03352830	      0.02344449	      0.09836285
      1.45500000	      0.03356905	      0.02345874	      0.09855293
      1.46000000	      0.03373074	      0.02351516	      0.09875131
      1.46500000	      0.03368274	      0.02349843	      0.09879040
      1.47000000	      0.03369319	      0.02350207	      0.09885644
      1.47500000	      0.03375917	      0.02352507	      0.09888029
      1.48000000	      0.03372312	      0.02351251	      0.09900026
      1.48500000	      0.03381196	      0.02354346	      0.09926717
      1.49000000	      0.03382668	      0.02354858	      0.09928888
      1.49500000	      0.03386219	      0.02356094	      0.09955469
      1.50000000	      0.03387405	      0.02356506	      0.09968545
      1.50500000	      0.03388457	      0.02356873	      0.09982873
      1.51000000	      0.03394916	      0.02359118	      0.09973183
      1.51500000	      0.03413406	      0.02365533	      0.09993937
      1.52000000	      0.03405427	      0.02362767	      0.09966689
      1.52500000	      0.03397560	      0.02360036	      0.09996785
      1.53000000	      0.03405950	      0.02362948	      0.10029507
      1.53500000	      0.03411562	      0.02364894	      0.10042010
      1.54000000	      0.03416443	      0.02366585	      0.10062863
      1.54500000	      0.03414706	      0.02365984	      0.10056790
      1.55000000	      0.03417178	      0.02366840	      0.10056783
      1.55500000	      0.03423658	      0.02369083	      0.10073060
      1.56000000	      0.03425891	      0.02369856	      0.10074097
      1.56500000	      0.03426936	      0.02370217	      0.10087810
      1.57000000	      0.03423804	      0.02369133	      0.10093989
      1.57500000	      0.03428945	      0.02370911	      0.10095414
      1.58000000	      0.03433992	      0.02372656	      0.10096578
      1.58500000	      0.03436955	      0.02373679	      0.10105249
      1.59000000	      0.03444178	      0.02376172	      0.10124741
      1.59500000	      0.03445061	      0.02376477	      0.10112324
      1.60000000	      0.03431635	      0.02371841	      0.10101640
      1.60500000	      0.03432676	      0.02372201	      0.10088606
      1.61000000	      0.03432079	      0.02371995	      0.10081209
      1.61500000	      0.03431178	      0.02371684	      0.10080012
      1.62000000	      0.03434795	      0.02372933	      0.10109955
      1.62500000	      0.03443736	      0.02376020	      0.10104367
      1.63000000	      0.03427985	      0.02370579	      0.10120225
      1.63500000	      0.03435225	      0.02373082	      0.10121600
      1.64000000	      0.03446779	      0.02377069	      0.10127041
      1.64500000	      0.03453987	      0.02379553	      0.10145901
      1.65000000	      0.03453706	      0.02379456	      0.10151298
      1.65500000	      0.03454613	      0.02379769	      0.10136300
      1.66000000	      0.03454267	      0.02379650	      0.10148580
      1.66500000	      0.03461565	      0.02382162	      0.10152459
      1.67000000	      0.03467427	      0.02384178	      0.10157079
      1.67500000	      0.03464452	      0.02383155	      0.10166159
      1.68000000	      0.03473121	      0.02386135	      0.10207949
      1.68500000	      0.03473642	      0.02386314	      0.10220053
      1.69000000	      0.03480166	      0.02388554	      0.10248786
      1.69500000	      0.03495105	      0.02393675	      0.10279143
      1.70000000	      0.03491959	      0.02392598	      0.10282776
      1.70500000	      0.03505424	      0.02397206	      0.10313263
      1.71000000	      0.03516899	      0.02401127	      0.10337520
      1.71500000	      0.03530058	      0.02405614	      0.10365204
      1.72000000	      0.03544770	      0.02410622	      0.10395417
      1.72500000	      0.03549077	      0.02412086	      0.10405017
      1.73000000	      0.03562258	      0.02416561	      0.10422654
      1.73500000	      0.03571848	      0.02419812	      0.10459364
      1.74000000	      0.03585597	      0.02424464	      0.10494170
      1.74500000	      0.03594659	      0.02427526	      0.10533569
      1.75000000	      0.03623903	      0.02437381	      0.10562459
      1.75500000	      0.03638528	      0.02442294	      0.10566482
      1.76000000	      0.03650827	      0.02446418	      0.10582033
      1.76500000	      0.03667787	      0.02452094	      0.10621075
      1.77000000	      0.03674907	      0.02454473	      0.10639374
      1.77500000	      0.03693250	      0.02460591	      0.10681276
      1.78000000	      0.03707673	      0.02465391	      0.10692026
      1.78500000	      0.03697741	      0.02462086	      0.10693276
      1.79000000	      0.03711756	      0.02466748	      0.10737865
      1.79500000	      0.03720310	      0.02469589	      0.10758668
      1.80000000	      0.03732696	      0.02473696	      0.10791153
      1.80500000	      0.03751019	      0.02479760	      0.10812489
      1.81000000	      0.03749073	      0.02479117	      0.10830513
      1.81500000	      0.03760057	      0.02482746	      0.10868351
      1.82000000	      0.03770831	      0.02486300	      0.10879955
      1.82500000	      0.03777097	      0.02488366	      0.10888006
      1.83000000	      0.03787590	      0.02491819	      0.10925611
      1.83500000	      0.03803416	      0.02497020	      0.10972253
      1.84000000	      0.03810509	      0.02499347	      0.10989130
      1.84500000	      0.03828968	      0.02505394	      0.11012404
      1.85000000	      0.03837970	      0.02508337	      0.11045704
      1.85500000	      0.03858555	      0.02515055	      0.11071235
      1.86000000	      0.03853100	      0.02513276	      0.11077687
      1.86500000	      0.03865314	      0.02517257	      0.11117470
      1.87000000	      0.03870875	      0.02519067	      0.11120243
      1.87500000	      0.03876940	      0.02521039	      0.11118410
      1.88000000	      0.03900446	      0.02528670	      0.11170415
      1.88500000	      0.03919479	      0.02534832	      0.11195539
      1.89000000	      0.03934437	      0.02539665	      0.11214652
      1.89500000	      0.03939438	      0.02541278	      0.11222020
      1.90000000	      0.03956649	      0.02546823	      0.11241283
      1.90500000	      0.03963348	      0.02548979	      0.11247265
      1.91000000	      0.03990787	      0.02557787	      0.11260312
      1.91500000	      0.03992407	      0.02558306	      0.11254914
      1.92000000	      0.04008027	      0.02563306	      0.11281586
      1.92500000	      0.04036240	      0.02572311	      0.11289832
      1.93000000	      0.04050652	      0.02576900	      0.11303507
      1.93500000	      0.04059477	      0.02579705	      0.11312604
      1.94000000	      0.04074906	      0.02584603	      0.11314481
      1.94500000	      0.04097368	      0.02591717	      0.11311525
      1.95000000	      0.04131924	      0.02602623	      0.11316731
      1.95500000	      0.04139941	      0.02605147	      0.11311775
      1.96000000	      0.04149952	      0.02608294	      0.11297138
      1.96500000	      0.04173631	      0.02615725	      0.11306525
      1.97000000	      0.04194113	      0.02622136	      0.11299937
      1.97500000	      0.04209596	      0.02626971	      0.11278849
      1.98000000	      0.04243245	      0.02637449	      0.11305013
      1.98500000	      0.04245295	      0.02638086	      0.11280085
      1.99000000	      0.04283441	      0.02649912	      0.11287101
      1.99500000	      0.04301697	      0.02655553	      0.11284103
      2.00000000	      0.04325757	      0.02662969	      0.11276265
      2.00500000	      0.04347861	      0.02669764	      0.11268061
      2.01000000	      0.04381306	      0.02680013	      0.11261326
      2.01500000	      0.04389645	      0.02682562	      0.11251977
      2.02000000	      0.04416656	      0.02690803	      0.11227801
      2.02500000	      0.04422930	      0.02692713	      0.11231591
      2.03000000	      0.04434331	      0.02696182	      0.11204901
      2.03500000	      0.04458634	      0.02703560	      0.11212752
      2.04000000	      0.04493859	      0.02714218	      0.11195329
      2.04500000	      0.04518784	      0.02721735	      0.11206301
      2.05000000	      0.04524787	      0.02723543	      0.11190750
      2.05500000	      0.04549025	      0.02730827	      0.11184697
      2.06000000	      0.04583306	      0.02741098	      0.11182189
      2.06500000	      0.04606966	      0.02748164	      0.11163842
      2.07000000	      0.04639533	      0.02757860	      0.11159383
      2.07500000	      0.04659310	      0.02763732	      0.11148950
      2.08000000	      0.04681987	      0.02770449	      0.11140769
      2.08500000	      0.04711854	      0.02779272	      0.11127878
      2.09000000	      0.04742788	      0.02788380	      0.11127910
      2.09500000	      0.04755516	      0.02792119	      0.11118329
      2.10000000	      0.04787950	      0.02801624	      0.11133697
      2.10500000	      0.04801030	      0.02805448	      0.11123243
      2.11000000	      0.04811033	      0.02808370	      0.11109584
      2.11500000	      0.04845921	      0.02818534	      0.11123064
      2.12000000	      0.04852794	      0.02820532	      0.11098161
      2.12500000	      0.04883903	      0.02829558	      0.11105602
      2.13000000	      0.04905506	      0.02835809	      0.11099715
      2.13500000	      0.04957111	      0.02850686	      0.11101144
      2.14000000	      0.04952097	      0.02849244	      0.11088087
      2.14500000	      0.04973018	      0.02855256	      0.11080871
      2.15000000	      0.04993446	      0.02861115	      0.11076117
      2.15500000	      0.05021618	      0.02869174	      0.11072465
      2.16000000	      0.05034400	      0.02872823	      0.11057063
      2.16500000	      0.05053291	      0.02878208	      0.11055764
      2.17000000	      0.05076227	      0.02884733	      0.11042356
      2.17500000	      0.05100204	      0.02891538	      0.11059446
      2.18000000	      0.05106009	      0.02893183	      0.11018044
      2.18500000	      0.05136788	      0.02901890	      0.11042361
      2.19000000	      0.05158742	      0.02908084	      0.11019323
      2.19500000	      0.05187736	      0.02916245	      0.11034239
      2.20000000	      0.05208705	      0.02922133	      0.11021051
      2.20500000	      0.05238181	      0.02930389	      0.11030516
      2.21000000	      0.05268043	      0.02938730	      0.10996729
      2.21500000	      0.05292593	      0.02945570	      0.11009446
      2.22000000	      0.05351311	      0.02961865	      0.11057369
      2.22500000	      0.05343853	      0.02959800	      0.10986554
      2.23000000	      0.05400299	      0.02975391	      0.10991325
      2.23500000	      0.05404549	      0.02976561	      0.10984368
      2.24000000	      0.05433610	      0.02984553	      0.10963224
      2.24500000	      0.05468796	      0.02994201	      0.11010009
      2.25000000	      0.05516717	      0.03007291	      0.10925280
      2.25500000	      0.05532568	      0.03011608	      0.10978271
      2.26000000	      0.05550204	      0.03016404	      0.10908250
      2.26500000	      0.05578445	      0.03024069	      0.10900537
      2.27000000	      0.05603308	      0.03030800	      0.10879618
      2.27500000	      0.05666503	      0.03047843	      0.10872213
      2.28000000	      0.05672118	      0.03049353	      0.10859979
      2.28500000	      0.05705103	      0.03058207	      0.10859702
      2.29000000	      0.05718827	      0.03061883	      0.10831401
      2.29500000	      0.05770940	      0.03075802	      0.10828615
      2.30000000	      0.05781868	      0.03078713	      0.10807696
      2.30500000	      0.05816439	      0.03087903	      0.10792796
      2.31000000	      0.05840035	      0.03094160	      0.10796615
      2.31500000	      0.05884367	      0.03105882	      0.10813887
      2.32000000	      0.05914048	      0.03113705	      0.10774143
      2.32500000	      0.05929014	      0.03117642	      0.10748836
      2.33000000	      0.05965229	      0.03127149	      0.10751960
      2.33500000	      0.05986455	      0.03132708	      0.10731554
      2.34000000	      0.06071923	      0.03154992	      0.10747142
      2.34500000	      0.06040100	      0.03146713	      0.10704290
      2.35000000	      0.06096521	      0.03161376	      0.10743759
      2.35500000	      0.06106887	      0.03164062	      0.10679235
      2.36000000	      0.06170616	      0.03180529	      0.10682842
      2.36500000	      0.06188096	      0.03185031	      0.10652636
      2.37000000	      0.06227205	      0.03195079	      0.10659175
      2.37500000	      0.06283526	      0.03209496	      0.10713941
      2.38000000	      0.06324487	      0.03219940	      0.10642688
      2.38500000	      0.06369576	      0.03231397	      0.10696450
      2.39000000	      0.06402544	      0.03239749	      0.10633224
      2.39500000	      0.06434589	      0.03247846	      0.10681763
      2.40000000	      0.06475780	      0.03258225	      0.10623040
      2.40500000	      0.06500640	      0.03264473	      0.10615043
      2.41000000	      0.06570977	      0.03282087	      0.10648806
      2.41500000	      0.06591774	      0.03287277	      0.10601291
      2.42000000	      0.06676252	      0.03308274	      0.10631437
      2.42500000	      0.06664359	      0.03305326	      0.10578038
      2.43000000	      0.06737427	      0.03323396	      0.10620552
      2.43500000	      0.06769370	      0.03331265	      0.10616455
      2.44000000	      0.06819000	      0.03343455	      0.10610521
      2.44500000	      0.06848454	      0.03350668	      0.10591266
      2.45000000	      0.06886998	      0.03360083	      0.10534917
      2.45500000	      0.06993399	      0.03385940	      0.10565753
      2.46000000	      0.07014996	      0.03391164	      0.10571985
      2.46500000	      0.07049000	      0.03399373	      0.10555289
      2.47000000	      0.07082946	      0.03407548	      0.10545128
      2.47500000	      0.07121313	      0.03416765	      0.10525032
      2.48000000	      0.07167474	      0.03427821	      0.10531884
      2.48500000	      0.07194932	      0.03434381	      0.10508262
      2.49000000	      0.07237892	      0.03444619	      0.10497667
      2.49500000	      0.07258756	      0.03449580	      0.10442277
      2.50000000	      0.07330939	      0.03466689	      0.10483842
      2.50500000	      0.07341230	      0.03469121	      0.10416633
      2.51000000	      0.07375473	      0.03477203	      0.10448972
      2.51500000	      0.07401767	      0.03483396	      0.10391100
      2.52000000	      0.07444232	      0.03493374	      0.10429867
      2.52500000	      0.07473034	      0.03500125	      0.10409790
      2.53000000	      0.07517149	      0.03510441	      0.10418076
      2.53500000	      0.07555673	      0.03519425	      0.10396002
      2.54000000	      0.07588699	      0.03527108	      0.10398618
      2.54500000	      0.07632061	      0.03537171	      0.10327653
      2.55000000	      0.07648573	      0.03540995	      0.10322472
      2.55500000	      0.07683233	      0.03549009	      0.10318161
      2.56000000	      0.07722856	      0.03558148	      0.10349169
      2.56500000	      0.07797982	      0.03575413	      0.10367022
      2.57000000	      0.07820684	      0.03580614	      0.10330228
      2.57500000	      0.07859974	      0.03589597	      0.10348912
      2.58000000	      0.07922376	      0.03603818	      0.10326636
      2.58500000	      0.07957378	      0.03611770	      0.10326493
      2.59000000	      0.08012531	      0.03624265	      0.10294739
      2.59500000	      0.08060649	      0.03635131	      0.10309968
      2.60000000	      0.08087952	      0.03641282	      0.10298345
      2.60500000	      0.08137770	      0.03652479	      0.10293933
      2.61000000	      0.08179516	      0.03661836	      0.10275679
      2.61500000	      0.08215278	      0.03669832	      0.10269539
      2.62000000	      0.08266633	      0.03681285	      0.10261676
      2.62500000	      0.08320479	      0.03693255	      0.10251979
      2.63000000	      0.08353728	      0.03700627	      0.10190360
      2.63500000	      0.08399263	      0.03710699	      0.10239231
      2.64000000	      0.08443805	      0.03720525	      0.10230521
      2.64500000	      0.08472429	      0.03726826	      0.10163786
      2.65000000	      3.07463723	      0.22450810	      1.62546777
      2.65500000	      3.07509770	      0.22452492	      1.62556472
      2.66000000	      3.07546652	      0.22453838	      1.62557301
      2.66500000	      3.07593173	      0.22455536	      1.62566964
      2.67000000	      3.07599799	      0.22455778	      1.62581823
      2.67500000	      3.07526197	      0.22453091	      1.62569718
      2.68000000	      3.07563544	      0.22454455	      1.62558458
      2.68500000	      3.07686494	      0.22458942	      1.62586015
      2.69000000	      3.07644040	      0.22457393	      1.62576738
      2.69500000	      3.07552316	      0.22454045	      1.62555371
      2.70000000	      3.07560549	      0.22454345	      1.62556671
      2.70500000	      3.07561524	      0.22454381	      1.62569058
      2.71000000	      3.07554968	      0.22454142	      1.62586521
      2.71500000	      3.07621737	      0.22456579	      1.62579718
      2.72000000	      3.07501372	      0.22452185	      1.62538146
      2.72500000	      3.07626834	      0.22456765	      1.62572164
      2.73000000	      3.07651016	      0.22457647	      1.62582179
      2.73500000	      3.07682217	      0.22458786	      1.62598356
      2.74000000	      3.07654639	      0.22457780	      1.62586818
      2.74500000	      3.07638357	      0.22457185	      1.62590099
      2.75000000	      3.07737004	      0.22460786	      1.62624570
      2.75500000	      3.07726654	      0.22460408	      1.62615820
      2.76000000	      3.07719047	      0.22460130	      1.62617332
      2.76500000	      3.07718222	      0.22460100	      1.62621612
      2.77000000	      3.07677872	      0.22458628	      1.62613629
      2.77500000	      3.07732590	      0.22460625	      1.62629310
      2.78000000	      3.07654114	      0.22457760	      1.62601826
      2.78500000	      3.07562689	      0.22454423	      1.62629205
      2.79000000	      3.07703301	      0.22459556	      1.62638618
      2.79500000	      3.07685947	      0.22458922	      1.62636402
      2.80000000	      3.07590123	      0.22455425	      1.62607078
      2.80500000	      3.07703019	      0.22459545	      1.62651236
      2.81000000	      3.07348724	      0.22446611	      1.62475280
      2.81500000	      3.07748405	      0.22461202	      1.62644523
      2.82000000	      3.07722057	      0.22460240	      1.62646760
      2.82500000	      3.07740788	      0.22460924	      1.62637618
      2.83000000	      3.07744287	      0.22461051	      1.62644130
      2.83500000	      3.07692216	      0.22459151	      1.62613435
      2.84000000	      3.07779672	      0.22462343	      1.62633652
      2.84500000	      3.07764576	      0.22461792	      1.62647915
      2.85000000	      3.07766790	      0.22461873	      1.62622574
      2.85500000	      3.07792685	      0.22462818	      1.62616037
      2.86000000	      3.07798592	      0.22463033	      1.62624216
      2.86500000	      3.07807969	      0.22463375	      1.62623825
      2.87000000	      3.07873909	      0.22465781	      1.62631460
      2.87500000	      3.07865107	      0.22465460	      1.62625902
      2.88000000	      3.07379116	      0.22447721	      1.62372740
      2.88500000	      3.07978476	      0.22469596	      1.62646758
      2.89000000	      3.07379449	      0.22447733	      1.62356910
      2.89500000	      3.08002766	      0.22470482	      1.62642704
      2.90000000	      3.08034772	      0.22471650	      1.62640158
      2.90500000	      3.08041909	      0.22471910	      1.62638203
      2.91000000	      3.08129939	      0.22475121	      1.62649765
      2.91500000	      3.08069045	      0.22472900	      1.62639490
      2.92000000	      3.08153790	      0.22475990	      1.62636964
      2.92500000	      3.07801277	      0.22463131	      1.62522365
      2.93000000	      3.08132496	      0.22475214	      1.62634022
      2.93500000	      3.07820379	      0.22463828	      1.62505233
      2.94000000	      3.07889703	      0.22466357	      1.62502631
      2.94500000	      3.07901448	      0.22466786	      1.62495349
      2.95000000	      3.07844517	      0.22464709	      1.62462871
      2.95500000	      3.07999405	      0.22470360	      1.62496935
      2.96000000	      3.08022203	      0.22471191	      1.62513906
      2.96500000	      3.08227109	      0.22478664	      1.62623333
      2.97000000	      3.08353661	      0.22483278	      1.62646631
      2.97500000	      3.08008376	      0.22470687	      1.62495451
      2.98000000	      3.08236287	      0.22478999	      1.62616274
      2.98500000	      3.08007904	      0.22470670	      1.62491704
      2.99000000	      3.08239559	      0.22479118	      1.62624048
      2.99500000	      3.08013267	      0.22470865	      1.62482137
      3.00000000	      3.07901460	      0.22466786	      1.62464001
      3.00500000	      3.08254893	      0.22479677	      1.62612532
      3.01000000	      3.08003970	      0.22470526	      1.62490428
      3.01500000	      3.07942766	      0.22468293	      1.62470299
      3.02000000	      3.07947802	      0.22468477	      1.62463779
      3.02500000	      3.07997572	      0.22470293	      1.62470488
      3.03000000	      3.07989937	      0.22470014	      1.62471364
      3.03500000	      3.08004175	      0.22470534	      1.62470455
      3.04000000	      3.08033923	      0.22471619	      1.62475742
      3.04500000	      3.07975366	      0.22469483	      1.62470621
      3.05000000	      3.07994832	      0.22470193	      1.62464800
      3.05500000	      3.07948215	      0.22468492	      1.62454243
      3.06000000	      3.07975859	      0.22469501	      1.62488471
      3.06500000	      3.07978565	      0.22469599	      1.62457537
      3.07000000	      3.07965634	      0.22469128	      1.62472056
      3.07500000	      3.07952309	      0.22468641	      1.62468101
      3.08000000	      3.08078313	      0.22473238	      1.62497120
      3.08500000	      3.08055536	      0.22472407	      1.62486534
      3.09000000	      3.07962974	      0.22469031	      1.62507771
      3.09500000	      3.08025268	      0.22471303	      1.62485296
      3.10000000	      3.07995612	      0.22470221	      1.62480104
      3.10500000	      3.08075843	      0.22473148	      1.62528785
      3.11000000	      3.08050316	      0.22472217	      1.62519936
      3.11500000	      3.07989375	      0.22469994	      1.62503668
      3.12000000	      3.07982779	      0.22469753	      1.62505696
      3.12500000	      3.07872684	      0.22465737	      1.62509579
      3.13000000	      3.07884728	      0.22466176	      1.62513228
      3.13500000	      3.07884154	      0.22466155	      1.62507669
      3.14000000	      3.07872307	      0.22465723	      1.62508960
      3.14500000	      3.07881634	      0.22466063	      1.62505268
      3.15000000	      3.07883690	      0.22466138	      1.62502097
      3.15500000	      3.07898574	      0.22466681	      1.62473224
      3.16000000	      3.07853737	      0.22465045	      1.62495457
      3.16500000	      3.07922092	      0.22467539	      1.62510822
      3.17000000	      3.07903584	      0.22466864	      1.62507988
      3.17500000	      3.07907789	      0.22467017	      1.62512564
      3.18000000	      3.07967860	      0.22469209	      1.62517764
      3.18500000	      3.07938527	      0.22468139	      1.62521187
      3.19000000	      3.07946946	      0.22468446	      1.62527379
      3.19500000	      3.08025326	      0.22471305	      1.62522767
      3.20000000	      3.08042361	      0.22471926	      1.62529162
      3.20500000	      3.08000013	      0.22470382	      1.62539925
      3.21000000	      3.08075585	      0.22473138	      1.62532646
      3.21500000	      3.08058603	      0.22472519	      1.62531415
      3.22000000	      3.08054656	      0.22472375	      1.62533715
      3.22500000	      3.08081420	      0.22473351	      1.62528133
      3.23000000	      3.08102304	      0.22474113	      1.62518618
      3.23500000	      3.08085111	      0.22473486	      1.62512361
      3.24000000	      3.08038474	      0.22471785	      1.62468825
      3.24500000	      3.08093368	      0.22473787	      1.62502653
      3.25000000	      3.08088116	      0.22473595	      1.62501044
      3.25500000	      3.08168930	      0.22476543	      1.62524319
      3.26000000	      3.08203116	      0.22477789	      1.62523510
      3.26500000	      3.08202284	      0.22477759	      1.62527581
      3.27000000	      3.08140748	      0.22475515	      1.62496628
      3.27500000	      3.08160664	      0.22476241	      1.62494316
      3.28000000	      3.08188470	      0.22477255	      1.62494520
      3.28500000	      3.08181296	      0.22476994	      1.62487470
      3.29000000	      3.08126843	      0.22475008	      1.62463189
      3.29500000	      3.08102287	      0.22474112	      1.62460069
      3.30000000	      3.08123573	      0.22474888	      1.62461853
      3.30500000	      3.08133881	      0.22475264	      1.62461264
      3.31000000	      3.08152512	      0.22475944	      1.62476725
      3.31500000	      3.08194309	      0.22477468	      1.62475138
      3.32000000	      3.07935839	      0.22468041	      1.62363590
      3.32500000	      3.08146301	      0.22475717	      1.62462695
      3.33000000	      3.08102378	      0.22474115	      1.62428883
      3.33500000	      3.08093396	      0.22473788	      1.62429460
      3.34000000	      3.08066847	      0.22472820	      1.62418814
      3.34500000	      3.08052853	      0.22472309	      1.62420867
      3.35000000	      3.08070804	      0.22472964	      1.62443200
      3.35500000	      3.07994704	      0.22470188	      1.62399113
      3.36000000	      3.08025658	      0.22471317	      1.62400499
      3.36500000	      3.08138721	      0.22475441	      1.62436663
      3.37000000	      3.07405393	      0.22448681	      1.62208494
      3.37500000	      3.08062023	      0.22472644	      1.62404721
      3.38000000	      3.08025610	      0.22471315	      1.62400881
      3.38500000	      3.08068350	      0.22472874	      1.62406644
      3.39000000	      3.08044509	      0.22472005	      1.62427850
      3.39500000	      3.08094833	      0.22473840	      1.62454682
      3.40000000	      3.08135830	      0.22475335	      1.62434008
      3.40500000	      3.08108152	      0.22474326	      1.62421564
      3.41000000	      3.08136217	      0.22475350	      1.62447100
      3.41500000	      3.08090291	      0.22473675	      1.62426853
      3.42000000	      3.08117451	      0.22474665	      1.62438337
      3.42500000	      3.08131903	      0.22475192	      1.62450207
      3.43000000	      3.08062481	      0.22472660	      1.62420267
      3.43500000	      3.07759019	      0.22461589	      1.62299124
      3.44000000	      3.08086538	      0.22473538	      1.62432148
      3.44500000	      3.08063574	      0.22472700	      1.62408231
      3.45000000	      3.07780870	      0.22462386	      1.62293457
      3.45500000	      3.08059757	      0.22472561	      1.62415311
      3.46000000	      3.08102046	      0.22474103	      1.62409417
      3.46500000	      3.08059063	      0.22472536	      1.62409537
      3.47000000	      3.08056202	      0.22472431	      1.62415566
      3.47500000	      3.08033390	      0.22471599	      1.62391817
      3.48000000	      3.07953825	      0.22468697	      1.62421070
      3.48500000	      3.07981212	      0.22469696	      1.62385589
      3.49000000	      3.07902328	      0.22466818	      1.62390700
      3.49500000	      3.07893423	      0.22466493	      1.62380711
      3.50000000	      3.07944450	      0.22468355	      1.62385925
      3.50500000	      3.08029591	      0.22471461	      1.62410280
      3.51000000	      3.07956678	      0.22468801	      1.62391526
      3.51500000	      3.08084514	      0.22473464	      1.62432784
      3.52000000	      3.08301728	      0.22481385	      1.62588714
      3.52500000	      3.08292912	      0.22481063	      1.62566870
      3.53000000	      3.07706544	      0.22459674	      1.62295548
      3.53500000	      3.08326453	      0.22482286	      1.62533891
      3.54000000	      3.07236984	      0.22442531	      1.62168510
      3.54500000	      3.07700073	      0.22459438	      1.62332196
      3.55000000	      3.07888979	      0.22466331	      1.62364559
      3.55500000	      3.08028740	      0.22471430	      1.62468170
      3.56000000	      3.07780219	      0.22462363	      1.62293996
      3.56500000	      3.07667138	      0.22458236	      1.62283298
      3.57000000	      3.08150268	      0.22475862	      1.62517460
      3.57500000	      3.08132009	      0.22475196	      1.62519526
      3.58000000	      3.08199050	      0.22477641	      1.62518961
      3.58500000	      3.08326342	      0.22482282	      1.62561380
      3.59000000	      3.08353864	      0.22483286	      1.62580826
      3.59500000	      3.08260228	      0.22479872	      1.62544267
      3.60000000	      3.07818387	      0.22463755	      1.62336510
      3.60500000	      3.07748652	      0.22461211	      1.62290146
      3.61000000	      3.08243580	      0.22479265	      1.62543742
      3.61500000	      3.08317292	      0.22481952	      1.62545929
      3.62000000	      3.08229752	      0.22478761	      1.62512542
      3.62500000	      3.08340553	      0.22482800	      1.62553733
      3.63000000	      3.08258969	      0.22479826	      1.62524716
      3.63500000	      3.08346936	      0.22483033	      1.62561337
      3.64000000	      3.08428386	      0.22486002	      1.62581293
      3.64500000	      3.08390806	      0.22484633	      1.62575343
      3.65000000	      3.08419751	      0.22485688	      1.62591022
      3.65500000	      3.08458530	      0.22487101	      1.62597177
      3.66000000	      3.08472271	      0.22487602	      1.62605347
      3.66500000	      3.08589932	      0.22491890	      1.62652515
      3.67000000	      3.08422634	      0.22485793	      1.62597173
      3.67500000	      3.08490082	      0.22488251	      1.62607013
      3.68000000	      3.08469441	      0.22487499	      1.62617574
      3.68500000	      3.08476732	      0.22487765	      1.62612132
      3.69000000	      3.08462867	      0.22487259	      1.62615730
      3.69500000	      3.08451857	      0.22486858	      1.62601658
      3.70000000	      3.08463259	      0.22487274	      1.62600405
      3.70500000	      3.08444627	      0.22486594	      1.62611580
      3.71000000	      3.08340303	      0.22482791	      1.62566395
      3.71500000	      3.08414408	      0.22485493	      1.62589601
      3.72000000	      3.08479764	      0.22487875	      1.62610340
      3.72500000	      3.08334035	      0.22482563	      1.62568059
      3.73000000	      3.08401774	      0.22485032	      1.62587657
      3.73500000	      3.08411130	      0.22485373	      1.62593164
      3.74000000	      3.08343814	      0.22482919	      1.62602049
      3.74500000	      3.08353256	      0.22483264	      1.62578849
      3.75000000	      3.08323983	      0.22482196	      1.62582430
      3.75500000	      3.08307863	      0.22481609	      1.62570667
      3.76000000	      3.08256121	      0.22479722	      1.62562123
      3.76500000	      3.08355107	      0.22483331	      1.62593196
      3.77000000	      3.08593760	      0.22492030	      1.62647274
      3.77500000	      3.08660197	      0.22494451	      1.62652149
      3.78000000	      3.08462096	      0.22487231	      1.62581889
      3.78500000	      3.08237053	      0.22479027	      1.62536684
      3.79000000	      3.08261806	      0.22479929	      1.62551762
      3.79500000	      3.08367886	      0.22483797	      1.62613819
      3.80000000	      3.08613198	      0.22492738	      1.62695990
      3.80500000	      3.08765303	      0.22498281	      1.62741948
      3.81000000	      3.08830232	      0.22500646	      1.62765592
      3.81500000	      3.08697412	      0.22495807	      1.62727179
      3.82000000	      3.08460081	      0.22487158	      1.62644365
      3.82500000	      3.08348991	      0.22483108	      1.62605540
      3.83000000	      3.08395166	      0.22484791	      1.62628674
      3.83500000	      3.08431344	      0.22486110	      1.62651386
      3.84000000	      3.08398727	      0.22484921	      1.62644623
      3.84500000	      3.08359540	      0.22483493	      1.62645613
      3.85000000	      3.08510800	      0.22489006	      1.62680587
      3.85500000	      3.08313855	      0.22481827	      1.62633006
      3.86000000	      3.08347276	      0.22483046	      1.62624583
      3.86500000	      3.08439154	      0.22486395	      1.62674121
      3.87000000	      3.08350605	      0.22483167	      1.62653393
      3.87500000	      3.08312779	      0.22481788	      1.62624356
      3.88000000	      3.08361420	      0.22483561	      1.62644351
      3.88500000	      3.08444970	      0.22486607	      1.62680961
      3.89000000	      3.08305391	      0.22481519	      1.62633582
      3.89500000	      3.08412398	      0.22485420	      1.62683634
      3.90000000	      3.08294915	      0.22481137	      1.62621965
      3.90500000	      3.08253254	      0.22479617	      1.62611580
      3.91000000	      3.08384996	      0.22484421	      1.62626019
      3.91500000	      3.08310267	      0.22481696	      1.62636632
      3.92000000	      3.08212296	      0.22478124	      1.62593457
      3.92500000	      3.08400220	      0.22484976	      1.62631814
      3.93000000	      3.08346811	      0.22483029	      1.62646721
      3.93500000	      3.08309626	      0.22481673	      1.62617916
      3.94000000	      3.08442297	      0.22486509	      1.62652649
      3.94500000	      3.08325363	      0.22482247	      1.62653924
      3.95000000	      3.08395842	      0.22484816	      1.62656859
      3.95500000	      3.08408674	      0.22485284	      1.62667787
      3.96000000	      3.08405826	      0.22485180	      1.62668214
      3.96500000	      3.08430379	      0.22486075	      1.62679704
      3.97000000	      3.08531698	      0.22489768	      1.62702934
      3.97500000	      3.08377815	      0.22484159	      1.62664870
      3.98000000	      3.08408698	      0.22485285	      1.62667470
      3.98500000	      3.08452810	      0.22486893	      1.62681837
      3.99000000	      3.08348988	      0.22483108	      1.62639964
      3.99500000	      3.08313917	      0.22481829	      1.62631329
      4.00000000	      3.08420380	      0.22485711	      1.62675346
      4.00500000	      3.08287337	      0.22480860	      1.62631776
      4.01000000	      3.08230729	      0.22478796	      1.62602339
      4.01500000	      3.08367227	      0.22483773	      1.62649538
      4.02000000	      3.08266956	      0.22480117	      1.62610453
      4.02500000	      3.08233973	      0.22478914	      1.62594753
      4.03000000	      3.08325273	      0.22482243	      1.62623092
      4.03500000	      3.08230880	      0.22478802	      1.62594746
      4.04000000	      3.08223902	      0.22478547	      1.62588374
      4.04500000	      3.08272404	      0.22480316	      1.62620942
      4.05000000	      3.08272164	      0.22480307	      1.62627243
      4.05500000	      3.08291797	      0.22481023	      1.62636570
      4.06000000	      3.08498961	      0.22488575	      1.62705117
      4.06500000	      3.08402281	      0.22485051	      1.62671065
      4.07000000	      3.08317368	      0.22481955	      1.62658801
      4.07500000	      3.08371099	      0.22483914	      1.62659922
      4.08000000	      3.08323143	      0.22482166	      1.62632968
      4.08500000	      3.08225360	      0.22478600	      1.62605664
      4.09000000	      3.08384074	      0.22484387	      1.62657497
      4.09500000	      3.08257018	      0.22479755	      1.62619521
      4.10000000	      3.08233849	      0.22478910	      1.62592417
      4.10500000	      3.08435716	      0.22486270	      1.62673598
      4.11000000	      3.08320231	      0.22482060	      1.62634769
      4.11500000	      3.08360604	      0.22483531	      1.62641263
      4.12000000	      3.08436475	      0.22486297	      1.62672098
      4.12500000	      3.08372443	      0.22483963	      1.62652910
      4.13000000	      3.08247207	      0.22479397	      1.62590848
      4.13500000	      3.08337028	      0.22482672	      1.62638278
      4.14000000	      3.08311975	      0.22481759	      1.62619120
      4.14500000	      3.08369654	      0.22483861	      1.62610722
      4.15000000	      3.08446055	      0.22486646	      1.62657688
      4.15500000	      3.08416273	      0.22485561	      1.62641768
      4.16000000	      3.08613980	      0.22492767	      1.62701838
      4.16500000	      3.08443620	      0.22486558	      1.62667043
      4.17000000	      3.08518974	      0.22489304	      1.62670456
      4.17500000	      3.08440792	      0.22486455	      1.62628336
      4.18000000	      3.08443299	      0.22486546	      1.62636896
      4.18500000	      3.08457530	      0.22487065	      1.62649326
      4.19000000	      3.08385848	      0.22484452	      1.62603402
      4.19500000	      3.08483298	      0.22488004	      1.62658765
      4.20000000	      3.08421588	      0.22485755	      1.62597710
      4.20500000	      3.08552121	      0.22490512	      1.62657215
      4.21000000	      3.08526022	      0.22489561	      1.62656643
      4.21500000	      3.08477794	      0.22487803	      1.62632424
      4.22000000	      3.08513058	      0.22489089	      1.62659986
      4.22500000	      3.08479449	      0.22487864	      1.62638206
      4.23000000	      3.08585215	      0.22491719	      1.62670244
      4.23500000	      3.08570360	      0.22491177	      1.62672384
      4.24000000	      3.08531762	      0.22489770	      1.62654539
      4.24500000	      3.08521049	      0.22489380	      1.62640559
      4.25000000	      3.08523539	      0.22489471	      1.62653837
      4.25500000	      3.08525028	      0.22489525	      1.62644941
      4.26000000	      3.08509617	      0.22488963	      1.62636641
      4.26500000	      3.08523421	      0.22489466	      1.62648827
      4.27000000	      3.08519144	      0.22489311	      1.62640925
      4.27500000	      3.08479558	      0.22487868	      1.62624954
      4.28000000	      3.08529845	      0.22489701	      1.62641673
      4.28500000	      3.08577817	      0.22491449	      1.62662109
      4.29000000	      3.08624964	      0.22493167	      1.62664570
      4.29500000	      3.08589164	      0.22491862	      1.62655542
      4.30000000	      3.08551607	      0.22490494	      1.62643728
      4.30500000	      3.08589823	      0.22491886	      1.62669024
      4.31000000	      3.08586953	      0.22491782	      1.62669773
      4.31500000	      3.08696654	      0.22495779	      1.62717773
      4.32000000	      3.08747180	      0.22497620	      1.62731921
      4.32500000	      3.08802243	      0.22499626	      1.62738613
      4.33000000	      3.08882123	      0.22502536	      1.62762540
      4.33500000	      3.08868140	      0.22502027	      1.62762583
      4.34000000	      3.08919524	      0.22503899	      1.62771664
      4.34500000	      3.08894112	      0.22502973	      1.62769613
      4.35000000	      3.08844929	      0.22501181	      1.62749741
      4.35500000	      3.08795231	      0.22499371	      1.62731874
      4.36000000	      3.08787692	      0.22499096	      1.62740209
      4.36500000	      3.08791752	      0.22499244	      1.62725157
      4.37000000	      3.08777271	      0.22498717	      1.62724213
      4.37500000	      3.08752220	      0.22497804	      1.62710894
      4.38000000	      3.08785611	      0.22499020	      1.62730988
      4.38500000	      3.08786320	      0.22499046	      1.62719564
      4.39000000	      3.08764049	      0.22498235	      1.62714463
      4.39500000	      3.08804907	      0.22499723	      1.62731725
      4.40000000	      3.08850072	      0.22501369	      1.62745391
      4.40500000	      3.08847369	      0.22501270	      1.62757262
      4.41000000	      3.08844368	      0.22501161	      1.62769404
      4.41500000	      3.08763214	      0.22498204	      1.62736181
      4.42000000	      3.08720983	      0.22496666	      1.62729210
      4.42500000	      3.08723131	      0.22496744	      1.62728688
      4.43000000	      3.08703017	      0.22496011	      1.62722563
      4.43500000	      3.08647015	      0.22493971	      1.62701245
      4.44000000	      3.08643914	      0.22493858	      1.62699232
      4.44500000	      3.08637019	      0.22493606	      1.62691892
      4.45000000	      3.08644541	      0.22493880	      1.62693375
      4.45500000	      3.08688385	      0.22495478	      1.62709897
      4.46000000	      3.08667200	      0.22494706	      1.62706833
      4.46500000	      3.08688487	      0.22495482	      1.62719554
      4.47000000	      3.08705917	      0.22496117	      1.62723746
      4.47500000	      3.08711422	      0.22496317	      1.62738630
      4.48000000	      3.08695721	      0.22495745	      1.62737336
      4.48500000	      3.08672697	      0.22494906	      1.62735720
      4.49000000	      3.08664227	      0.22494598	      1.62743108
      4.49500000	      3.08585577	      0.22491732	      1.62705589
      4.50000000	      3.08554115	      0.22490585	      1.62708611
      4.50500000	      3.08631605	      0.22493409	      1.62701541
      4.51000000	      3.08568635	      0.22491114	      1.62683005
      4.51500000	      3.08597810	      0.22492178	      1.62701249
      4.52000000	      3.08500339	      0.22488625	      1.62667401
      4.52500000	      3.08543728	      0.22490207	      1.62683760
      4.53000000	      3.08419405	      0.22485675	      1.62684170
      4.53500000	      3.08369033	      0.22483839	      1.62678706
      4.54000000	      3.08363675	      0.22483643	      1.62674620
      4.54500000	      3.08359369	      0.22483486	      1.62688696
      4.55000000	      3.08406832	      0.22485217	      1.62713485
      4.55500000	      3.08430926	      0.22486095	      1.62719432
      4.56000000	      3.08404900	      0.22485146	      1.62718995
      4.56500000	      3.08462450	      0.22487244	      1.62752783
      4.57000000	      3.08440143	      0.22486431	      1.62740037
      4.57500000	      3.08507481	      0.22488885	      1.62768438
      4.58000000	      3.08492510	      0.22488340	      1.62770009
      4.58500000	      3.08526490	      0.22489578	      1.62774867
      4.59000000	      3.08566694	      0.22491044	      1.62795965
      4.59500000	      3.08542336	      0.22490156	      1.62786103
      4.60000000	      3.08560245	      0.22490809	      1.62788568
      4.60500000	      3.08556339	      0.22490666	      1.62789467
      4.61000000	      3.08058720	      0.22472523	      1.62548717
      4.61500000	      3.08585740	      0.22491738	      1.62801570
      4.62000000	      3.08567784	      0.22491083	      1.62799125
      4.62500000	      3.08440480	      0.22486443	      1.62743011
      4.63000000	      3.08327852	      0.22482337	      1.62692325
      4.63500000	      3.08169574	      0.22476566	      1.62632610
      4.64000000	      3.08031792	      0.22471541	      1.62571205
      4.64500000	      3.07896024	      0.22466588	      1.62530002
      4.65000000	      3.07945712	      0.22468401	      1.62547878
      4.65500000	      3.08136071	      0.22475344	      1.62653828
      4.66000000	      3.08310507	      0.22481705	      1.62759436
      4.66500000	      3.08463669	      0.22487289	      1.62823506
      4.67000000	      3.08440093	      0.22486429	      1.62831015
      4.67500000	      3.08379056	      0.22484204	      1.62811534
      4.68000000	      3.08321463	      0.22482104	      1.62795482
      4.68500000	      3.08322441	      0.22482140	      1.62810578
      4.69000000	      3.08263256	      0.22479982	      1.62800207
      4.69500000	      3.08278278	      0.22480530	      1.62804954
      4.70000000	      3.08235064	      0.22478954	      1.62800123
      4.70500000	      3.08193485	      0.22477438	      1.62793934
      4.71000000	      3.08203128	      0.22477790	      1.62805773
      4.71500000	      3.08147071	      0.22475745	      1.62793609
      4.72000000	      3.08137474	      0.22475395	      1.62802940
      4.72500000	      3.08100212	      0.22474036	      1.62809950
      4.73000000	      3.08061222	      0.22472614	      1.62798179
      4.73500000	      3.08034958	      0.22471656	      1.62793736
      4.74000000	      3.08016893	      0.22470997	      1.62789803
      4.74500000	      3.07960256	      0.22468931	      1.62772909
      4.75000000	      3.07885804	      0.22466215	      1.62745966
      4.75500000	      3.07858702	      0.22465226	      1.62747206
      4.76000000	      3.07816103	      0.22463672	      1.62740294
      4.76500000	      3.07713896	      0.22459942	      1.62733091
      4.77000000	      3.07652581	      0.22457705	      1.62736183
      4.77500000	      3.07653720	      0.22457746	      1.62726800
      4.78000000	      3.07147412	      0.22439259	      1.62495327
      4.78500000	      3.07561811	      0.22454391	      1.62714371
      4.79000000	      3.07524234	      0.22453020	      1.62704862
      4.79500000	      3.07336276	      0.22446157	      1.62614561
      4.80000000	      3.06999875	      0.22433869	      1.62450772
      4.80500000	      3.06974388	      0.22432938	      1.62443427
      4.81000000	      3.07176834	      0.22440334	      1.62554232
      4.81500000	      3.07351995	      0.22446731	      1.62644329
      4.82000000	      3.07271764	      0.22443801	      1.62622401
      4.82500000	      3.07232922	      0.22442382	      1.62615649
      4.83000000	      3.07188737	      0.22440769	      1.62600065
      4.83500000	      3.07079757	      0.22436788	      1.62558263
      4.84000000	      3.06974665	      0.22432948	      1.62525546
      4.84500000	      3.07004716	      0.22434046	      1.62528419
      4.85000000	      3.06944373	      0.22431841	      1.62495308
      4.85500000	      3.06920252	      0.22430960	      1.62491455
      4.86000000	      3.06907752	      0.22430503	      1.62490222
      4.86500000	      3.06901902	      0.22430289	      1.62467978
      4.87000000	      3.06842823	      0.22428130	      1.62439294
      4.87500000	      3.06756019	      0.22424958	      1.62418347
      4.88000000	      3.06812638	      0.22427027	      1.62409021
      4.88500000	      3.06738526	      0.22424318	      1.62354702
      4.89000000	      3.06742091	      0.22424448	      1.62338937
      4.89500000	      3.06745323	      0.22424567	      1.62322357
      4.90000000	      3.06695476	      0.22422744	      1.62299228
      4.90500000	      3.06752057	      0.22424813	      1.62293008
      4.91000000	      3.06779520	      0.22425817	      1.62279976
      4.91500000	      3.06674581	      0.22421981	      1.62206972
      4.92000000	      3.06742286	      0.22424456	      1.62215423
      4.92500000	      3.06852162	      0.22428471	      1.62230256
      4.93000000	      3.06924666	      0.22431121	      1.62221770
      4.93500000	      3.06937040	      0.22431573	      1.62188461
      4.94000000	      3.06865515	      0.22428959	      1.62143257
      4.94500000	      3.06844378	      0.22428187	      1.62103951
      4.95000000	      3.06943213	      0.22431799	      1.62115962
      4.95500000	      3.07031681	      0.22435031	      1.62112699
      4.96000000	      3.07061143	      0.22436108	      1.62078734
      4.96500000	      3.07096200	      0.22437388	      1.62085561
      4.97000000	      3.07096357	      0.22437394	      1.62036528
      4.97500000	      3.07246535	      0.22442880	      1.62053339
      4.98000000	      3.07371166	      0.22447431	      1.62067139
      4.98500000	      3.07457738	      0.22450592	      1.62048984
      4.99000000	      3.07502471	      0.22452225	      1.62054575
      4.99500000	      3.07628105	      0.22456811	      1.61998363
      5.00000000	      3.07780300	      0.22462366	      1.62134989
      5.00500000	      3.07905518	      0.22466934	      1.62213435
      5.01000000	      3.07950315	      0.22468569	      1.62193246
      5.01500000	      3.07990291	      0.22470027	      1.62262661
      5.02000000	      3.08120393	      0.22474773	      1.62293243
      5.02500000	      3.08245323	      0.22479328	      1.62369173
      5.03000000	      3.08446850	      0.22486675	      1.62525414
      5.03500000	      3.08478003	      0.22487811	      1.62583567
      5.04000000	      3.08518290	      0.22489279	      1.62569547
      5.04500000	      3.08641144	      0.22493757	      1.62651487
      5.05000000	      3.08847498	      0.22501275	      1.62833730
      5.05500000	      3.08919747	      0.22503907	      1.62847541
      5.06000000	      3.08901168	      0.22503230	      1.62933440
      5.06500000	      3.08980024	      0.22506102	      1.62880169
      5.07000000	      3.09106700	      0.22510715	      1.63095570
      5.07500000	      3.09240085	      0.22515571	      1.63153454
      5.08000000	      3.09294753	      0.22517562	      1.63098962
      5.08500000	      3.09292729	      0.22517488	      1.63263996
      5.09000000	      3.09363944	      0.22520080	      1.63216916
      5.09500000	      3.09503830	      0.22525171	      1.63335638
      5.10000000	      3.09630536	      0.22529781	      1.63500115
      5.10500000	      3.09670813	      0.22531247	      1.63517346
      5.11000000	      3.09645990	      0.22530343	      1.63522373
      5.11500000	      3.09690450	      0.22531961	      1.63554740
      5.12000000	      3.09806675	      0.22536189	      1.63698531
      5.12500000	      3.09871889	      0.22538560	      1.63713346
      5.13000000	      3.09838801	      0.22537357	      1.63706833
      5.13500000	      3.09815413	      0.22536506	      1.63738471
      5.14000000	      3.09911260	      0.22539992	      1.63801354
      5.14500000	      3.10021424	      0.22543998	      1.63930230
      5.15000000	      3.10022399	      0.22544033	      1.63920473
      5.15500000	      3.09941517	      0.22541092	      1.63943307
      5.16000000	      3.09922068	      0.22540385	      1.63930645
      5.16500000	      3.10042059	      0.22544748	      1.63978645
      5.17000000	      3.10133210	      0.22548062	      1.64096383
      5.17500000	      3.10171631	      0.22549459	      1.64060759
      5.18000000	      3.10089981	      0.22546490	      1.64072466
      5.18500000	      3.10126978	      0.22547835	      1.64144210
      5.19000000	      3.10164137	      0.22549186	      1.64123839
      5.19500000	      3.10199121	      0.22550458	      1.64144739
      5.20000000	      3.10277862	      0.22553320	      1.64148094
      5.20500000	      3.10153837	      0.22548812	      1.64253589
      5.21000000	      3.10169161	      0.22549369	      1.64271425
      5.21500000	      3.10121881	      0.22547650	      1.64229931
      5.22000000	      3.10308005	      0.22554415	      1.64351286
      5.22500000	      3.10357652	      0.22556219	      1.64353753
      5.23000000	      3.10344367	      0.22555737	      1.64406992
      5.23500000	      3.10295604	      0.22553965	      1.64374874
      5.24000000	      3.10202968	      0.22550598	      1.64475091
      5.24500000	      3.10142604	      0.22548403	      1.64438921
      5.25000000	      3.10106989	      0.22547109	      1.64461804
      5.25500000	      3.10124654	      0.22547751	      1.64495087
      5.26000000	      3.10122065	      0.22547657	      1.64486084
      5.26500000	      3.10112853	      0.22547322	      1.64603291
      5.27000000	      3.10063428	      0.22545525	      1.64584727
      5.27500000	      3.09934221	      0.22540827	      1.64601705
      5.28000000	      3.09848382	      0.22537705	      1.64562071
      5.28500000	      3.09784810	      0.22535393	      1.64577831
      5.29000000	      3.09728499	      0.22533345	      1.64574461
      5.29500000	      3.09647565	      0.22530401	      1.64578323
      5.30000000	      3.09660652	      0.22530877	      1.64611091
      5.30500000	      3.09567616	      0.22527492	      1.64609731
      5.31000000	      3.09506522	      0.22525269	      1.64596196
      5.31500000	      3.09448389	      0.22523153	      1.64617845
      5.32000000	      3.09436828	      0.22522733	      1.64648505
      5.32500000	      3.09406900	      0.22521643	      1.64658574
      5.33000000	      3.09326118	      0.22518703	      1.64638062
      5.33500000	      3.09279464	      0.22517005	      1.64655347
      5.34000000	      3.09164294	      0.22512812	      1.64623485
      5.34500000	      3.09188433	      0.22513691	      1.64647776
      5.35000000	      3.09120925	      0.22511233	      1.64665326
      5.35500000	      3.09088336	      0.22510046	      1.64656589
      5.36000000	      3.09077700	      0.22509659	      1.64659881
      5.36500000	      3.08980563	      0.22506122	      1.64641830
      5.37000000	      3.08962196	      0.22505453	      1.64650331
      5.37500000	      3.08993895	      0.22506607	      1.64648618
      5.38000000	      3.08942804	      0.22504746	      1.64636583
      5.38500000	      3.08974000	      0.22505883	      1.64656967
      5.39000000	      3.09000512	      0.22506848	      1.64656187
      5.39500000	      3.09063546	      0.22509144	      1.64663875
      5.40000000	      3.09120200	      0.22511207	      1.64680460
