Model Marker Errors from IK
version=1
nRows=661
nColumns=4
inDegrees=no
endheader
time	total_squared_error	marker_error_RMS	marker_error_max
      2.50000000	      0.02447599	      0.02019736	      0.05087537
      2.50500000	      0.02448452	      0.02020088	      0.05090885
      2.51000000	      0.02448700	      0.02020190	      0.05098195
      2.51500000	      0.02455033	      0.02022801	      0.05104949
      2.52000000	      0.02465612	      0.02027154	      0.05119461
      2.52500000	      0.02455701	      0.02023076	      0.05102201
      2.53000000	      0.02456528	      0.02023416	      0.05105747
      2.53500000	      0.02469153	      0.02028609	      0.05127917
      2.54000000	      0.02477712	      0.02032122	      0.05142946
      2.54500000	      0.02476486	      0.02031619	      0.05137398
      2.55000000	      0.02480167	      0.02033129	      0.05134248
      2.55500000	      0.02484504	      0.02034905	      0.05155770
      2.56000000	      0.02489621	      0.02037000	      0.05138661
      2.56500000	      0.02486321	      0.02035649	      0.05151344
      2.57000000	      0.02492408	      0.02038140	      0.05158797
      2.57500000	      0.02505386	      0.02043439	      0.05183997
      2.58000000	      0.02502313	      0.02042186	      0.05173569
      2.58500000	      0.02512074	      0.02046165	      0.05175713
      2.59000000	      0.02505731	      0.02043580	      0.05197818
      2.59500000	      0.02501860	      0.02042001	      0.05177348
      2.60000000	      0.02513034	      0.02046556	      0.05171205
      2.60500000	      0.02509015	      0.02044919	      0.05182572
      2.61000000	      0.02512588	      0.02046374	      0.05200793
      2.61500000	      0.02520788	      0.02049711	      0.05202319
      2.62000000	      0.02519265	      0.02049091	      0.05190686
      2.62500000	      0.02525226	      0.02051514	      0.05189065
      2.63000000	      0.02534724	      0.02055369	      0.05210351
      2.63500000	      0.02539459	      0.02057288	      0.05202027
      2.64000000	      0.02550343	      0.02061692	      0.05238682
      2.64500000	      0.02541370	      0.02058062	      0.05182051
      2.65000000	      0.02548746	      0.02061046	      0.05186176
      2.65500000	      0.02557378	      0.02064533	      0.05202988
      2.66000000	      0.02561687	      0.02066272	      0.05171506
      2.66500000	      0.02549876	      0.02061503	      0.05185660
      2.67000000	      0.02560840	      0.02065930	      0.05212840
      2.67500000	      0.02553965	      0.02063155	      0.05172032
      2.68000000	      0.02565606	      0.02067851	      0.05212977
      2.68500000	      0.02559257	      0.02065291	      0.05192804
      2.69000000	      0.02564070	      0.02067233	      0.05181673
      2.69500000	      0.02565123	      0.02067657	      0.05187535
      2.70000000	      0.02577950	      0.02072820	      0.05195429
      2.70500000	      0.02585392	      0.02075810	      0.05197436
      2.71000000	      0.02586442	      0.02076231	      0.05163087
      2.71500000	      0.02587031	      0.02076468	      0.05193867
      2.72000000	      0.02594551	      0.02079484	      0.05188660
      2.72500000	      0.02591553	      0.02078282	      0.05153014
      2.73000000	      0.02598482	      0.02081058	      0.05173108
      2.73500000	      0.02608759	      0.02085170	      0.05152826
      2.74000000	      0.02628062	      0.02092870	      0.05179625
      2.74500000	      0.02620791	      0.02089973	      0.05141058
      2.75000000	      0.02618149	      0.02088919	      0.05126721
      2.75500000	      0.02639767	      0.02097525	      0.05146723
      2.76000000	      0.02631278	      0.02094150	      0.05157162
      2.76500000	      0.02649328	      0.02101320	      0.05175481
      2.77000000	      0.02655173	      0.02103637	      0.05183994
      2.77500000	      0.02657671	      0.02104626	      0.05163878
      2.78000000	      0.02663768	      0.02107039	      0.05164085
      2.78500000	      0.02671705	      0.02110176	      0.05179049
      2.79000000	      0.02679507	      0.02113255	      0.05194314
      2.79500000	      0.02693313	      0.02118692	      0.05182477
      2.80000000	      0.02706129	      0.02123727	      0.05189424
      2.80500000	      0.02719398	      0.02128927	      0.05204759
      2.81000000	      0.02732633	      0.02134101	      0.05209673
      2.81500000	      0.02754412	      0.02142589	      0.05195790
      2.82000000	      0.02749610	      0.02140720	      0.05224429
      2.82500000	      0.02769315	      0.02148377	      0.05230545
      2.83000000	      0.02787239	      0.02155319	      0.05220775
      2.83500000	      0.02799763	      0.02160155	      0.05216501
      2.84000000	      0.02814452	      0.02165815	      0.05236087
      2.84500000	      0.02823890	      0.02169443	      0.05253319
      2.85000000	      0.02827243	      0.02170731	      0.05254623
      2.85500000	      0.02837507	      0.02174667	      0.05264184
      2.86000000	      0.02851176	      0.02179899	      0.05272183
      2.86500000	      0.02882252	      0.02191747	      0.05301692
      2.87000000	      0.02892937	      0.02195806	      0.05330046
      2.87500000	      0.02913049	      0.02203425	      0.05321957
      2.88000000	      0.02930417	      0.02209984	      0.05341889
      2.88500000	      0.02944110	      0.02215141	      0.05342909
      2.89000000	      0.02584376	      0.02075402	      0.05356534
      2.89500000	      0.02590210	      0.02077743	      0.05353128
      2.90000000	      0.02619296	      0.02089376	      0.05355875
      2.90500000	      0.02639113	      0.02097265	      0.05390327
      2.91000000	      0.02656637	      0.02104217	      0.05416614
      2.91500000	      0.02673465	      0.02110871	      0.05432660
      2.92000000	      0.02697829	      0.02120467	      0.05461377
      2.92500000	      0.02723362	      0.02130478	      0.05470987
      2.93000000	      0.02755299	      0.02142934	      0.05493978
      2.93500000	      0.02773444	      0.02149978	      0.05519795
      2.94000000	      0.02807987	      0.02163326	      0.05534057
      2.94500000	      0.02843302	      0.02176887	      0.05571846
      2.95000000	      0.02854867	      0.02181310	      0.05601359
      2.95500000	      0.02878687	      0.02190391	      0.05598725
      2.96000000	      0.02898363	      0.02197864	      0.05627902
      2.96500000	      0.02936261	      0.02212186	      0.05664957
      2.97000000	      0.02956594	      0.02219833	      0.05669391
      2.97500000	      0.03004928	      0.02237904	      0.05705326
      2.98000000	      0.03073067	      0.02263135	      0.05858442
      2.98500000	      0.03059341	      0.02258075	      0.05734493
      2.99000000	      0.03085584	      0.02267739	      0.05754667
      2.99500000	      0.03123240	      0.02281534	      0.05782452
      3.00000000	      0.03157072	      0.02293858	      0.05801845
      3.00500000	      0.03205653	      0.02311440	      0.05819452
      3.01000000	      0.03258953	      0.02330577	      0.05860391
      3.01500000	      0.03283537	      0.02339351	      0.05873988
      3.02000000	      0.03315563	      0.02350731	      0.05903708
      3.02500000	      0.03369030	      0.02369610	      0.05925161
      3.03000000	      0.03403000	      0.02381526	      0.05963247
      3.03500000	      0.03443315	      0.02395592	      0.05961126
      3.04000000	      0.03497967	      0.02414528	      0.05975673
      3.04500000	      0.03534319	      0.02427042	      0.05990435
      3.05000000	      0.03580977	      0.02443009	      0.06016680
      3.05500000	      0.03620383	      0.02456414	      0.06058978
      3.06000000	      0.03661894	      0.02470457	      0.06058373
      3.06500000	      0.03696087	      0.02481964	      0.06089917
      3.07000000	      0.03744672	      0.02498223	      0.06103120
      3.07500000	      0.03789887	      0.02513261	      0.06123431
      3.08000000	      0.03832618	      0.02527389	      0.06154956
      3.08500000	      0.03898237	      0.02548934	      0.06175544
      3.09000000	      0.03935764	      0.02561173	      0.06206593
      3.09500000	      0.03973928	      0.02573561	      0.06241129
      3.10000000	      0.04040686	      0.02595087	      0.06319380
      3.10500000	      0.04065977	      0.02603196	      0.06288088
      3.11000000	      0.04113268	      0.02618291	      0.06313207
      3.11500000	      0.04144835	      0.02628318	      0.06328635
      3.12000000	      0.04182795	      0.02640327	      0.06355879
      3.12500000	      0.04233463	      0.02656270	      0.06385092
      3.13000000	      0.04266387	      0.02666579	      0.06415381
      3.13500000	      0.04297054	      0.02676146	      0.06444093
      3.14000000	      0.04343552	      0.02690586	      0.06470545
      3.14500000	      0.04432283	      0.02717929	      0.06658733
      3.15000000	      0.04491494	      0.02736023	      0.06649679
      3.15500000	      0.04488787	      0.02735199	      0.06573016
      3.16000000	      0.04527028	      0.02746825	      0.06585381
      3.16500000	      0.04996005	      0.02885598	      0.06825519
      3.17000000	      0.05029925	      0.02895377	      0.06847178
      3.17500000	      0.05086989	      0.02911755	      0.06867755
      3.18000000	      0.05140155	      0.02926931	      0.06909767
      3.18500000	      0.05184779	      0.02939609	      0.06963004
      3.19000000	      0.05243648	      0.02956250	      0.06981165
      3.19500000	      0.05291026	      0.02969575	      0.07027944
      3.20000000	      0.05333068	      0.02981350	      0.07046199
      3.20500000	      0.05383378	      0.02995379	      0.07052612
      3.21000000	      0.05439138	      0.03010852	      0.07098620
      3.21500000	      0.05498734	      0.03027302	      0.07171942
      3.22000000	      0.05526174	      0.03034846	      0.07172063
      3.22500000	      0.05585488	      0.03051089	      0.07182251
      3.23000000	      0.05615777	      0.03059351	      0.07209305
      3.23500000	      0.05667934	      0.03073525	      0.07260993
      3.24000000	      0.05708882	      0.03084607	      0.07292672
      3.24500000	      0.05766339	      0.03100091	      0.07346596
      3.25000000	      0.05817581	      0.03113835	      0.07351362
      3.25500000	      0.05859136	      0.03124936	      0.07377533
      3.26000000	      0.05894684	      0.03134402	      0.07412170
      3.26500000	      0.05952706	      0.03149790	      0.07452790
      3.27000000	      0.05986241	      0.03158650	      0.07513771
      3.27500000	      0.06031303	      0.03170516	      0.07476225
      3.28000000	      0.06050816	      0.03175641	      0.07506780
      3.28500000	      0.06098827	      0.03188215	      0.07516592
      3.29000000	      0.06121760	      0.03194203	      0.07586011
      3.29500000	      0.06161775	      0.03204625	      0.07587309
      3.30000000	      0.06194013	      0.03212998	      0.07592682
      3.30500000	      0.06221848	      0.03220209	      0.07576726
      3.31000000	      0.06256070	      0.03229053	      0.07609186
      3.31500000	      0.06277281	      0.03234522	      0.07644304
      3.32000000	      0.06288286	      0.03237356	      0.07612252
      3.32500000	      0.06306289	      0.03241987	      0.07645171
      3.33000000	      0.06330326	      0.03248160	      0.07676643
      3.33500000	      0.06332393	      0.03248690	      0.07650877
      3.34000000	      0.06355742	      0.03254674	      0.07694434
      3.34500000	      0.06377459	      0.03260230	      0.07708925
      3.35000000	      0.06376848	      0.03260074	      0.07702285
      3.35500000	      0.06407527	      0.03267906	      0.07723872
      3.36000000	      0.06420604	      0.03271239	      0.07712081
      3.36500000	      0.06428433	      0.03273233	      0.07716727
      3.37000000	      0.06418968	      0.03270822	      0.07726077
      3.37500000	      0.06448620	      0.03278369	      0.07717175
      3.38000000	      0.06464817	      0.03282483	      0.07732014
      3.38500000	      0.06467603	      0.03283190	      0.07730487
      3.39000000	      0.06477559	      0.03285716	      0.07702346
      3.39500000	      0.06496017	      0.03290394	      0.07728428
      3.40000000	      0.06519068	      0.03296227	      0.07722149
      3.40500000	      0.06512622	      0.03294597	      0.07693795
      3.41000000	      0.06539142	      0.03301298	      0.07759965
      3.41500000	      0.06543165	      0.03302314	      0.07738294
      3.42000000	      0.06565518	      0.03307949	      0.07739310
      3.42500000	      0.06573614	      0.03309988	      0.07779793
      3.43000000	      0.06577817	      0.03311046	      0.07737675
      3.43500000	      0.06603223	      0.03317435	      0.07742963
      3.44000000	      0.06624204	      0.03322701	      0.07757094
      3.44500000	      0.06654567	      0.03330307	      0.07764618
      3.45000000	      0.06643060	      0.03327426	      0.07768560
      3.45500000	      0.06672727	      0.03334848	      0.07799077
      3.46000000	      0.06696003	      0.03340659	      0.07801778
      3.46500000	      0.06722380	      0.03347233	      0.07809611
      3.47000000	      0.06723820	      0.03347591	      0.07801415
      3.47500000	      0.06752492	      0.03354721	      0.07831813
      3.48000000	      0.06769772	      0.03359011	      0.07838778
      3.48500000	      0.06800976	      0.03366743	      0.07859789
      3.49000000	      0.06828932	      0.03373656	      0.07870032
      3.49500000	      0.06843671	      0.03377295	      0.07862362
      3.50000000	      0.06837257	      0.03375711	      0.07882868
      3.50500000	      0.06896313	      0.03390259	      0.07935544
      3.51000000	      0.06915594	      0.03394995	      0.07941767
      3.51500000	      0.06943085	      0.03401736	      0.07947111
      3.52000000	      0.06958781	      0.03405579	      0.07967522
      3.52500000	      0.06976636	      0.03409945	      0.07976908
      3.53000000	      0.07000764	      0.03415837	      0.07964512
      3.53500000	      0.06994316	      0.03414263	      0.07990902
      3.54000000	      0.07033711	      0.03423865	      0.07991298
      3.54500000	      0.07018638	      0.03420195	      0.07966591
      3.55000000	      0.07058415	      0.03429872	      0.08009712
      3.55500000	      0.07077107	      0.03434411	      0.08018273
      3.56000000	      0.07079714	      0.03435043	      0.08009267
      3.56500000	      0.07116251	      0.03443896	      0.08030140
      3.57000000	      0.07108501	      0.03442020	      0.08083896
      3.57500000	      0.07123466	      0.03445641	      0.08030490
      3.58000000	      0.07158902	      0.03454201	      0.08082983
      3.58500000	      0.07169255	      0.03456698	      0.08062275
      3.59000000	      0.07185258	      0.03460553	      0.08043491
      3.59500000	      0.07212406	      0.03467085	      0.08081705
      3.60000000	      0.07245195	      0.03474957	      0.08089009
      3.60500000	      0.07248261	      0.03475692	      0.08066314
      3.61000000	      0.07266916	      0.03480162	      0.08101597
      3.61500000	      0.07297670	      0.03487518	      0.08092836
      3.62000000	      0.07333773	      0.03496134	      0.08066960
      3.62500000	      0.07321512	      0.03493211	      0.08105936
      3.63000000	      0.07342966	      0.03498325	      0.08117496
      3.63500000	      0.07352654	      0.03500632	      0.08113024
      3.64000000	      0.07364796	      0.03503521	      0.08125360
      3.64500000	      0.07402712	      0.03512528	      0.08158821
      3.65000000	      0.07392983	      0.03510219	      0.08129721
      3.65500000	      0.07424957	      0.03517802	      0.08195069
      3.66000000	      0.07430569	      0.03519131	      0.08159844
      3.66500000	      0.07433713	      0.03519875	      0.08158894
      3.67000000	      0.07437368	      0.03520740	      0.08187696
      3.67500000	      0.07450913	      0.03523945	      0.08180404
      3.68000000	      0.07459177	      0.03525899	      0.08197382
      3.68500000	      0.07491883	      0.03533620	      0.08227473
      3.69000000	      0.07497400	      0.03534921	      0.08205951
      3.69500000	      0.07523096	      0.03540974	      0.08261457
      3.70000000	      0.07545248	      0.03546183	      0.08235858
      3.70500000	      0.07548329	      0.03546907	      0.08245015
      3.71000000	      0.07546087	      0.03546380	      0.08231006
      3.71500000	      0.07580810	      0.03554530	      0.08253140
      3.72000000	      0.07574682	      0.03553093	      0.08251049
      3.72500000	      0.07625386	      0.03564965	      0.08410359
      3.73000000	      0.07610642	      0.03561517	      0.08245248
      3.73500000	      0.07645058	      0.03569561	      0.08440146
      3.74000000	      0.07604444	      0.03560067	      0.08244284
      3.74500000	      0.07637050	      0.03567691	      0.08271914
      3.75000000	      0.07622440	      0.03564277	      0.08293299
      3.75500000	      0.07642825	      0.03569039	      0.08304629
      3.76000000	      0.07661075	      0.03573298	      0.08279360
      3.76500000	      0.07671611	      0.03575754	      0.08317123
      3.77000000	      0.07665787	      0.03574397	      0.08318395
      3.77500000	      0.07694699	      0.03581131	      0.08311251
      3.78000000	      0.07747941	      0.03593499	      0.08491295
      3.78500000	      0.07695570	      0.03581333	      0.08329711
      3.79000000	      0.07688572	      0.03579705	      0.08329086
      3.79500000	      0.07708280	      0.03584290	      0.08328643
      3.80000000	      0.07707117	      0.03584019	      0.08338414
      3.80500000	      0.07719285	      0.03586848	      0.08301702
      3.81000000	      0.07703218	      0.03583113	      0.08319830
      3.81500000	      0.07691185	      0.03580313	      0.08331711
      3.82000000	      0.07709403	      0.03584551	      0.08326362
      3.82500000	      0.07718718	      0.03586716	      0.08318193
      3.83000000	      0.07743567	      0.03592485	      0.08333378
      3.83500000	      0.07764418	      0.03597318	      0.08361546
      3.84000000	      0.07739684	      0.03591584	      0.08330287
      3.84500000	      0.07734610	      0.03590406	      0.08313618
      3.85000000	      0.07746164	      0.03593087	      0.08338328
      3.85500000	      0.07730596	      0.03589475	      0.08348317
      3.86000000	      0.07742077	      0.03592139	      0.08345136
      3.86500000	      0.07726977	      0.03588634	      0.08312961
      3.87000000	      0.07732494	      0.03589915	      0.08323565
      3.87500000	      0.07726709	      0.03588572	      0.08339467
      3.88000000	      0.07743686	      0.03592512	      0.08333347
      3.88500000	      0.07755453	      0.03595241	      0.08324041
      3.89000000	      0.07752960	      0.03594663	      0.08346735
      3.89500000	      0.07750253	      0.03594035	      0.08345199
      3.90000000	      0.07736467	      0.03590837	      0.08337125
      3.90500000	      0.07747091	      0.03593302	      0.08366466
      3.91000000	      0.07771617	      0.03598985	      0.08336098
      3.91500000	      0.07755997	      0.03595367	      0.08337616
      3.92000000	      0.07755507	      0.03595253	      0.08342894
      3.92500000	      0.07766306	      0.03597755	      0.08361840
      3.93000000	      0.07745912	      0.03593028	      0.08346186
      3.93500000	      0.07755061	      0.03595150	      0.08360266
      3.94000000	      0.07765102	      0.03597476	      0.08343569
      3.94500000	      0.07774234	      0.03599591	      0.08354582
      3.95000000	      0.07764155	      0.03597257	      0.08362442
      3.95500000	      0.07759004	      0.03596064	      0.08356310
      3.96000000	      0.07757728	      0.03595768	      0.08345740
      3.96500000	      0.07771541	      0.03598968	      0.08362081
      3.97000000	      0.07767815	      0.03598105	      0.08365764
      3.97500000	      0.07778584	      0.03600598	      0.08366276
      3.98000000	      0.07780523	      0.03601047	      0.08377646
      3.98500000	      0.07220997	      0.03469149	      0.07965717
      3.99000000	      0.07252307	      0.03476662	      0.08025448
      3.99500000	      0.07268935	      0.03480645	      0.08058322
      4.00000000	      0.07296735	      0.03487295	      0.08080905
      4.00500000	      0.07280334	      0.03483373	      0.08067168
      4.01000000	      0.07300659	      0.03488232	      0.08086697
      4.01500000	      0.07311259	      0.03490764	      0.08122904
      4.02000000	      0.07325339	      0.03494123	      0.08119300
      4.02500000	      0.07330319	      0.03495311	      0.08142562
      4.03000000	      0.07359450	      0.03502249	      0.08115327
      4.03500000	      0.07394477	      0.03510574	      0.08123605
      4.04000000	      0.07423521	      0.03517461	      0.08142883
      4.04500000	      0.07438299	      0.03520961	      0.08159980
      4.05000000	      0.07438597	      0.03521031	      0.08149672
      4.05500000	      0.07466599	      0.03527652	      0.08182571
      4.06000000	      0.07482618	      0.03531435	      0.08197485
      4.06500000	      0.07495346	      0.03534437	      0.08206843
      4.07000000	      0.07490171	      0.03533216	      0.08171329
      4.07500000	      0.07510927	      0.03538108	      0.08192108
      4.08000000	      0.07522762	      0.03540895	      0.08204056
      4.08500000	      0.07530030	      0.03542605	      0.08192993
      4.09000000	      0.07547677	      0.03546754	      0.08224820
      4.09500000	      0.07581614	      0.03554718	      0.08268079
      4.10000000	      0.07650899	      0.03570924	      0.08405103
      4.10500000	      0.07588106	      0.03556240	      0.08228027
      4.11000000	      0.07577681	      0.03553796	      0.08204620
      4.11500000	      0.07584169	      0.03555317	      0.08226889
      4.12000000	      0.07604878	      0.03560168	      0.08263397
      4.12500000	      0.07609591	      0.03561271	      0.08254143
      4.13000000	      0.07632927	      0.03566727	      0.08267825
      4.13500000	      0.07620112	      0.03563732	      0.08250816
      4.14000000	      0.07659877	      0.03573018	      0.08267099
      4.14500000	      0.07678454	      0.03577349	      0.08261471
      4.15000000	      0.07691455	      0.03580376	      0.08303492
      4.15500000	      0.07684590	      0.03578778	      0.08307616
      4.16000000	      0.07692792	      0.03580687	      0.08297443
      4.16500000	      0.07719478	      0.03586892	      0.08310550
      4.17000000	      0.07753675	      0.03594828	      0.08321998
      4.17500000	      0.07775915	      0.03599980	      0.08349485
      4.18000000	      0.07769547	      0.03598506	      0.08321568
      4.18500000	      0.07769424	      0.03598478	      0.08352887
      4.19000000	      0.07792202	      0.03603748	      0.08312204
      4.19500000	      0.07790404	      0.03603333	      0.08323169
      4.20000000	      0.07835620	      0.03613775	      0.08383312
      4.20500000	      0.07834169	      0.03613440	      0.08351578
      4.21000000	      0.07834330	      0.03613477	      0.08362981
      4.21500000	      0.07911254	      0.03631174	      0.08508937
      4.22000000	      0.07861994	      0.03619851	      0.08350123
      4.22500000	      0.07905074	      0.03629755	      0.08396624
      4.23000000	      0.07924301	      0.03634167	      0.08382299
      4.23500000	      0.07932185	      0.03635974	      0.08408390
      4.24000000	      0.07942394	      0.03638313	      0.08421384
      4.24500000	      0.07920756	      0.03633354	      0.08448343
      4.25000000	      0.07936087	      0.03636869	      0.08440314
      4.25500000	      0.07957416	      0.03641752	      0.08462277
      4.26000000	      0.07976978	      0.03646226	      0.08452463
      4.26500000	      0.08004691	      0.03652554	      0.08464890
      4.27000000	      0.08004905	      0.03652603	      0.08486254
      4.27500000	      0.08001958	      0.03651931	      0.08503333
      4.28000000	      0.08024109	      0.03656982	      0.08574215
      4.28500000	      0.08002747	      0.03652111	      0.08485896
      4.29000000	      0.08009376	      0.03653623	      0.08493728
      4.29500000	      0.08018371	      0.03655674	      0.08466635
      4.30000000	      0.08022461	      0.03656606	      0.08475874
      4.30500000	      0.08002890	      0.03652143	      0.08454692
      4.31000000	      0.07999676	      0.03651410	      0.08475938
      4.31500000	      0.07993271	      0.03649948	      0.08486576
      4.32000000	      0.07975810	      0.03645959	      0.08449781
      4.32500000	      0.07976008	      0.03646004	      0.08450914
      4.33000000	      0.07968812	      0.03644359	      0.08471071
      4.33500000	      0.07955431	      0.03641298	      0.08459407
      4.34000000	      0.07957194	      0.03641701	      0.08463367
      4.34500000	      0.07959652	      0.03642264	      0.08436228
      4.35000000	      0.07968888	      0.03644376	      0.08441610
      4.35500000	      0.08060875	      0.03665350	      0.08643811
      4.36000000	      0.07990835	      0.03649392	      0.08491324
      4.36500000	      0.07997978	      0.03651022	      0.08488858
      4.37000000	      0.08006151	      0.03652887	      0.08433273
      4.37500000	      0.08069263	      0.03667257	      0.08585443
      4.38000000	      0.08007598	      0.03653217	      0.08462917
      4.38500000	      0.07998652	      0.03651176	      0.08451814
      4.39000000	      0.07997881	      0.03651000	      0.08454634
      4.39500000	      0.07960654	      0.03642493	      0.08408833
      4.40000000	      0.07944033	      0.03638689	      0.08420396
      4.40500000	      0.07938712	      0.03637470	      0.08414716
      4.41000000	      0.08476115	      0.03758571	      0.08643826
      4.41500000	      0.08501878	      0.03764279	      0.08766172
      4.42000000	      0.08423623	      0.03746915	      0.08595407
      4.42500000	      0.08445888	      0.03751864	      0.08675073
      4.43000000	      0.08370843	      0.03735158	      0.08569402
      4.43500000	      0.08344433	      0.03729261	      0.08554015
      4.44000000	      0.08331506	      0.03726371	      0.08560221
      4.44500000	      0.08321653	      0.03724167	      0.08544309
      4.45000000	      0.08293793	      0.03717928	      0.08535559
      4.45500000	      0.08267299	      0.03711985	      0.08523940
      4.46000000	      0.08297593	      0.03718780	      0.08653911
      4.46500000	      0.08234502	      0.03704615	      0.08500853
      4.47000000	      0.08255062	      0.03709237	      0.08515200
      4.47500000	      0.08231285	      0.03703891	      0.08502355
      4.48000000	      0.08227691	      0.03703082	      0.08492004
      4.48500000	      0.08257290	      0.03709737	      0.08606163
      4.49000000	      0.08213910	      0.03699980	      0.08490981
      4.49500000	      0.08210299	      0.03699166	      0.08520143
      4.50000000	      0.08191111	      0.03694841	      0.08502550
      4.50500000	      0.08211595	      0.03699458	      0.08458649
      4.51000000	      0.08202740	      0.03697463	      0.08467445
      4.51500000	      0.08212725	      0.03699713	      0.08533180
      4.52000000	      0.08224754	      0.03702421	      0.08543623
      4.52500000	      0.08210786	      0.03699276	      0.08538567
      4.53000000	      0.08221694	      0.03701733	      0.08571095
      4.53500000	      0.08259816	      0.03710305	      0.08591904
      4.54000000	      0.08230178	      0.03703642	      0.08607391
      4.54500000	      0.08241142	      0.03706108	      0.08624952
      4.55000000	      0.08221412	      0.03701669	      0.08618193
      4.55500000	      0.08192655	      0.03695189	      0.08597220
      4.56000000	      0.08196086	      0.03695963	      0.08598072
      4.56500000	      0.08195119	      0.03695745	      0.08600617
      4.57000000	      0.08181361	      0.03692642	      0.08534795
      4.57500000	      0.08195732	      0.03695883	      0.08529095
      4.58000000	      0.08149640	      0.03685476	      0.08519846
      4.58500000	      0.08133749	      0.03681881	      0.08476213
      4.59000000	      0.08138658	      0.03682992	      0.08471821
      4.59500000	      0.08151335	      0.03685859	      0.08471509
      4.60000000	      0.08154408	      0.03686554	      0.08452187
      4.60500000	      0.08141010	      0.03683524	      0.08444359
      4.61000000	      0.08136520	      0.03682508	      0.08497614
      4.61500000	      0.08150287	      0.03685622	      0.08487356
      4.62000000	      0.08151115	      0.03685810	      0.08475850
      4.62500000	      0.08117592	      0.03678222	      0.08479496
      4.63000000	      0.08105638	      0.03675513	      0.08464843
      4.63500000	      0.08064428	      0.03666158	      0.08431348
      4.64000000	      0.08053631	      0.03663703	      0.08402816
      4.64500000	      0.08039055	      0.03660386	      0.08407196
      4.65000000	      0.08034140	      0.03659267	      0.08411908
      4.65500000	      0.08021126	      0.03656302	      0.08373914
      4.66000000	      0.08014712	      0.03654840	      0.08404557
      4.66500000	      0.07990317	      0.03649273	      0.08400412
      4.67000000	      0.07988162	      0.03648781	      0.08367049
      4.67500000	      0.07963206	      0.03643077	      0.08371766
      4.68000000	      0.07959255	      0.03642173	      0.08402329
      4.68500000	      0.07941634	      0.03638139	      0.08382100
      4.69000000	      0.07925147	      0.03634361	      0.08368377
      4.69500000	      0.07918633	      0.03632867	      0.08411380
      4.70000000	      0.07884282	      0.03624979	      0.08374235
      4.70500000	      0.07847930	      0.03616612	      0.08369848
      4.71000000	      0.07821319	      0.03610475	      0.08346350
      4.71500000	      0.07804011	      0.03606478	      0.08353257
      4.72000000	      0.07759623	      0.03596207	      0.08323488
      4.72500000	      0.07765849	      0.03597649	      0.08300032
      4.73000000	      0.07729772	      0.03589283	      0.08314291
      4.73500000	      0.07716543	      0.03586210	      0.08338553
      4.74000000	      0.07708817	      0.03584415	      0.08296616
      4.74500000	      0.07676851	      0.03576975	      0.08296363
      4.75000000	      0.07650899	      0.03570924	      0.08265235
      4.75500000	      0.07647746	      0.03570188	      0.08272984
      4.76000000	      0.07610135	      0.03561398	      0.08274542
      4.76500000	      0.07578738	      0.03554044	      0.08262069
      4.77000000	      0.07575351	      0.03553250	      0.08248174
      4.77500000	      0.07546682	      0.03546520	      0.08236333
      4.78000000	      0.07535025	      0.03543780	      0.08255886
      4.78500000	      0.07531471	      0.03542944	      0.08250408
      4.79000000	      0.07513510	      0.03538717	      0.08240778
      4.79500000	      0.07481942	      0.03531275	      0.08243027
      4.80000000	      0.07468156	      0.03528020	      0.08219075
      4.80500000	      0.07429623	      0.03518907	      0.08241783
      4.81000000	      0.07404846	      0.03513034	      0.08226093
      4.81500000	      0.07377632	      0.03506573	      0.08174331
      4.82000000	      0.07345039	      0.03498819	      0.08201010
      4.82500000	      0.07347194	      0.03499332	      0.08189089
      4.83000000	      0.07306145	      0.03489543	      0.08163117
      4.83500000	      0.07280548	      0.03483425	      0.08158385
      4.84000000	      0.07277148	      0.03482611	      0.08139578
      4.84500000	      0.07265067	      0.03479719	      0.08106205
      4.85000000	      0.07237681	      0.03473154	      0.08115125
      4.85500000	      0.07192128	      0.03462207	      0.08081567
      4.86000000	      0.07196948	      0.03463367	      0.08058765
      4.86500000	      0.07131535	      0.03447592	      0.08070407
      4.87000000	      0.07118983	      0.03444557	      0.08029294
      4.87500000	      0.07092607	      0.03438170	      0.08035767
      4.88000000	      0.07081479	      0.03435472	      0.08061466
      4.88500000	      0.07061628	      0.03430653	      0.08046069
      4.89000000	      0.07041973	      0.03425875	      0.07998721
      4.89500000	      0.07007982	      0.03417597	      0.08005764
      4.90000000	      0.06992819	      0.03413898	      0.07954094
      4.90500000	      0.06968447	      0.03407943	      0.08010259
      4.91000000	      0.06926197	      0.03397597	      0.07956760
      4.91500000	      0.06920161	      0.03396116	      0.07950336
      4.92000000	      0.06898170	      0.03390715	      0.07939747
      4.92500000	      0.06876503	      0.03385386	      0.07938682
      4.93000000	      0.06854870	      0.03380057	      0.07890622
      4.93500000	      0.06833581	      0.03374804	      0.07919386
      4.94000000	      0.06805257	      0.03367803	      0.07877423
      4.94500000	      0.06805986	      0.03367983	      0.07864893
      4.95000000	      0.06776462	      0.03360670	      0.07878336
      4.95500000	      0.06751298	      0.03354424	      0.07845451
      4.96000000	      0.06730980	      0.03349373	      0.07831538
      4.96500000	      0.06737998	      0.03351119	      0.07843379
      4.97000000	      0.06707884	      0.03343622	      0.07813270
      4.97500000	      0.06684918	      0.03337893	      0.07800614
      4.98000000	      0.06664754	      0.03332855	      0.07793029
      4.98500000	      0.06675336	      0.03335500	      0.07793432
      4.99000000	      0.06648223	      0.03328719	      0.07770008
      4.99500000	      0.06601724	      0.03317058	      0.07788175
      5.00000000	      0.06619989	      0.03321643	      0.07778363
      5.00500000	      0.06572016	      0.03309586	      0.07743146
      5.01000000	      0.06597076	      0.03315890	      0.07758922
      5.01500000	      0.06547151	      0.03303319	      0.07721645
      5.02000000	      0.06522517	      0.03297099	      0.07725693
      5.02500000	      0.06501748	      0.03291845	      0.07690727
      5.03000000	      0.06488796	      0.03288565	      0.07679789
      5.03500000	      0.06445784	      0.03277647	      0.07657126
      5.04000000	      0.06418473	      0.03270696	      0.07655526
      5.04500000	      0.06417368	      0.03270415	      0.07647700
      5.05000000	      0.06393741	      0.03264389	      0.07669732
      5.05500000	      0.06388647	      0.03263088	      0.07622949
      5.06000000	      0.06333585	      0.03248996	      0.07575054
      5.06500000	      0.06320244	      0.03245572	      0.07612562
      5.07000000	      0.06284749	      0.03236446	      0.07551895
      5.07500000	      0.06255092	      0.03228801	      0.07559208
      5.08000000	      0.06235612	      0.03223769	      0.07567905
      5.08500000	      0.06221777	      0.03220191	      0.07513283
      5.09000000	      0.06192452	      0.03212593	      0.07534265
      5.09500000	      0.06177654	      0.03208752	      0.07506715
      5.10000000	      0.06121351	      0.03194096	      0.07473211
      5.10500000	      0.06087554	      0.03185266	      0.07486188
      5.11000000	      0.06075019	      0.03181985	      0.07456907
      5.11500000	      0.06039684	      0.03172718	      0.07451148
      5.12000000	      0.06034297	      0.03171303	      0.07413053
      5.12500000	      0.06001445	      0.03162658	      0.07426260
      5.13000000	      0.05968059	      0.03153849	      0.07387310
      5.13500000	      0.05945940	      0.03147999	      0.07358938
      5.14000000	      0.05908407	      0.03138048	      0.07346723
      5.14500000	      0.05887931	      0.03132606	      0.07322260
      5.15000000	      0.05873235	      0.03128694	      0.07266813
      5.15500000	      0.05831986	      0.03117688	      0.07262744
      5.16000000	      0.05811133	      0.03112109	      0.07268677
      5.16500000	      0.05773149	      0.03101921	      0.07236893
      5.17000000	      0.05776579	      0.03102843	      0.07237688
      5.17500000	      0.05713786	      0.03085932	      0.07148634
      5.18000000	      0.05668725	      0.03073740	      0.07176063
      5.18500000	      0.05631164	      0.03063539	      0.07121769
      5.19000000	      0.05602790	      0.03055811	      0.07061643
      5.19500000	      0.05563437	      0.03045061	      0.07080312
      5.20000000	      0.05526941	      0.03035057	      0.07061643
      5.20500000	      0.05498414	      0.03027214	      0.06999687
      5.21000000	      0.05454111	      0.03014993	      0.07010797
      5.21500000	      0.05416604	      0.03004609	      0.06935673
      5.22000000	      0.05377977	      0.02993876	      0.06955341
      5.22500000	      0.05373520	      0.02992635	      0.06990172
      5.23000000	      0.05285082	      0.02967907	      0.06887930
      5.23500000	      0.05269638	      0.02963567	      0.06902537
      5.24000000	      0.04770340	      0.02819675	      0.06776594
      5.24500000	      0.04741705	      0.02811199	      0.06725499
      5.25000000	      0.04719106	      0.02804492	      0.06732994
      5.25500000	      0.04661464	      0.02787312	      0.06653585
      5.26000000	      0.04612490	      0.02772631	      0.06665145
      5.26500000	      0.04570617	      0.02760017	      0.06656891
      5.27000000	      0.04534897	      0.02749211	      0.06644781
      5.27500000	      0.04496949	      0.02737684	      0.06607543
      5.28000000	      0.04488925	      0.02735241	      0.06569948
      5.28500000	      0.04413523	      0.02712171	      0.06566672
      5.29000000	      0.04379707	      0.02701761	      0.06508012
      5.29500000	      0.04350192	      0.02692642	      0.06467444
      5.30000000	      0.04297937	      0.02676421	      0.06456299
      5.30500000	      0.04249359	      0.02661253	      0.06424777
      5.31000000	      0.04216562	      0.02650963	      0.06402242
      5.31500000	      0.04178579	      0.02638996	      0.06355918
      5.32000000	      0.04166156	      0.02635070	      0.06332283
      5.32500000	      0.04142296	      0.02627513	      0.06321472
      5.33000000	      0.04099377	      0.02613866	      0.06301105
      5.33500000	      0.04036705	      0.02593808	      0.06221533
      5.34000000	      0.04032714	      0.02592526	      0.06240442
      5.34500000	      0.03959256	      0.02568805	      0.06218658
      5.35000000	      0.03955954	      0.02567734	      0.06185930
      5.35500000	      0.03902137	      0.02550208	      0.06159395
      5.36000000	      0.03886335	      0.02545039	      0.06133794
      5.36500000	      0.03836651	      0.02528719	      0.06128216
      5.37000000	      0.03844121	      0.02531179	      0.06127243
      5.37500000	      0.03772727	      0.02507564	      0.06077784
      5.38000000	      0.03751666	      0.02500555	      0.06103191
      5.38500000	      0.03741264	      0.02497086	      0.06059294
      5.39000000	      0.03676826	      0.02475488	      0.06044817
      5.39500000	      0.03654164	      0.02467848	      0.05992181
      5.40000000	      0.03625827	      0.02458261	      0.05995782
      5.40500000	      0.03590567	      0.02446278	      0.05996486
      5.41000000	      0.03549890	      0.02432382	      0.05937745
      5.41500000	      0.03537844	      0.02428252	      0.05952562
      5.42000000	      0.03502660	      0.02416147	      0.05893931
      5.42500000	      0.03450166	      0.02397973	      0.05891014
      5.43000000	      0.03416058	      0.02386091	      0.05876222
      5.43500000	      0.03385194	      0.02375287	      0.05856152
      5.44000000	      0.03359795	      0.02366360	      0.05840603
      5.44500000	      0.03328672	      0.02355374	      0.05817473
      5.45000000	      0.03304389	      0.02346767	      0.05812406
      5.45500000	      0.03284729	      0.02339775	      0.05765854
      5.46000000	      0.03265276	      0.02332836	      0.05782659
      5.46500000	      0.03244198	      0.02325295	      0.05742743
      5.47000000	      0.03207427	      0.02312079	      0.05751227
      5.47500000	      0.03201614	      0.02309983	      0.05727080
      5.48000000	      0.03169552	      0.02298388	      0.05714623
      5.48500000	      0.03155316	      0.02293220	      0.05704383
      5.49000000	      0.03146553	      0.02290034	      0.05687725
      5.49500000	      0.03117184	      0.02279321	      0.05658440
      5.50000000	      0.03107590	      0.02275811	      0.05670397
      5.50500000	      0.03109304	      0.02276439	      0.05646691
      5.51000000	      0.03097509	      0.02272117	      0.05627394
      5.51500000	      0.03076307	      0.02264327	      0.05629449
      5.52000000	      0.03060858	      0.02258635	      0.05596021
      5.52500000	      0.03058558	      0.02257786	      0.05584883
      5.53000000	      0.03043519	      0.02252228	      0.05596994
      5.53500000	      0.03050996	      0.02254993	      0.05581115
      5.54000000	      0.03040247	      0.02251017	      0.05571505
      5.54500000	      0.03044898	      0.02252738	      0.05567179
      5.55000000	      0.03028938	      0.02246826	      0.05518995
      5.55500000	      0.03033184	      0.02248401	      0.05674934
      5.56000000	      0.03010311	      0.02239907	      0.05511170
      5.56500000	      0.03003968	      0.02237546	      0.05496811
      5.57000000	      0.02975712	      0.02226998	      0.05481502
      5.57500000	      0.02970640	      0.02225099	      0.05469269
      5.58000000	      0.02969457	      0.02224656	      0.05467282
      5.58500000	      0.02954765	      0.02219146	      0.05455422
      5.59000000	      0.02951371	      0.02217871	      0.05445233
      5.59500000	      0.02933385	      0.02211103	      0.05435007
      5.60000000	      0.02918444	      0.02205465	      0.05434244
      5.60500000	      0.02904820	      0.02200310	      0.05409852
      5.61000000	      0.02885246	      0.02192885	      0.05390964
      5.61500000	      0.02889621	      0.02194547	      0.05394651
      5.62000000	      0.02851535	      0.02180036	      0.05382010
      5.62500000	      0.02857892	      0.02182465	      0.05366826
      5.63000000	      0.02823098	      0.02169139	      0.05339199
      5.63500000	      0.02806583	      0.02162785	      0.05337806
      5.64000000	      0.02788318	      0.02155736	      0.05317985
      5.64500000	      0.02762518	      0.02145739	      0.05315846
      5.65000000	      0.02752026	      0.02141661	      0.05305986
      5.65500000	      0.02731777	      0.02133767	      0.05301091
      5.66000000	      0.02715871	      0.02127546	      0.05291882
      5.66500000	      0.02701166	      0.02121778	      0.05263834
      5.67000000	      0.02686200	      0.02115892	      0.05265813
      5.67500000	      0.02673079	      0.02110718	      0.05269884
      5.68000000	      0.02652752	      0.02102678	      0.05262225
      5.68500000	      0.02641179	      0.02098086	      0.05248553
      5.69000000	      0.02625369	      0.02091797	      0.05230976
      5.69500000	      0.02607998	      0.02084865	      0.05225673
      5.70000000	      0.02587247	      0.02076555	      0.05212475
      5.70500000	      0.02575350	      0.02071775	      0.05216768
      5.71000000	      0.02567070	      0.02068441	      0.05208216
      5.71500000	      0.02537303	      0.02056414	      0.05200669
      5.72000000	      0.02522541	      0.02050423	      0.05193081
      5.72500000	      0.02496209	      0.02039693	      0.05190343
      5.73000000	      0.02517513	      0.02048379	      0.05352088
      5.73500000	      0.02464590	      0.02026734	      0.05165080
      5.74000000	      0.02456541	      0.02023422	      0.05153501
      5.74500000	      0.02441661	      0.02017284	      0.05145147
      5.75000000	      0.02443214	      0.02017925	      0.05133289
      5.75500000	      0.02429755	      0.02012360	      0.05135634
      5.76000000	      0.02411642	      0.02004845	      0.05121954
      5.76500000	      0.02394972	      0.01997904	      0.05102146
      5.77000000	      0.02387814	      0.01994916	      0.05097200
      5.77500000	      0.02391821	      0.01996589	      0.05110985
      5.78000000	      0.02378295	      0.01990936	      0.05090181
      5.78500000	      0.02384080	      0.01993356	      0.05091607
      5.79000000	      0.02365425	      0.01985542	      0.05097984
      5.79500000	      0.02353388	      0.01980483	      0.05085521
      5.80000000	      0.02351838	      0.01979831	      0.05083570
