Model Marker Errors from IK
version=1
nRows=135
nColumns=4
inDegrees=no
endheader
time	total_squared_error	marker_error_RMS	marker_error_max
      3.51500000	      0.05101425	      0.02891884	      0.06212156
      3.52000000	      0.05102716	      0.02892250	      0.06190384
      3.52500000	      0.05109767	      0.02894247	      0.06152468
      3.53000000	      0.05112159	      0.02894925	      0.06156912
      3.53500000	      0.05081696	      0.02886286	      0.06186799
      3.54000000	      0.05090854	      0.02888886	      0.06170716
      3.54500000	      0.05096279	      0.02890425	      0.06153816
      3.55000000	      0.05067558	      0.02882268	      0.06130065
      3.55500000	      0.05070727	      0.02883170	      0.06107939
      3.56000000	      0.05063306	      0.02881059	      0.06106392
      3.56500000	      0.05050787	      0.02877495	      0.06079215
      3.57000000	      0.05051959	      0.02877829	      0.06069484
      3.57500000	      0.05050245	      0.02877341	      0.06161263
      3.58000000	      0.05052189	      0.02877894	      0.06181617
      3.58500000	      0.05057984	      0.02879545	      0.06160519
      3.59000000	      0.05048313	      0.02876790	      0.06142903
      3.59500000	      0.05064061	      0.02881274	      0.06147697
      3.60000000	      0.05046307	      0.02876219	      0.06088963
      3.60500000	      0.05048923	      0.02876964	      0.06070492
      3.61000000	      0.05057885	      0.02879516	      0.06086843
      3.61500000	      0.05055401	      0.02878809	      0.06125383
      3.62000000	      0.05061595	      0.02880572	      0.06120690
      3.62500000	      0.05073574	      0.02883979	      0.06150400
      3.63000000	      0.05062500	      0.02880830	      0.06168133
      3.63500000	      0.05060203	      0.02880176	      0.06196656
      3.64000000	      0.05067340	      0.02882207	      0.06208920
      3.64500000	      0.05068463	      0.02882526	      0.06207245
      3.65000000	      0.05095747	      0.02890274	      0.06224067
      3.65500000	      0.05091397	      0.02889040	      0.06222347
      3.66000000	      0.05104681	      0.02892806	      0.06255851
      3.66500000	      0.05119920	      0.02897121	      0.06236062
      3.67000000	      0.05137698	      0.02902147	      0.06265586
      3.67500000	      0.05148565	      0.02905214	      0.06251878
      3.68000000	      0.05178875	      0.02913753	      0.06262662
      3.68500000	      0.05207544	      0.02921807	      0.06300670
      3.69000000	      0.05206338	      0.02921469	      0.06252208
      3.69500000	      0.05239275	      0.02930695	      0.06263421
      3.70000000	      0.05248556	      0.02933290	      0.06271020
      3.70500000	      0.05265568	      0.02938040	      0.06263599
      3.71000000	      0.05289478	      0.02944703	      0.06281309
      3.71500000	      0.05304967	      0.02949011	      0.06286571
      3.72000000	      0.05314463	      0.02951649	      0.06258819
      3.72500000	      0.05302413	      0.02948301	      0.06315685
      3.73000000	      0.05299576	      0.02947513	      0.06322203
      3.73500000	      0.05285629	      0.02943631	      0.06339028
      3.74000000	      0.05269083	      0.02939020	      0.06355045
      3.74500000	      0.05246741	      0.02932783	      0.06398490
      3.75000000	      0.05225018	      0.02926705	      0.06407555
      3.75500000	      0.05219456	      0.02925147	      0.06414393
      3.76000000	      0.05199306	      0.02919495	      0.06477942
      3.76500000	      0.05155651	      0.02907213	      0.06522244
      3.77000000	      0.05168644	      0.02910874	      0.06556048
      3.77500000	      0.05152442	      0.02906308	      0.06609920
      3.78000000	      0.05144366	      0.02904029	      0.06647618
      3.78500000	      0.05174963	      0.02912653	      0.06711988
      3.79000000	      0.05191431	      0.02917283	      0.06739889
      3.79500000	      0.05207745	      0.02921864	      0.06776264
      3.80000000	      0.05232529	      0.02928808	      0.06827471
      3.80500000	      0.05245596	      0.02932463	      0.06847495
      3.81000000	      0.05266675	      0.02938349	      0.06867574
      3.81500000	      0.05280434	      0.02942184	      0.06894428
      3.82000000	      0.05271288	      0.02939635	      0.06896188
      3.82500000	      0.05375230	      0.02968477	      0.06938926
      3.83000000	      0.05479473	      0.02997122	      0.07145264
      3.83500000	      0.05575400	      0.03023243	      0.07365316
      3.84000000	      0.05643557	      0.03041666	      0.07579875
      3.84500000	      0.05682775	      0.03052216	      0.07832662
      3.85000000	      0.05763958	      0.03073941	      0.08125005
      3.85500000	      0.05860169	      0.03099489	      0.08347953
      3.86000000	      0.05903138	      0.03110832	      0.08706624
      3.86500000	      0.05919989	      0.03115269	      0.08982639
      3.87000000	      0.05958680	      0.03125432	      0.09168731
      3.87500000	      0.06122183	      0.03168022	      0.09471910
      3.88000000	      0.06334576	      0.03222507	      0.09780153
      3.88500000	      0.06566166	      0.03280885	      0.10086088
      3.89000000	      0.06778791	      0.03333582	      0.10423048
      3.89500000	      0.06886268	      0.03359905	      0.10771889
      3.90000000	      0.06998591	      0.03387197	      0.11042405
      3.90500000	      0.07104496	      0.03412728	      0.11271761
      3.91000000	      0.07216941	      0.03439630	      0.11549563
      3.91500000	      0.07240829	      0.03445317	      0.11610618
      3.92000000	      0.07300531	      0.03459492	      0.11745622
      3.92500000	      0.07377948	      0.03477786	      0.11926069
      3.93000000	      0.07447528	      0.03494147	      0.11999080
      3.93500000	      0.07529692	      0.03513368	      0.12011262
      3.94000000	      0.07615652	      0.03533366	      0.12119392
      3.94500000	      0.07722602	      0.03558090	      0.12208876
      3.95000000	      0.07819917	      0.03580438	      0.12238361
      3.95500000	      0.07938460	      0.03607474	      0.12427811
      3.96000000	      0.08070451	      0.03637341	      0.12570357
      3.96500000	      0.08172822	      0.03660337	      0.12565118
      3.97000000	      0.08282287	      0.03684769	      0.12691601
      3.97500000	      0.08455175	      0.03723029	      0.12925450
      3.98000000	      0.08567547	      0.03747687	      0.13027197
      3.98500000	      0.08760302	      0.03789611	      0.13221820
      3.99000000	      0.08943341	      0.03828997	      0.13384594
      3.99500000	      0.09094741	      0.03861271	      0.13461113
      4.00000000	      0.09298713	      0.03904330	      0.13634923
      4.00500000	      0.09438527	      0.03933573	      0.13757184
      4.01000000	      0.09578617	      0.03962657	      0.13896125
      4.01500000	      0.09642845	      0.03975920	      0.13692404
      4.02000000	      0.09728448	      0.03993529	      0.13788816
      4.02500000	      0.09823888	      0.04013071	      0.13856949
      4.03000000	      0.09912450	      0.04031119	      0.13966293
      4.03500000	      0.09974890	      0.04043795	      0.14067170
      4.04000000	      0.10017671	      0.04052457	      0.14086281
      4.04500000	      0.10100360	      0.04069148	      0.14157725
      4.05000000	      0.10133499	      0.04075818	      0.14119574
      4.05500000	      0.10168902	      0.04082932	      0.14222910
      4.06000000	      0.10211849	      0.04091544	      0.14308559
      4.06500000	      0.10294833	      0.04108135	      0.14237366
      4.07000000	      0.10292206	      0.04107611	      0.14340909
      4.07500000	      0.10355131	      0.04120149	      0.14430868
      4.08000000	      0.10414260	      0.04131895	      0.14470835
      4.08500000	      0.10500107	      0.04148890	      0.14610163
      4.09000000	      0.10571532	      0.04162977	      0.14653754
      4.09500000	      0.10643230	      0.04177070	      0.14724686
      4.10000000	      0.10704717	      0.04189119	      0.14751134
      4.10500000	      0.10735116	      0.04195063	      0.14800586
      4.11000000	      0.10813183	      0.04210288	      0.14848683
      4.11500000	      0.10866948	      0.04220743	      0.14904964
      4.12000000	      0.10927406	      0.04232467	      0.14923607
      4.12500000	      0.10954363	      0.04237685	      0.14899022
      4.13000000	      0.10981747	      0.04242978	      0.14965885
      4.13500000	      0.11016443	      0.04249676	      0.14979356
      4.14000000	      0.10996760	      0.04245877	      0.14976102
      4.14500000	      0.11053619	      0.04256840	      0.14981472
      4.15000000	      0.11043527	      0.04254896	      0.14980353
      4.15500000	      0.11061269	      0.04258313	      0.14996674
      4.16000000	      0.11085969	      0.04263065	      0.15000329
      4.16500000	      0.11066388	      0.04259298	      0.14958166
      4.17000000	      0.11075131	      0.04260980	      0.15033925
      4.17500000	      0.11013315	      0.04249072	      0.14908839
      4.18000000	      0.11000938	      0.04246684	      0.14893993
      4.18500000	      0.11011710	      0.04248763	      0.14913163
