Model Marker Errors from IK
version=1
nRows=681
nColumns=4
inDegrees=no
endheader
time	total_squared_error	marker_error_RMS	marker_error_max
      2.60000000	      0.03229795	      0.02320128	      0.06051180
      2.60500000	      0.03234147	      0.02321690	      0.06057475
      2.61000000	      0.03227843	      0.02319426	      0.06056141
      2.61500000	      0.03227682	      0.02319368	      0.06067549
      2.62000000	      0.03230095	      0.02320235	      0.06058631
      2.62500000	      0.03222531	      0.02317517	      0.06072228
      2.63000000	      0.03223348	      0.02317811	      0.06099010
      2.63500000	      0.03217226	      0.02315609	      0.06073023
      2.64000000	      0.03218879	      0.02316204	      0.06091033
      2.64500000	      0.03219777	      0.02316527	      0.06096618
      2.65000000	      0.03230004	      0.02320203	      0.06135555
      2.65500000	      0.03241885	      0.02324466	      0.06155849
      2.66000000	      0.03241760	      0.02324421	      0.06164821
      2.66500000	      0.03246221	      0.02326020	      0.06177802
      2.67000000	      0.03258834	      0.02330534	      0.06207295
      2.67500000	      0.03267163	      0.02333511	      0.06227589
      2.68000000	      0.03264345	      0.02332504	      0.06244475
      2.68500000	      0.03271426	      0.02335033	      0.06268916
      2.69000000	      0.03265426	      0.02332890	      0.06306794
      2.69500000	      0.03263323	      0.02332139	      0.06313406
      2.70000000	      0.03281969	      0.02338792	      0.06339257
      2.70500000	      0.03292118	      0.02342406	      0.06380263
      2.71000000	      0.03292364	      0.02342493	      0.06373721
      2.71500000	      0.03300216	      0.02345285	      0.06423284
      2.72000000	      0.03329611	      0.02355706	      0.06461239
      2.72500000	      0.03330931	      0.02356173	      0.06494315
      2.73000000	      0.03348442	      0.02362358	      0.06510623
      2.73500000	      0.03371667	      0.02370537	      0.06559699
      2.74000000	      0.03406071	      0.02382600	      0.06587804
      2.74500000	      0.03411890	      0.02384635	      0.06620516
      2.75000000	      0.03421743	      0.02388076	      0.06651992
      2.75500000	      0.03445372	      0.02396307	      0.06699579
      2.76000000	      0.03482539	      0.02409197	      0.06736706
      2.76500000	      0.03504113	      0.02416648	      0.06776569
      2.77000000	      0.03551869	      0.02433060	      0.06822693
      2.77500000	      0.03573036	      0.02440299	      0.06870569
      2.78000000	      0.03610794	      0.02453159	      0.06916450
      2.78500000	      0.03648849	      0.02466053	      0.06941615
      2.79000000	      0.03678948	      0.02476203	      0.06991407
      2.79500000	      0.03708305	      0.02486063	      0.07019650
      2.80000000	      0.03731611	      0.02493863	      0.07062934
      2.80500000	      0.03785863	      0.02511926	      0.07098960
      2.81000000	      0.03819430	      0.02523037	      0.07152489
      2.81500000	      0.03879484	      0.02542795	      0.07252320
      2.82000000	      0.03876316	      0.02541757	      0.07201941
      2.82500000	      0.03911537	      0.02553278	      0.07218623
      2.83000000	      0.03961495	      0.02569531	      0.07249800
      2.83500000	      0.03987367	      0.02577908	      0.07299675
      2.84000000	      0.04023677	      0.02589619	      0.07329433
      2.84500000	      0.04060569	      0.02601464	      0.07346675
      2.85000000	      0.04098645	      0.02613632	      0.07382856
      2.85500000	      0.04135589	      0.02625386	      0.07421637
      2.86000000	      0.04181882	      0.02640039	      0.07443535
      2.86500000	      0.04217680	      0.02651314	      0.07486607
      2.87000000	      0.04240889	      0.02658599	      0.07525933
      2.87500000	      0.04307895	      0.02679520	      0.07559185
      2.88000000	      0.04339626	      0.02689370	      0.07607529
      2.88500000	      0.04394910	      0.02706446	      0.07634245
      2.89000000	      0.04429235	      0.02716994	      0.07720380
      2.89500000	      0.04482772	      0.02733365	      0.07725685
      2.90000000	      0.04559532	      0.02756668	      0.07757790
      2.90500000	      0.04533060	      0.02748654	      0.07762475
      2.91000000	      0.04610513	      0.02772037	      0.07801753
      2.91500000	      0.04621662	      0.02775386	      0.07810732
      2.92000000	      0.04672374	      0.02790572	      0.07846333
      2.92500000	      0.04790827	      0.02825723	      0.08086605
      2.93000000	      0.04785643	      0.02824194	      0.07914666
      2.93500000	      0.04857641	      0.02845359	      0.07956073
      2.94000000	      0.04882277	      0.02852565	      0.07975664
      2.94500000	      0.04946178	      0.02871172	      0.08004928
      2.95000000	      0.04990690	      0.02884063	      0.08065116
      2.95500000	      0.05034364	      0.02896654	      0.08063834
      2.96000000	      0.05013108	      0.02890533	      0.08066409
      2.96500000	      0.05106344	      0.02917289	      0.08114357
      2.97000000	      0.05152233	      0.02930368	      0.08146749
      2.97500000	      0.05215517	      0.02948309	      0.08164491
      2.98000000	      0.05233358	      0.02953348	      0.08187589
      2.98500000	      0.05254852	      0.02959407	      0.08186402
      2.99000000	      0.05335365	      0.02981992	      0.08223947
      2.99500000	      0.05347951	      0.02985507	      0.08228231
      3.00000000	      0.05411791	      0.03003274	      0.08261459
      3.00500000	      0.05452476	      0.03014541	      0.08275391
      3.01000000	      0.05541919	      0.03039166	      0.08305330
      3.01500000	      0.05518628	      0.03032773	      0.08303043
      3.02000000	      0.05575528	      0.03048368	      0.08388573
      3.02500000	      0.05574747	      0.03048154	      0.08325094
      3.03000000	      0.05570508	      0.03046995	      0.08332965
      3.03500000	      0.05644003	      0.03067030	      0.08344234
      3.04000000	      0.05603998	      0.03056141	      0.08352115
      3.04500000	      0.05641833	      0.03066440	      0.08359004
      3.05000000	      0.05665505	      0.03072867	      0.08359371
      3.05500000	      0.05653318	      0.03069560	      0.08368218
      3.06000000	      0.05682357	      0.03077433	      0.08388694
      3.06500000	      0.05733375	      0.03091217	      0.08406604
      3.07000000	      0.05714492	      0.03086123	      0.08452877
      3.07500000	      0.05815452	      0.03113265	      0.08461444
      3.08000000	      0.05793032	      0.03107258	      0.08437915
      3.08500000	      0.05804866	      0.03110430	      0.08448913
      3.09000000	      0.05842579	      0.03120518	      0.08469635
      3.09500000	      0.05885800	      0.03132039	      0.08472293
      3.10000000	      0.05879269	      0.03130301	      0.08476618
      3.10500000	      0.05896269	      0.03134823	      0.08481281
      3.11000000	      0.05920283	      0.03141200	      0.08492636
      3.11500000	      0.05938171	      0.03145942	      0.08502853
      3.12000000	      0.06022214	      0.03168126	      0.08552978
      3.12500000	      0.05990830	      0.03159860	      0.08537273
      3.13000000	      0.06068453	      0.03180266	      0.08541220
      3.13500000	      0.06028465	      0.03169770	      0.08560431
      3.14000000	      0.06062963	      0.03178827	      0.08559425
      3.14500000	      0.06077555	      0.03182650	      0.08567144
      3.15000000	      0.06102108	      0.03189072	      0.08594597
      3.15500000	      0.06108206	      0.03190665	      0.08594112
      3.16000000	      0.06116144	      0.03192738	      0.08594312
      3.16500000	      0.06147467	      0.03200903	      0.08597106
      3.17000000	      0.06164630	      0.03205368	      0.08622289
      3.17500000	      0.06203376	      0.03215425	      0.08644991
      3.18000000	      0.06214976	      0.03218430	      0.08638167
      3.18500000	      0.06175826	      0.03208277	      0.08634590
      3.19000000	      0.06250994	      0.03227743	      0.08681065
      3.19500000	      0.06269173	      0.03232433	      0.08684594
      3.20000000	      0.06329477	      0.03247942	      0.08704612
      3.20500000	      0.06372568	      0.03258979	      0.08732139
      3.21000000	      0.06377974	      0.03260361	      0.08722709
      3.21500000	      0.06340768	      0.03250838	      0.08729975
      3.22000000	      0.06404578	      0.03267154	      0.08778502
      3.22500000	      0.06387553	      0.03262809	      0.08741569
      3.23000000	      0.06430947	      0.03273873	      0.08757962
      3.23500000	      0.06448259	      0.03278277	      0.08775435
      3.24000000	      0.06498636	      0.03291058	      0.08958585
      3.24500000	      0.06509034	      0.03293689	      0.08784919
      3.25000000	      0.06524541	      0.03297610	      0.08808888
      3.25500000	      0.06501469	      0.03291775	      0.08827043
      3.26000000	      0.06591998	      0.03314614	      0.08837435
      3.26500000	      0.06559551	      0.03306446	      0.08828498
      3.27000000	      0.06585388	      0.03312951	      0.08844810
      3.27500000	      0.06643512	      0.03327540	      0.08870920
      3.28000000	      0.06635140	      0.03325442	      0.08869059
      3.28500000	      0.06686442	      0.03338274	      0.08898108
      3.29000000	      0.06674122	      0.03335197	      0.08884451
      3.29500000	      0.06688490	      0.03338785	      0.08882114
      3.30000000	      0.06717695	      0.03346066	      0.08950050
      3.30500000	      0.06745929	      0.03353090	      0.08945480
      3.31000000	      0.06759161	      0.03356377	      0.08948798
      3.31500000	      0.06796610	      0.03365662	      0.08974518
      3.32000000	      0.06809612	      0.03368880	      0.09048905
      3.32500000	      0.06837657	      0.03375810	      0.08996578
      3.33000000	      0.06877417	      0.03385611	      0.09005600
      3.33500000	      0.06880007	      0.03386248	      0.09019944
      3.34000000	      0.06973834	      0.03409260	      0.09051548
      3.34500000	      0.06928268	      0.03398104	      0.09027088
      3.35000000	      0.07035335	      0.03424260	      0.09079247
      3.35500000	      0.07029764	      0.03422904	      0.09071622
      3.36000000	      0.07059914	      0.03430237	      0.09073439
      3.36500000	      0.07101957	      0.03440435	      0.09083398
      3.37000000	      0.07045395	      0.03426708	      0.09071920
      3.37500000	      0.07045102	      0.03426636	      0.09082872
      3.38000000	      0.07081570	      0.03435494	      0.09144136
      3.38500000	      0.07044503	      0.03426491	      0.09092379
      3.39000000	      0.07156617	      0.03453650	      0.09130576
      3.39500000	      0.07177073	      0.03458582	      0.09134821
      3.40000000	      0.07211460	      0.03466857	      0.09258357
      3.40500000	      0.07187079	      0.03460992	      0.09154963
      3.41000000	      0.07252793	      0.03476778	      0.09182254
      3.41500000	      0.07276696	      0.03482503	      0.09188414
      3.42000000	      0.07388565	      0.03509170	      0.09219958
      3.42500000	      0.07397648	      0.03511326	      0.09236890
      3.43000000	      0.07436041	      0.03520426	      0.09243842
      3.43500000	      0.07493077	      0.03533902	      0.09346010
      3.44000000	      0.07510501	      0.03538008	      0.09272860
      3.44500000	      0.07570582	      0.03552131	      0.09515444
      3.45000000	      0.07472719	      0.03529098	      0.09263294
      3.45500000	      0.07582594	      0.03554948	      0.09309008
      3.46000000	      0.07579604	      0.03554247	      0.09497090
      3.46500000	      0.07518174	      0.03539815	      0.09286949
      3.47000000	      0.07638152	      0.03567948	      0.09320315
      3.47500000	      0.07660803	      0.03573234	      0.09328466
      3.48000000	      0.07667052	      0.03574692	      0.09341920
      3.48500000	      0.07655636	      0.03572029	      0.09344288
      3.49000000	      0.07733295	      0.03590101	      0.09394621
      3.49500000	      0.07744700	      0.03592747	      0.09378609
      3.50000000	      0.07772576	      0.03599207	      0.09497705
      3.50500000	      0.07775380	      0.03599857	      0.09403801
      3.51000000	      0.07821101	      0.03610425	      0.09420329
      3.51500000	      0.07839692	      0.03614713	      0.09409253
      3.52000000	      0.07862379	      0.03619940	      0.09433644
      3.52500000	      0.07890239	      0.03626348	      0.09445461
      3.53000000	      0.07880190	      0.03624038	      0.09458285
      3.53500000	      0.07898492	      0.03628244	      0.09449222
      3.54000000	      0.07916900	      0.03632469	      0.09468838
      3.54500000	      0.07944298	      0.03638749	      0.09487107
      3.55000000	      0.07946483	      0.03639250	      0.09481892
      3.55500000	      0.07941434	      0.03638093	      0.09463774
      3.56000000	      0.07979549	      0.03646813	      0.09514313
      3.56500000	      0.07972325	      0.03645162	      0.09493993
      3.57000000	      0.08007093	      0.03653102	      0.09499839
      3.57500000	      0.08016087	      0.03655153	      0.09500922
      3.58000000	      0.08059841	      0.03665115	      0.09505557
      3.58500000	      0.08081767	      0.03670097	      0.09501092
      3.59000000	      0.08113547	      0.03677306	      0.09540831
      3.59500000	      0.08147679	      0.03685033	      0.09543146
      3.60000000	      0.08160417	      0.03687912	      0.09546958
      3.60500000	      0.08185005	      0.03693464	      0.09541763
      3.61000000	      0.08189963	      0.03694582	      0.09568300
      3.61500000	      0.08214294	      0.03700066	      0.09563022
      3.62000000	      0.08244778	      0.03706926	      0.09601292
      3.62500000	      0.08351496	      0.03730839	      0.09858579
      3.63000000	      0.08339595	      0.03728180	      0.09639464
      3.63500000	      0.08454892	      0.03753863	      0.09950890
      3.64000000	      0.08410211	      0.03743931	      0.09668310
      3.64500000	      0.08450338	      0.03752852	      0.09697325
      3.65000000	      0.08486307	      0.03760830	      0.09728406
      3.65500000	      0.08528561	      0.03770181	      0.09728520
      3.66000000	      0.08620722	      0.03790497	      0.09917128
      3.66500000	      0.08638213	      0.03794341	      0.09759074
      3.67000000	      0.08696044	      0.03807021	      0.09786025
      3.67500000	      0.08692218	      0.03806183	      0.09777471
      3.68000000	      0.08740082	      0.03816648	      0.09788788
      3.68500000	      0.08763329	      0.03821721	      0.09801288
      3.69000000	      0.08755223	      0.03819953	      0.09825546
      3.69500000	      0.08782781	      0.03825960	      0.09832741
      3.70000000	      0.08852474	      0.03841110	      0.09843371
      3.70500000	      0.08856932	      0.03842077	      0.09873724
      3.71000000	      0.08874738	      0.03845937	      0.09876515
      3.71500000	      0.08878285	      0.03846705	      0.09881952
      3.72000000	      0.08924557	      0.03856716	      0.10070719
      3.72500000	      0.08943361	      0.03860777	      0.09890310
      3.73000000	      0.08945409	      0.03861219	      0.09873374
      3.73500000	      0.08950900	      0.03862404	      0.09884477
      3.74000000	      0.08968453	      0.03866190	      0.09894233
      3.74500000	      0.08991158	      0.03871080	      0.09900136
      3.75000000	      0.09058439	      0.03885537	      0.09972168
      3.75500000	      0.09031278	      0.03879707	      0.09943666
      3.76000000	      0.09041823	      0.03881972	      0.10132611
      3.76500000	      0.09068705	      0.03887738	      0.09944552
      3.77000000	      0.09160070	      0.03907273	      0.10174659
      3.77500000	      0.09097298	      0.03893862	      0.09948784
      3.78000000	      0.09153878	      0.03905952	      0.09976832
      3.78500000	      0.09164097	      0.03908132	      0.09992398
      3.79000000	      0.09121867	      0.03899117	      0.09983024
      3.79500000	      0.09188313	      0.03913292	      0.10011455
      3.80000000	      0.09197053	      0.03915153	      0.10014653
      3.80500000	      0.09179033	      0.03911315	      0.10029367
      3.81000000	      0.09191635	      0.03914000	      0.10034703
      3.81500000	      0.09255031	      0.03927474	      0.10059497
      3.82000000	      0.09280616	      0.03932899	      0.10066871
      3.82500000	      0.09226449	      0.03921405	      0.10045831
      3.83000000	      0.09243993	      0.03925131	      0.10050717
      3.83500000	      0.09244321	      0.03925201	      0.10063038
      3.84000000	      0.09243719	      0.03925073	      0.10053210
      3.84500000	      0.09258192	      0.03928145	      0.10070075
      3.85000000	      0.09260392	      0.03928611	      0.10069460
      3.85500000	      0.09261974	      0.03928947	      0.10088322
      3.86000000	      0.09294109	      0.03935757	      0.10108685
      3.86500000	      0.09305975	      0.03938268	      0.10154924
      3.87000000	      0.09302023	      0.03937432	      0.10095919
      3.87500000	      0.09291744	      0.03935256	      0.10115660
      3.88000000	      0.09317644	      0.03940737	      0.10135052
      3.88500000	      0.09321298	      0.03941509	      0.10130807
      3.89000000	      0.09361866	      0.03950077	      0.10206782
      3.89500000	      0.09362286	      0.03950166	      0.10142055
      3.90000000	      0.09373339	      0.03952497	      0.10129147
      3.90500000	      0.09375370	      0.03952925	      0.10136282
      3.91000000	      0.09419202	      0.03962155	      0.10222113
      3.91500000	      0.09421773	      0.03962695	      0.10147973
      3.92000000	      0.09422214	      0.03962788	      0.10278688
      3.92500000	      0.09461420	      0.03971024	      0.10308807
      3.93000000	      0.09489604	      0.03976934	      0.10316081
      3.93500000	      0.09417052	      0.03961702	      0.10157514
      3.94000000	      0.09446042	      0.03967796	      0.10146166
      3.94500000	      0.09458920	      0.03970499	      0.10183769
      3.95000000	      0.09488352	      0.03976672	      0.10230052
      3.95500000	      0.09495510	      0.03978172	      0.10289276
      3.96000000	      0.09476173	      0.03974119	      0.10167691
      3.96500000	      0.09498451	      0.03978788	      0.10194327
      3.97000000	      0.09503495	      0.03979844	      0.10253606
      3.97500000	      0.09569854	      0.03993715	      0.10318002
      3.98000000	      0.09526579	      0.03984675	      0.10199272
      3.98500000	      0.09538463	      0.03987159	      0.10210080
      3.99000000	      0.09599592	      0.03999915	      0.10303630
      3.99500000	      0.09607743	      0.04001613	      0.10349052
      4.00000000	      0.09650742	      0.04010557	      0.10261413
      4.00500000	      0.09656144	      0.04011680	      0.10303979
      4.01000000	      0.09668610	      0.04014268	      0.10266828
      4.01500000	      0.09678844	      0.04016392	      0.10281047
      4.02000000	      0.09678997	      0.04016424	      0.10310281
      4.02500000	      0.09695885	      0.04019926	      0.10383157
      4.03000000	      0.09718492	      0.04024610	      0.10382268
      4.03500000	      0.09713475	      0.04023571	      0.10268826
      4.04000000	      0.09708428	      0.04022526	      0.10314502
      4.04500000	      0.09662335	      0.04012965	      0.10251420
      4.05000000	      0.09746212	      0.04030346	      0.10360263
      4.05500000	      0.09760121	      0.04033221	      0.10390736
      4.06000000	      0.09719179	      0.04024752	      0.10266223
      4.06500000	      0.09791701	      0.04039740	      0.10355540
      4.07000000	      0.09758351	      0.04032855	      0.10369960
      4.07500000	      0.09772391	      0.04035755	      0.10405754
      4.08000000	      0.09752515	      0.04031649	      0.10275133
      4.08500000	      0.09762647	      0.04033742	      0.10279523
      4.09000000	      0.09785009	      0.04038360	      0.10328441
      4.09500000	      0.09762324	      0.04033676	      0.10278164
      4.10000000	      0.09774868	      0.04036266	      0.10270855
      4.10500000	      0.09768462	      0.04034944	      0.10261658
      4.11000000	      0.09769438	      0.04035145	      0.10305474
      4.11500000	      0.09768034	      0.04034855	      0.10359406
      4.12000000	      0.09802032	      0.04041871	      0.10377636
      4.12500000	      0.09779625	      0.04037248	      0.10250422
      4.13000000	      0.09767325	      0.04034709	      0.10250129
      4.13500000	      0.09826278	      0.04046867	      0.10431047
      4.14000000	      0.09875566	      0.04057003	      0.10561901
      4.14500000	      0.09835103	      0.04048684	      0.10257197
      4.15000000	      0.09854605	      0.04052696	      0.10357212
      4.15500000	      0.09845359	      0.04050794	      0.10266001
      4.16000000	      0.09869983	      0.04055857	      0.10289572
      4.16500000	      0.09941230	      0.04070469	      0.10375725
      4.17000000	      0.09923509	      0.04066839	      0.10316032
      4.17500000	      0.09967249	      0.04075792	      0.10329431
      4.18000000	      0.09962618	      0.04074845	      0.10346901
      4.18500000	      0.10016747	      0.04085900	      0.10538900
      4.19000000	      0.10033498	      0.04089315	      0.10362157
      4.19500000	      0.10040234	      0.04090687	      0.10372457
      4.20000000	      0.10112675	      0.04105418	      0.10566542
      4.20500000	      0.10083769	      0.04099547	      0.10379557
      4.21000000	      0.10097737	      0.04102385	      0.10365365
      4.21500000	      0.10097288	      0.04102294	      0.10375677
      4.22000000	      0.10114939	      0.04105878	      0.10384438
      4.22500000	      0.10127110	      0.04108347	      0.10381902
      4.23000000	      0.10111312	      0.04105142	      0.10461988
      4.23500000	      0.10102541	      0.04103361	      0.10388277
      4.24000000	      0.10110801	      0.04105038	      0.10375698
      4.24500000	      0.10072594	      0.04097274	      0.10491709
      4.25000000	      0.10049012	      0.04092475	      0.10376851
      4.25500000	      0.10084314	      0.04099657	      0.10380820
      4.26000000	      0.10107676	      0.04104403	      0.10388006
      4.26500000	      0.10117308	      0.04106359	      0.10404064
      4.27000000	      0.10110245	      0.04104925	      0.10401148
      4.27500000	      0.10121394	      0.04107188	      0.10409069
      4.28000000	      0.10153899	      0.04113778	      0.10578996
      4.28500000	      0.10198274	      0.04122757	      0.10726530
      4.29000000	      0.10226591	      0.04128477	      0.10866973
      4.29500000	      0.10116476	      0.04106190	      0.10411072
      4.30000000	      0.10119146	      0.04106731	      0.10384233
      4.30500000	      0.10103874	      0.04103631	      0.10387015
      4.31000000	      0.10085068	      0.04099811	      0.10361823
      4.31500000	      0.10087407	      0.04100286	      0.10354512
      4.32000000	      0.10065073	      0.04095744	      0.10343857
      4.32500000	      0.10067490	      0.04096236	      0.10354221
      4.33000000	      0.10051216	      0.04092924	      0.10350818
      4.33500000	      0.10031260	      0.04088859	      0.10372844
      4.34000000	      0.10033037	      0.04089221	      0.10339603
      4.34500000	      0.10049259	      0.04092526	      0.10353150
      4.35000000	      0.10049281	      0.04092530	      0.10361189
      4.35500000	      0.10052072	      0.04093098	      0.10363179
      4.36000000	      0.10032331	      0.04089077	      0.10364945
      4.36500000	      0.10102226	      0.04103297	      0.10628386
      4.37000000	      0.10035524	      0.04089728	      0.10351718
      4.37500000	      0.10040648	      0.04090772	      0.10346920
      4.38000000	      0.10038394	      0.04090312	      0.10337254
      4.38500000	      0.10043494	      0.04091352	      0.10334227
      4.39000000	      0.10044243	      0.04091504	      0.10347352
      4.39500000	      0.10104758	      0.04103811	      0.10613948
      4.40000000	      0.10040645	      0.04090771	      0.10322305
      4.40500000	      0.10042143	      0.04091076	      0.10317905
      4.41000000	      0.10077463	      0.04098264	      0.10617251
      4.41500000	      0.10125004	      0.04107920	      0.10727885
      4.42000000	      0.10027179	      0.04088027	      0.10329824
      4.42500000	      0.10044456	      0.04091547	      0.10339806
      4.43000000	      0.10043713	      0.04091396	      0.10333820
      4.43500000	      0.10061468	      0.04095011	      0.10331987
      4.44000000	      0.10064822	      0.04095693	      0.10334516
      4.44500000	      0.10084214	      0.04099637	      0.10337493
      4.45000000	      0.10127195	      0.04108364	      0.10530211
      4.45500000	      0.10096403	      0.04102114	      0.10345454
      4.46000000	      0.10090229	      0.04100859	      0.10366592
      4.46500000	      0.10112945	      0.04105473	      0.10352516
      4.47000000	      0.10116820	      0.04106259	      0.10354665
      4.47500000	      0.10144630	      0.04111899	      0.10383436
      4.48000000	      0.10151319	      0.04113255	      0.10366460
      4.48500000	      0.10161387	      0.04115294	      0.10375457
      4.49000000	      0.10158140	      0.04114636	      0.10370757
      4.49500000	      0.10177055	      0.04118466	      0.10370587
      4.50000000	      0.10182515	      0.04119570	      0.10367026
      4.50500000	      0.10197230	      0.04122546	      0.10365122
      4.51000000	      0.10166483	      0.04116326	      0.10374610
      4.51500000	      0.10155717	      0.04114146	      0.10356193
      4.52000000	      0.10143957	      0.04111763	      0.10361654
      4.52500000	      0.10140985	      0.04111161	      0.10346519
      4.53000000	      0.10133879	      0.04109720	      0.10351195
      4.53500000	      0.10141732	      0.04111312	      0.10331264
      4.54000000	      0.10120777	      0.04107062	      0.10325005
      4.54500000	      0.10115563	      0.04106004	      0.10354029
      4.55000000	      0.10092955	      0.04101413	      0.10330212
      4.55500000	      0.10107780	      0.04104424	      0.10360591
      4.56000000	      0.10102583	      0.04103369	      0.10344954
      4.56500000	      0.10095161	      0.04101862	      0.10333917
      4.57000000	      0.10163748	      0.04115772	      0.10555712
      4.57500000	      0.10120853	      0.04107078	      0.10365947
      4.58000000	      0.10178774	      0.04118813	      0.10643338
      4.58500000	      0.10244068	      0.04132003	      0.10791796
      4.59000000	      0.10136947	      0.04110342	      0.10380552
      4.59500000	      0.10164330	      0.04115890	      0.10374039
      4.60000000	      0.10176659	      0.04118385	      0.10373791
      4.60500000	      0.10187626	      0.04120604	      0.10380109
      4.61000000	      0.10191213	      0.04121329	      0.10404612
      4.61500000	      0.10173556	      0.04117757	      0.10395707
      4.62000000	      0.10187907	      0.04120661	      0.10387147
      4.62500000	      0.10200127	      0.04123131	      0.10417642
      4.63000000	      0.10184895	      0.04120052	      0.10390617
      4.63500000	      0.10249167	      0.04133031	      0.10640053
      4.64000000	      0.10192684	      0.04121627	      0.10387395
      4.64500000	      0.10187654	      0.04120610	      0.10409987
      4.65000000	      0.10210046	      0.04125136	      0.10393197
      4.65500000	      0.10201473	      0.04123403	      0.10402153
      4.66000000	      0.10215293	      0.04126195	      0.10386053
      4.66500000	      0.10223766	      0.04127906	      0.10416967
      4.67000000	      0.10224718	      0.04128098	      0.10422679
      4.67500000	      0.10295764	      0.04142416	      0.10691459
      4.68000000	      0.10211330	      0.04125395	      0.10425794
      4.68500000	      0.10277570	      0.04138754	      0.10428053
      4.69000000	      0.10283874	      0.04140023	      0.10411511
      4.69500000	      0.10351551	      0.04153623	      0.10703702
      4.70000000	      0.10252046	      0.04133611	      0.10421604
      4.70500000	      0.10251406	      0.04133482	      0.10414793
      4.71000000	      0.10305454	      0.04144365	      0.10673988
      4.71500000	      0.10254345	      0.04134075	      0.10407367
      4.72000000	      0.10246296	      0.04132452	      0.10410412
      4.72500000	      0.10241620	      0.04131509	      0.10438918
      4.73000000	      0.10265314	      0.04136285	      0.10424096
      4.73500000	      0.10267954	      0.04136817	      0.10424300
      4.74000000	      0.10248699	      0.04132937	      0.10446303
      4.74500000	      0.10333607	      0.04150022	      0.10717928
      4.75000000	      0.10253992	      0.04134004	      0.10425133
      4.75500000	      0.10246146	      0.04132422	      0.10451667
      4.76000000	      0.10262257	      0.04135669	      0.10452187
      4.76500000	      0.10262673	      0.04135753	      0.10450586
      4.77000000	      0.10342860	      0.04151879	      0.10740035
      4.77500000	      0.10271708	      0.04137573	      0.10457483
      4.78000000	      0.10304416	      0.04144156	      0.10447618
      4.78500000	      0.10305611	      0.04144396	      0.10460906
      4.79000000	      0.10391433	      0.04161617	      0.10743971
      4.79500000	      0.10366257	      0.04156573	      0.10485840
      4.80000000	      0.10376755	      0.04158677	      0.10470432
      4.80500000	      0.10336879	      0.04150678	      0.10499088
      4.81000000	      0.10360544	      0.04155427	      0.10477069
      4.81500000	      0.10380826	      0.04159492	      0.10492603
      4.82000000	      0.10395483	      0.04162428	      0.10500847
      4.82500000	      0.10416945	      0.04166722	      0.10507546
      4.83000000	      0.10433332	      0.04169998	      0.10516676
      4.83500000	      0.10443285	      0.04171987	      0.10525614
      4.84000000	      0.10450713	      0.04173470	      0.10504926
      4.84500000	      0.10461706	      0.04175665	      0.10526129
      4.85000000	      0.10488536	      0.04181016	      0.10517724
      4.85500000	      0.10577965	      0.04198803	      0.10844259
      4.86000000	      0.10485803	      0.04180471	      0.10507139
      4.86500000	      0.10489923	      0.04181292	      0.10494985
      4.87000000	      0.10516980	      0.04186681	      0.10602391
      4.87500000	      0.10473304	      0.04177979	      0.10475413
      4.88000000	      0.10479560	      0.04179226	      0.10498364
      4.88500000	      0.10501444	      0.04183588	      0.10622723
      4.89000000	      0.10472885	      0.04177895	      0.10492061
      4.89500000	      0.10458985	      0.04175122	      0.10495367
      4.90000000	      0.10448752	      0.04173079	      0.10509030
      4.90500000	      0.10489252	      0.04181159	      0.10617435
      4.91000000	      0.10477793	      0.04178874	      0.10507356
      4.91500000	      0.10480848	      0.04179483	      0.10633567
      4.92000000	      0.10484125	      0.04180137	      0.10529411
      4.92500000	      0.10472646	      0.04177848	      0.10498068
      4.93000000	      0.10495285	      0.04182361	      0.10529153
      4.93500000	      0.10528365	      0.04188947	      0.10525420
      4.94000000	      0.10533730	      0.04190014	      0.10533945
      4.94500000	      0.10537052	      0.04190674	      0.10547982
      4.95000000	      0.10562543	      0.04195740	      0.10658118
      4.95500000	      0.10578040	      0.04198817	      0.10759502
      4.96000000	      0.10555572	      0.04194356	      0.10550588
      4.96500000	      0.10565050	      0.04196238	      0.10554458
      4.97000000	      0.10567196	      0.04196664	      0.10552879
      4.97500000	      0.10542695	      0.04191797	      0.10515571
      4.98000000	      0.10563930	      0.04196016	      0.10517291
      4.98500000	      0.10585394	      0.04200277	      0.10620991
      4.99000000	      0.10553432	      0.04193931	      0.10500240
      4.99500000	      0.10555652	      0.04194372	      0.10517201
      5.00000000	      0.10519371	      0.04187157	      0.10491654
      5.00500000	      0.10501543	      0.04183608	      0.10503354
      5.01000000	      0.10522815	      0.04187842	      0.10625494
      5.01500000	      0.10502578	      0.04183814	      0.10502298
      5.02000000	      0.10497702	      0.04182842	      0.10515468
      5.02500000	      0.10556255	      0.04194492	      0.10529258
      5.03000000	      0.10510748	      0.04185441	      0.10515101
      5.03500000	      0.10486130	      0.04180536	      0.10527465
      5.04000000	      0.10469057	      0.04177132	      0.10512267
      5.04500000	      0.10474060	      0.04178130	      0.10653774
      5.05000000	      0.10443363	      0.04172002	      0.10505159
      5.05500000	      0.10456111	      0.04174548	      0.10501139
      5.06000000	      0.10449655	      0.04173259	      0.10485120
      5.06500000	      0.10417099	      0.04166753	      0.10508662
      5.07000000	      0.10399871	      0.04163306	      0.10512429
      5.07500000	      0.10397539	      0.04162839	      0.10565200
      5.08000000	      0.10397063	      0.04162744	      0.10645282
      5.08500000	      0.10364559	      0.04156232	      0.10470299
      5.09000000	      0.10380854	      0.04159498	      0.10458609
      5.09500000	      0.10341527	      0.04151612	      0.10448988
      5.10000000	      0.10235222	      0.04130218	      0.10431166
      5.10500000	      0.10217382	      0.04126617	      0.10423920
      5.11000000	      0.10217038	      0.04126548	      0.10419738
      5.11500000	      0.10149268	      0.04112839	      0.10425782
      5.12000000	      0.10152856	      0.04113566	      0.10382236
      5.12500000	      0.10152800	      0.04113555	      0.10384035
      5.13000000	      0.10083121	      0.04099415	      0.10399955
      5.13500000	      0.10084324	      0.04099659	      0.10385533
      5.14000000	      0.10052902	      0.04093267	      0.10360307
      5.14500000	      0.10034045	      0.04089426	      0.10356375
      5.15000000	      0.10002099	      0.04082911	      0.10336651
      5.15500000	      0.09966087	      0.04075555	      0.10322899
      5.16000000	      0.09936964	      0.04069595	      0.10296446
      5.16500000	      0.09899696	      0.04061957	      0.10282951
      5.17000000	      0.09851516	      0.04052060	      0.10291883
      5.17500000	      0.09834947	      0.04048651	      0.10252558
      5.18000000	      0.09789866	      0.04039362	      0.10240754
      5.18500000	      0.09769134	      0.04035082	      0.10216081
      5.19000000	      0.09726407	      0.04026249	      0.10197630
      5.19500000	      0.09688031	      0.04018298	      0.10182977
      5.20000000	      0.09655970	      0.04011644	      0.10131319
      5.20500000	      0.09601044	      0.04000217	      0.10161993
      5.21000000	      0.09569770	      0.03993697	      0.10137523
      5.21500000	      0.09534616	      0.03986355	      0.10110349
      5.22000000	      0.09500763	      0.03979272	      0.10095549
      5.22500000	      0.09448853	      0.03968386	      0.10056181
      5.23000000	      0.09399575	      0.03958025	      0.10042513
      5.23500000	      0.09347179	      0.03946977	      0.09992250
      5.24000000	      0.09306282	      0.03938333	      0.09972859
      5.24500000	      0.09248330	      0.03926052	      0.09986560
      5.25000000	      0.09202065	      0.03916219	      0.09919400
      5.25500000	      0.09168948	      0.03909166	      0.09902473
      5.26000000	      0.09124960	      0.03899778	      0.09849143
      5.26500000	      0.09106805	      0.03895896	      0.09836562
      5.27000000	      0.09054770	      0.03884750	      0.09837551
      5.27500000	      0.09009145	      0.03874950	      0.09790128
      5.28000000	      0.08967198	      0.03865919	      0.09785145
      5.28500000	      0.08931451	      0.03858206	      0.09756883
      5.29000000	      0.08904667	      0.03852416	      0.09736140
      5.29500000	      0.08849938	      0.03840560	      0.09712203
      5.30000000	      0.08807418	      0.03831322	      0.09701536
      5.30500000	      0.08768081	      0.03822757	      0.09677963
      5.31000000	      0.08698769	      0.03807617	      0.09655513
      5.31500000	      0.08665143	      0.03800251	      0.09662114
      5.32000000	      0.08625032	      0.03791445	      0.09612059
      5.32500000	      0.08567340	      0.03778743	      0.09590832
      5.33000000	      0.08540372	      0.03772791	      0.09566270
      5.33500000	      0.08474975	      0.03758319	      0.09522842
      5.34000000	      0.08458023	      0.03754558	      0.09479601
      5.34500000	      0.08369390	      0.03734834	      0.09470856
      5.35000000	      0.08350450	      0.03730605	      0.09472985
      5.35500000	      0.08314147	      0.03722487	      0.09461553
      5.36000000	      0.08289417	      0.03716947	      0.09439789
      5.36500000	      0.08241653	      0.03706223	      0.09390379
      5.37000000	      0.08204898	      0.03697949	      0.09399744
      5.37500000	      0.08162089	      0.03688290	      0.09345644
      5.38000000	      0.08128909	      0.03680785	      0.09371667
      5.38500000	      0.08100839	      0.03674425	      0.09346180
      5.39000000	      0.08030748	      0.03658494	      0.09323936
      5.39500000	      0.07972458	      0.03645193	      0.09293065
      5.40000000	      0.07990133	      0.03649231	      0.09292943
      5.40500000	      0.07931003	      0.03635703	      0.09266926
      5.41000000	      0.07890952	      0.03626512	      0.09256064
      5.41500000	      0.07853685	      0.03617938	      0.09261673
      5.42000000	      0.07796157	      0.03604663	      0.09237096
      5.42500000	      0.07770596	      0.03598749	      0.09211655
      5.43000000	      0.07697787	      0.03581849	      0.09186222
      5.43500000	      0.07706894	      0.03583968	      0.09196752
      5.44000000	      0.07644790	      0.03569498	      0.09169352
      5.44500000	      0.07611385	      0.03561691	      0.09172565
      5.45000000	      0.07590285	      0.03556751	      0.09166287
      5.45500000	      0.07468302	      0.03528055	      0.09130247
      5.46000000	      0.07530637	      0.03542748	      0.09182102
      5.46500000	      0.07485433	      0.03532099	      0.09184474
      5.47000000	      0.07544338	      0.03545969	      0.09185951
      5.47500000	      0.07474341	      0.03529481	      0.09154769
      5.48000000	      0.07420021	      0.03516632	      0.09150182
      5.48500000	      0.07383389	      0.03507941	      0.09144886
      5.49000000	      0.07453871	      0.03524644	      0.09190931
      5.49500000	      0.07276584	      0.03482476	      0.09137402
      5.50000000	      0.07331880	      0.03495683	      0.09156283
      5.50500000	      0.07225724	      0.03470284	      0.09134452
      5.51000000	      0.07256033	      0.03477555	      0.09113672
      5.51500000	      0.07195472	      0.03463012	      0.09067694
      5.52000000	      0.07205885	      0.03465517	      0.09125868
      5.52500000	      0.07147515	      0.03451453	      0.09114177
      5.53000000	      0.07155371	      0.03453349	      0.09152129
      5.53500000	      0.07157331	      0.03453822	      0.09160469
      5.54000000	      0.07086951	      0.03436799	      0.09102264
      5.54500000	      0.07046150	      0.03426891	      0.09120992
      5.55000000	      0.06986897	      0.03412452	      0.09090271
      5.55500000	      0.07032612	      0.03423597	      0.09119731
      5.56000000	      0.06963189	      0.03406658	      0.09105964
      5.56500000	      0.06947178	      0.03402739	      0.09107591
      5.57000000	      0.06960627	      0.03406031	      0.09119713
      5.57500000	      0.06887055	      0.03387982	      0.09101349
      5.58000000	      0.06856258	      0.03380399	      0.09098199
      5.58500000	      0.06847217	      0.03378169	      0.09071177
      5.59000000	      0.06802989	      0.03367242	      0.09071510
      5.59500000	      0.06802263	      0.03367062	      0.09067822
      5.60000000	      0.06741051	      0.03351878	      0.09033166
      5.60500000	      0.06799993	      0.03366500	      0.09105100
      5.61000000	      0.06749338	      0.03353937	      0.09057868
      5.61500000	      0.06734746	      0.03350310	      0.09086980
      5.62000000	      0.06724283	      0.03347706	      0.09062050
      5.62500000	      0.06698223	      0.03341213	      0.09050679
      5.63000000	      0.06699030	      0.03341414	      0.09073713
      5.63500000	      0.06691349	      0.03339498	      0.09075082
      5.64000000	      0.06692418	      0.03339765	      0.09115962
      5.64500000	      0.06674897	      0.03335390	      0.09070155
      5.65000000	      0.06657490	      0.03331038	      0.09077007
      5.65500000	      0.06659034	      0.03331425	      0.09123377
      5.66000000	      0.06632438	      0.03324765	      0.09078706
      5.66500000	      0.06607899	      0.03318609	      0.09088629
      5.67000000	      0.06617337	      0.03320978	      0.09097996
      5.67500000	      0.06601377	      0.03316971	      0.09098004
      5.68000000	      0.06641545	      0.03327047	      0.09120249
      5.68500000	      0.06557365	      0.03305895	      0.09062723
      5.69000000	      0.06594001	      0.03315117	      0.09121303
      5.69500000	      0.06546672	      0.03303199	      0.09079330
      5.70000000	      0.06529841	      0.03298950	      0.09058300
      5.70500000	      0.06527215	      0.03298286	      0.09076337
      5.71000000	      0.06557302	      0.03305879	      0.09064944
      5.71500000	      0.06482322	      0.03286924	      0.09014890
      5.72000000	      0.06437434	      0.03275524	      0.08996660
      5.72500000	      0.06456588	      0.03280393	      0.09003394
      5.73000000	      0.06388770	      0.03263120	      0.08961176
      5.73500000	      0.06365694	      0.03257221	      0.08945040
      5.74000000	      0.06343400	      0.03251513	      0.08952425
      5.74500000	      0.06320533	      0.03245647	      0.08936006
      5.75000000	      0.06274255	      0.03233743	      0.08935019
      5.75500000	      0.06251384	      0.03227843	      0.08902456
      5.76000000	      0.06218717	      0.03219399	      0.08895512
      5.76500000	      0.06169451	      0.03206621	      0.08838559
      5.77000000	      0.06134351	      0.03197486	      0.08828897
      5.77500000	      0.06126372	      0.03195406	      0.08806187
      5.78000000	      0.06104036	      0.03189576	      0.08806560
      5.78500000	      0.06058734	      0.03177718	      0.08783142
      5.79000000	      0.06031008	      0.03170439	      0.08777298
      5.79500000	      0.06024415	      0.03168705	      0.08757750
      5.80000000	      0.05996167	      0.03161267	      0.08786342
      5.80500000	      0.05951535	      0.03149480	      0.08711520
      5.81000000	      0.05931540	      0.03144185	      0.08703307
      5.81500000	      0.05907141	      0.03137712	      0.08721827
      5.82000000	      0.05882850	      0.03131254	      0.08706758
      5.82500000	      0.05823125	      0.03115318	      0.08633616
      5.83000000	      0.05845549	      0.03121311	      0.08678215
      5.83500000	      0.05821639	      0.03114921	      0.08655969
      5.84000000	      0.05816538	      0.03113556	      0.08678248
      5.84500000	      0.05790325	      0.03106532	      0.08659755
      5.85000000	      0.05784529	      0.03104977	      0.08643290
      5.85500000	      0.05784203	      0.03104889	      0.08640419
      5.86000000	      0.05746242	      0.03094684	      0.08629634
      5.86500000	      0.05757678	      0.03097762	      0.08660218
      5.87000000	      0.05720991	      0.03087877	      0.08643318
      5.87500000	      0.05730756	      0.03090511	      0.08653105
      5.88000000	      0.05739568	      0.03092886	      0.08627613
      5.88500000	      0.05722392	      0.03088255	      0.08629154
      5.89000000	      0.05729252	      0.03090106	      0.08612841
      5.89500000	      0.05736005	      0.03091926	      0.08633977
      5.90000000	      0.05735147	      0.03091695	      0.08625251
      5.90500000	      0.05763292	      0.03099272	      0.08629566
      5.91000000	      0.05762666	      0.03099104	      0.08625270
      5.91500000	      0.05771425	      0.03101458	      0.08625606
      5.92000000	      0.05765468	      0.03099857	      0.08626627
      5.92500000	      0.05756015	      0.03097315	      0.08623675
      5.93000000	      0.05794647	      0.03107691	      0.08624958
      5.93500000	      0.05752746	      0.03096435	      0.08601412
      5.94000000	      0.05785017	      0.03105108	      0.08664880
      5.94500000	      0.05787629	      0.03105809	      0.08637225
      5.95000000	      0.05794537	      0.03107662	      0.08636960
      5.95500000	      0.05804152	      0.03110239	      0.08636690
      5.96000000	      0.05813974	      0.03112869	      0.08629833
      5.96500000	      0.05822618	      0.03115183	      0.08647269
      5.97000000	      0.05833455	      0.03118080	      0.08666832
      5.97500000	      0.05811485	      0.03112203	      0.08622160
      5.98000000	      0.05817941	      0.03113931	      0.08615483
      5.98500000	      0.05815469	      0.03113270	      0.08634183
      5.99000000	      0.05800782	      0.03109336	      0.08610983
      5.99500000	      0.05790684	      0.03106629	      0.08600998
      6.00000000	      0.05779133	      0.03103528	      0.08603962
