_ik_marker_errors_all.sto
version=1
nRows=118
nColumns=61
in_degrees=yes
endheader
time	FHD	LBHD	RBHD	C7	T10	CLAV	LSHO	LUUPA	LMUPA	LDUPA	LLEP	LMEP	LRAD	LUL	LRFIN	RSHO	RUPA1	RMUPA	RDUPA	RLEP	RMEP	RRAD	RUL	RUFIN	RASI	USACR	LSACR	RSACR	LTHI1	LTHI2	LTHI3	LTHI4	LLFC	LMFC	LTIB1	LTIB2	LTIB3	LTIB4	LLMAL	LMMAL	LMT1	LMT2	LMT5	RTHI	RTHI2	RTHI3	RTHI4	RLFC	RMFC	RTIB1	RTIB2	RTIB3	RTIB4	RLMAL	RMMAL	RHEE	RMT1	RMT2	RMT5	LASI
4.675000	0.108250	0.049660	0.044876	0.024885	0.026946	0.076837	0.034317	0.056682	0.047139	0.040439	0.025314	0.034289	0.045802	0.056484	0.053790	0.045685	0.061618	0.048042	0.048150	0.027272	0.030767	0.032369	0.055685	0.042775	0.020673	0.009491	0.014892	0.016961	0.028151	0.022684	0.024051	0.022064	0.046011	0.007287	0.007031	0.015547	0.014065	0.004564	0.013052	0.016872	0.017881	0.012396	0.020650	0.021515	0.020397	0.022732	0.022049	0.030547	0.015020	0.026118	0.021914	0.019159	0.011001	0.008181	0.015116	0.009973	0.018558	0.013803	0.026259	0.023113
4.680000	0.109582	0.050850	0.046459	0.025108	0.026807	0.076925	0.034676	0.056980	0.047410	0.040769	0.025389	0.034243	0.045503	0.056217	0.053809	0.046308	0.061469	0.047940	0.048271	0.027336	0.030758	0.034523	0.054790	0.042176	0.022317	0.009403	0.014753	0.016245	0.029112	0.023329	0.024770	0.022773	0.045754	0.007287	0.007314	0.015841	0.014080	0.004525	0.013223	0.017101	0.018086	0.012582	0.020551	0.022013	0.020618	0.023243	0.022469	0.031343	0.014576	0.026666	0.022207	0.019441	0.011317	0.008197	0.014937	0.010220	0.018127	0.013893	0.026385	0.020557
4.685000	0.110159	0.052507	0.047725	0.025349	0.026547	0.076767	0.035276	0.057337	0.047369	0.041272	0.025111	0.034251	0.045505	0.055620	0.054195	0.046191	0.061413	0.047613	0.048108	0.026879	0.030297	0.031805	0.055706	0.042417	0.021852	0.009576	0.014724	0.015858	0.029271	0.023377	0.024994	0.022790	0.046160	0.007267	0.007213	0.016096	0.011356	0.004253	0.013236	0.016998	0.018167	0.012529	0.020496	0.022314	0.020785	0.023226	0.021981	0.030987	0.015230	0.026540	0.022245	0.019405	0.011249	0.008196	0.014915	0.010188	0.018352	0.014006	0.026223	0.019860
4.690000	0.110804	0.054248	0.049535	0.024944	0.026250	0.076585	0.035511	0.057335	0.047140	0.041311	0.024610	0.033921	0.045047	0.055630	0.054312	0.046516	0.061044	0.047127	0.047851	0.026707	0.029725	0.033494	0.054621	0.042489	0.016872	0.010218	0.014548	0.016808	0.029114	0.023424	0.024900	0.022705	0.045961	0.007431	0.007211	0.016192	0.010155	0.004309	0.013063	0.016853	0.018070	0.012705	0.020606	0.021634	0.019896	0.022044	0.021162	0.031031	0.015866	0.025707	0.021781	0.018878	0.011318	0.008098	0.014936	0.009917	0.018499	0.014020	0.026291	0.023598
4.695000	0.111866	0.055909	0.051840	0.024991	0.026836	0.076659	0.035741	0.057318	0.047225	0.041341	0.024105	0.033757	0.044918	0.055632	0.053889	0.046986	0.061102	0.046584	0.047874	0.026127	0.029839	0.033072	0.054432	0.042481	0.022015	0.008949	0.014346	0.016421	0.028999	0.022522	0.023323	0.022364	0.045879	0.009113	0.005864	0.016324	0.009657	0.004317	0.013393	0.017332	0.018486	0.013256	0.020735	0.020177	0.018389	0.020537	0.020039	0.030965	0.016302	0.025376	0.021323	0.018736	0.011235	0.008122	0.014825	0.010012	0.018450	0.014193	0.026277	0.022954
4.700000	0.112934	0.056418	0.051626	0.025220	0.026466	0.076870	0.035820	0.057859	0.048885	0.041905	0.023597	0.033827	0.044891	0.055392	0.054037	0.047709	0.061238	0.046664	0.048213	0.026277	0.029956	0.032309	0.054288	0.042390	0.021895	0.009627	0.014444	0.016009	0.031046	0.024579	0.025623	0.024082	0.045633	0.007490	0.007134	0.016596	0.010508	0.004212	0.013152	0.017146	0.018291	0.012827	0.020709	0.021661	0.020269	0.022639	0.021233	0.031119	0.014497	0.026841	0.022222	0.019743	0.011843	0.008313	0.014831	0.010543	0.018009	0.013989	0.026512	0.019735
4.705000	0.113909	0.058179	0.053094	0.025502	0.025923	0.076481	0.036650	0.057651	0.047983	0.041970	0.023333	0.033858	0.044399	0.055369	0.054053	0.047983	0.060965	0.046032	0.048027	0.025738	0.029441	0.032311	0.054260	0.042891	0.017971	0.009851	0.014174	0.016294	0.030578	0.024282	0.025403	0.023569	0.045647	0.007654	0.006992	0.016444	0.010379	0.004282	0.013075	0.016950	0.018183	0.012773	0.020659	0.022171	0.020389	0.022732	0.021046	0.030971	0.014673	0.026801	0.022186	0.019939	0.012363	0.008330	0.015004	0.010304	0.018207	0.013969	0.026495	0.022779
4.710000	0.114848	0.059715	0.055017	0.025904	0.026355	0.076237	0.036390	0.057777	0.048010	0.041952	0.023145	0.033512	0.044382	0.054824	0.054316	0.048189	0.060658	0.045354	0.047732	0.024955	0.028493	0.031815	0.053987	0.042729	0.020149	0.009661	0.014229	0.016098	0.030705	0.024139	0.024689	0.023677	0.045989	0.008411	0.006329	0.016412	0.009684	0.004581	0.013186	0.017263	0.018731	0.013193	0.020343	0.021334	0.019527	0.021604	0.020296	0.030099	0.014980	0.026550	0.022088	0.019674	0.012293	0.008407	0.014723	0.010363	0.018159	0.014095	0.026577	0.021152
4.715000	0.115353	0.060746	0.056288	0.026119	0.026161	0.076374	0.036947	0.057958	0.047900	0.042239	0.022357	0.033246	0.043591	0.055076	0.054065	0.048729	0.060546	0.044884	0.047680	0.024488	0.028461	0.030061	0.054326	0.043947	0.020080	0.010004	0.014496	0.016226	0.030433	0.023935	0.024899	0.023508	0.045701	0.008501	0.006162	0.016727	0.009943	0.004491	0.013132	0.017008	0.018223	0.013025	0.020780	0.021532	0.019648	0.021988	0.020267	0.030402	0.015650	0.026730	0.022264	0.019817	0.012291	0.008316	0.014598	0.010561	0.017780	0.014010	0.026775	0.020839
4.720000	0.116464	0.061997	0.057084	0.026152	0.026047	0.076581	0.037765	0.058048	0.047637	0.042444	0.021839	0.033105	0.043047	0.054868	0.053823	0.049030	0.060284	0.044853	0.047668	0.023854	0.028267	0.027559	0.055417	0.043941	0.015557	0.010082	0.013878	0.016144	0.030403	0.024155	0.024832	0.023283	0.045481	0.008308	0.006081	0.016874	0.010430	0.004219	0.013231	0.016890	0.018097	0.012917	0.020854	0.021550	0.019693	0.021838	0.020410	0.030260	0.015462	0.026763	0.022063	0.019756	0.012431	0.008414	0.014640	0.010588	0.017761	0.013940	0.026754	0.024449
4.725000	0.116712	0.063529	0.058575	0.026336	0.026542	0.076759	0.038307	0.058045	0.047126	0.042516	0.020843	0.032837	0.042668	0.054575	0.054056	0.049781	0.059978	0.043930	0.047246	0.023172	0.027765	0.026078	0.055989	0.043705	0.022288	0.009865	0.014583	0.016289	0.030340	0.023376	0.023325	0.023180	0.045389	0.009761	0.005202	0.016501	0.009905	0.004556	0.013499	0.017358	0.018465	0.013150	0.021105	0.019986	0.018285	0.020377	0.019071	0.029968	0.015344	0.026145	0.021630	0.019627	0.012598	0.008486	0.014454	0.010671	0.017466	0.013957	0.026865	0.020069
4.730000	0.118031	0.063830	0.058358	0.026245	0.026152	0.077405	0.039336	0.058718	0.047834	0.043348	0.020476	0.032668	0.041770	0.054488	0.053934	0.050283	0.059997	0.043855	0.047159	0.023017	0.028620	0.025385	0.055841	0.044085	0.019880	0.010321	0.014110	0.015344	0.030873	0.024465	0.024995	0.023714	0.045269	0.007925	0.006636	0.017056	0.010043	0.003984	0.013187	0.016733	0.018320	0.012829	0.020881	0.021435	0.019975	0.022457	0.020554	0.030150	0.014389	0.027164	0.022446	0.020444	0.013120	0.008690	0.014478	0.010925	0.017341	0.013821	0.027000	0.020229
4.735000	0.118619	0.066272	0.059550	0.027429	0.026790	0.077337	0.037192	0.058250	0.046071	0.042396	0.020440	0.031679	0.042518	0.054607	0.053342	0.053325	0.059535	0.042124	0.046972	0.021808	0.028642	0.024730	0.055391	0.044036	0.018628	0.010425	0.014380	0.016791	0.029395	0.022998	0.024286	0.022509	0.045510	0.009712	0.005399	0.015916	0.009701	0.004396	0.013186	0.016759	0.017791	0.012710	0.021271	0.020262	0.018557	0.020496	0.019068	0.029891	0.016099	0.026226	0.021889	0.019633	0.012874	0.008523	0.014274	0.010469	0.017556	0.014029	0.026991	0.022488
4.740000	0.120249	0.067198	0.059855	0.027266	0.026701	0.077832	0.037924	0.058515	0.046457	0.043009	0.019942	0.031691	0.041459	0.054215	0.052817	0.053680	0.059491	0.042076	0.047131	0.022114	0.028762	0.023786	0.055588	0.044329	0.020056	0.010401	0.014317	0.015780	0.029882	0.023984	0.024981	0.023446	0.044937	0.008495	0.006214	0.016370	0.009848	0.004410	0.012668	0.016623	0.017829	0.012630	0.021038	0.021002	0.019924	0.022103	0.020291	0.029545	0.014974	0.027321	0.022324	0.020131	0.013042	0.008608	0.014075	0.011168	0.017141	0.013974	0.027117	0.020104
4.745000	0.120919	0.068129	0.060716	0.027406	0.027177	0.078200	0.038620	0.059049	0.046748	0.043202	0.019426	0.031399	0.040532	0.054093	0.053282	0.054343	0.059283	0.041936	0.046972	0.021712	0.028290	0.023269	0.055612	0.045014	0.017679	0.011108	0.014585	0.016721	0.029556	0.023806	0.024993	0.023185	0.045237	0.008956	0.006178	0.016425	0.009860	0.003705	0.012643	0.016416	0.017880	0.012457	0.021110	0.020917	0.019706	0.021810	0.019844	0.029831	0.015450	0.026914	0.022201	0.020132	0.013072	0.008350	0.014833	0.010986	0.017335	0.014095	0.027102	0.022088
4.750000	0.121943	0.068977	0.061284	0.027524	0.028193	0.079226	0.039547	0.059644	0.047215	0.044037	0.019250	0.031715	0.040076	0.053652	0.052619	0.055258	0.059222	0.041488	0.047050	0.021685	0.028111	0.022683	0.055671	0.045001	0.018914	0.010815	0.014300	0.016094	0.029509	0.023819	0.024282	0.023429	0.044836	0.008949	0.006009	0.016431	0.010455	0.003770	0.012596	0.016451	0.017636	0.012418	0.021212	0.020856	0.019895	0.022035	0.019843	0.029471	0.015408	0.027160	0.022373	0.020614	0.013227	0.008338	0.014645	0.011327	0.017079	0.014142	0.027140	0.021002
4.755000	0.122871	0.070573	0.062066	0.027735	0.028496	0.079571	0.039029	0.059823	0.046981	0.044480	0.019005	0.031609	0.039477	0.053389	0.052614	0.055536	0.058920	0.041482	0.046936	0.021501	0.028110	0.022434	0.055392	0.044971	0.017079	0.010995	0.014118	0.016280	0.029338	0.023998	0.024280	0.023527	0.045020	0.009084	0.006161	0.016642	0.010775	0.003899	0.012543	0.016551	0.017643	0.012412	0.021146	0.020757	0.019919	0.022161	0.019544	0.029256	0.015424	0.027247	0.022366	0.020458	0.013392	0.008384	0.014093	0.011304	0.016972	0.014176	0.027177	0.022491
4.760000	0.123403	0.071398	0.062829	0.027939	0.028249	0.079743	0.040089	0.059860	0.047343	0.044695	0.019078	0.031750	0.039271	0.052852	0.052731	0.055883	0.058921	0.041008	0.046999	0.021226	0.028017	0.022026	0.055408	0.045580	0.018738	0.011464	0.014383	0.016202	0.029015	0.023734	0.023959	0.023616	0.045054	0.010060	0.005936	0.016607	0.010582	0.003893	0.012942	0.016694	0.017780	0.012523	0.021350	0.020359	0.019620	0.021935	0.019570	0.029282	0.015546	0.027111	0.022035	0.020202	0.013495	0.008452	0.013867	0.011405	0.016719	0.014216	0.027427	0.020772
4.765000	0.123748	0.072953	0.064236	0.028808	0.029127	0.080299	0.040281	0.060313	0.047182	0.044832	0.018521	0.031902	0.038841	0.052767	0.052827	0.056761	0.058875	0.040965	0.047128	0.020939	0.028084	0.021683	0.055394	0.046245	0.018522	0.011218	0.014480	0.016550	0.028465	0.023025	0.022889	0.023128	0.045015	0.010491	0.005333	0.016431	0.009774	0.004021	0.013180	0.016847	0.017785	0.012436	0.021360	0.019262	0.018871	0.020872	0.018639	0.029100	0.016012	0.026499	0.021699	0.019957	0.013319	0.008434	0.013900	0.011303	0.016809	0.014323	0.027346	0.021369
4.770000	0.125033	0.073714	0.064972	0.028886	0.029485	0.081110	0.040487	0.060421	0.047767	0.045243	0.019404	0.032725	0.039068	0.052354	0.051587	0.057040	0.058966	0.041415	0.047114	0.021737	0.029030	0.021580	0.055514	0.045754	0.018750	0.012360	0.014470	0.016321	0.028913	0.023990	0.023828	0.023927	0.045007	0.009378	0.006283	0.016770	0.010073	0.003808	0.012935	0.016408	0.017689	0.012554	0.021155	0.020287	0.019723	0.022064	0.019415	0.029192	0.015332	0.027023	0.021880	0.020302	0.013388	0.008701	0.014052	0.011766	0.016496	0.014324	0.027299	0.021546
4.775000	0.123629	0.076249	0.065421	0.031816	0.031191	0.081941	0.037418	0.059760	0.046706	0.043536	0.017844	0.030445	0.038877	0.052643	0.055302	0.063762	0.058973	0.039963	0.048059	0.020663	0.030596	0.019532	0.055340	0.045303	0.019847	0.011811	0.014698	0.016052	0.026850	0.022260	0.022089	0.022965	0.045289	0.011311	0.005008	0.016150	0.009409	0.004352	0.013024	0.016723	0.017556	0.012427	0.021543	0.018372	0.017923	0.019928	0.017770	0.028920	0.016325	0.025638	0.021249	0.019664	0.012866	0.008470	0.013889	0.011119	0.016279	0.014210	0.027445	0.019694
4.780000	0.124200	0.077097	0.065985	0.032038	0.031671	0.082575	0.037712	0.060061	0.046891	0.043950	0.017811	0.030633	0.039448	0.052015	0.054920	0.064309	0.059133	0.040248	0.048512	0.021135	0.031037	0.019214	0.054882	0.045876	0.016406	0.011678	0.014400	0.016454	0.026246	0.021994	0.021491	0.022782	0.045235	0.010866	0.005224	0.015689	0.009733	0.004045	0.012939	0.016481	0.017437	0.012404	0.021369	0.018770	0.018402	0.020377	0.018366	0.028605	0.016315	0.025789	0.021214	0.019633	0.012820	0.008439	0.014309	0.011038	0.016668	0.014327	0.027406	0.022810
4.785000	0.124409	0.077568	0.066234	0.032478	0.031248	0.083166	0.037976	0.060523	0.047820	0.044331	0.018184	0.030891	0.039416	0.051772	0.054816	0.064780	0.059319	0.040902	0.048875	0.021736	0.031508	0.018848	0.054411	0.046249	0.018886	0.012307	0.014965	0.016610	0.027372	0.022997	0.022374	0.023919	0.044752	0.010400	0.005202	0.016003	0.010021	0.004026	0.013038	0.016789	0.017698	0.010775	0.021503	0.018923	0.018530	0.020761	0.018448	0.028439	0.015646	0.026091	0.021280	0.019640	0.013467	0.008509	0.014025	0.011617	0.016169	0.014379	0.027573	0.020358
4.790000	0.125143	0.078202	0.066870	0.032686	0.032206	0.084128	0.038453	0.060838	0.048044	0.045092	0.017956	0.030878	0.039039	0.051359	0.055262	0.065533	0.060002	0.042097	0.049731	0.021730	0.032439	0.018401	0.054431	0.046141	0.018336	0.012479	0.014796	0.016643	0.026791	0.022921	0.022627	0.023832	0.044677	0.010591	0.005425	0.016388	0.010152	0.003767	0.012966	0.016149	0.017637	0.013477	0.021242	0.019259	0.018978	0.021140	0.018475	0.028358	0.015841	0.026004	0.021483	0.019674	0.013388	0.008224	0.013512	0.011664	0.016139	0.014389	0.027695	0.020899
4.795000	0.124614	0.078679	0.067357	0.033373	0.032647	0.084987	0.039030	0.061314	0.048323	0.045739	0.017644	0.031130	0.039174	0.050899	0.055117	0.066532	0.060453	0.042559	0.050566	0.021882	0.033401	0.018128	0.053993	0.046359	0.018700	0.012598	0.015204	0.016992	0.026369	0.022756	0.021894	0.023992	0.044658	0.010477	0.005269	0.015510	0.010039	0.004294	0.013121	0.016569	0.017480	0.010996	0.021926	0.018807	0.018726	0.020675	0.018367	0.027941	0.015949	0.025755	0.021174	0.019540	0.013403	0.008491	0.013427	0.011570	0.016113	0.014303	0.027644	0.020431
4.800000	0.125348	0.079678	0.067461	0.033331	0.032447	0.086028	0.039653	0.061731	0.048854	0.046333	0.017674	0.031663	0.039444	0.051168	0.054819	0.066997	0.061395	0.043399	0.051636	0.022778	0.034271	0.017508	0.053518	0.046105	0.016829	0.013048	0.015199	0.017295	0.026791	0.023523	0.023092	0.024483	0.044462	0.009778	0.005860	0.015694	0.010301	0.004148	0.012905	0.016318	0.017698	0.012908	0.021209	0.019163	0.019001	0.021222	0.018491	0.027721	0.015912	0.025976	0.021157	0.019721	0.013566	0.008443	0.013369	0.012047	0.016117	0.014450	0.027612	0.022183
4.805000	0.125101	0.080071	0.067457	0.033805	0.032966	0.087176	0.040249	0.062126	0.049634	0.047027	0.018176	0.031962	0.039707	0.050195	0.055804	0.067862	0.061861	0.044255	0.052747	0.023059	0.035148	0.017872	0.052807	0.047078	0.018326	0.013241	0.015269	0.017130	0.026523	0.023209	0.022473	0.024283	0.044427	0.010253	0.006033	0.015786	0.009930	0.004213	0.013150	0.016400	0.017746	0.012102	0.021524	0.018496	0.018369	0.020790	0.017924	0.027554	0.015834	0.025766	0.020917	0.019774	0.013614	0.008456	0.013301	0.012172	0.016029	0.014543	0.027734	0.021117
4.810000	0.124590	0.081730	0.066582	0.035634	0.034439	0.088343	0.038508	0.061873	0.049694	0.046166	0.017660	0.030780	0.039374	0.050634	0.056160	0.072725	0.062176	0.044169	0.053472	0.022898	0.037412	0.016811	0.052372	0.046439	0.017978	0.013111	0.015318	0.017266	0.025576	0.022454	0.021573	0.024156	0.044424	0.010846	0.005753	0.015182	0.009681	0.004181	0.013140	0.016610	0.017558	0.012462	0.021888	0.018111	0.018256	0.020287	0.017670	0.027267	0.015957	0.025406	0.020856	0.019154	0.013461	0.008744	0.013451	0.012213	0.016057	0.014437	0.027837	0.021020
4.815000	0.125068	0.082148	0.066268	0.035558	0.034659	0.089443	0.038899	0.062714	0.049601	0.047306	0.018122	0.031206	0.039802	0.050077	0.056126	0.073028	0.062829	0.045535	0.054605	0.023449	0.038185	0.016980	0.051955	0.047207	0.014691	0.013426	0.015284	0.017963	0.025791	0.022710	0.021950	0.024458	0.044358	0.010410	0.006084	0.015230	0.009217	0.004147	0.013167	0.016755	0.018106	0.012482	0.021610	0.018154	0.018206	0.020430	0.017701	0.027108	0.015831	0.025446	0.020997	0.019451	0.014185	0.008726	0.013316	0.012247	0.015753	0.014585	0.027961	0.024025
4.820000	0.125112	0.082080	0.065396	0.035568	0.034410	0.090538	0.040340	0.063521	0.051074	0.048520	0.019013	0.032278	0.038826	0.050325	0.056252	0.073374	0.063905	0.047517	0.056138	0.024371	0.039438	0.016741	0.052110	0.046972	0.019662	0.013542	0.015781	0.017688	0.026422	0.023262	0.021387	0.025130	0.044072	0.010478	0.006201	0.015796	0.009281	0.003867	0.013238	0.016831	0.018288	0.011014	0.021859	0.017900	0.018021	0.020280	0.017495	0.026662	0.015967	0.025702	0.020904	0.019581	0.014521	0.009160	0.013530	0.013330	0.015480	0.014571	0.028049	0.019598
4.825000	0.125505	0.082122	0.064715	0.035450	0.035129	0.091630	0.040996	0.064658	0.052545	0.049849	0.019757	0.033301	0.038756	0.050260	0.056577	0.074122	0.064896	0.049131	0.057400	0.025106	0.040462	0.017579	0.052073	0.047159	0.017783	0.013907	0.015689	0.017876	0.025683	0.023169	0.021594	0.025014	0.044313	0.010145	0.006839	0.015984	0.009842	0.003434	0.012893	0.016136	0.018146	0.011614	0.021783	0.018030	0.018147	0.020304	0.017551	0.026392	0.015751	0.025565	0.020854	0.019439	0.014579	0.008983	0.013410	0.012969	0.015347	0.014552	0.028207	0.021462
4.830000	0.125633	0.082089	0.064235	0.035472	0.034724	0.092202	0.041899	0.065823	0.054079	0.051184	0.020242	0.034158	0.038456	0.050324	0.056862	0.074258	0.065637	0.050404	0.058448	0.026324	0.041188	0.017581	0.052499	0.047485	0.017589	0.013626	0.015895	0.018265	0.025413	0.022247	0.021215	0.024935	0.044331	0.010609	0.006659	0.015537	0.009176	0.003649	0.013079	0.016464	0.018573	0.011514	0.021140	0.017507	0.017597	0.019678	0.016977	0.026180	0.016409	0.025273	0.020722	0.019366	0.014802	0.008982	0.012986	0.013298	0.015402	0.014726	0.028156	0.021288
4.835000	0.125803	0.081050	0.062726	0.035076	0.034708	0.093235	0.043207	0.067381	0.056466	0.052935	0.021686	0.035980	0.037452	0.051024	0.056914	0.074830	0.066538	0.051793	0.059056	0.027770	0.042952	0.018546	0.052533	0.047319	0.015760	0.014502	0.015690	0.018702	0.025802	0.022785	0.022134	0.025548	0.044390	0.009792	0.007723	0.015891	0.010057	0.003078	0.013022	0.015620	0.017854	0.011278	0.021806	0.018657	0.018975	0.021509	0.018189	0.025719	0.016523	0.025768	0.020950	0.019666	0.015287	0.009437	0.013177	0.013270	0.015603	0.014395	0.028533	0.024149
4.840000	0.125558	0.080597	0.062058	0.034722	0.034648	0.093714	0.044235	0.068466	0.058180	0.053992	0.022360	0.036292	0.037736	0.051106	0.057412	0.075665	0.067454	0.052900	0.060017	0.028646	0.043818	0.018591	0.052984	0.047392	0.018062	0.013937	0.015979	0.018524	0.025603	0.022567	0.020827	0.025697	0.043963	0.010487	0.007355	0.015699	0.009668	0.003764	0.013150	0.016541	0.018848	0.011678	0.021457	0.016630	0.016873	0.019393	0.016363	0.025574	0.016700	0.025097	0.020270	0.019453	0.014694	0.009208	0.012718	0.013268	0.015370	0.014808	0.028417	0.020862
4.845000	0.124587	0.081907	0.059307	0.038415	0.036546	0.095919	0.043464	0.067760	0.058299	0.050836	0.021168	0.032291	0.038380	0.052152	0.058937	0.085320	0.066070	0.051058	0.060365	0.028803	0.048296	0.017627	0.052780	0.046765	0.017344	0.014479	0.015914	0.018425	0.025412	0.023123	0.021853	0.025875	0.043559	0.009981	0.008050	0.015844	0.010268	0.003794	0.012824	0.015908	0.018151	0.011382	0.021939	0.017872	0.018641	0.020672	0.017187	0.025144	0.016356	0.025572	0.020805	0.019772	0.015159	0.009323	0.012731	0.013557	0.015605	0.014627	0.028562	0.021934
4.850000	0.123922	0.081124	0.058188	0.037996	0.036274	0.096091	0.045023	0.069057	0.060314	0.051983	0.021842	0.032635	0.038225	0.052864	0.059716	0.085689	0.066653	0.052437	0.061470	0.029837	0.049640	0.017798	0.053562	0.046342	0.016705	0.014675	0.016255	0.019065	0.024764	0.022710	0.020834	0.025865	0.043586	0.010218	0.008310	0.015480	0.010615	0.003950	0.013078	0.016063	0.018307	0.010817	0.021780	0.017260	0.017873	0.020203	0.016733	0.025018	0.017093	0.025127	0.020802	0.019566	0.014993	0.009212	0.012861	0.013367	0.015847	0.014565	0.028729	0.022103
4.855000	0.123365	0.079313	0.055862	0.037698	0.036042	0.096521	0.047388	0.071050	0.062643	0.053780	0.022850	0.033425	0.037878	0.053505	0.060159	0.086132	0.067610	0.054177	0.062561	0.031442	0.051811	0.017692	0.054554	0.046220	0.018308	0.014860	0.016159	0.019051	0.025459	0.023865	0.022230	0.026732	0.043370	0.009912	0.008669	0.015858	0.010961	0.003833	0.013034	0.015913	0.018821	0.011882	0.021463	0.017601	0.018295	0.020888	0.017070	0.024652	0.017027	0.025776	0.020965	0.019741	0.015416	0.009229	0.012002	0.013455	0.015728	0.014679	0.029150	0.021071
4.860000	0.122170	0.079485	0.054148	0.039983	0.037152	0.097998	0.049507	0.070257	0.062806	0.051387	0.021881	0.030988	0.038173	0.054100	0.061664	0.091614	0.066653	0.053639	0.062789	0.032147	0.055035	0.017299	0.054394	0.045583	0.018131	0.015076	0.016132	0.018971	0.024991	0.023647	0.021779	0.026414	0.043307	0.009990	0.009282	0.015787	0.010670	0.003693	0.012917	0.015360	0.018368	0.011500	0.021926	0.018004	0.018468	0.020945	0.017185	0.024403	0.015303	0.025599	0.020835	0.019685	0.015196	0.009440	0.012276	0.013346	0.016227	0.014534	0.029393	0.021534
4.865000	0.121627	0.078130	0.051697	0.039785	0.036935	0.098408	0.052247	0.071567	0.064612	0.052449	0.023298	0.031587	0.038306	0.055456	0.062160	0.091831	0.067510	0.055228	0.064055	0.033190	0.056816	0.017309	0.054725	0.045421	0.020470	0.014961	0.015909	0.018913	0.024802	0.023196	0.021665	0.026287	0.043227	0.010159	0.009616	0.015535	0.010707	0.003061	0.013581	0.015227	0.018320	0.011738	0.022211	0.018114	0.018913	0.021394	0.017475	0.024166	0.016583	0.025685	0.021219	0.020020	0.015188	0.009251	0.012308	0.013218	0.016690	0.014414	0.029548	0.020252
4.870000	0.120140	0.077382	0.049582	0.041009	0.037546	0.098702	0.055393	0.072051	0.065224	0.051707	0.023219	0.030722	0.038559	0.055787	0.062862	0.094346	0.067554	0.055601	0.064528	0.033913	0.058882	0.017079	0.054835	0.044580	0.017710	0.015223	0.015694	0.019051	0.023853	0.023026	0.021009	0.025738	0.042835	0.010078	0.010049	0.015348	0.010261	0.003449	0.013665	0.015115	0.018224	0.011189	0.022519	0.018374	0.019220	0.021584	0.017797	0.024055	0.016787	0.025638	0.021320	0.019997	0.015108	0.009136	0.012240	0.013134	0.016702	0.014298	0.029762	0.022623
4.875000	0.119099	0.076239	0.047293	0.041214	0.036324	0.098743	0.058827	0.073052	0.066979	0.052146	0.023940	0.031401	0.038114	0.056222	0.063555	0.094129	0.068743	0.057396	0.065798	0.035208	0.060658	0.017107	0.054883	0.044096	0.017622	0.015439	0.015926	0.018399	0.024588	0.023615	0.021900	0.026311	0.042686	0.010514	0.010375	0.015332	0.010828	0.002966	0.013777	0.014947	0.018684	0.011346	0.022720	0.018038	0.018902	0.021393	0.017843	0.023820	0.016490	0.026002	0.021458	0.020109	0.015486	0.009563	0.012028	0.013618	0.016799	0.012618	0.029993	0.019860
4.880000	0.117586	0.075356	0.044649	0.041440	0.036664	0.098101	0.062133	0.073756	0.068202	0.052303	0.024376	0.031883	0.037812	0.056890	0.063277	0.094352	0.069684	0.058900	0.066932	0.036200	0.061664	0.016674	0.055297	0.043384	0.017624	0.015567	0.015800	0.018270	0.022502	0.022028	0.020268	0.024874	0.042652	0.010584	0.010503	0.015251	0.010871	0.002783	0.014156	0.014694	0.018864	0.011522	0.022680	0.018401	0.019172	0.021215	0.017971	0.023602	0.015882	0.026132	0.021678	0.020370	0.015382	0.009319	0.011872	0.013411	0.016837	0.012897	0.030054	0.022128
4.885000	0.116772	0.074102	0.042819	0.042167	0.040283	0.098368	0.066742	0.074915	0.069787	0.052432	0.024980	0.032451	0.038043	0.057273	0.063535	0.094946	0.070453	0.060470	0.067831	0.037379	0.062956	0.016969	0.055260	0.042803	0.019386	0.015757	0.016086	0.018528	0.023551	0.022922	0.020746	0.025626	0.042092	0.011050	0.010818	0.015545	0.010868	0.003062	0.014274	0.014650	0.018853	0.011228	0.023107	0.018022	0.018730	0.020979	0.017704	0.023160	0.017748	0.026128	0.021823	0.020399	0.015396	0.009676	0.011794	0.013757	0.016952	0.012675	0.030404	0.021961
4.890000	0.114913	0.073017	0.041040	0.042577	0.038702	0.098088	0.070761	0.075320	0.070984	0.051952	0.024752	0.032997	0.038192	0.057144	0.063797	0.094913	0.071151	0.061458	0.068707	0.038185	0.064124	0.016998	0.055417	0.041983	0.017753	0.015623	0.015916	0.018319	0.023217	0.022748	0.020876	0.025294	0.041988	0.011699	0.011175	0.015199	0.010625	0.002632	0.014906	0.014217	0.019146	0.011108	0.023048	0.017648	0.018332	0.020541	0.017479	0.023142	0.016938	0.025957	0.021735	0.020130	0.015315	0.009710	0.011231	0.014278	0.017073	0.012547	0.030872	0.020125
4.895000	0.113086	0.071954	0.039098	0.043559	0.038521	0.097411	0.074587	0.075462	0.072109	0.051360	0.026542	0.033327	0.038674	0.057940	0.063850	0.095167	0.071721	0.062405	0.069038	0.038788	0.065025	0.017142	0.055254	0.041343	0.018550	0.016179	0.015822	0.018286	0.022570	0.021256	0.020614	0.024563	0.041555	0.010730	0.010906	0.015157	0.010645	0.002603	0.014852	0.014161	0.018984	0.011310	0.023457	0.017451	0.018128	0.020003	0.017324	0.022719	0.016718	0.025897	0.021744	0.020327	0.015245	0.009797	0.011541	0.014288	0.017552	0.011718	0.030906	0.019676
4.900000	0.111229	0.070505	0.037325	0.044583	0.038470	0.097344	0.078844	0.076130	0.073032	0.050978	0.026844	0.033860	0.038384	0.058253	0.064217	0.095055	0.072073	0.063780	0.069814	0.039830	0.066151	0.017084	0.055111	0.040703	0.018187	0.016066	0.015865	0.018479	0.022617	0.021431	0.020230	0.024145	0.041290	0.011278	0.010721	0.015145	0.010804	0.002526	0.015551	0.014192	0.019070	0.011286	0.023764	0.017048	0.017680	0.019531	0.017142	0.022782	0.017417	0.025687	0.021537	0.020258	0.015159	0.010054	0.012022	0.014588	0.017699	0.012152	0.030702	0.019619
4.905000	0.109131	0.068308	0.035369	0.045631	0.039176	0.096723	0.083369	0.076513	0.074160	0.050479	0.026787	0.034038	0.039227	0.058070	0.063261	0.095393	0.072416	0.064199	0.070195	0.040691	0.067247	0.016979	0.054450	0.040022	0.018241	0.015910	0.015821	0.018175	0.022728	0.021187	0.020092	0.023917	0.041581	0.012700	0.010974	0.014482	0.010967	0.002405	0.016007	0.013880	0.019243	0.011297	0.024074	0.016637	0.017196	0.019051	0.016830	0.022837	0.017272	0.025418	0.021527	0.020095	0.015044	0.010499	0.011577	0.015461	0.017275	0.011928	0.031739	0.019110
4.910000	0.107404	0.067565	0.034471	0.047427	0.039033	0.096760	0.088094	0.076893	0.074823	0.049784	0.028281	0.034211	0.039574	0.057424	0.064474	0.095278	0.072418	0.064981	0.070303	0.041155	0.067968	0.017573	0.054590	0.039791	0.018180	0.016683	0.015434	0.017908	0.022917	0.021228	0.019873	0.023636	0.041068	0.012807	0.010619	0.014240	0.009859	0.002517	0.016260	0.013528	0.019184	0.011420	0.024465	0.016056	0.016760	0.018231	0.016332	0.023114	0.018007	0.025219	0.021203	0.019868	0.014792	0.011108	0.011171	0.016291	0.017483	0.012251	0.031765	0.018924
4.915000	0.105085	0.065082	0.033391	0.048732	0.037499	0.096327	0.092462	0.077434	0.075591	0.049418	0.028742	0.034227	0.040476	0.057895	0.065100	0.095374	0.073176	0.065837	0.071027	0.041990	0.068952	0.017534	0.053363	0.039643	0.018394	0.016560	0.015847	0.018460	0.022533	0.020389	0.018891	0.022811	0.041415	0.013224	0.010121	0.013692	0.009682	0.002073	0.016935	0.013147	0.019257	0.011405	0.024882	0.015288	0.016298	0.017474	0.015465	0.023205	0.017693	0.024741	0.020880	0.019354	0.014470	0.011480	0.010732	0.016932	0.017276	0.011819	0.032641	0.018659
4.920000	0.104185	0.063025	0.030578	0.048079	0.035691	0.095380	0.096080	0.079324	0.077660	0.051181	0.029572	0.036557	0.039739	0.058562	0.064735	0.091980	0.074648	0.068593	0.071586	0.042808	0.068166	0.018639	0.053281	0.040336	0.018481	0.016434	0.015912	0.018318	0.022121	0.020002	0.018525	0.022029	0.040956	0.014190	0.009943	0.012948	0.009731	0.002069	0.017439	0.012949	0.018814	0.012327	0.025348	0.014703	0.015681	0.016852	0.015354	0.023141	0.017502	0.024302	0.020377	0.019305	0.014109	0.011854	0.010970	0.017498	0.017317	0.011975	0.033029	0.018583
4.925000	0.101974	0.061235	0.030677	0.049994	0.035378	0.095737	0.100264	0.079442	0.078092	0.050226	0.030367	0.036156	0.040000	0.059232	0.065505	0.092345	0.074809	0.069338	0.071658	0.042670	0.068586	0.019076	0.052790	0.040773	0.018687	0.016900	0.015748	0.017917	0.021228	0.019041	0.017411	0.021018	0.041026	0.014242	0.009322	0.012470	0.008574	0.002131	0.018342	0.012718	0.018155	0.012198	0.026167	0.014014	0.015090	0.016263	0.015128	0.023662	0.017637	0.023407	0.019790	0.018713	0.013556	0.012788	0.011409	0.018641	0.017311	0.011769	0.033792	0.018517
4.930000	0.099553	0.058861	0.030948	0.052075	0.034972	0.095710	0.104261	0.079897	0.078610	0.049581	0.030416	0.035941	0.038827	0.059324	0.066114	0.092524	0.074877	0.069901	0.071632	0.043445	0.069046	0.019581	0.052808	0.040570	0.018700	0.016496	0.014812	0.017090	0.020163	0.018082	0.016159	0.019609	0.041032	0.014708	0.008431	0.010508	0.007391	0.001773	0.019046	0.012180	0.017867	0.013484	0.026877	0.013063	0.014480	0.015159	0.014060	0.024301	0.017848	0.022384	0.019374	0.018217	0.013198	0.013596	0.011108	0.019699	0.016809	0.011819	0.034748	0.018394
4.935000	0.097258	0.057149	0.031329	0.053902	0.034164	0.096569	0.108204	0.080021	0.078816	0.048438	0.030321	0.035350	0.038969	0.060092	0.066505	0.092517	0.075158	0.070828	0.071667	0.043512	0.068900	0.020203	0.052881	0.040838	0.019258	0.017106	0.014978	0.017447	0.018906	0.016369	0.013637	0.017897	0.041029	0.013949	0.007139	0.008630	0.006104	0.001903	0.020202	0.011962	0.016997	0.013351	0.027674	0.011774	0.013243	0.014047	0.013154	0.024632	0.017259	0.020974	0.018328	0.017374	0.012192	0.014071	0.011504	0.020927	0.016859	0.012370	0.035633	0.018515
4.940000	0.095045	0.055510	0.032578	0.055929	0.033761	0.096820	0.111693	0.080259	0.079026	0.047650	0.030431	0.035531	0.039317	0.060059	0.066831	0.092541	0.075327	0.071707	0.071575	0.043233	0.068882	0.021109	0.052696	0.041238	0.019213	0.016282	0.015444	0.016955	0.017571	0.015006	0.012278	0.016182	0.040778	0.013467	0.005511	0.006609	0.004397	0.002150	0.020849	0.011136	0.016131	0.013810	0.028761	0.010432	0.012427	0.012854	0.012707	0.025307	0.017581	0.019166	0.017527	0.016659	0.011448	0.015041	0.011985	0.022014	0.016361	0.013914	0.037054	0.018598
4.945000	0.094567	0.051921	0.027583	0.053078	0.029063	0.096401	0.111995	0.082138	0.081775	0.051807	0.034147	0.039206	0.038898	0.061246	0.065095	0.087682	0.077229	0.075579	0.071323	0.044728	0.064843	0.023855	0.054112	0.043072	0.019734	0.016365	0.014081	0.015082	0.016446	0.013661	0.010928	0.014427	0.040547	0.012431	0.004263	0.005228	0.003675	0.001967	0.021274	0.009871	0.016102	0.014768	0.029378	0.009260	0.011567	0.011584	0.011348	0.025565	0.015886	0.016959	0.016369	0.015325	0.010663	0.016025	0.012335	0.023084	0.014763	0.015433	0.038667	0.018675
4.950000	0.091437	0.049760	0.028560	0.055569	0.029562	0.097038	0.115154	0.081731	0.081684	0.050042	0.033765	0.038640	0.038976	0.061330	0.065361	0.087741	0.077438	0.075818	0.071332	0.043739	0.064485	0.024325	0.054480	0.042911	0.020325	0.015864	0.013670	0.015741	0.015048	0.011845	0.008935	0.011743	0.040872	0.010608	0.003531	0.002855	0.002113	0.001932	0.020762	0.008174	0.017023	0.015800	0.029723	0.007569	0.010699	0.010089	0.010192	0.026458	0.014828	0.013928	0.014927	0.013800	0.009544	0.016775	0.012377	0.023173	0.014181	0.016624	0.039515	0.019151
4.955000	0.088507	0.048840	0.029901	0.058265	0.028527	0.097942	0.118297	0.081033	0.081781	0.048127	0.033500	0.038070	0.039654	0.061589	0.066041	0.088061	0.077380	0.076511	0.070931	0.043310	0.063965	0.024451	0.054266	0.043237	0.021100	0.015575	0.013190	0.015215	0.014137	0.010064	0.007810	0.009604	0.042295	0.009098	0.003970	0.003877	0.003562	0.003381	0.018832	0.007611	0.016352	0.017515	0.029615	0.005917	0.009638	0.009347	0.008480	0.027845	0.013052	0.010188	0.013175	0.011716	0.008357	0.017038	0.012159	0.023433	0.014127	0.019689	0.039555	0.019920
4.960000	0.086498	0.044601	0.026449	0.056336	0.024917	0.098012	0.116932	0.082788	0.084375	0.052266	0.036066	0.041343	0.038495	0.062740	0.063312	0.086026	0.078578	0.078484	0.069540	0.043519	0.059085	0.026908	0.056497	0.044724	0.021694	0.014933	0.012799	0.014401	0.012525	0.008032	0.006432	0.006748	0.043797	0.007922	0.006096	0.005458	0.005996	0.005993	0.016178	0.006981	0.019407	0.018355	0.027309	0.004730	0.009253	0.008568	0.007385	0.030828	0.011265	0.005999	0.011370	0.009573	0.007851	0.016380	0.011524	0.021522	0.013658	0.022421	0.040018	0.020625
4.965000	0.083054	0.042250	0.025457	0.056930	0.025019	0.097629	0.117777	0.082753	0.084581	0.052026	0.036472	0.042090	0.038677	0.063190	0.062861	0.085358	0.078201	0.078842	0.068039	0.042668	0.056365	0.027670	0.057298	0.045388	0.022645	0.014153	0.012435	0.013215	0.011407	0.005918	0.006675	0.004439	0.048415	0.013351	0.008193	0.009574	0.009040	0.009618	0.011409	0.008889	0.020876	0.018032	0.025773	0.004549	0.009098	0.007844	0.007885	0.034847	0.011125	0.003482	0.009530	0.008368	0.007623	0.014831	0.011436	0.019619	0.015822	0.024225	0.038130	0.021422
4.970000	0.079103	0.039417	0.023843	0.057362	0.023761	0.096555	0.117755	0.082725	0.084768	0.052021	0.036860	0.042616	0.038348	0.063046	0.061640	0.084661	0.077937	0.079195	0.066825	0.041461	0.053257	0.028039	0.058432	0.046090	0.023460	0.013677	0.011778	0.013078	0.011023	0.004126	0.009661	0.004313	0.059362	0.027085	0.012784	0.014508	0.013856	0.015072	0.007188	0.013127	0.022656	0.019576	0.024234	0.004670	0.008992	0.008376	0.010483	0.041054	0.014790	0.005585	0.008279	0.008358	0.008035	0.014179	0.011331	0.018467	0.018573	0.024614	0.036967	0.022261
4.975000	0.074148	0.037814	0.022046	0.058133	0.024076	0.094466	0.118384	0.081453	0.083850	0.050235	0.036270	0.041992	0.038236	0.063461	0.061729	0.083053	0.077395	0.078295	0.066256	0.040391	0.051679	0.027869	0.058745	0.046160	0.024372	0.013126	0.011649	0.011697	0.011415	0.005843	0.014888	0.008402	0.071372	0.037818	0.018049	0.019776	0.018573	0.018742	0.007349	0.013885	0.022909	0.023364	0.023640	0.003874	0.009117	0.009880	0.014414	0.047406	0.023368	0.008540	0.008425	0.009587	0.008959	0.014958	0.011716	0.020727	0.020054	0.025069	0.036274	0.023244
4.980000	0.070581	0.035168	0.019539	0.055964	0.023579	0.092028	0.116008	0.080933	0.083824	0.050945	0.036635	0.043016	0.037657	0.064193	0.060592	0.082138	0.076511	0.077907	0.063763	0.038840	0.047388	0.028293	0.059763	0.046866	0.025576	0.012897	0.011457	0.011102	0.012209	0.008682	0.018465	0.010074	0.074948	0.040034	0.020791	0.022875	0.021087	0.020218	0.010425	0.010697	0.023925	0.016514	0.026932	0.003927	0.009510	0.012097	0.018699	0.052365	0.031120	0.011670	0.009452	0.011024	0.010739	0.016913	0.011409	0.023064	0.018929	0.022730	0.038740	0.023311
4.985000	0.066931	0.034117	0.017175	0.055014	0.023395	0.089379	0.115260	0.079849	0.082648	0.049031	0.035332	0.042417	0.037128	0.064509	0.059608	0.079880	0.075362	0.076892	0.062627	0.037137	0.045094	0.027143	0.060694	0.045944	0.025925	0.013464	0.011931	0.011394	0.011763	0.009590	0.020258	0.008529	0.070124	0.037246	0.019491	0.021296	0.019937	0.018059	0.014441	0.007757	0.019751	0.012874	0.032654	0.005299	0.008124	0.012688	0.017450	0.051246	0.033267	0.012789	0.009927	0.011891	0.011632	0.017649	0.011451	0.024393	0.017902	0.019313	0.042130	0.023370
4.990000	0.064848	0.031629	0.015960	0.051838	0.021408	0.087372	0.112293	0.078787	0.082115	0.049437	0.035154	0.043329	0.037093	0.064457	0.059779	0.079245	0.073938	0.075709	0.059762	0.035439	0.041846	0.027867	0.060445	0.047533	0.024824	0.015458	0.012893	0.012957	0.011444	0.009559	0.018748	0.005047	0.063259	0.032311	0.015862	0.019416	0.016087	0.015220	0.018587	0.005100	0.013376	0.009821	0.037796	0.008914	0.005649	0.012153	0.011760	0.048344	0.032297	0.012335	0.009346	0.011456	0.011604	0.019528	0.011707	0.025012	0.014875	0.018821	0.045170	0.023261
4.995000	0.062865	0.030445	0.014056	0.050230	0.020848	0.086411	0.110969	0.077249	0.080494	0.047398	0.034724	0.043392	0.036872	0.065196	0.059777	0.077420	0.072575	0.074005	0.058331	0.034361	0.040691	0.027514	0.060165	0.047516	0.024335	0.017944	0.013881	0.014448	0.011784	0.010767	0.016905	0.005122	0.054534	0.024240	0.011892	0.015873	0.011798	0.010726	0.020599	0.004076	0.011608	0.008004	0.041046	0.013787	0.007615	0.013473	0.004711	0.043750	0.029790	0.010651	0.007966	0.010198	0.010339	0.020706	0.011777	0.024781	0.013655	0.016225	0.048615	0.023637
5.000000	0.062129	0.028793	0.012836	0.047731	0.019286	0.085591	0.107415	0.075797	0.079301	0.047073	0.034387	0.043817	0.036820	0.064275	0.059322	0.076910	0.070847	0.072665	0.056082	0.033189	0.038883	0.027434	0.059666	0.048412	0.024386	0.019653	0.013938	0.015825	0.011048	0.010466	0.013678	0.006074	0.046741	0.015643	0.007358	0.011371	0.007101	0.006988	0.019671	0.005031	0.011161	0.010682	0.044423	0.017205	0.012330	0.015554	0.002953	0.038567	0.024969	0.007750	0.006312	0.008344	0.008549	0.021731	0.014104	0.026817	0.013089	0.015275	0.048860	0.023268
5.005000	0.061599	0.027478	0.011748	0.046444	0.018583	0.085670	0.106050	0.074777	0.078022	0.046120	0.034202	0.043801	0.036960	0.064232	0.059496	0.076296	0.069596	0.071000	0.054137	0.032047	0.038091	0.027082	0.058820	0.049197	0.024745	0.020674	0.013455	0.017450	0.009181	0.008578	0.010014	0.005827	0.042323	0.009486	0.003094	0.007078	0.004483	0.005501	0.018233	0.006154	0.015717	0.016119	0.047165	0.018397	0.014907	0.016584	0.007211	0.033889	0.019349	0.004607	0.003861	0.005989	0.006518	0.022718	0.016107	0.029096	0.015772	0.014197	0.048952	0.023208
5.010000	0.061256	0.026340	0.010031	0.045166	0.016707	0.085572	0.104388	0.072825	0.076447	0.044660	0.034554	0.044344	0.037632	0.063625	0.059720	0.075452	0.068237	0.069960	0.052908	0.031508	0.038124	0.027130	0.058168	0.049453	0.025239	0.020009	0.012463	0.016766	0.006671	0.006015	0.006825	0.003805	0.041724	0.007659	0.000880	0.004189	0.004955	0.006189	0.014751	0.007112	0.020466	0.020227	0.046835	0.016638	0.014158	0.015146	0.009277	0.030300	0.013845	0.003487	0.001911	0.004723	0.005756	0.022967	0.017289	0.029686	0.017294	0.014277	0.047968	0.022232
5.015000	0.060850	0.025984	0.009236	0.044718	0.015922	0.085644	0.102986	0.071746	0.075379	0.044193	0.035122	0.044810	0.038077	0.063017	0.059787	0.075298	0.067216	0.068748	0.051144	0.031255	0.037632	0.027448	0.057227	0.050717	0.025687	0.018451	0.010807	0.015554	0.005613	0.003805	0.004224	0.002730	0.042504	0.008248	0.001220	0.004395	0.006320	0.007283	0.012041	0.007403	0.023862	0.022351	0.044796	0.012869	0.011320	0.012149	0.008400	0.028482	0.011259	0.004361	0.001789	0.004761	0.005968	0.022750	0.018073	0.029198	0.019228	0.014803	0.047767	0.021559
5.020000	0.060646	0.024660	0.009388	0.044472	0.015770	0.085638	0.101204	0.071206	0.075164	0.044368	0.036412	0.045556	0.038774	0.062600	0.059726	0.075765	0.066105	0.067885	0.049470	0.031204	0.037059	0.028126	0.056976	0.052313	0.025813	0.016003	0.008361	0.014832	0.005108	0.003182	0.003736	0.003596	0.043048	0.009008	0.001651	0.006809	0.006919	0.008805	0.012093	0.008685	0.026554	0.024003	0.043530	0.007823	0.006953	0.007551	0.006070	0.028198	0.011854	0.005227	0.003756	0.005840	0.005968	0.021344	0.017488	0.027162	0.021462	0.016027	0.047655	0.020536
5.025000	0.059990	0.024069	0.008835	0.045534	0.016242	0.085301	0.101088	0.070648	0.074845	0.043629	0.037404	0.045427	0.039812	0.062905	0.060264	0.075952	0.065285	0.067506	0.048541	0.030962	0.037300	0.028643	0.056411	0.052807	0.025184	0.014062	0.007151	0.012285	0.006159	0.004047	0.004250	0.006094	0.044347	0.009507	0.003164	0.010492	0.007615	0.010618	0.013215	0.010708	0.026823	0.023835	0.042307	0.003166	0.002416	0.002710	0.003581	0.029417	0.013074	0.005602	0.006233	0.006975	0.006806	0.019831	0.017205	0.024491	0.023626	0.017717	0.046926	0.020457
5.030000	0.058639	0.023132	0.009163	0.046706	0.016890	0.084006	0.100523	0.071062	0.075096	0.044188	0.038819	0.045712	0.040121	0.062787	0.058952	0.076289	0.064825	0.066960	0.047541	0.031310	0.037578	0.029202	0.056380	0.053748	0.024369	0.012088	0.007039	0.011374	0.007461	0.005534	0.005126	0.008262	0.045937	0.009798	0.004562	0.011615	0.008378	0.012539	0.014215	0.011762	0.026693	0.024024	0.041402	0.002420	0.002562	0.002163	0.004592	0.031207	0.013222	0.005526	0.008537	0.008257	0.006467	0.019042	0.016563	0.022706	0.025107	0.018429	0.046024	0.019550
5.035000	0.058337	0.022634	0.010103	0.047797	0.017446	0.082860	0.100154	0.071365	0.075205	0.044701	0.039951	0.045543	0.040642	0.063380	0.058423	0.076961	0.064397	0.066836	0.047222	0.031782	0.037277	0.029749	0.056854	0.053882	0.023074	0.009934	0.007610	0.010498	0.008773	0.006458	0.005916	0.009338	0.047527	0.009929	0.005631	0.012369	0.009260	0.013447	0.014108	0.012469	0.024849	0.021976	0.039928	0.005462	0.006275	0.005260	0.007979	0.032791	0.012285	0.004526	0.010550	0.008374	0.006185	0.018228	0.015991	0.022237	0.025722	0.018934	0.044396	0.018686
5.040000	0.058003	0.022101	0.011153	0.048737	0.018576	0.082651	0.100053	0.071788	0.075841	0.045489	0.040995	0.045122	0.040789	0.063404	0.056997	0.077440	0.064200	0.066429	0.047179	0.032143	0.036930	0.030116	0.057286	0.053889	0.021711	0.008204	0.008508	0.009810	0.009297	0.007814	0.005824	0.009343	0.049064	0.010923	0.006375	0.012897	0.009554	0.013005	0.012935	0.012032	0.024870	0.021302	0.038726	0.007803	0.008542	0.007502	0.010431	0.034609	0.011618	0.004923	0.011778	0.009194	0.005286	0.017666	0.015063	0.021360	0.024639	0.018561	0.042449	0.017344
5.045000	0.057449	0.021863	0.011837	0.049183	0.018113	0.082076	0.099868	0.072704	0.076432	0.046424	0.041772	0.044308	0.040341	0.063533	0.055727	0.077548	0.064499	0.066266	0.047261	0.032319	0.036708	0.030024	0.058362	0.053009	0.019650	0.007024	0.009563	0.009103	0.009496	0.007867	0.006230	0.009451	0.050271	0.012696	0.007661	0.013230	0.009476	0.012545	0.012293	0.011358	0.023349	0.017267	0.038314	0.008112	0.008814	0.007715	0.011610	0.035814	0.012159	0.005958	0.012246	0.009645	0.004274	0.017237	0.015097	0.021333	0.022803	0.017817	0.040551	0.016148
5.050000	0.057681	0.021724	0.014443	0.049326	0.018299	0.082264	0.098973	0.072859	0.076693	0.047235	0.042613	0.044229	0.041724	0.063280	0.054241	0.078409	0.063729	0.065633	0.046396	0.032935	0.036106	0.030559	0.059021	0.053290	0.017510	0.006578	0.009412	0.008767	0.009141	0.008247	0.006972	0.009710	0.050296	0.013177	0.007470	0.013282	0.010094	0.012522	0.011161	0.011419	0.020906	0.015209	0.038051	0.007988	0.008790	0.007643	0.012067	0.036820	0.013815	0.007790	0.011965	0.009875	0.004871	0.017136	0.014144	0.021164	0.020588	0.017335	0.038861	0.015518
5.055000	0.057814	0.021683	0.014688	0.049119	0.018811	0.082755	0.098408	0.073357	0.076979	0.047559	0.042621	0.043653	0.040889	0.063687	0.053210	0.078303	0.063769	0.065571	0.046441	0.032896	0.035632	0.029641	0.059743	0.051808	0.016551	0.006678	0.010048	0.007912	0.009200	0.008827	0.007792	0.009927	0.050899	0.014769	0.008244	0.012182	0.011537	0.013576	0.010794	0.011359	0.019937	0.013662	0.038376	0.007058	0.007028	0.006391	0.011822	0.037351	0.016864	0.008554	0.010607	0.009725	0.006201	0.016359	0.012185	0.021212	0.019152	0.017762	0.037219	0.015077
5.060000	0.058343	0.021916	0.015093	0.048515	0.017790	0.082988	0.097354	0.073424	0.076656	0.047820	0.042570	0.043119	0.040304	0.063958	0.052627	0.077896	0.063791	0.065163	0.046672	0.033102	0.035277	0.029233	0.060198	0.050668	0.015467	0.007176	0.010387	0.007300	0.009480	0.009519	0.008589	0.010370	0.051584	0.015374	0.008726	0.013018	0.012905	0.014831	0.011425	0.010995	0.019650	0.013165	0.039299	0.006810	0.004907	0.004309	0.010489	0.037472	0.019940	0.009109	0.009324	0.009417	0.007441	0.016164	0.010539	0.021927	0.018480	0.018483	0.035605	0.015006
5.065000	0.058493	0.021660	0.015288	0.047572	0.017139	0.083239	0.095305	0.073111	0.076198	0.047759	0.042222	0.042690	0.040291	0.063906	0.052268	0.077320	0.063640	0.064484	0.046140	0.032947	0.035114	0.028745	0.060246	0.049551	0.015331	0.007999	0.011006	0.006466	0.009892	0.010008	0.009549	0.011201	0.052634	0.016061	0.010550	0.012822	0.014545	0.016209	0.011791	0.011147	0.020045	0.013280	0.040515	0.008363	0.003879	0.003734	0.008900	0.037573	0.023197	0.009712	0.008532	0.009625	0.008650	0.016163	0.009339	0.023673	0.020508	0.021115	0.034020	0.015517
5.070000	0.058846	0.021955	0.015109	0.046009	0.016005	0.082728	0.092557	0.072823	0.075480	0.047761	0.041567	0.042369	0.038538	0.063611	0.051887	0.076026	0.063153	0.063630	0.045578	0.032470	0.034572	0.027414	0.059980	0.048771	0.015277	0.009058	0.011108	0.006558	0.010079	0.010176	0.009785	0.011388	0.053547	0.016386	0.012008	0.013855	0.015268	0.017507	0.011723	0.010906	0.020830	0.015025	0.041256	0.010582	0.004993	0.004869	0.008726	0.038614	0.025359	0.010659	0.008093	0.010197	0.009640	0.015565	0.007184	0.024435	0.019288	0.021409	0.034148	0.015717
5.075000	0.058946	0.022603	0.014515	0.044230	0.014412	0.082481	0.089785	0.072359	0.074506	0.047449	0.041034	0.041884	0.038301	0.064201	0.052229	0.074115	0.062553	0.062930	0.044740	0.031495	0.033935	0.026475	0.059635	0.047900	0.015238	0.010208	0.010648	0.007253	0.010310	0.010397	0.009821	0.011645	0.053660	0.016219	0.012984	0.014078	0.016347	0.018001	0.011399	0.011166	0.022050	0.016406	0.041694	0.013103	0.006391	0.006870	0.008667	0.038880	0.027003	0.011658	0.008379	0.010809	0.010440	0.015770	0.006513	0.026378	0.018388	0.022021	0.033568	0.016252
5.080000	0.058362	0.022467	0.013425	0.042211	0.012457	0.081462	0.086290	0.071699	0.073322	0.047021	0.040178	0.041478	0.038086	0.063618	0.052946	0.071565	0.061881	0.061816	0.043909	0.030939	0.033211	0.025240	0.059206	0.047438	0.015688	0.011238	0.010082	0.008011	0.010421	0.010525	0.010161	0.011956	0.054126	0.015684	0.012977	0.014354	0.016929	0.018413	0.012056	0.012310	0.022976	0.017407	0.042068	0.015118	0.009005	0.009165	0.008818	0.038949	0.027496	0.012069	0.008883	0.011141	0.010892	0.016004	0.007355	0.027052	0.017877	0.022036	0.033621	0.016281
5.085000	0.057129	0.022487	0.013240	0.040136	0.010770	0.080691	0.082694	0.070355	0.072025	0.046336	0.039495	0.041436	0.038164	0.064716	0.054186	0.068762	0.061124	0.060558	0.043002	0.029864	0.032931	0.024471	0.058879	0.047269	0.015910	0.012519	0.009322	0.009007	0.010573	0.010719	0.009733	0.012333	0.054142	0.015315	0.012660	0.014180	0.016310	0.018485	0.013379	0.013792	0.023589	0.017473	0.042131	0.016318	0.010088	0.010517	0.008859	0.038469	0.026506	0.012051	0.008556	0.010897	0.010713	0.015792	0.007270	0.026653	0.015328	0.019722	0.034277	0.016086
5.090000	0.056554	0.023247	0.012583	0.038282	0.007998	0.079695	0.080095	0.070166	0.070805	0.045642	0.038904	0.041359	0.037715	0.065516	0.054669	0.066024	0.059968	0.059297	0.041721	0.029458	0.032386	0.024123	0.058417	0.047653	0.016473	0.013505	0.008706	0.009828	0.010653	0.010544	0.009346	0.011960	0.053783	0.014605	0.011853	0.014660	0.016049	0.018967	0.015165	0.015297	0.022770	0.017095	0.042043	0.017011	0.011282	0.011690	0.008945	0.037661	0.024577	0.010855	0.007806	0.010265	0.010220	0.015036	0.007164	0.025747	0.013440	0.020783	0.034903	0.016075
5.095000	0.055182	0.023365	0.012968	0.036174	0.006858	0.078412	0.076863	0.069282	0.069758	0.045361	0.038010	0.041185	0.038355	0.065115	0.054797	0.063409	0.059371	0.058232	0.041025	0.028939	0.031948	0.023726	0.057629	0.047949	0.016776	0.014018	0.008217	0.010465	0.010593	0.009986	0.007923	0.011407	0.053123	0.013589	0.011093	0.015032	0.015011	0.019136	0.016709	0.017061	0.021605	0.015944	0.041840	0.017125	0.011702	0.012187	0.008926	0.037029	0.022721	0.009488	0.007305	0.009260	0.009426	0.014900	0.007784	0.024492	0.011621	0.018622	0.036464	0.016335
5.100000	0.053407	0.023712	0.013518	0.034815	0.006089	0.077295	0.074532	0.068533	0.068803	0.044838	0.038126	0.041509	0.038535	0.065078	0.055472	0.061246	0.058645	0.057287	0.040163	0.028250	0.031503	0.023792	0.056880	0.048719	0.016800	0.014269	0.007746	0.010989	0.010256	0.009363	0.006765	0.010609	0.052266	0.012458	0.010792	0.015406	0.014576	0.019144	0.017733	0.018423	0.019212	0.015014	0.041734	0.016898	0.011730	0.012292	0.008496	0.035595	0.020602	0.008218	0.006891	0.008265	0.008404	0.014567	0.008330	0.023495	0.010281	0.019218	0.037235	0.016535
5.105000	0.052418	0.023587	0.014002	0.033910	0.005903	0.076043	0.072523	0.068046	0.068179	0.044370	0.037853	0.041640	0.038698	0.065315	0.055666	0.059323	0.058435	0.056624	0.039613	0.027924	0.031938	0.023702	0.056768	0.048928	0.016661	0.014577	0.007060	0.011491	0.009853	0.008758	0.006184	0.009952	0.051664	0.012064	0.010751	0.015548	0.014867	0.019692	0.018347	0.019698	0.017297	0.013476	0.041602	0.015968	0.011123	0.011826	0.007980	0.034588	0.018405	0.007024	0.006761	0.007959	0.007192	0.014634	0.009652	0.023303	0.010235	0.019049	0.037588	0.016449
5.110000	0.050876	0.023566	0.014056	0.033172	0.005674	0.074933	0.070933	0.067770	0.067796	0.043998	0.037963	0.041919	0.038546	0.064807	0.055789	0.057887	0.057849	0.056154	0.039067	0.027988	0.031599	0.024185	0.056573	0.049936	0.017253	0.014211	0.007170	0.011370	0.009158	0.007887	0.005147	0.008988	0.051040	0.011927	0.010771	0.016458	0.015160	0.020624	0.018933	0.020459	0.016072	0.013969	0.041403	0.014663	0.010684	0.011026	0.007309	0.033343	0.016927	0.006577	0.007323	0.007648	0.006389	0.014645	0.010502	0.023356	0.010223	0.019279	0.037326	0.016173
5.115000	0.049632	0.023920	0.014766	0.032773	0.006721	0.074016	0.068985	0.066997	0.067417	0.043613	0.038117	0.042168	0.039537	0.064316	0.056670	0.057157	0.057374	0.055621	0.038536	0.028921	0.032469	0.024924	0.056398	0.050808	0.016397	0.013670	0.007337	0.010911	0.009142	0.007868	0.004874	0.008431	0.050511	0.012114	0.011312	0.017090	0.015541	0.021431	0.019805	0.021115	0.016074	0.013815	0.040886	0.012957	0.008923	0.009622	0.006553	0.032409	0.015489	0.005919	0.007367	0.007351	0.005645	0.014761	0.010986	0.023327	0.010383	0.019708	0.037260	0.016971
5.120000	0.048559	0.023590	0.014880	0.032432	0.006875	0.073362	0.068781	0.066988	0.067501	0.043671	0.038639	0.042549	0.039402	0.064390	0.056597	0.056201	0.057377	0.055721	0.038557	0.028739	0.031818	0.024727	0.056544	0.050702	0.016157	0.012783	0.007956	0.010185	0.007854	0.006901	0.004503	0.007854	0.051002	0.012109	0.011474	0.016828	0.016044	0.021635	0.020251	0.022116	0.013271	0.014026	0.041147	0.011720	0.007598	0.008031	0.006025	0.032212	0.015079	0.005547	0.007928	0.007600	0.004618	0.015110	0.010986	0.023438	0.010889	0.020312	0.036780	0.016787
5.125000	0.047918	0.023296	0.014887	0.032196	0.007902	0.072747	0.068267	0.067316	0.067624	0.043934	0.038438	0.042868	0.037757	0.064519	0.056111	0.055659	0.057685	0.056110	0.038983	0.029176	0.031795	0.024665	0.057091	0.050474	0.016248	0.012027	0.008774	0.009444	0.006701	0.006492	0.004967	0.007662	0.049959	0.011119	0.011414	0.015947	0.016623	0.022745	0.020234	0.022779	0.012619	0.014282	0.040931	0.010432	0.006500	0.006679	0.005897	0.031734	0.014465	0.005520	0.008151	0.007877	0.005017	0.014781	0.011334	0.022579	0.010753	0.020796	0.036810	0.017128
5.130000	0.047444	0.023291	0.015313	0.032159	0.008887	0.072218	0.067977	0.066904	0.067542	0.044162	0.038902	0.042739	0.040155	0.063935	0.056386	0.055602	0.057323	0.055713	0.038600	0.029904	0.031716	0.025141	0.057107	0.050450	0.015849	0.011290	0.009677	0.008848	0.006898	0.006932	0.006194	0.008391	0.050292	0.010854	0.011829	0.016312	0.016790	0.023052	0.020397	0.023334	0.011994	0.013878	0.040221	0.009604	0.005508	0.005625	0.005417	0.032444	0.014796	0.004938	0.008198	0.007750	0.004315	0.014769	0.010810	0.022453	0.011610	0.021650	0.036735	0.017497
5.135000	0.047272	0.022489	0.013847	0.032472	0.010513	0.072099	0.068776	0.066698	0.067592	0.043571	0.039215	0.043043	0.038321	0.064723	0.056362	0.054911	0.057662	0.055695	0.039541	0.030122	0.031517	0.024527	0.057511	0.049692	0.015727	0.010694	0.009995	0.008369	0.006677	0.006936	0.006941	0.008335	0.049444	0.010491	0.011728	0.018115	0.017371	0.023719	0.021110	0.024189	0.010359	0.014139	0.039707	0.008629	0.004178	0.004036	0.005469	0.032707	0.015184	0.005302	0.008318	0.007821	0.004630	0.014622	0.010350	0.021933	0.011230	0.022465	0.037331	0.017736
5.140000	0.047058	0.022560	0.013891	0.032122	0.010987	0.071699	0.068218	0.066940	0.067390	0.043808	0.039368	0.042778	0.038982	0.064515	0.055820	0.054325	0.057769	0.055504	0.039628	0.030146	0.031124	0.024208	0.057758	0.048967	0.015581	0.010447	0.010655	0.007883	0.007101	0.007387	0.007779	0.008951	0.050365	0.010536	0.012000	0.018178	0.017499	0.023658	0.021228	0.024294	0.009884	0.014167	0.039134	0.008336	0.003910	0.003863	0.005279	0.033594	0.015958	0.005519	0.008494	0.008112	0.005112	0.014601	0.009848	0.021703	0.011049	0.022989	0.037616	0.017909
5.145000	0.046477	0.022638	0.013880	0.031741	0.011272	0.071438	0.067757	0.066548	0.067394	0.044037	0.039496	0.042783	0.039047	0.064676	0.055536	0.054112	0.057612	0.054965	0.039770	0.030415	0.030753	0.024108	0.058101	0.048447	0.015562	0.010018	0.010910	0.007759	0.007079	0.007551	0.008066	0.009034	0.049982	0.010121	0.011478	0.018118	0.017587	0.023533	0.021333	0.024765	0.009362	0.014505	0.038637	0.008277	0.003301	0.003328	0.005246	0.034638	0.016128	0.005581	0.008573	0.008109	0.005448	0.014744	0.009826	0.021704	0.011002	0.023548	0.037889	0.017740
5.150000	0.047395	0.022759	0.014395	0.031325	0.011406	0.071148	0.067076	0.066432	0.067006	0.044188	0.039406	0.042759	0.038676	0.064877	0.054893	0.053249	0.057381	0.054623	0.039679	0.030173	0.030653	0.023892	0.058332	0.047883	0.015116	0.009989	0.010775	0.007903	0.006964	0.007501	0.008815	0.008791	0.049902	0.009384	0.011498	0.017065	0.017907	0.024072	0.021440	0.024707	0.008643	0.014835	0.038196	0.008416	0.003102	0.003170	0.005218	0.035019	0.016878	0.005797	0.008268	0.008278	0.005818	0.014371	0.009937	0.021939	0.010432	0.023741	0.038093	0.017934
5.155000	0.046923	0.022482	0.013892	0.031018	0.011391	0.071025	0.066345	0.065584	0.066710	0.044261	0.039368	0.042522	0.039037	0.065147	0.054932	0.052596	0.057147	0.054069	0.039701	0.029965	0.030378	0.023586	0.058470	0.047442	0.015672	0.010096	0.010592	0.009881	0.006901	0.007568	0.009335	0.009013	0.050012	0.009588	0.011518	0.017886	0.017403	0.024562	0.021097	0.024815	0.008145	0.015227	0.037685	0.008636	0.003578	0.003868	0.004594	0.035261	0.017053	0.006116	0.007878	0.008220	0.005820	0.014168	0.009448	0.022121	0.010126	0.024032	0.038275	0.017332
5.160000	0.046689	0.023057	0.014010	0.030867	0.010802	0.071093	0.065770	0.065284	0.065933	0.043963	0.039768	0.042382	0.040102	0.064816	0.054895	0.051992	0.056780	0.053307	0.039575	0.030192	0.030486	0.024068	0.057717	0.048311	0.015889	0.009560	0.010308	0.008135	0.006896	0.007460	0.009852	0.008818	0.049621	0.008433	0.010832	0.015985	0.017573	0.023659	0.020403	0.024511	0.008786	0.015405	0.037541	0.008879	0.004081	0.004278	0.004371	0.034822	0.016736	0.005903	0.007152	0.008027	0.005732	0.014323	0.009187	0.022478	0.009779	0.024200	0.038348	0.017786
5.165000	0.047010	0.022952	0.014390	0.030371	0.010184	0.070448	0.064981	0.065031	0.065645	0.044162	0.039055	0.042234	0.039650	0.064959	0.054297	0.050912	0.057298	0.053169	0.040075	0.029173	0.030412	0.023074	0.058521	0.047075	0.015494	0.010407	0.009513	0.009016	0.006191	0.006904	0.008845	0.008042	0.049147	0.008306	0.010997	0.016126	0.017807	0.023983	0.020247	0.024616	0.008411	0.015854	0.037378	0.009129	0.003825	0.005258	0.004034	0.034217	0.016588	0.005570	0.006825	0.007592	0.005414	0.014110	0.009008	0.023064	0.008639	0.024281	0.038554	0.017434
5.170000	0.046199	0.023477	0.014168	0.030326	0.009722	0.070438	0.064368	0.064482	0.064587	0.044051	0.039068	0.042063	0.040364	0.064330	0.054418	0.049814	0.056961	0.052568	0.039956	0.029584	0.030405	0.023681	0.058197	0.047810	0.015395	0.010490	0.009306	0.010433	0.005772	0.006620	0.009421	0.007857	0.048698	0.008305	0.010601	0.016554	0.017279	0.023671	0.019535	0.024059	0.006722	0.016201	0.037520	0.008828	0.004541	0.005563	0.003209	0.033434	0.015130	0.005052	0.005736	0.006605	0.005424	0.014203	0.009124	0.024205	0.007845	0.024680	0.038625	0.016755
5.175000	0.045948	0.023130	0.014078	0.029601	0.009095	0.069929	0.063289	0.064321	0.064197	0.044510	0.038717	0.041812	0.040072	0.064591	0.053522	0.048633	0.057707	0.053092	0.040660	0.028859	0.030440	0.023245	0.059046	0.047494	0.015958	0.010034	0.009056	0.009381	0.005192	0.006258	0.008367	0.007240	0.048318	0.007695	0.010154	0.014696	0.017424	0.023376	0.019458	0.023551	0.007609	0.016739	0.037299	0.010411	0.006374	0.007849	0.002829	0.032066	0.014167	0.004781	0.005770	0.006200	0.004812	0.013960	0.009216	0.024841	0.007259	0.024478	0.037903	0.016402
5.180000	0.045161	0.023673	0.015452	0.028998	0.009005	0.069852	0.060615	0.064310	0.063668	0.045389	0.037883	0.041577	0.040141	0.064426	0.052546	0.048219	0.057995	0.052954	0.040057	0.028847	0.030278	0.023988	0.058322	0.048468	0.015219	0.011026	0.009092	0.010120	0.004867	0.006140	0.008232	0.007222	0.048059	0.007309	0.009438	0.014456	0.016538	0.022698	0.018934	0.023066	0.007531	0.016900	0.037381	0.010804	0.007091	0.008489	0.002679	0.031318	0.013632	0.003961	0.004782	0.005318	0.004147	0.014217	0.010070	0.025865	0.006760	0.024316	0.037805	0.015959
5.185000	0.045006	0.023967	0.015589	0.029191	0.006814	0.069573	0.060795	0.064259	0.063374	0.045073	0.037937	0.041486	0.040925	0.063864	0.052621	0.047610	0.058052	0.053086	0.040473	0.028873	0.030543	0.024315	0.058717	0.048629	0.015131	0.010931	0.008621	0.010401	0.004536	0.005767	0.007969	0.006614	0.047553	0.007252	0.009247	0.014471	0.016645	0.022287	0.018837	0.022863	0.007586	0.017161	0.037297	0.010870	0.007730	0.009390	0.002660	0.030138	0.012190	0.003406	0.004331	0.004949	0.003335	0.013872	0.009907	0.026917	0.006181	0.024840	0.037748	0.015752
5.190000	0.044447	0.023524	0.015663	0.028619	0.006702	0.069146	0.059332	0.064047	0.062966	0.045545	0.037658	0.041664	0.041371	0.063671	0.052304	0.046721	0.058833	0.053424	0.040940	0.028580	0.030648	0.024807	0.058328	0.049265	0.014718	0.010905	0.008684	0.010459	0.004350	0.005479	0.007943	0.006520	0.047457	0.006629	0.009009	0.014138	0.016163	0.022032	0.018730	0.022333	0.007525	0.017555	0.037400	0.012315	0.009447	0.011202	0.003799	0.029552	0.012444	0.003229	0.004696	0.004623	0.003683	0.014323	0.010258	0.026962	0.005367	0.024338	0.037819	0.015752
5.195000	0.044040	0.023309	0.015939	0.028522	0.007049	0.068966	0.059092	0.063895	0.062659	0.045491	0.037530	0.041951	0.041466	0.063372	0.051500	0.046216	0.058990	0.053809	0.041191	0.028732	0.030780	0.024847	0.058541	0.049335	0.014878	0.010873	0.009071	0.010351	0.004082	0.005288	0.007576	0.006177	0.047123	0.006502	0.008508	0.013706	0.015284	0.021629	0.018621	0.022324	0.007489	0.017946	0.037751	0.013014	0.010240	0.012067	0.004451	0.029030	0.011793	0.003647	0.005015	0.004954	0.003077	0.014021	0.010611	0.027049	0.004762	0.024314	0.037668	0.015441
5.200000	0.044150	0.023551	0.016330	0.028876	0.007621	0.068857	0.058679	0.063901	0.062480	0.045558	0.037641	0.042300	0.041936	0.063127	0.051884	0.045451	0.059533	0.054002	0.041283	0.029074	0.030943	0.025337	0.058801	0.049875	0.014846	0.010785	0.010186	0.010528	0.003956	0.005121	0.007398	0.006260	0.046890	0.006478	0.008459	0.014170	0.015795	0.022083	0.018739	0.022603	0.008877	0.018444	0.037649	0.013520	0.011170	0.012517	0.004874	0.028455	0.011822	0.003914	0.005390	0.005045	0.003794	0.013926	0.010875	0.027205	0.004424	0.024454	0.037934	0.015741
5.205000	0.043247	0.023741	0.016209	0.028188	0.007760	0.068459	0.058155	0.063442	0.062083	0.045546	0.038046	0.042545	0.042943	0.062307	0.052271	0.045050	0.059176	0.053672	0.040888	0.029713	0.031307	0.026072	0.058715	0.050521	0.015102	0.010110	0.009740	0.010088	0.003618	0.004832	0.007098	0.005380	0.046682	0.006618	0.008234	0.014059	0.015376	0.021307	0.018754	0.022121	0.009510	0.018527	0.038047	0.013492	0.011214	0.013088	0.004805	0.028607	0.011351	0.004116	0.005358	0.005222	0.003648	0.014016	0.011073	0.027704	0.004167	0.024306	0.037945	0.017256
5.210000	0.043305	0.023776	0.016699	0.027749	0.008274	0.067952	0.056817	0.064249	0.062297	0.046051	0.037349	0.042954	0.042097	0.062161	0.051666	0.044302	0.059681	0.054007	0.041140	0.029495	0.030899	0.025858	0.059229	0.050213	0.015395	0.009710	0.010211	0.009531	0.003367	0.004193	0.006582	0.005439	0.046630	0.006325	0.008322	0.015087	0.015354	0.021135	0.018399	0.021869	0.008842	0.018922	0.038310	0.013536	0.011673	0.013657	0.005173	0.028297	0.011785	0.004533	0.005808	0.005487	0.003719	0.013991	0.011036	0.027553	0.003998	0.024237	0.037940	0.016363
5.215000	0.043295	0.024259	0.016907	0.027671	0.008646	0.067735	0.056852	0.064296	0.062160	0.046004	0.037652	0.042932	0.042325	0.061701	0.052132	0.044200	0.059044	0.053726	0.040560	0.029593	0.030993	0.025958	0.059344	0.050235	0.014769	0.010298	0.010238	0.009959	0.003152	0.004430	0.007509	0.005559	0.046651	0.006336	0.007777	0.013714	0.014985	0.021336	0.018725	0.022086	0.008683	0.019246	0.038305	0.013276	0.010976	0.012994	0.004986	0.028896	0.012058	0.004027	0.005871	0.005308	0.003228	0.014194	0.010787	0.027441	0.005106	0.024217	0.038165	0.016194
5.220000	0.042193	0.024250	0.017166	0.027356	0.008899	0.067250	0.056110	0.064057	0.061795	0.045828	0.038286	0.043205	0.042876	0.061546	0.052710	0.043706	0.058403	0.053219	0.039754	0.029444	0.030901	0.026267	0.059412	0.050255	0.014514	0.010424	0.010483	0.009889	0.002873	0.004314	0.007425	0.004785	0.046644	0.006124	0.007809	0.014028	0.014800	0.020788	0.019037	0.022242	0.008940	0.020014	0.038309	0.012736	0.010488	0.012154	0.004678	0.029454	0.012146	0.003656	0.005985	0.005386	0.003430	0.014485	0.010385	0.027330	0.005349	0.024681	0.038718	0.016108
5.225000	0.041695	0.025575	0.019044	0.026264	0.007967	0.066909	0.054059	0.064944	0.061825	0.046740	0.037419	0.043086	0.042459	0.061370	0.051667	0.043940	0.057855	0.052712	0.038668	0.029382	0.030561	0.026270	0.059740	0.049804	0.014892	0.010318	0.010855	0.009917	0.002691	0.004301	0.007697	0.005066	0.046005	0.005852	0.008000	0.013959	0.014901	0.021149	0.018886	0.022157	0.008843	0.019868	0.038701	0.012073	0.009658	0.011341	0.004522	0.029631	0.011904	0.003560	0.005681	0.005081	0.003182	0.014788	0.010407	0.027522	0.006631	0.024870	0.039162	0.016031
5.230000	0.041465	0.025791	0.018964	0.025864	0.008053	0.066355	0.053418	0.064827	0.061722	0.046586	0.038003	0.043238	0.042745	0.061259	0.051614	0.043462	0.057209	0.051829	0.038069	0.028960	0.030456	0.026426	0.059634	0.049952	0.014883	0.010149	0.010855	0.009933	0.002641	0.004403	0.007914	0.005053	0.045645	0.005258	0.007738	0.014948	0.014368	0.021031	0.018778	0.022311	0.008800	0.020366	0.038914	0.011268	0.008951	0.010567	0.004223	0.030214	0.011493	0.002895	0.005394	0.005012	0.003289	0.014877	0.010330	0.027433	0.006756	0.024670	0.039859	0.015884
5.235000	0.040922	0.026388	0.019888	0.024943	0.007835	0.066430	0.052516	0.065129	0.061519	0.046526	0.037816	0.043115	0.042225	0.061274	0.051174	0.043069	0.056782	0.051191	0.037434	0.028777	0.030253	0.026301	0.059680	0.049864	0.015195	0.010325	0.011163	0.009953	0.002597	0.004679	0.008178	0.004718	0.045799	0.005055	0.007398	0.014407	0.014768	0.020630	0.019338	0.022404	0.008412	0.020771	0.038911	0.010782	0.008646	0.009885	0.004226	0.030728	0.011384	0.002735	0.005666	0.005005	0.002507	0.015231	0.010296	0.027202	0.007162	0.024852	0.040313	0.015953
5.240000	0.040753	0.026652	0.019730	0.024552	0.009047	0.065945	0.051767	0.064904	0.061182	0.046270	0.038007	0.042985	0.042254	0.060821	0.051525	0.042334	0.056076	0.050425	0.036981	0.028612	0.029791	0.025909	0.059720	0.048995	0.015005	0.009755	0.011078	0.009472	0.002925	0.004995	0.008197	0.004958	0.045390	0.004020	0.007303	0.012609	0.014044	0.020804	0.018362	0.022263	0.008310	0.021096	0.039288	0.010202	0.008263	0.009600	0.004315	0.030854	0.010720	0.002714	0.005418	0.004836	0.002601	0.015427	0.010304	0.027490	0.007016	0.025236	0.040988	0.016673
5.245000	0.040439	0.026820	0.019997	0.024849	0.007704	0.065312	0.051471	0.064759	0.060787	0.045983	0.037849	0.042705	0.042858	0.060941	0.051358	0.041837	0.055589	0.049749	0.036567	0.028118	0.029489	0.026205	0.059141	0.049293	0.015135	0.010416	0.011344	0.009821	0.002942	0.005105	0.008593	0.004883	0.045166	0.003915	0.007087	0.012456	0.014139	0.020348	0.018741	0.022375	0.008147	0.020911	0.039407	0.009818	0.007816	0.009233	0.004316	0.031236	0.010521	0.002168	0.005386	0.004681	0.002438	0.015614	0.010459	0.027376	0.007408	0.024945	0.041343	0.016236
5.250000	0.040479	0.026734	0.019980	0.024625	0.007129	0.065134	0.050632	0.064570	0.060660	0.045862	0.037863	0.042416	0.042534	0.060822	0.051219	0.041319	0.055435	0.049232	0.036397	0.027711	0.029343	0.026081	0.058996	0.048840	0.015168	0.010551	0.011479	0.009878	0.003184	0.005336	0.008703	0.005015	0.044536	0.003290	0.006848	0.012039	0.013980	0.020310	0.018212	0.022195	0.008044	0.021182	0.039609	0.009584	0.007786	0.009128	0.004523	0.031051	0.011001	0.002315	0.005570	0.004834	0.002355	0.016092	0.010531	0.027611	0.007340	0.025002	0.041674	0.016407
5.255000	0.039288	0.026539	0.020131	0.024696	0.007574	0.064842	0.049998	0.064811	0.060397	0.045817	0.037778	0.042348	0.042239	0.061279	0.051238	0.040932	0.055467	0.048727	0.036292	0.027499	0.029022	0.026191	0.058449	0.048933	0.014970	0.010149	0.011619	0.009939	0.003495	0.005737	0.009840	0.005111	0.044279	0.002654	0.007128	0.011543	0.013294	0.019813	0.018118	0.022101	0.007563	0.022246	0.039880	0.009581	0.008023	0.009404	0.004591	0.031077	0.010797	0.002423	0.005728	0.005009	0.002713	0.016385	0.011033	0.028236	0.006957	0.025141	0.041913	0.016366
5.260000	0.038818	0.026476	0.019948	0.024760	0.007118	0.064165	0.049292	0.064578	0.059910	0.045538	0.037295	0.042107	0.042360	0.061302	0.050945	0.040628	0.055380	0.048660	0.036187	0.027637	0.029120	0.026182	0.058265	0.048998	0.015160	0.010878	0.012001	0.010231	0.003625	0.005863	0.010050	0.005117	0.044291	0.002392	0.007172	0.011787	0.013536	0.020427	0.018208	0.022415	0.007739	0.022042	0.039907	0.009740	0.008193	0.009742	0.004814	0.031184	0.010274	0.002600	0.005796	0.005207	0.002823	0.016360	0.011407	0.028656	0.006769	0.025153	0.042102	0.016689
