Model Marker Errors from IK
version=1
nRows=334
nColumns=4
inDegrees=no
endheader
time	total_squared_error	marker_error_RMS	marker_error_max
      2.33500000	      0.06181741	      0.03209813	      0.08178000
      2.34000000	      0.06174056	      0.03207817	      0.08171498
      2.34500000	      0.06128074	      0.03195850	      0.08102393
      2.35000000	      0.06169367	      0.03206599	      0.08129314
      2.35500000	      0.06164162	      0.03205246	      0.08123003
      2.36000000	      0.06173827	      0.03207758	      0.08147197
      2.36500000	      0.06132624	      0.03197036	      0.08101936
      2.37000000	      0.06167397	      0.03206087	      0.08132698
      2.37500000	      0.06145559	      0.03200406	      0.08119790
      2.38000000	      0.06136518	      0.03198051	      0.08101188
      2.38500000	      0.06128900	      0.03196065	      0.08105113
      2.39000000	      0.06125873	      0.03195276	      0.08093690
      2.39500000	      0.06116930	      0.03192943	      0.08080430
      2.40000000	      0.06123624	      0.03194689	      0.08091205
      2.40500000	      0.06126008	      0.03195311	      0.08073700
      2.41000000	      0.06118368	      0.03193318	      0.08064137
      2.41500000	      0.06130748	      0.03196547	      0.08081885
      2.42000000	      0.06122382	      0.03194365	      0.08077628
      2.42500000	      0.06131726	      0.03196802	      0.08076206
      2.43000000	      0.06118780	      0.03193425	      0.08079939
      2.43500000	      0.06112233	      0.03191717	      0.08061819
      2.44000000	      0.06103537	      0.03189445	      0.08044444
      2.44500000	      0.06099489	      0.03188387	      0.08038082
      2.45000000	      0.06047554	      0.03174784	      0.07980630
      2.45500000	      0.06046169	      0.03174421	      0.07980279
      2.46000000	      0.06071915	      0.03181173	      0.08012698
      2.46500000	      0.06058249	      0.03177591	      0.08003578
      2.47000000	      0.06064328	      0.03179184	      0.08003067
      2.47500000	      0.06066163	      0.03179665	      0.08007753
      2.48000000	      0.06073574	      0.03181607	      0.08014259
      2.48500000	      0.06067894	      0.03180119	      0.07993062
      2.49000000	      0.06066976	      0.03179878	      0.07984443
      2.49500000	      0.06059450	      0.03177906	      0.07970908
      2.50000000	      0.06047046	      0.03174651	      0.07959139
      2.50500000	      0.06052938	      0.03176197	      0.07955352
      2.51000000	      0.06059305	      0.03177867	      0.07979132
      2.51500000	      0.06065391	      0.03179463	      0.07983003
      2.52000000	      0.06073258	      0.03181524	      0.08018733
      2.52500000	      0.06076691	      0.03182423	      0.08017153
      2.53000000	      0.06069966	      0.03180662	      0.08041906
      2.53500000	      0.06020877	      0.03167774	      0.07981626
      2.54000000	      0.06065829	      0.03179578	      0.08025679
      2.54500000	      0.06038489	      0.03172404	      0.07996064
      2.55000000	      0.06079663	      0.03183201	      0.08021685
      2.55500000	      0.06061190	      0.03178362	      0.07999821
      2.56000000	      0.06070852	      0.03180894	      0.08046309
      2.56500000	      0.06056754	      0.03177198	      0.07997422
      2.57000000	      0.06049104	      0.03175191	      0.08011660
      2.57500000	      0.06053914	      0.03176454	      0.08031038
      2.58000000	      0.06055073	      0.03176758	      0.08005761
      2.58500000	      0.06037195	      0.03172064	      0.07974165
      2.59000000	      0.06033919	      0.03171204	      0.07961918
      2.59500000	      0.06038173	      0.03172321	      0.07967413
      2.60000000	      0.06032514	      0.03170834	      0.07980291
      2.60500000	      0.06023666	      0.03168508	      0.07962472
      2.61000000	      0.06020245	      0.03167608	      0.07925901
      2.61500000	      0.05991594	      0.03160062	      0.07908032
      2.62000000	      0.06011623	      0.03165339	      0.07918932
      2.62500000	      0.06016696	      0.03166674	      0.07925711
      2.63000000	      0.06009556	      0.03164795	      0.07922302
      2.63500000	      0.06018257	      0.03167085	      0.07929826
      2.64000000	      0.06013414	      0.03165811	      0.07925203
      2.64500000	      0.06035275	      0.03171560	      0.07964885
      2.65000000	      0.06015120	      0.03166260	      0.07950509
      2.65500000	      0.06019330	      0.03167367	      0.07955623
      2.66000000	      0.05981347	      0.03157358	      0.07908686
      2.66500000	      0.06026781	      0.03169327	      0.07980097
      2.67000000	      0.05992257	      0.03160237	      0.07944396
      2.67500000	      0.06030527	      0.03170312	      0.07992830
      2.68000000	      0.06031756	      0.03170635	      0.07979633
      2.68500000	      0.05991826	      0.03160123	      0.07928715
      2.69000000	      0.05990477	      0.03159767	      0.07904821
      2.69500000	      0.06029593	      0.03170066	      0.07957477
      2.70000000	      0.06032898	      0.03170935	      0.07957345
      2.70500000	      0.06033700	      0.03171146	      0.07946642
      2.71000000	      0.06029608	      0.03170070	      0.07949469
      2.71500000	      0.06026636	      0.03169289	      0.07950623
      2.72000000	      0.06025111	      0.03168888	      0.07934025
      2.72500000	      0.06026685	      0.03169302	      0.07958041
      2.73000000	      0.06028519	      0.03169784	      0.07955809
      2.73500000	      0.06024910	      0.03168835	      0.07956090
      2.74000000	      0.06031882	      0.03170668	      0.07959748
      2.74500000	      0.06027804	      0.03169596	      0.07962490
      2.75000000	      0.06040486	      0.03172929	      0.07990331
      2.75500000	      0.06029518	      0.03170047	      0.07973991
      2.76000000	      0.06045855	      0.03174338	      0.07970700
      2.76500000	      0.06041647	      0.03173234	      0.07989803
      2.77000000	      0.06038720	      0.03172465	      0.07986370
      2.77500000	      0.06029000	      0.03169911	      0.07967106
      2.78000000	      0.06017423	      0.03166866	      0.07952057
      2.78500000	      0.06010193	      0.03164963	      0.07940244
      2.79000000	      0.06003868	      0.03163297	      0.07919800
      2.79500000	      0.05989345	      0.03159469	      0.07886504
      2.80000000	      0.05991090	      0.03159929	      0.07894290
      2.80500000	      0.05994178	      0.03160743	      0.07895691
      2.81000000	      0.05989130	      0.03159412	      0.07901413
      2.81500000	      0.05988747	      0.03159311	      0.07902392
      2.82000000	      0.05996401	      0.03161329	      0.07917048
      2.82500000	      0.05986374	      0.03158685	      0.07913650
      2.83000000	      0.05982832	      0.03157750	      0.07905327
      2.83500000	      0.06009218	      0.03164706	      0.07939629
      2.84000000	      0.06007665	      0.03164297	      0.07936949
      2.84500000	      0.06004698	      0.03163515	      0.07940266
      2.85000000	      0.06000052	      0.03162291	      0.07929798
      2.85500000	      0.05992379	      0.03160269	      0.07918652
      2.86000000	      0.05992109	      0.03160198	      0.07915959
      2.86500000	      0.05987775	      0.03159055	      0.07911496
      2.87000000	      0.05997417	      0.03161597	      0.07920188
      2.87500000	      0.06009360	      0.03164743	      0.07932083
      2.88000000	      0.05953317	      0.03149952	      0.07875821
      2.88500000	      0.05964972	      0.03153034	      0.07900078
      2.89000000	      0.05955470	      0.03150521	      0.07883858
      2.89500000	      0.05967655	      0.03153743	      0.07907702
      2.90000000	      0.05966537	      0.03153447	      0.07901420
      2.90500000	      0.05966304	      0.03153385	      0.07879140
      2.91000000	      0.05981892	      0.03157502	      0.07892176
      2.91500000	      0.06025689	      0.03169040	      0.07922915
      2.92000000	      0.06028546	      0.03169791	      0.07942384
      2.92500000	      0.06012360	      0.03165533	      0.07936115
      2.93000000	      0.06020516	      0.03167680	      0.07930657
      2.93500000	      0.06026045	      0.03169134	      0.07937094
      2.94000000	      0.06012740	      0.03165633	      0.07929441
      2.94500000	      0.06009996	      0.03164911	      0.07931460
      2.95000000	      0.06008707	      0.03164571	      0.07924797
      2.95500000	      0.06031684	      0.03170616	      0.07940366
      2.96000000	      0.06029023	      0.03169917	      0.07895376
      2.96500000	      0.06003179	      0.03163115	      0.07924979
      2.97000000	      0.06022716	      0.03168258	      0.07946519
      2.97500000	      0.06015913	      0.03166468	      0.07938744
      2.98000000	      0.06010151	      0.03164952	      0.07942219
      2.98500000	      0.06016598	      0.03166649	      0.07945145
      2.99000000	      0.06018731	      0.03167210	      0.07969968
      2.99500000	      0.06017403	      0.03166860	      0.07976379
      3.00000000	      0.06021091	      0.03167831	      0.07975902
      3.00500000	      0.06011374	      0.03165274	      0.07960334
      3.01000000	      0.06018510	      0.03167152	      0.07958800
      3.01500000	      0.06015733	      0.03166421	      0.07951221
      3.02000000	      0.06015582	      0.03166381	      0.07944183
      3.02500000	      0.06024699	      0.03168780	      0.07955456
      3.03000000	      0.06023500	      0.03168464	      0.07948853
      3.03500000	      0.06024068	      0.03168614	      0.07947583
      3.04000000	      0.06016400	      0.03166597	      0.07935797
      3.04500000	      0.06007991	      0.03164383	      0.07921933
      3.05000000	      0.06021109	      0.03167835	      0.07932461
      3.05500000	      0.06019332	      0.03167368	      0.07929540
      3.06000000	      0.06011760	      0.03165375	      0.07926469
      3.06500000	      0.06010558	      0.03165059	      0.07929686
      3.07000000	      0.06016909	      0.03166731	      0.07939950
      3.07500000	      0.06005791	      0.03163803	      0.07922019
      3.08000000	      0.06014111	      0.03165994	      0.07914223
      3.08500000	      0.06017366	      0.03166851	      0.07912458
      3.09000000	      0.06018768	      0.03167220	      0.07889340
      3.09500000	      0.06012054	      0.03165453	      0.07899628
      3.10000000	      0.06013067	      0.03165719	      0.07893441
      3.10500000	      0.06011883	      0.03165407	      0.07894668
      3.11000000	      0.06010086	      0.03164935	      0.07900177
      3.11500000	      0.06011368	      0.03165272	      0.07906474
      3.12000000	      0.06020032	      0.03167552	      0.07913662
      3.12500000	      0.06026606	      0.03169281	      0.07917476
      3.13000000	      0.06015494	      0.03166358	      0.07907096
      3.13500000	      0.06018652	      0.03167189	      0.07921439
      3.14000000	      0.06006880	      0.03164090	      0.07915568
      3.14500000	      0.06014943	      0.03166213	      0.07930965
      3.15000000	      0.06028645	      0.03169817	      0.07970152
      3.15500000	      0.06021200	      0.03167859	      0.07938517
      3.16000000	      0.06022802	      0.03168281	      0.07946758
      3.16500000	      0.06022558	      0.03168217	      0.07960432
      3.17000000	      0.06024672	      0.03168773	      0.07968534
      3.17500000	      0.06028108	      0.03169676	      0.07965871
      3.18000000	      0.06033934	      0.03171207	      0.07969248
      3.18500000	      0.06036688	      0.03171931	      0.07974606
      3.19000000	      0.06033419	      0.03171072	      0.07954495
      3.19500000	      0.06041019	      0.03173069	      0.07968803
      3.20000000	      0.06029148	      0.03169949	      0.07949294
      3.20500000	      0.06023844	      0.03168555	      0.07925470
      3.21000000	      0.06020144	      0.03167582	      0.07922572
      3.21500000	      0.06023698	      0.03168517	      0.07938482
      3.22000000	      0.05958110	      0.03151219	      0.07872519
      3.22500000	      0.06011343	      0.03165265	      0.07923751
      3.23000000	      0.05987902	      0.03159088	      0.07912374
      3.23500000	      0.05975685	      0.03155864	      0.07906187
      3.24000000	      0.05995173	      0.03161006	      0.07924839
      3.24500000	      0.05978351	      0.03156567	      0.07888909
      3.25000000	      0.05988122	      0.03159146	      0.07903105
      3.25500000	      0.05969092	      0.03154122	      0.07888292
      3.26000000	      0.05980932	      0.03157249	      0.07907552
      3.26500000	      0.05981526	      0.03157406	      0.07907699
      3.27000000	      0.05966348	      0.03153397	      0.07898404
      3.27500000	      0.05981330	      0.03157354	      0.07921998
      3.28000000	      0.06011682	      0.03165355	      0.07945384
      3.28500000	      0.06012603	      0.03165597	      0.07954047
      3.29000000	      0.06032016	      0.03170704	      0.07973537
      3.29500000	      0.06032774	      0.03170902	      0.07973639
      3.30000000	      0.06038816	      0.03172490	      0.07986947
      3.30500000	      0.06051112	      0.03175718	      0.08013771
      3.31000000	      0.06048040	      0.03174912	      0.08014288
      3.31500000	      0.06054499	      0.03176607	      0.08040534
      3.32000000	      0.06058811	      0.03177738	      0.08047606
      3.32500000	      0.06055222	      0.03176797	      0.08036490
      3.33000000	      0.06072743	      0.03181389	      0.08051943
      3.33500000	      0.06066117	      0.03179653	      0.08042717
      3.34000000	      0.06093117	      0.03186722	      0.08100285
      3.34500000	      0.06111073	      0.03191414	      0.08109950
      3.35000000	      0.06125104	      0.03195075	      0.08111234
      3.35500000	      0.06121482	      0.03194131	      0.08124407
      3.36000000	      0.06046104	      0.03174404	      0.08053345
      3.36500000	      0.06117545	      0.03193103	      0.08158607
      3.37000000	      0.06131508	      0.03196745	      0.08155045
      3.37500000	      0.06130594	      0.03196507	      0.08155116
      3.38000000	      0.06098125	      0.03188031	      0.08140044
      3.38500000	      0.06117664	      0.03193134	      0.08196887
      3.39000000	      0.06118208	      0.03193276	      0.08191229
      3.39500000	      0.06069215	      0.03180465	      0.08178859
      3.40000000	      0.06057303	      0.03177342	      0.08175325
      3.40500000	      0.06106289	      0.03190164	      0.08264754
      3.41000000	      0.06101428	      0.03188894	      0.08254383
      3.41500000	      0.06113420	      0.03192026	      0.08291155
      3.42000000	      0.06132870	      0.03197100	      0.08329975
      3.42500000	      0.06132635	      0.03197039	      0.08371974
      3.43000000	      0.06121946	      0.03194252	      0.08351641
      3.43500000	      0.06109166	      0.03190916	      0.08392279
      3.44000000	      0.06112486	      0.03191783	      0.08405487
      3.44500000	      0.06140483	      0.03199084	      0.08499036
      3.45000000	      0.06106753	      0.03190286	      0.08506896
      3.45500000	      0.06145694	      0.03200441	      0.08600232
      3.46000000	      0.06215538	      0.03218576	      0.08665535
      3.46500000	      0.06196436	      0.03213626	      0.08672962
      3.47000000	      0.06207448	      0.03216481	      0.08725922
      3.47500000	      0.06276719	      0.03234378	      0.08808610
      3.48000000	      0.06254485	      0.03228644	      0.08821689
      3.48500000	      0.06325947	      0.03247036	      0.08920390
      3.49000000	      0.06344486	      0.03251791	      0.08984617
      3.49500000	      0.06375898	      0.03259831	      0.09006388
      3.50000000	      0.06353729	      0.03254159	      0.08987528
      3.50500000	      0.06391090	      0.03263712	      0.09073562
      3.51000000	      0.06389950	      0.03263421	      0.09076800
      3.51500000	      0.06401531	      0.03266377	      0.09109856
      3.52000000	      0.06477905	      0.03285804	      0.09198295
      3.52500000	      0.06466337	      0.03282869	      0.09216179
      3.53000000	      0.06515150	      0.03295236	      0.09294687
      3.53500000	      0.06552920	      0.03304774	      0.09324631
      3.54000000	      0.06597313	      0.03315950	      0.09380922
      3.54500000	      0.06621669	      0.03322065	      0.09396944
      3.55000000	      0.06698705	      0.03341333	      0.09439534
      3.55500000	      0.06741753	      0.03352052	      0.09440371
      3.56000000	      0.06778605	      0.03361201	      0.09494628
      3.56500000	      0.06851442	      0.03379212	      0.09547617
      3.57000000	      0.06936481	      0.03400118	      0.09604328
      3.57500000	      0.07010965	      0.03418324	      0.09621303
      3.58000000	      0.07047028	      0.03427105	      0.09633316
      3.58500000	      0.07111654	      0.03442783	      0.09668531
      3.59000000	      0.07202164	      0.03464622	      0.09723455
      3.59500000	      0.07316396	      0.03491990	      0.09782259
      3.60000000	      0.07375083	      0.03505967	      0.09810990
      3.60500000	      0.07437069	      0.03520670	      0.09793315
      3.61000000	      0.07277280	      0.03482643	      0.09617937
      3.61500000	      0.07604579	      0.03560098	      0.09841452
      3.62000000	      0.07643507	      0.03569198	      0.09820575
      3.62500000	      0.07663677	      0.03573905	      0.09763338
      3.63000000	      0.07674366	      0.03576396	      0.09696506
      3.63500000	      0.07811730	      0.03608261	      0.09701065
      3.64000000	      0.07872216	      0.03622204	      0.09534393
      3.64500000	      0.07955203	      0.03641246	      0.09464511
      3.65000000	      0.08081606	      0.03670060	      0.09364147
      3.65500000	      0.08222190	      0.03701844	      0.09350177
      3.66000000	      0.08261178	      0.03710610	      0.09195472
      3.66500000	      0.08389215	      0.03739255	      0.09119217
      3.67000000	      0.08450357	      0.03752856	      0.08900053
      3.67500000	      0.08509326	      0.03765927	      0.08727677
      3.68000000	      0.08581464	      0.03781857	      0.08576060
      3.68500000	      0.08646531	      0.03796167	      0.08385012
      3.69000000	      0.08694229	      0.03806623	      0.08216076
      3.69500000	      0.08774707	      0.03824201	      0.08128571
      3.70000000	      0.08814951	      0.03832960	      0.08107417
      3.70500000	      0.08855382	      0.03841741	      0.08088029
      3.71000000	      0.08885067	      0.03848174	      0.08074465
      3.71500000	      0.08870617	      0.03845044	      0.08201441
      3.72000000	      0.08904497	      0.03852379	      0.08529996
      3.72500000	      0.08900925	      0.03851607	      0.08690386
      3.73000000	      0.08890683	      0.03849390	      0.08951299
      3.73500000	      0.08785976	      0.03826656	      0.09181177
      3.74000000	      0.08724693	      0.03813287	      0.09226624
      3.74500000	      0.08713354	      0.03810808	      0.09264052
      3.75000000	      0.08801639	      0.03830065	      0.09293528
      3.75500000	      0.08872304	      0.03845409	      0.09109256
      3.76000000	      0.08677235	      0.03802901	      0.08975995
      3.76500000	      0.08383215	      0.03737917	      0.08778905
      3.77000000	      0.08046263	      0.03662026	      0.08574904
      3.77500000	      0.07721017	      0.03587250	      0.08171650
      3.78000000	      0.07515802	      0.03539257	      0.07998339
      3.78500000	      0.07389417	      0.03509373	      0.07868251
      3.79000000	      0.07320576	      0.03492987	      0.07772853
      3.79500000	      0.07317648	      0.03492289	      0.07692371
      3.80000000	      0.07347389	      0.03499378	      0.07641144
      3.80500000	      0.07404100	      0.03512857	      0.07644317
      3.81000000	      0.07441049	      0.03521612	      0.07645858
      3.81500000	      0.07481238	      0.03531109	      0.07664997
      3.82000000	      0.07540099	      0.03544973	      0.07716463
      3.82500000	      0.07564867	      0.03550790	      0.07725270
      3.83000000	      0.07570832	      0.03552190	      0.07729648
      3.83500000	      0.07575991	      0.03553400	      0.07663355
      3.84000000	      0.07582394	      0.03554901	      0.07674833
      3.84500000	      0.07559995	      0.03549647	      0.07685682
      3.85000000	      0.07533968	      0.03543531	      0.07710553
      3.85500000	      0.07450673	      0.03523888	      0.07680964
      3.86000000	      0.07338099	      0.03497165	      0.07610163
      3.86500000	      0.07220098	      0.03468933	      0.07576642
      3.87000000	      0.07125221	      0.03446066	      0.07522865
      3.87500000	      0.07059309	      0.03430090	      0.07464813
      3.88000000	      0.07004388	      0.03416721	      0.07442660
      3.88500000	      0.06995864	      0.03414641	      0.07396404
      3.89000000	      0.07033646	      0.03423849	      0.07401012
      3.89500000	      0.07051008	      0.03428072	      0.07411734
      3.90000000	      0.07095712	      0.03438922	      0.07405868
      3.90500000	      0.07133871	      0.03448157	      0.07462298
      3.91000000	      0.07153086	      0.03452797	      0.07533707
      3.91500000	      0.07155546	      0.03453391	      0.07594618
      3.92000000	      0.07165193	      0.03455718	      0.07616598
      3.92500000	      0.07162997	      0.03455189	      0.07672238
      3.93000000	      0.07137674	      0.03449076	      0.07727850
      3.93500000	      0.07137978	      0.03449149	      0.07889875
      3.94000000	      0.07099777	      0.03439907	      0.07895633
      3.94500000	      0.07076547	      0.03434275	      0.07889643
      3.95000000	      0.07053899	      0.03428775	      0.07864332
      3.95500000	      0.07016264	      0.03419616	      0.07814596
      3.96000000	      0.06997859	      0.03415128	      0.07754135
      3.96500000	      0.06963383	      0.03406705	      0.07711384
      3.97000000	      0.06929267	      0.03398349	      0.07657873
      3.97500000	      0.06897426	      0.03390532	      0.07610602
      3.98000000	      0.06868210	      0.03383344	      0.07539746
      3.98500000	      0.06788162	      0.03363570	      0.07501339
      3.99000000	      0.06726023	      0.03348140	      0.07431615
      3.99500000	      0.06704465	      0.03342770	      0.07439864
      4.00000000	      0.06623285	      0.03322470	      0.07421970
