Model Marker Errors from IK
version=1
nRows=129
nColumns=4
inDegrees=no
endheader
time	total_squared_error	marker_error_RMS	marker_error_max
      5.41500000	      0.09989266	      0.04046708	      0.15312436
      5.42000000	      0.09997041	      0.04048283	      0.15336567
      5.42500000	      0.10001979	      0.04049282	      0.15335432
      5.43000000	      0.10009707	      0.04050846	      0.15353795
      5.43500000	      0.10013436	      0.04051601	      0.15347098
      5.44000000	      0.10011024	      0.04051113	      0.15369511
      5.44500000	      0.10022393	      0.04053413	      0.15400372
      5.45000000	      0.10026090	      0.04054160	      0.15381966
      5.45500000	      0.10036279	      0.04056219	      0.15391838
      5.46000000	      0.10044502	      0.04057881	      0.15405256
      5.46500000	      0.10044039	      0.04057787	      0.15390261
      5.47000000	      0.10049101	      0.04058810	      0.15420740
      5.47500000	      0.10049394	      0.04058869	      0.15419392
      5.48000000	      0.10046921	      0.04058369	      0.15393456
      5.48500000	      0.10048761	      0.04058741	      0.15380652
      5.49000000	      0.10046422	      0.04058269	      0.15433020
      5.49500000	      0.10036161	      0.04056196	      0.15381577
      5.50000000	      0.10051418	      0.04059278	      0.15378851
      5.50500000	      0.10043979	      0.04057775	      0.15449212
      5.51000000	      0.10031334	      0.04055220	      0.15371257
      5.51500000	      0.10030002	      0.04054951	      0.15434487
      5.52000000	      0.10025886	      0.04054119	      0.15445936
      5.52500000	      0.10027509	      0.04054447	      0.15407912
      5.53000000	      0.10026054	      0.04054153	      0.15388269
      5.53500000	      0.10004412	      0.04049775	      0.15430487
      5.54000000	      0.09987957	      0.04046443	      0.15429768
      5.54500000	      0.09975700	      0.04043959	      0.15428752
      5.55000000	      0.09959616	      0.04040698	      0.15413439
      5.55500000	      0.09937560	      0.04036221	      0.15399189
      5.56000000	      0.09922261	      0.04033113	      0.15344658
      5.56500000	      0.09912836	      0.04031197	      0.15357482
      5.57000000	      0.09878175	      0.04024143	      0.15351689
      5.57500000	      0.09853508	      0.04019116	      0.15306638
      5.58000000	      0.09826114	      0.04013525	      0.15265788
      5.58500000	      0.09787023	      0.04005534	      0.15329748
      5.59000000	      0.09805443	      0.04009301	      0.15267582
      5.59500000	      0.09766161	      0.04001262	      0.15257192
      5.60000000	      0.09741235	      0.03996153	      0.15346836
      5.60500000	      0.09747791	      0.03997497	      0.15299443
      5.61000000	      0.09750773	      0.03998109	      0.15302057
      5.61500000	      0.09743110	      0.03996537	      0.15368854
      5.62000000	      0.09729962	      0.03993840	      0.15361993
      5.62500000	      0.09710161	      0.03989774	      0.15346383
      5.63000000	      0.09667272	      0.03980953	      0.15298391
      5.63500000	      0.09649094	      0.03977208	      0.15257842
      5.64000000	      0.09653125	      0.03978039	      0.15315103
      5.64500000	      0.09623883	      0.03972009	      0.15242690
      5.65000000	      0.09603180	      0.03967735	      0.15192115
      5.65500000	      0.09580229	      0.03962990	      0.15215217
      5.66000000	      0.09543102	      0.03955304	      0.15181136
      5.66500000	      0.09518619	      0.03950227	      0.15124575
      5.67000000	      0.09488409	      0.03943953	      0.15077657
      5.67500000	      0.09429511	      0.03931694	      0.15020646
      5.68000000	      0.09393064	      0.03924088	      0.15006502
      5.68500000	      0.09360484	      0.03917277	      0.14936067
      5.69000000	      0.09305388	      0.03905731	      0.14804994
      5.69500000	      0.09268533	      0.03897989	      0.14818233
      5.70000000	      0.09232298	      0.03890362	      0.14766322
      5.70500000	      0.09178480	      0.03879006	      0.14579270
      5.71000000	      0.09147569	      0.03872469	      0.14416647
      5.71500000	      0.09072935	      0.03856639	      0.14384711
      5.72000000	      0.09016298	      0.03844583	      0.14338952
      5.72500000	      0.08922334	      0.03824497	      0.14172122
      5.73000000	      0.08853621	      0.03809742	      0.14109609
      5.73500000	      0.08762758	      0.03790142	      0.14070417
      5.74000000	      0.08620166	      0.03759178	      0.13870574
      5.74500000	      0.08517634	      0.03736755	      0.13828101
      5.75000000	      0.08399497	      0.03710750	      0.13731843
      5.75500000	      0.08283740	      0.03685092	      0.13545222
      5.76000000	      0.08134401	      0.03651723	      0.13481384
      5.76500000	      0.08006474	      0.03622895	      0.13330635
      5.77000000	      0.07855933	      0.03588674	      0.13131637
      5.77500000	      0.07720372	      0.03557576	      0.13087964
      5.78000000	      0.07600219	      0.03529784	      0.12932056
      5.78500000	      0.07373417	      0.03476718	      0.12699068
      5.79000000	      0.07217426	      0.03439745	      0.12511993
      5.79500000	      0.07071843	      0.03404877	      0.12330460
      5.80000000	      0.06947694	      0.03374857	      0.12168505
      5.80500000	      0.06835826	      0.03347577	      0.11993826
      5.81000000	      0.06743384	      0.03324865	      0.11843225
      5.81500000	      0.06665457	      0.03305598	      0.11658160
      5.82000000	      0.06630994	      0.03297041	      0.11548253
      5.82500000	      0.06575712	      0.03283269	      0.11401242
      5.83000000	      0.06533777	      0.03272783	      0.11278595
      5.83500000	      0.06504641	      0.03265478	      0.11148806
      5.84000000	      0.06486779	      0.03260991	      0.11034516
      5.84500000	      0.06464999	      0.03255512	      0.10942326
      5.85000000	      0.06448682	      0.03251401	      0.10851611
      5.85500000	      0.06458316	      0.03253829	      0.10789611
      5.86000000	      0.06442880	      0.03249938	      0.10638594
      5.86500000	      0.06443569	      0.03250112	      0.10609873
      5.87000000	      0.06451753	      0.03252175	      0.10537553
      5.87500000	      0.06479973	      0.03259280	      0.10566975
      5.88000000	      0.06498736	      0.03263995	      0.10625115
      5.88500000	      0.06485434	      0.03260653	      0.10571525
      5.89000000	      0.06462974	      0.03255002	      0.10588070
      5.89500000	      0.06464854	      0.03255476	      0.10666290
      5.90000000	      0.06482631	      0.03259948	      0.10711096
      5.90500000	      0.06460531	      0.03254387	      0.10745455
      5.91000000	      0.06476272	      0.03258349	      0.10791401
      5.91500000	      0.06474895	      0.03258003	      0.10841758
      5.92000000	      0.06454388	      0.03252839	      0.10883652
      5.92500000	      0.06456515	      0.03253375	      0.10872444
      5.93000000	      0.06446449	      0.03250838	      0.10963975
      5.93500000	      0.06431958	      0.03247182	      0.10921926
      5.94000000	      0.06401865	      0.03239577	      0.10984357
      5.94500000	      0.06389670	      0.03236490	      0.10909757
      5.95000000	      0.06387346	      0.03235902	      0.10890115
      5.95500000	      0.06390271	      0.03236642	      0.10853366
      5.96000000	      0.06373663	      0.03232434	      0.10851106
      5.96500000	      0.06399047	      0.03238864	      0.10814454
      5.97000000	      0.06397268	      0.03238414	      0.10807935
      5.97500000	      0.06424470	      0.03245292	      0.10794840
      5.98000000	      0.06455778	      0.03253190	      0.10791303
      5.98500000	      0.06482739	      0.03259976	      0.10754172
      5.99000000	      0.06516147	      0.03268365	      0.10779684
      5.99500000	      0.06534448	      0.03272951	      0.10747764
      6.00000000	      0.06574829	      0.03283049	      0.10771992
      6.00500000	      0.06571351	      0.03282180	      0.10744241
      6.01000000	      0.06571721	      0.03282273	      0.10749920
      6.01500000	      0.06564524	      0.03280475	      0.10805066
      6.02000000	      0.06557637	      0.03278754	      0.10782512
      6.02500000	      0.06547330	      0.03276176	      0.10810859
      6.03000000	      0.06519549	      0.03269218	      0.10809060
      6.03500000	      0.06502885	      0.03265037	      0.10808407
      6.04000000	      0.06458722	      0.03253931	      0.10784036
      6.04500000	      0.06438255	      0.03248771	      0.10784676
      6.05000000	      0.06414898	      0.03242873	      0.10760464
      6.05500000	      0.06382955	      0.03234789	      0.10700441
