_ik_marker_errors_all.sto
version=1
nRows=129
nColumns=62
in_degrees=yes
endheader
time	FHD	LBHD	RBHD	C7	T10	CLAV	LSHO	LUUPA	LMUPA	LDUPA	LLEP	LMEP	LRAD	LUL	LRFIN	RSHO	RUPA1	RMUPA	RDUPA	RLEP	RMEP	RRAD	RUL	RUFIN	LASI	RASI	USACR	LSACR	RSACR	LTHI1	LTHI2	LTHI3	LTHI4	LLFC	LMFC	LTIB1	LTIB2	LTIB3	LTIB4	LLMAL	LMMAL	LHEE	LMT1	LMT2	LMT5	RTHI	RTHI2	RTHI3	RTHI4	RLFC	RMFC	RTIB1	RTIB2	RTIB3	RTIB4	RLMAL	RMMAL	RHEE	RMT1	RMT2	RMT5
5.415000	0.153081	0.061715	0.067948	0.041558	0.017956	0.076169	0.077379	0.022469	0.030670	0.016480	0.023428	0.025859	0.060565	0.058573	0.070223	0.103317	0.039703	0.043107	0.037101	0.019372	0.032397	0.058151	0.043933	0.063073	0.008839		0.004847	0.010343	0.015424	0.015858	0.015869	0.024030	0.016000	0.038507	0.008870	0.017152	0.018280	0.019142	0.017861	0.023300	0.012983	0.012581	0.017487	0.015665	0.028781	0.018379	0.018402	0.020952	0.015382	0.038271	0.032444	0.017950	0.015278	0.017407	0.009815	0.010607	0.011261	0.008076	0.006165	0.020513	0.025259
5.420000	0.153315	0.062047	0.068135	0.041473	0.017898	0.076097	0.077326	0.022515	0.030654	0.016276	0.023276	0.025756	0.060439	0.058601	0.070381	0.103203	0.039670	0.043144	0.037008	0.019332	0.032211	0.058106	0.043840	0.063212	0.008443		0.004784	0.010397	0.015467	0.015637	0.015256	0.023470	0.015629	0.038950	0.009168	0.017183	0.018332	0.019223	0.017953	0.023397	0.012946	0.012568	0.017560	0.015720	0.028799	0.018452	0.018504	0.021106	0.015541	0.038300	0.032577	0.017919	0.015203	0.017277	0.009692	0.010491	0.011283	0.008215	0.006248	0.020503	0.025296
5.425000	0.153350	0.062036	0.068185	0.041505	0.017855	0.076098	0.077555	0.022501	0.030750	0.016464	0.023359	0.025778	0.060507	0.058496	0.070387	0.103147	0.039736	0.043122	0.037045	0.019248	0.032286	0.058110	0.043865	0.063332	0.008534		0.004821	0.010266	0.015498	0.015559	0.015182	0.023419	0.015505	0.039080	0.009333	0.017152	0.018290	0.019234	0.017922	0.023375	0.012945	0.012492	0.017551	0.015774	0.028793	0.018307	0.018290	0.020943	0.015417	0.038727	0.032636	0.018002	0.015264	0.017370	0.009743	0.010527	0.011339	0.008199	0.006286	0.020517	0.025278
5.430000	0.153533	0.062195	0.068422	0.041456	0.017674	0.075932	0.077497	0.022578	0.030775	0.016495	0.023375	0.025819	0.060483	0.058473	0.070408	0.102967	0.039708	0.043157	0.037000	0.019264	0.032204	0.058131	0.044028	0.063262	0.008371		0.004932	0.010339	0.015615	0.015378	0.014934	0.023126	0.015292	0.039341	0.009547	0.017246	0.018378	0.019345	0.017948	0.023327	0.012914	0.012473	0.017530	0.015811	0.028790	0.018382	0.018465	0.021113	0.015620	0.038512	0.032473	0.017906	0.015240	0.017315	0.009735	0.010544	0.011293	0.008161	0.006239	0.020477	0.025321
5.435000	0.153588	0.061945	0.068518	0.041477	0.017590	0.075925	0.077767	0.022670	0.030803	0.016435	0.023442	0.025897	0.060488	0.058474	0.070409	0.102826	0.039795	0.043116	0.037011	0.019175	0.032076	0.057987	0.044038	0.063390	0.008480		0.004976	0.010319	0.015597	0.015085	0.014827	0.023011	0.015031	0.039594	0.009756	0.017269	0.018365	0.019388	0.018005	0.023289	0.012899	0.012391	0.017489	0.015732	0.028800	0.018296	0.018296	0.020969	0.015534	0.038280	0.032424	0.017931	0.015211	0.017335	0.009684	0.010610	0.011245	0.008126	0.006202	0.020497	0.025346
5.440000	0.153844	0.062010	0.068729	0.041239	0.017454	0.075806	0.077812	0.022582	0.030782	0.016375	0.023575	0.025948	0.060624	0.058370	0.070428	0.102579	0.039718	0.043113	0.036975	0.019130	0.031979	0.058168	0.044023	0.063540	0.009023		0.005061	0.010320	0.015513	0.015015	0.014702	0.022888	0.014887	0.039739	0.009811	0.017221	0.018389	0.019342	0.018003	0.023195	0.012890	0.012351	0.017573	0.015807	0.028885	0.018395	0.018356	0.021123	0.015603	0.038101	0.032242	0.017774	0.015218	0.017324	0.009705	0.010695	0.011219	0.008074	0.006210	0.020511	0.025333
5.445000	0.154378	0.062437	0.068958	0.040898	0.017384	0.075554	0.077543	0.022475	0.030875	0.016289	0.023441	0.025861	0.060487	0.058489	0.070549	0.102301	0.039573	0.043097	0.036974	0.019075	0.031866	0.058191	0.044109	0.063538	0.008929		0.004950	0.010070	0.015620	0.014887	0.014662	0.022881	0.014818	0.039864	0.009830	0.016851	0.018434	0.019426	0.018069	0.023351	0.012939	0.012413	0.017420	0.015627	0.028974	0.018204	0.017987	0.020761	0.015284	0.038469	0.032577	0.018016	0.015354	0.017432	0.009844	0.010683	0.011277	0.007999	0.006245	0.020371	0.025459
5.450000	0.154375	0.062593	0.068870	0.040756	0.017263	0.075969	0.077779	0.022627	0.030765	0.016128	0.023678	0.025995	0.060476	0.058338	0.070600	0.102395	0.039462	0.042970	0.036878	0.019075	0.031830	0.058222	0.043937	0.063683	0.009099		0.005163	0.010166	0.015438	0.014691	0.014231	0.022389	0.014488	0.040225	0.010133	0.016925	0.018568	0.019492	0.018062	0.023330	0.012947	0.012428	0.017620	0.015795	0.028881	0.018336	0.018292	0.021140	0.015507	0.038285	0.032417	0.017892	0.015228	0.017327	0.009754	0.010605	0.011341	0.008192	0.006365	0.020462	0.025315
5.455000	0.154456	0.062668	0.069033	0.040694	0.017139	0.075841	0.077647	0.022577	0.030703	0.016100	0.023707	0.025976	0.060464	0.058307	0.070710	0.102434	0.039220	0.042881	0.036713	0.019110	0.031750	0.058247	0.043917	0.063779	0.010054		0.005283	0.010238	0.015374	0.014643	0.014111	0.022210	0.014412	0.040334	0.009769	0.017002	0.018580	0.019507	0.018083	0.023302	0.012978	0.012490	0.017686	0.015868	0.028900	0.018272	0.018167	0.021090	0.015390	0.038393	0.032606	0.017857	0.015209	0.017296	0.009724	0.010572	0.011264	0.008117	0.006267	0.020440	0.025331
5.460000	0.154497	0.062758	0.069296	0.040640	0.016936	0.075524	0.077628	0.022523	0.030668	0.015976	0.023765	0.025960	0.060550	0.058303	0.070878	0.102510	0.038985	0.042659	0.036566	0.019152	0.031575	0.058230	0.043831	0.063819	0.008850		0.005468	0.010337	0.015503	0.015032	0.013628	0.021626	0.014117	0.040522	0.010082	0.017043	0.018716	0.019569	0.018201	0.023484	0.013040	0.012734	0.017898	0.016059	0.029002	0.018284	0.018362	0.021381	0.015409	0.038590	0.033091	0.017998	0.015087	0.017366	0.009730	0.010394	0.011344	0.008225	0.006416	0.020390	0.025319
5.465000	0.154664	0.062648	0.069540	0.040495	0.016984	0.075546	0.077548	0.022563	0.030771	0.015940	0.023695	0.025919	0.060506	0.058476	0.070978	0.102179	0.038839	0.042529	0.036437	0.019299	0.031532	0.058320	0.043621	0.063920	0.008846		0.005213	0.010321	0.015474	0.014613	0.013884	0.021867	0.014300	0.040395	0.009859	0.017079	0.018767	0.019684	0.018263	0.023487	0.013040	0.012671	0.017974	0.016066	0.028975	0.018282	0.018188	0.021235	0.015278	0.039057	0.033083	0.018011	0.015160	0.017325	0.009731	0.010416	0.011305	0.008104	0.006329	0.020444	0.025353
5.470000	0.155170	0.062655	0.069323	0.040041	0.017123	0.075374	0.076426	0.022413	0.030736	0.015956	0.023786	0.025988	0.060854	0.058264	0.071201	0.101904	0.038728	0.042608	0.036339	0.019314	0.031304	0.058588	0.043776	0.063795	0.009640		0.005677	0.010168	0.015569	0.014960	0.014330	0.022381	0.014683	0.040108	0.009547	0.017031	0.018731	0.019549	0.018137	0.023538	0.013104	0.012814	0.018080	0.015986	0.029025	0.017764	0.017677	0.020854	0.014814	0.039367	0.033280	0.018317	0.015324	0.017512	0.009949	0.010618	0.011316	0.007993	0.006251	0.020481	0.025396
5.475000	0.155126	0.062709	0.069363	0.039967	0.017065	0.074855	0.076448	0.022300	0.030588	0.015895	0.023872	0.026091	0.060882	0.058289	0.071292	0.102386	0.038580	0.042469	0.036267	0.019269	0.031186	0.058410	0.043604	0.064138	0.009136		0.005709	0.010227	0.015558	0.014938	0.014078	0.022124	0.014692	0.040168	0.009516	0.017143	0.018789	0.019592	0.018283	0.023734	0.013240	0.013025	0.018120	0.016212	0.028983	0.018069	0.018092	0.021442	0.015106	0.039289	0.033214	0.018197	0.015143	0.017350	0.009783	0.010532	0.011400	0.008142	0.006378	0.020404	0.025324
5.480000	0.155318	0.062524	0.069527	0.039929	0.016998	0.074899	0.076806	0.022373	0.030466	0.015805	0.023550	0.026075	0.060932	0.058185	0.071262	0.102107	0.038470	0.042347	0.035991	0.019417	0.031044	0.058521	0.043564	0.064198	0.009121		0.006005	0.010256	0.015597	0.015001	0.014157	0.022117	0.014777	0.040121	0.009440	0.017111	0.018762	0.019539	0.018209	0.023666	0.013180	0.012969	0.018295	0.016271	0.029102	0.018121	0.018350	0.021543	0.015268	0.038803	0.033073	0.018066	0.015062	0.017262	0.009667	0.010450	0.011372	0.008195	0.006341	0.020476	0.025347
5.485000	0.155151	0.062837	0.069556	0.039862	0.016941	0.075156	0.076842	0.022450	0.030429	0.015660	0.023935	0.026105	0.060096	0.057967	0.071572	0.102079	0.038582	0.042339	0.035966	0.019544	0.031114	0.058199	0.043531	0.064340	0.008883		0.005925	0.010225	0.015598	0.015070	0.014243	0.022169	0.014803	0.040121	0.009413	0.017123	0.018795	0.019562	0.018177	0.023717	0.013263	0.013071	0.018299	0.016291	0.029170	0.017899	0.018043	0.021391	0.015144	0.039047	0.033164	0.018175	0.015131	0.017351	0.009738	0.010562	0.011427	0.008150	0.006413	0.020443	0.025256
5.490000	0.155882	0.062377	0.069620	0.039412	0.016941	0.074665	0.076425	0.022405	0.030496	0.015245	0.024135	0.026225	0.060547	0.057948	0.071496	0.101569	0.038237	0.042524	0.035890	0.019451	0.031091	0.058102	0.043441	0.064341	0.009262		0.006251	0.009894	0.015735	0.015139	0.014569	0.022586	0.014964	0.039924	0.009439	0.017105	0.018745	0.019593	0.018153	0.023633	0.013291	0.013018	0.018226	0.016330	0.029108	0.017549	0.017545	0.020746	0.014680	0.039535	0.033421	0.018315	0.015305	0.017430	0.009777	0.010589	0.011355	0.008150	0.006284	0.020584	0.025292
5.495000	0.155625	0.062944	0.069792	0.039568	0.016802	0.074186	0.076799	0.022658	0.030247	0.015262	0.024247	0.026050	0.060632	0.057838	0.071918	0.101731	0.037963	0.042282	0.035717	0.019507	0.031120	0.058068	0.043570	0.064818	0.009392		0.006243	0.010040	0.015549	0.015286	0.014470	0.022551	0.015151	0.039848	0.009435	0.017116	0.018794	0.019644	0.018191	0.023755	0.013267	0.013085	0.018352	0.016424	0.029222	0.017670	0.017792	0.020997	0.014794	0.039456	0.033270	0.018261	0.015266	0.017384	0.009749	0.010624	0.011356	0.008035	0.006172	0.020505	0.025361
5.500000	0.155889	0.062585	0.069893	0.039356	0.016576	0.074255	0.076466	0.022438	0.030432	0.015251	0.024215	0.026128	0.060483	0.057921	0.071897	0.101571	0.038078	0.042000	0.035488	0.019636	0.030874	0.058111	0.043024	0.064945	0.008698		0.006342	0.010202	0.015770	0.015323	0.014667	0.022246	0.015082	0.040090	0.009731	0.017124	0.018825	0.019641	0.018223	0.023697	0.013313	0.013068	0.018369	0.016416	0.029324	0.018021	0.018177	0.021377	0.015272	0.039100	0.032972	0.018015	0.015205	0.017360	0.009742	0.010651	0.011392	0.008062	0.006334	0.020470	0.025319
5.505000	0.156527	0.062614	0.069841	0.038713	0.016608	0.073804	0.076113	0.022075	0.030526	0.015535	0.024182	0.025918	0.060562	0.057752	0.072418	0.101038	0.037808	0.042316	0.035659	0.019634	0.030652	0.058245	0.043372	0.064789	0.008396		0.006315	0.009992	0.015899	0.015518	0.014783	0.022838	0.015385	0.039642	0.009464	0.017175	0.018797	0.019617	0.018244	0.023664	0.013311	0.013064	0.018350	0.016393	0.029354	0.017926	0.017934	0.021024	0.015014	0.039351	0.032938	0.018151	0.015309	0.017382	0.009758	0.010794	0.011391	0.008018	0.006104	0.020600	0.025369
5.510000	0.156276	0.062387	0.069785	0.038660	0.016475	0.073111	0.076088	0.022615	0.030215	0.015274	0.024226	0.026052	0.060486	0.057722	0.072535	0.101222	0.037829	0.041811	0.035321	0.019837	0.030989	0.058139	0.042923	0.065387	0.009435		0.006596	0.010127	0.015850	0.015811	0.015610	0.023650	0.016019	0.038814	0.009010	0.017231	0.018879	0.019581	0.018245	0.023748	0.013331	0.013171	0.018401	0.016334	0.029346	0.017737	0.017781	0.020837	0.015000	0.039297	0.032564	0.018129	0.015397	0.017405	0.009697	0.010962	0.011315	0.007953	0.006070	0.020570	0.025456
5.515000	0.157059	0.062611	0.070179	0.038170	0.016268	0.072935	0.075482	0.022355	0.030401	0.015311	0.024002	0.025470	0.060692	0.057398	0.073053	0.100680	0.037541	0.041900	0.035441	0.019614	0.030541	0.058190	0.042926	0.065198	0.021548		0.006787	0.010840	0.019268	0.015940	0.015370	0.022947	0.015815	0.039070	0.009114	0.017239	0.018500	0.019612	0.018296	0.023850	0.013461	0.013369	0.018410	0.016260	0.029355	0.017429	0.017503	0.020695	0.014647	0.039610	0.033139	0.018423	0.015451	0.017534	0.009781	0.010987	0.011406	0.007883	0.006044	0.020470	0.025492
5.520000	0.157447	0.059874	0.068023	0.037856	0.017301	0.073749	0.076902	0.023147	0.030997	0.016089	0.023868	0.026225	0.060561	0.057244	0.072447	0.101536	0.038486	0.042454	0.036325	0.020035	0.031701	0.057971	0.042623	0.064914	0.027921		0.006869	0.009927	0.015152	0.017961	0.020899	0.029419	0.018152	0.036929	0.009415	0.017774	0.017973	0.019504	0.017876	0.022035	0.012464	0.010697	0.016158	0.014353	0.028432	0.021552	0.018056	0.019540	0.016349	0.035944	0.025608	0.015851	0.016441	0.017021	0.009099	0.013828	0.010926	0.009602	0.006665	0.021629	0.026090
5.525000	0.157271	0.062576	0.069712	0.037910	0.016803	0.072962	0.075487	0.022668	0.029917	0.015494	0.024290	0.025849	0.060337	0.057387	0.072880	0.100944	0.037395	0.041392	0.035338	0.019990	0.031067	0.057894	0.042420	0.065489	0.008544		0.006921	0.009967	0.016163	0.016453	0.016548	0.024455	0.017215	0.037707	0.008442	0.017529	0.018561	0.019643	0.018433	0.023878	0.013361	0.013346	0.018627	0.016450	0.029554	0.017288	0.016886	0.020138	0.014371	0.039931	0.033208	0.018419	0.015656	0.017679	0.009885	0.011024	0.011362	0.007770	0.006031	0.020656	0.025585
5.530000	0.157168	0.062547	0.069850	0.037896	0.016491	0.072761	0.075530	0.022797	0.029746	0.015222	0.024244	0.025997	0.060454	0.057026	0.073095	0.100750	0.037346	0.041050	0.035163	0.020157	0.030957	0.057671	0.042303	0.065130	0.009474		0.006783	0.010209	0.015953	0.016204	0.016078	0.023942	0.016744	0.038312	0.008844	0.017552	0.018636	0.019736	0.018437	0.023735	0.013315	0.013184	0.018597	0.016384	0.029553	0.017273	0.016848	0.020193	0.014720	0.039687	0.032732	0.018333	0.015645	0.017624	0.009808	0.011157	0.011323	0.007807	0.006016	0.020710	0.025527
5.535000	0.157948	0.062413	0.069818	0.037076	0.016414	0.071754	0.074774	0.022623	0.029781	0.015391	0.024312	0.025754	0.060485	0.056855	0.073028	0.100192	0.037245	0.041122	0.035006	0.019908	0.030620	0.057720	0.042064	0.065491	0.009754		0.007213	0.009912	0.016166	0.016417	0.016221	0.024049	0.016945	0.038318	0.008833	0.017702	0.018644	0.019683	0.018357	0.023474	0.013521	0.013306	0.018627	0.016544	0.029544	0.017434	0.016853	0.019909	0.014533	0.040038	0.032829	0.018055	0.015442	0.017337	0.009417	0.010864	0.011007	0.008000	0.005877	0.020924	0.025763
5.540000	0.158192	0.062791	0.069998	0.036809	0.016188	0.071717	0.074226	0.022381	0.029625	0.015153	0.024232	0.025438	0.060479	0.056737	0.073528	0.100020	0.036995	0.041001	0.034907	0.019872	0.030416	0.057694	0.041541	0.065087	0.009169		0.007153	0.010070	0.016131	0.016676	0.016235	0.023996	0.017124	0.037815	0.008620	0.017811	0.018725	0.019698	0.018453	0.023934	0.013473	0.013607	0.018964	0.016723	0.029503	0.017707	0.017178	0.020222	0.014781	0.040098	0.032762	0.018202	0.015725	0.017672	0.009842	0.011258	0.011510	0.007873	0.006121	0.020738	0.025370
5.545000	0.158509	0.062585	0.070169	0.036573	0.016064	0.071284	0.074037	0.022551	0.029816	0.015222	0.023997	0.025256	0.060265	0.056549	0.073722	0.099475	0.036965	0.040809	0.034706	0.019815	0.030117	0.057389	0.041235	0.065479	0.009300		0.007437	0.010164	0.016212	0.016699	0.016204	0.023862	0.017092	0.037896	0.008659	0.017880	0.019071	0.019813	0.018487	0.023924	0.013355	0.013543	0.019072	0.016643	0.029687	0.017344	0.017105	0.020567	0.014856	0.040157	0.032649	0.018091	0.015662	0.017690	0.009921	0.011323	0.011452	0.007761	0.005919	0.020793	0.025450
5.550000	0.158551	0.062518	0.070148	0.036371	0.016151	0.070914	0.073702	0.023064	0.029610	0.015355	0.023965	0.025390	0.060125	0.056391	0.073749	0.099424	0.036903	0.040613	0.034588	0.019984	0.030115	0.057244	0.040908	0.065410	0.009393		0.007525	0.010299	0.016155	0.016581	0.016027	0.023736	0.017253	0.038023	0.008759	0.017990	0.019255	0.020059	0.018648	0.023822	0.013319	0.013458	0.019186	0.016931	0.029783	0.017583	0.016990	0.020552	0.014935	0.040263	0.032840	0.018049	0.015643	0.017645	0.009856	0.011298	0.011462	0.007788	0.005938	0.020703	0.025529
5.555000	0.158770	0.062891	0.070374	0.036078	0.016167	0.070178	0.073287	0.023421	0.030443	0.015831	0.023890	0.025303	0.059603	0.056507	0.073233	0.099091	0.036951	0.040585	0.034573	0.019732	0.029896	0.056980	0.041267	0.064911	0.009803		0.007628	0.010523	0.016189	0.016898	0.016244	0.023956	0.017674	0.037547	0.008345	0.017980	0.019024	0.019917	0.018632	0.023918	0.013440	0.013750	0.019357	0.016934	0.029872	0.017639	0.017275	0.020758	0.015260	0.039950	0.032509	0.017773	0.015580	0.017538	0.009777	0.011300	0.011503	0.007907	0.006057	0.020718	0.025518
5.560000	0.158683	0.062764	0.069852	0.035915	0.016475	0.070081	0.073079	0.023822	0.030230	0.015630	0.024133	0.025414	0.059926	0.056473	0.073664	0.099022	0.037065	0.040415	0.034502	0.019773	0.029956	0.056696	0.040542	0.065096	0.009749		0.008227	0.010262	0.016322	0.017600	0.016965	0.024557	0.018349	0.036828	0.007983	0.017951	0.019079	0.019887	0.018743	0.024084	0.013569	0.014094	0.019588	0.017133	0.030065	0.017176	0.016689	0.020219	0.014514	0.040650	0.033207	0.018220	0.015679	0.017689	0.009825	0.011131	0.011491	0.007783	0.005938	0.020770	0.025568
5.565000	0.158880	0.062139	0.070223	0.035793	0.016369	0.069895	0.072848	0.024041	0.029451	0.015729	0.024195	0.025221	0.059658	0.056345	0.073539	0.098912	0.036957	0.040127	0.034464	0.019834	0.029916	0.056598	0.040224	0.064786	0.009863		0.008112	0.010228	0.016105	0.016975	0.016066	0.023644	0.017347	0.037881	0.008721	0.017945	0.019366	0.020118	0.018785	0.023968	0.013441	0.013827	0.019644	0.017048	0.029954	0.017470	0.016636	0.020201	0.014538	0.040478	0.032895	0.018111	0.015648	0.017709	0.009787	0.011292	0.011575	0.007734	0.005935	0.020780	0.025615
5.570000	0.159166	0.062522	0.070213	0.035504	0.016154	0.069557	0.072326	0.024440	0.029536	0.015880	0.024395	0.025164	0.059609	0.056170	0.073722	0.098361	0.036766	0.039838	0.034460	0.019940	0.029897	0.056224	0.040280	0.064628	0.009770		0.008009	0.010267	0.016285	0.017559	0.016579	0.023560	0.018217	0.037216	0.008529	0.018179	0.019222	0.020111	0.018991	0.024151	0.013608	0.014228	0.019764	0.017247	0.029983	0.017431	0.017207	0.020695	0.015070	0.040092	0.032365	0.017894	0.015552	0.017574	0.009756	0.011345	0.011609	0.007817	0.006043	0.020738	0.025569
5.575000	0.159028	0.062389	0.070318	0.035497	0.015894	0.069287	0.072092	0.024538	0.029603	0.016224	0.024214	0.024946	0.059310	0.056075	0.073714	0.098054	0.036695	0.039833	0.034415	0.019718	0.029658	0.055736	0.040501	0.064383	0.008947		0.007870	0.010470	0.016399	0.018013	0.017017	0.024286	0.018796	0.036845	0.008495	0.018359	0.019473	0.020127	0.018987	0.024216	0.013564	0.014319	0.019491	0.017575	0.030166	0.017750	0.017353	0.020645	0.015274	0.039944	0.032214	0.017764	0.015512	0.017479	0.009652	0.011379	0.011724	0.007862	0.006179	0.020779	0.025498
5.580000	0.159118	0.062605	0.069694	0.035061	0.015806	0.069308	0.071681	0.024974	0.029634	0.016270	0.024272	0.024802	0.059263	0.055848	0.073987	0.097863	0.036644	0.039938	0.034328	0.019779	0.029566	0.055880	0.039878	0.064174	0.020046		0.008700	0.010709	0.019514	0.018901	0.018239	0.025673	0.019789	0.035579	0.007875	0.018503	0.019443	0.019872	0.018964	0.024120	0.013639	0.014522	0.019670	0.017419	0.030367	0.016870	0.016419	0.019579	0.014376	0.040849	0.032640	0.018093	0.015709	0.017686	0.009699	0.011446	0.011402	0.007769	0.005850	0.020926	0.025644
5.585000	0.160029	0.059947	0.068281	0.034411	0.016077	0.069999	0.072641	0.025991	0.030904	0.017195	0.023454	0.024961	0.058570	0.055499	0.075177	0.098036	0.037581	0.040551	0.035481	0.019796	0.030203	0.055716	0.039639	0.063811	0.024785		0.008272	0.010597	0.015694	0.018582	0.020858	0.029108	0.019214	0.036092	0.009150	0.018852	0.019088	0.020059	0.018624	0.022387	0.012497	0.011680	0.017822	0.015408	0.029045	0.021704	0.017983	0.019642	0.017143	0.036577	0.024787	0.015214	0.016473	0.016972	0.009060	0.014291	0.011164	0.010302	0.007231	0.021967	0.026265
5.590000	0.159879	0.061707	0.069589	0.034424	0.015426	0.068816	0.071232	0.025613	0.029715	0.016781	0.023740	0.024711	0.059750	0.055195	0.073233	0.097433	0.036666	0.039810	0.034591	0.019687	0.029700	0.055341	0.039421	0.063613	0.009539		0.008842	0.010706	0.016742	0.018888	0.019088	0.026658	0.020364	0.035338	0.008024	0.018951	0.019615	0.020284	0.019133	0.023865	0.013566	0.014258	0.019946	0.017150	0.030172	0.016841	0.015609	0.018594	0.013983	0.040503	0.031659	0.017837	0.016039	0.017730	0.009835	0.012011	0.011346	0.007925	0.005853	0.021149	0.025794
5.595000	0.160685	0.061823	0.069858	0.034411	0.014994	0.068249	0.071130	0.025904	0.029885	0.017146	0.023717	0.024647	0.059023	0.055056	0.073783	0.097234	0.036830	0.039923	0.034702	0.019740	0.029337	0.053512	0.039457	0.063344	0.018606		0.008131	0.010769	0.019304	0.019265	0.018915	0.026221	0.020420	0.035109	0.008343	0.019159	0.020080	0.020549	0.019220	0.024148	0.013543	0.014472	0.020242	0.017382	0.030066	0.017417	0.015930	0.018909	0.014552	0.040148	0.031268	0.017576	0.016008	0.017704	0.009966	0.012119	0.011539	0.007996	0.006108	0.021032	0.025612
5.600000	0.161177	0.059296	0.068157	0.033631	0.015705	0.069233	0.071751	0.026960	0.031348	0.018017	0.022834	0.024831	0.058648	0.054893	0.073330	0.097344	0.037652	0.040699	0.035580	0.019816	0.030229	0.054847	0.038732	0.062565	0.025964		0.009400	0.010559	0.015992	0.020740	0.023272	0.031480	0.021325	0.034280	0.008296	0.019587	0.019343	0.020640	0.018650	0.022400	0.012691	0.012202	0.017827	0.015327	0.029239	0.021814	0.016879	0.017992	0.016217	0.037224	0.024845	0.015404	0.016880	0.017207	0.009328	0.014656	0.011257	0.010607	0.007718	0.022358	0.026581
5.605000	0.161286	0.061878	0.070003	0.033842	0.014656	0.068005	0.070933	0.026720	0.031089	0.017493	0.023475	0.024771	0.058173	0.054658	0.073428	0.096754	0.036904	0.039815	0.034634	0.019733	0.029438	0.055260	0.039013	0.062672	0.009999		0.009123	0.010322	0.016954	0.019107	0.019229	0.026347	0.020629	0.035296	0.008512	0.019569	0.019745	0.020765	0.019141	0.023816	0.013416	0.014288	0.020196	0.016619	0.030415	0.017139	0.014829	0.017367	0.013281	0.041117	0.031748	0.018090	0.016205	0.017945	0.010125	0.012216	0.011329	0.007723	0.005865	0.021301	0.025944
5.610000	0.161645	0.062077	0.070158	0.033772	0.014383	0.068394	0.070902	0.026758	0.030099	0.017544	0.023522	0.024626	0.058169	0.054101	0.073744	0.096391	0.036616	0.039900	0.034646	0.019799	0.029349	0.055381	0.038603	0.062800	0.015455		0.009183	0.011223	0.019521	0.019076	0.018473	0.025105	0.020966	0.035765	0.008992	0.019755	0.020026	0.021031	0.019371	0.023849	0.013491	0.014410	0.020567	0.016938	0.030241	0.017143	0.015124	0.017965	0.013687	0.040836	0.031404	0.017812	0.016052	0.017827	0.009980	0.012227	0.011459	0.007864	0.006043	0.021308	0.025814
5.615000	0.162940	0.059445	0.068285	0.032854	0.015421	0.068940	0.071419	0.028229	0.031545	0.018971	0.022948	0.025035	0.058275	0.053828	0.073083	0.096551	0.037590	0.040751	0.035688	0.019784	0.030020	0.054273	0.038296	0.062033	0.005135		0.009524	0.011103	0.017765	0.020568	0.022570	0.030368	0.021372	0.034291	0.008771	0.020074	0.019979	0.021091	0.019060	0.022276	0.012791	0.012404	0.018581	0.015773	0.029514	0.021948	0.017103	0.018177	0.016491	0.037416	0.024621	0.015327	0.016795	0.017247	0.009345	0.014650	0.011453	0.010625	0.007842	0.022326	0.026428
5.620000	0.162659	0.059262	0.068141	0.032660	0.015480	0.068890	0.071158	0.028463	0.031968	0.019425	0.022656	0.025122	0.058132	0.053153	0.073223	0.096368	0.038082	0.041080	0.035928	0.019760	0.029889	0.054103	0.037823	0.061946	0.005718		0.010267	0.011232	0.018180	0.021261	0.023466	0.031267	0.022066	0.033722	0.008335	0.020282	0.020123	0.021201	0.019207	0.022432	0.012875	0.012623	0.018459	0.015111	0.029567	0.022269	0.016930	0.017876	0.016400	0.037426	0.024263	0.015165	0.016788	0.017137	0.009256	0.014810	0.011327	0.010916	0.008107	0.022576	0.026723
5.625000	0.163219	0.059486	0.068540	0.032394	0.015162	0.068694	0.070470	0.028802	0.032159	0.019584	0.022576	0.024706	0.057933	0.052945	0.073190	0.095845	0.038490	0.041163	0.036186	0.019738	0.030100	0.052590	0.037936	0.061260	0.005455		0.010174	0.011173	0.017974	0.020802	0.022748	0.030341	0.021518	0.034322	0.009128	0.020459	0.020105	0.021408	0.019368	0.022257	0.012649	0.012391	0.018687	0.015341	0.029561	0.022307	0.016991	0.018112	0.016630	0.037089	0.024028	0.014915	0.016743	0.017062	0.009216	0.014855	0.011389	0.011023	0.008248	0.022639	0.026663
5.630000	0.162658	0.059672	0.068018	0.032271	0.014981	0.068313	0.070372	0.029140	0.032343	0.019899	0.022685	0.025121	0.057365	0.053345	0.072182	0.095700	0.038733	0.041199	0.036297	0.019703	0.030411	0.052741	0.037884	0.061068	0.005324		0.010498	0.011683	0.018322	0.021012	0.023112	0.030774	0.021933	0.033784	0.009013	0.020343	0.020206	0.021279	0.019388	0.022466	0.012976	0.013085	0.019095	0.015584	0.029764	0.022927	0.017590	0.018576	0.017318	0.036324	0.023386	0.014568	0.016538	0.016886	0.009083	0.014868	0.011398	0.011080	0.008316	0.022539	0.026696
5.635000	0.163042	0.059388	0.067940	0.032245	0.015128	0.068431	0.070429	0.029682	0.032508	0.020286	0.022628	0.025021	0.057299	0.052501	0.072729	0.095592	0.038922	0.041441	0.036672	0.019806	0.030478	0.053224	0.037300	0.060578	0.005636		0.010630	0.011615	0.018055	0.021563	0.023570	0.031177	0.022631	0.032979	0.009097	0.021046	0.020644	0.021499	0.019728	0.022625	0.012995	0.013306	0.019428	0.015808	0.029788	0.023082	0.018035	0.019176	0.017906	0.035562	0.022686	0.014110	0.016453	0.016769	0.008967	0.015030	0.011533	0.011403	0.008510	0.022492	0.026617
5.640000	0.163640	0.059527	0.068350	0.031526	0.015058	0.068312	0.069505	0.029999	0.032751	0.020757	0.022201	0.024693	0.057654	0.052156	0.072571	0.095284	0.039183	0.041745	0.036638	0.019499	0.030067	0.052920	0.037104	0.060363	0.006097		0.010652	0.011266	0.017833	0.021271	0.023109	0.030811	0.022270	0.033564	0.009853	0.021263	0.020649	0.021833	0.019721	0.022247	0.012728	0.012812	0.019171	0.015620	0.029902	0.022806	0.016537	0.017113	0.016184	0.036896	0.023691	0.014713	0.016829	0.017121	0.009353	0.015007	0.011362	0.011154	0.008615	0.022735	0.026867
5.645000	0.163620	0.059625	0.068269	0.031469	0.014811	0.068711	0.069456	0.030340	0.032526	0.021486	0.022169	0.025073	0.057245	0.051760	0.072516	0.094922	0.039554	0.041895	0.036762	0.019340	0.030176	0.052578	0.036483	0.060202	0.005598		0.010413	0.011446	0.017948	0.021265	0.023140	0.030651	0.022378	0.033277	0.009993	0.021464	0.020755	0.021984	0.019765	0.022215	0.012752	0.013042	0.019568	0.015942	0.030094	0.023043	0.016712	0.017680	0.016605	0.036342	0.022762	0.014322	0.016623	0.016904	0.009176	0.014977	0.011435	0.011268	0.008669	0.022723	0.026860
5.650000	0.163338	0.059404	0.067451	0.031136	0.015067	0.068739	0.069378	0.031029	0.032677	0.022221	0.022175	0.025122	0.057047	0.051852	0.072040	0.094714	0.039892	0.041841	0.037035	0.020339	0.030739	0.051902	0.036734	0.059454	0.006339		0.011287	0.011839	0.018198	0.022064	0.023901	0.031349	0.023446	0.032167	0.009774	0.021822	0.020831	0.022239	0.019924	0.022288	0.012951	0.013466	0.019888	0.016048	0.030415	0.022762	0.017295	0.018234	0.017146	0.035448	0.022009	0.013969	0.016546	0.016681	0.009238	0.015197	0.011600	0.011627	0.008681	0.022658	0.026740
5.655000	0.164080	0.059205	0.067627	0.030769	0.015151	0.068385	0.068537	0.031606	0.032984	0.022485	0.021780	0.024771	0.057317	0.051462	0.072094	0.094360	0.040203	0.042175	0.037372	0.019222	0.030309	0.052033	0.035552	0.059299	0.004979		0.010871	0.011372	0.018142	0.021632	0.023434	0.030878	0.022713	0.032534	0.010313	0.022008	0.021107	0.022417	0.020008	0.021905	0.012630	0.012990	0.019738	0.015883	0.030348	0.023225	0.016443	0.016575	0.016080	0.036178	0.022526	0.014312	0.016754	0.016846	0.009412	0.015099	0.011478	0.011351	0.008780	0.022874	0.026943
5.660000	0.163748	0.058869	0.067241	0.030628	0.015315	0.068336	0.068001	0.032107	0.033219	0.023010	0.021495	0.025023	0.056695	0.051415	0.071939	0.094222	0.040792	0.042397	0.037627	0.019528	0.030606	0.051318	0.036008	0.058730	0.005257		0.010810	0.011846	0.018336	0.022223	0.024095	0.031472	0.023341	0.031929	0.010389	0.022212	0.021283	0.022518	0.019985	0.021785	0.012637	0.013034	0.019815	0.015783	0.030470	0.023454	0.016488	0.016496	0.016265	0.036051	0.021887	0.013985	0.016775	0.016736	0.009429	0.015308	0.011504	0.011589	0.009117	0.023035	0.027114
5.665000	0.163877	0.058704	0.066219	0.030070	0.015695	0.068749	0.067515	0.033031	0.033430	0.023719	0.021343	0.024795	0.056952	0.051201	0.071620	0.094011	0.041206	0.042842	0.038102	0.019575	0.030801	0.051228	0.035414	0.058463	0.006712		0.011656	0.011937	0.018460	0.023062	0.025116	0.032146	0.024148	0.030860	0.010202	0.022528	0.021599	0.022768	0.020097	0.021704	0.012641	0.013256	0.020094	0.016015	0.030675	0.023562	0.016503	0.016166	0.016262	0.035837	0.021673	0.014024	0.016845	0.016718	0.009499	0.015356	0.011610	0.011635	0.009199	0.023077	0.027082
5.670000	0.163469	0.057913	0.065785	0.030224	0.015489	0.068903	0.067085	0.033632	0.034332	0.024424	0.021620	0.024983	0.056424	0.050843	0.071790	0.093843	0.041429	0.043236	0.038504	0.019966	0.030792	0.050565	0.034883	0.058149	0.004264		0.011481	0.011616	0.018022	0.022663	0.024482	0.031642	0.023665	0.031223	0.010686	0.022779	0.021735	0.022915	0.020195	0.021467	0.012421	0.012918	0.020054	0.015895	0.030561	0.024558	0.017300	0.017104	0.017183	0.034224	0.020322	0.013311	0.016675	0.016208	0.009251	0.015496	0.011595	0.012081	0.009437	0.023186	0.027242
5.675000	0.163287	0.057156	0.065407	0.030028	0.015434	0.068927	0.066884	0.034306	0.035156	0.025104	0.021271	0.025109	0.056108	0.050938	0.071242	0.093153	0.041878	0.043411	0.038959	0.019921	0.031311	0.050106	0.035093	0.057620	0.004651		0.011313	0.012368	0.017982	0.023313	0.025003	0.031999	0.024076	0.030415	0.010737	0.023053	0.021834	0.023086	0.020307	0.021258	0.012287	0.012762	0.020080	0.015904	0.030728	0.024802	0.017155	0.016828	0.017193	0.033692	0.019875	0.013115	0.016802	0.016066	0.009254	0.015553	0.011548	0.012158	0.009567	0.023174	0.027428
5.680000	0.163427	0.056688	0.064945	0.029746	0.015743	0.069005	0.066251	0.035035	0.035775	0.025704	0.021303	0.025220	0.056211	0.050695	0.070952	0.092876	0.042660	0.043875	0.039425	0.019567	0.030892	0.049410	0.035287	0.057330	0.005105		0.011709	0.012213	0.018188	0.023586	0.025286	0.032161	0.024191	0.029808	0.010634	0.023434	0.022154	0.023302	0.020260	0.021137	0.012187	0.012656	0.020180	0.015920	0.030820	0.025099	0.016867	0.016327	0.017156	0.033610	0.019552	0.013025	0.016790	0.015976	0.009376	0.015619	0.011461	0.012053	0.009640	0.023341	0.027653
5.685000	0.162940	0.056170	0.064130	0.029511	0.015747	0.069188	0.065621	0.035834	0.036466	0.026558	0.020696	0.024908	0.056005	0.050478	0.070927	0.092487	0.043129	0.044028	0.039989	0.019815	0.031267	0.049110	0.034793	0.056765	0.004951		0.012055	0.012341	0.018137	0.023755	0.025397	0.032229	0.024513	0.029126	0.010445	0.023641	0.022411	0.023427	0.020202	0.021034	0.012073	0.012636	0.020382	0.016020	0.030967	0.025369	0.017038	0.016406	0.017242	0.033034	0.019176	0.012826	0.016785	0.015878	0.009451	0.015613	0.011437	0.012010	0.009683	0.023389	0.027519
5.690000	0.161857	0.055049	0.063346	0.029568	0.015499	0.069428	0.065496	0.036925	0.037666	0.027459	0.021178	0.025380	0.055757	0.050212	0.070717	0.092332	0.044005	0.044092	0.040907	0.020180	0.031659	0.048545	0.034473	0.056650	0.005362		0.012088	0.012540	0.018472	0.024486	0.026061	0.032701	0.025279	0.027947	0.010315	0.024005	0.022566	0.023610	0.020247	0.021180	0.012330	0.013160	0.020639	0.016212	0.031071	0.025435	0.017440	0.017084	0.017905	0.032156	0.018390	0.012253	0.016469	0.015587	0.009230	0.015527	0.011444	0.012102	0.009604	0.023546	0.027570
5.695000	0.162479	0.055288	0.062570	0.028885	0.015180	0.069582	0.064608	0.037381	0.039570	0.027879	0.020733	0.024939	0.055875	0.049819	0.070384	0.091700	0.044468	0.045286	0.040976	0.019680	0.031567	0.048224	0.034553	0.055966	0.004798		0.012229	0.012249	0.017955	0.024431	0.026024	0.032623	0.025798	0.027610	0.010340	0.024117	0.022726	0.023215	0.020258	0.020852	0.012084	0.012656	0.020411	0.015993	0.031171	0.026226	0.017389	0.016507	0.017783	0.031760	0.018098	0.012030	0.016580	0.015495	0.009414	0.015556	0.011370	0.011874	0.009643	0.023707	0.027722
5.700000	0.161785	0.053371	0.061857	0.028818	0.015184	0.070141	0.063739	0.037896	0.036371	0.028554	0.020711	0.024821	0.055480	0.049584	0.070167	0.091287	0.045278	0.045890	0.041857	0.019752	0.031661	0.048007	0.033954	0.056157	0.004369	0.041149	0.012339	0.012631	0.018052	0.024946	0.026411	0.033050	0.025345	0.027091	0.010225	0.024203	0.022912	0.023273	0.020213	0.020644	0.011930	0.012584	0.020418	0.015909	0.031156	0.026688	0.017360	0.016322	0.017543	0.031186	0.017685	0.011775	0.016656	0.015316	0.009369	0.015587	0.011398	0.011932	0.009659	0.023748	0.027778
5.705000	0.160554	0.051266	0.059134	0.027520	0.016790	0.068934	0.062361	0.039261	0.038189	0.029980	0.019651	0.023884	0.056824	0.049527	0.070229	0.090801	0.046596	0.047103	0.042668	0.019807	0.031918	0.046849	0.034414	0.055395	0.015782	0.023314	0.015434	0.013444	0.022800	0.025077	0.025718	0.031758	0.028336	0.025067	0.012692	0.024916	0.023525	0.023315	0.021004	0.022735	0.013901	0.016649	0.023923	0.019059	0.033306	0.019993	0.016958	0.019717	0.017198	0.031582	0.020744	0.012311	0.014931	0.014829	0.009115	0.013204	0.011515	0.008972	0.007049	0.021990	0.026700
5.710000	0.158664	0.049787	0.057267	0.028163	0.016305	0.069698	0.062235	0.040791	0.038357	0.031305	0.020140	0.024438	0.054284	0.049403	0.070098	0.090992	0.047750	0.047900	0.043721	0.020884	0.033100	0.047090	0.033723	0.055312	0.016025	0.023805	0.015558	0.013244	0.022822	0.025561	0.026591	0.032626	0.028965	0.023926	0.013138	0.025204	0.023848	0.023621	0.021092	0.022690	0.014015	0.016889	0.024010	0.019584	0.033355	0.020472	0.017810	0.020803	0.017480	0.030489	0.019598	0.011493	0.014793	0.014333	0.008731	0.013240	0.011596	0.009230	0.007245	0.021899	0.026609
5.715000	0.158740	0.048612	0.055910	0.027411	0.017668	0.069969	0.061661	0.041492	0.038979	0.031937	0.019519	0.024020	0.054733	0.048937	0.069488	0.090223	0.048724	0.048633	0.044520	0.020785	0.033161	0.047189	0.034031	0.054818	0.016552	0.023979	0.015890	0.013301	0.022871	0.025671	0.026599	0.032884	0.029206	0.023333	0.013146	0.024778	0.024071	0.024141	0.021104	0.022437	0.014109	0.016851	0.023767	0.018851	0.033506	0.020564	0.017757	0.020665	0.017682	0.029773	0.019168	0.011294	0.014755	0.014202	0.008862	0.013139	0.011646	0.008982	0.007233	0.021730	0.026606
5.720000	0.158395	0.047078	0.054672	0.026754	0.017858	0.070165	0.060870	0.041969	0.039410	0.032389	0.018976	0.023585	0.054693	0.048845	0.068828	0.089484	0.049567	0.049641	0.045070	0.020326	0.032903	0.045349	0.033594	0.054608	0.016699	0.023806	0.016306	0.013616	0.022821	0.025713	0.026829	0.033234	0.029199	0.022495	0.013190	0.024851	0.024294	0.023902	0.020780	0.022365	0.014268	0.016977	0.023904	0.018838	0.033607	0.020609	0.018016	0.021213	0.018239	0.028745	0.018287	0.010832	0.014491	0.013761	0.008845	0.012982	0.011570	0.009027	0.007325	0.020991	0.026660
5.725000	0.156613	0.045807	0.052525	0.026933	0.018019	0.070947	0.061108	0.043518	0.040820	0.033861	0.019166	0.023765	0.054135	0.048482	0.069328	0.089503	0.050602	0.050349	0.045977	0.021072	0.033582	0.044268	0.033646	0.054370	0.016642	0.024092	0.016536	0.013677	0.022928	0.025682	0.027243	0.033608	0.029330	0.021747	0.013392	0.024908	0.024136	0.023778	0.020779	0.022191	0.014462	0.017197	0.023815	0.018643	0.033575	0.020794	0.018539	0.021900	0.018513	0.027255	0.017172	0.010424	0.014294	0.013270	0.008769	0.012959	0.011554	0.009218	0.007546	0.021037	0.026502
5.730000	0.156285	0.044164	0.050888	0.026140	0.018709	0.070718	0.060804	0.043783	0.041877	0.034043	0.018569	0.023070	0.054268	0.048120	0.068441	0.088749	0.051673	0.051392	0.046794	0.021074	0.033528	0.043765	0.033487	0.054107	0.016623	0.024463	0.017198	0.013796	0.023400	0.025435	0.027107	0.033720	0.029028	0.021185	0.013291	0.024937	0.024217	0.023934	0.020495	0.021811	0.014265	0.016952	0.023599	0.018452	0.033575	0.020681	0.018577	0.021962	0.018614	0.026544	0.016626	0.010061	0.013991	0.012926	0.008540	0.012727	0.011490	0.008997	0.007564	0.020860	0.026522
5.735000	0.155845	0.042007	0.049277	0.025350	0.018991	0.070528	0.060199	0.044398	0.042032	0.034464	0.017734	0.022539	0.054573	0.047749	0.068001	0.088097	0.052023	0.052218	0.047043	0.020302	0.032819	0.043778	0.033570	0.053788	0.016831	0.023077	0.016467	0.014049	0.023025	0.025530	0.026996	0.033634	0.028565	0.020477	0.013481	0.024509	0.024247	0.023460	0.020033	0.021749	0.014367	0.017293	0.023370	0.018650	0.033708	0.020691	0.018787	0.022560	0.019205	0.025298	0.015605	0.009358	0.013807	0.012376	0.008132	0.012812	0.011497	0.009268	0.007816	0.020732	0.026473
5.740000	0.153896	0.040655	0.047412	0.026020	0.019043	0.070894	0.060202	0.045462	0.042917	0.035204	0.017882	0.022726	0.053526	0.047336	0.068119	0.087530	0.053099	0.052914	0.047694	0.020898	0.033328	0.043371	0.033079	0.054598	0.016905	0.022216	0.017299	0.014584	0.022689	0.024859	0.026637	0.033488	0.028009	0.020151	0.013252	0.024323	0.023943	0.023102	0.019892	0.021348	0.014311	0.016951	0.022860	0.018147	0.033332	0.020470	0.018311	0.021995	0.018545	0.024987	0.015194	0.009451	0.013951	0.012109	0.008173	0.012883	0.011630	0.009420	0.007954	0.020691	0.026153
5.745000	0.153487	0.038921	0.045742	0.025124	0.019252	0.070787	0.059999	0.045313	0.043499	0.035330	0.016928	0.021327	0.054035	0.047075	0.067313	0.086470	0.053362	0.053269	0.047857	0.020457	0.032630	0.043288	0.033443	0.053935	0.017031	0.022672	0.016896	0.014774	0.022979	0.024212	0.026172	0.032946	0.027338	0.019850	0.013360	0.024324	0.023946	0.022858	0.019340	0.020898	0.014511	0.016843	0.022560	0.017160	0.033339	0.020111	0.018330	0.021985	0.018614	0.023710	0.014578	0.009118	0.013575	0.011667	0.008043	0.012660	0.011437	0.009271	0.007949	0.020744	0.026228
5.750000	0.152280	0.036264	0.043704	0.024688	0.019789	0.070872	0.060182	0.046033	0.044464	0.035767	0.016294	0.020911	0.054567	0.046961	0.067102	0.085747	0.054065	0.054345	0.048174	0.020209	0.032203	0.043405	0.033334	0.054026	0.017349	0.022567	0.017798	0.014815	0.022990	0.023409	0.025786	0.032253	0.026426	0.019502	0.013940	0.023564	0.023603	0.022326	0.018985	0.020608	0.014789	0.017100	0.021964	0.016831	0.033027	0.019468	0.018141	0.022019	0.018143	0.022956	0.013945	0.008768	0.013247	0.011141	0.007758	0.012400	0.011452	0.009413	0.008176	0.020358	0.026154
5.755000	0.150776	0.034982	0.041820	0.024477	0.019901	0.070912	0.060354	0.046888	0.045220	0.036520	0.016533	0.020795	0.052489	0.046446	0.067447	0.085345	0.054731	0.055061	0.048697	0.019879	0.032256	0.042760	0.033264	0.054393	0.017613	0.022056	0.017821	0.014849	0.022742	0.022756	0.025240	0.031031	0.025465	0.019188	0.013397	0.023323	0.023395	0.022062	0.018330	0.020117	0.015006	0.017224	0.021472	0.016348	0.033046	0.019155	0.018448	0.022158	0.018050	0.021390	0.013310	0.008562	0.012843	0.010474	0.007187	0.011919	0.011311	0.009660	0.008625	0.020060	0.025952
5.760000	0.149841	0.032380	0.040219	0.023805	0.020295	0.071132	0.060360	0.046956	0.046225	0.036641	0.015215	0.019766	0.053471	0.046146	0.066694	0.084318	0.054961	0.055236	0.048531	0.019500	0.031370	0.042705	0.033457	0.054068	0.017656	0.021789	0.017719	0.015034	0.023282	0.022047	0.024344	0.030866	0.024662	0.019089	0.013271	0.022538	0.023052	0.021924	0.017703	0.019599	0.015074	0.017215	0.020776	0.015874	0.032925	0.018339	0.017729	0.021819	0.017576	0.020563	0.012740	0.008314	0.012077	0.009762	0.007088	0.011517	0.011185	0.009724	0.008928	0.019677	0.026049
5.765000	0.148072	0.030210	0.038090	0.023715	0.020642	0.071306	0.060930	0.047583	0.046400	0.037035	0.015408	0.019925	0.053878	0.045564	0.066573	0.083586	0.055569	0.055731	0.049056	0.019390	0.031040	0.042274	0.033338	0.054200	0.017824	0.021271	0.018006	0.014708	0.023604	0.020944	0.023342	0.029095	0.023529	0.019408	0.012372	0.021812	0.022528	0.021391	0.017070	0.019069	0.015401	0.017428	0.020111	0.015514	0.032695	0.017270	0.017018	0.021267	0.016995	0.019647	0.012455	0.008118	0.011721	0.009241	0.006756	0.010985	0.011084	0.010123	0.009366	0.018838	0.025923
5.770000	0.146400	0.027486	0.035947	0.023709	0.020864	0.071661	0.061617	0.048219	0.047090	0.037380	0.014830	0.019402	0.053283	0.045693	0.066834	0.083234	0.055981	0.056263	0.049376	0.019291	0.030722	0.043673	0.032709	0.054811	0.018398	0.020925	0.017908	0.014533	0.023435	0.020169	0.022515	0.027695	0.022607	0.019531	0.012421	0.020898	0.022027	0.020583	0.016429	0.018717	0.015660	0.017510	0.019410	0.014693	0.032481	0.016352	0.016423	0.020796	0.016250	0.018410	0.012084	0.007895	0.011253	0.008232	0.006234	0.010417	0.011325	0.010724	0.010073	0.018727	0.025897
5.775000	0.145547	0.025276	0.034619	0.022977	0.021132	0.071572	0.062036	0.048079	0.047641	0.037096	0.013912	0.018642	0.054983	0.045530	0.066619	0.081379	0.056052	0.057027	0.049159	0.018360	0.029106	0.042629	0.033713	0.054832	0.018788	0.020727	0.018009	0.014671	0.023973	0.019221	0.021624	0.026775	0.021376	0.020216	0.011941	0.020115	0.019864	0.018683	0.015199	0.017832	0.016074	0.017615	0.018485	0.013354	0.032379	0.015134	0.015665	0.019843	0.015426	0.017539	0.012260	0.007932	0.010840	0.007719	0.005991	0.009847	0.011241	0.011035	0.010037	0.018303	0.026184
5.780000	0.143841	0.023570	0.032765	0.022715	0.021319	0.071632	0.062583	0.048466	0.048497	0.037444	0.013408	0.018399	0.052836	0.045667	0.066696	0.080926	0.056478	0.057461	0.049323	0.018426	0.028864	0.042432	0.033382	0.054911	0.019214	0.019836	0.017905	0.014743	0.021549	0.018251	0.020752	0.025478	0.020845	0.020704	0.011532	0.019084	0.019282	0.017594	0.014282	0.016821	0.015947	0.017392	0.017473	0.012680	0.032355	0.013846	0.014827	0.019049	0.014811	0.016927	0.011954	0.007833	0.010221	0.006735	0.005607	0.009120	0.011051	0.011583	0.010484	0.018302	0.026433
5.785000	0.141410	0.021299	0.031053	0.022457	0.021217	0.071478	0.063117	0.048394	0.048517	0.037196	0.012983	0.017779	0.053564	0.045180	0.066565	0.079617	0.056566	0.057715	0.049174	0.017784	0.027985	0.042131	0.033899	0.054987	0.019587	0.019436	0.018245	0.014421	0.021445	0.017113	0.019595	0.023496	0.020178	0.021917	0.010375	0.018168	0.018370	0.016988	0.013332	0.015972	0.015675	0.017007	0.015849	0.011762	0.032217	0.011958	0.013096	0.017492	0.013216	0.016829	0.011652	0.007701	0.009897	0.006500	0.005436	0.008598	0.011544	0.011800	0.011096	0.017708	0.026839
5.790000	0.139105	0.018928	0.029441	0.022097	0.021343	0.071213	0.063724	0.048568	0.049071	0.037315	0.012444	0.017425	0.052813	0.045550	0.066589	0.078008	0.056907	0.058103	0.049278	0.017736	0.027280	0.040807	0.033992	0.055476	0.019953	0.019092	0.017957	0.014273	0.021590	0.015971	0.018299	0.022416	0.018228	0.023091	0.009657	0.016959	0.016981	0.015708	0.012305	0.015543	0.016314	0.018300	0.015272	0.011530	0.031975	0.010462	0.012050	0.016829	0.012120	0.016702	0.011678	0.007828	0.009374	0.005903	0.005383	0.007711	0.011562	0.012206	0.011343	0.017596	0.027187
5.795000	0.137108	0.016939	0.027970	0.021911	0.020900	0.071338	0.064721	0.048660	0.049577	0.037337	0.012300	0.017144	0.053116	0.045455	0.066379	0.077617	0.057075	0.058407	0.049221	0.017565	0.026436	0.040537	0.033839	0.055387	0.020758	0.019168	0.017796	0.013969	0.021369	0.014862	0.017103	0.020838	0.016987	0.024544	0.008279	0.015336	0.015459	0.014367	0.011331	0.014698	0.016274	0.018431	0.014171	0.010586	0.032008	0.008671	0.010598	0.015886	0.011009	0.016721	0.012058	0.008171	0.009207	0.006098	0.005518	0.006924	0.011384	0.013150	0.011728	0.016931	0.027956
5.800000	0.135169	0.014993	0.026413	0.021607	0.021634	0.071350	0.065311	0.048620	0.049793	0.037409	0.011613	0.016960	0.052834	0.045780	0.066272	0.076615	0.057122	0.058809	0.049134	0.017395	0.025783	0.040747	0.034095	0.054781	0.020579	0.018882	0.017719	0.013662	0.021506	0.013773	0.015881	0.018970	0.015807	0.025913	0.007624	0.014398	0.014602	0.013533	0.010327	0.013816	0.016295	0.018576	0.012724	0.009932	0.032442	0.007174	0.009123	0.014563	0.009661	0.017063	0.012657	0.008366	0.008972	0.005697	0.006121	0.005890	0.011152	0.013665	0.012667	0.017331	0.029019
5.805000	0.133516	0.014007	0.025095	0.021369	0.021805	0.071456	0.066124	0.048945	0.050517	0.037465	0.011611	0.016748	0.051798	0.045689	0.065818	0.075346	0.057386	0.059193	0.049042	0.017291	0.025228	0.040111	0.034031	0.054762	0.021625	0.019436	0.017468	0.013444	0.021216	0.012761	0.014877	0.017557	0.014560	0.027801	0.006536	0.012894	0.013165	0.012038	0.009371	0.013112	0.016447	0.019929	0.011968	0.009759	0.032715	0.005337	0.007651	0.013638	0.008502	0.017717	0.013466	0.008834	0.008634	0.005752	0.006838	0.004932	0.010860	0.014681	0.012005	0.018123	0.030479
5.810000	0.131362	0.013149	0.023687	0.021216	0.021760	0.071539	0.066762	0.048837	0.050562	0.037304	0.011442	0.016539	0.051793	0.046027	0.065503	0.074976	0.057365	0.059872	0.049160	0.017239	0.024884	0.042433	0.035059	0.054241	0.021565	0.019130	0.017621	0.013125	0.021219	0.011798	0.013611	0.015803	0.013405	0.029181	0.006852	0.011929	0.011985	0.010742	0.008636	0.012203	0.016275	0.019817	0.010260	0.009790	0.033189	0.003896	0.006337	0.012498	0.007641	0.018383	0.014226	0.009379	0.008546	0.006183	0.007795	0.004177	0.010914	0.015932	0.012096	0.017205	0.031941
5.815000	0.129516	0.012454	0.022773	0.020795	0.021888	0.071169	0.066809	0.048630	0.051241	0.037207	0.011032	0.016352	0.051262	0.046044	0.064975	0.074278	0.057207	0.059882	0.048743	0.016896	0.024267	0.041821	0.035276	0.054287	0.022278	0.019984	0.017569	0.012888	0.022399	0.010741	0.012546	0.014273	0.012084	0.031057	0.006498	0.010905	0.011197	0.009807	0.007901	0.011532	0.016076	0.020321	0.010504	0.011160	0.032923	0.003686	0.004828	0.010935	0.006598	0.019703	0.014470	0.009454	0.008383	0.006863	0.008980	0.003287	0.010634	0.017694	0.011319	0.018605	0.033170
5.820000	0.128143	0.012056	0.021595	0.020664	0.021822	0.071596	0.067255	0.048845	0.051468	0.037329	0.010616	0.016259	0.051309	0.045969	0.064378	0.074138	0.057295	0.060162	0.048853	0.017288	0.024130	0.041157	0.035671	0.053688	0.021732	0.020114	0.017356	0.012487	0.022487	0.010082	0.011553	0.012801	0.010986	0.032429	0.006944	0.010466	0.010646	0.008808	0.007938	0.010708	0.016095	0.021025	0.009781	0.012247	0.033395	0.003879	0.004621	0.010508	0.006540	0.020599	0.015299	0.010568	0.007959	0.007277	0.009917	0.002561	0.010071	0.019111	0.010179	0.020219	0.034838
5.825000	0.126305	0.011744	0.020747	0.020324	0.022215	0.071196	0.067557	0.048500	0.051789	0.037065	0.010207	0.016215	0.051043	0.046137	0.063729	0.073694	0.057284	0.060550	0.048744	0.017272	0.023934	0.041276	0.035596	0.053059	0.022009	0.020653	0.016927	0.012528	0.022396	0.009772	0.010972	0.011941	0.009738	0.034288	0.008206	0.009890	0.010396	0.009249	0.008724	0.010032	0.016018	0.020580	0.009519	0.013800	0.033878	0.005154	0.004858	0.009238	0.006262	0.022253	0.015932	0.010861	0.008293	0.007856	0.011118	0.001981	0.009740	0.020508	0.009641	0.021788	0.036241
5.830000	0.125035	0.011775	0.020233	0.019982	0.022236	0.071069	0.067451	0.048458	0.052019	0.036982	0.010276	0.015942	0.050732	0.046192	0.063012	0.073493	0.056749	0.060414	0.048367	0.016872	0.023436	0.040955	0.036102	0.052929	0.022095	0.020955	0.017602	0.012543	0.022628	0.009594	0.010130	0.010602	0.008496	0.036242	0.008059	0.009511	0.010388	0.008251	0.009577	0.009179	0.016048	0.021326	0.009699	0.015271	0.034409	0.006372	0.005324	0.008903	0.006776	0.024376	0.015743	0.010862	0.008006	0.008521	0.011996	0.001417	0.009137	0.021375	0.009267	0.023688	0.037085
5.835000	0.123165	0.011423	0.019687	0.019705	0.022277	0.070509	0.067145	0.048085	0.052218	0.036630	0.010002	0.016053	0.050212	0.046154	0.062469	0.073060	0.056514	0.060287	0.048110	0.016811	0.023240	0.041035	0.036084	0.052424	0.022362	0.021467	0.017301	0.012395	0.022682	0.009953	0.009566	0.009917	0.007491	0.037803	0.007711	0.009467	0.010174	0.008590	0.009503	0.008133	0.016453	0.021374	0.010164	0.016270	0.035095	0.007398	0.005832	0.008541	0.006978	0.026728	0.014485	0.011008	0.007635	0.009060	0.013111	0.002045	0.009006	0.021579	0.008787	0.025500	0.038348
5.840000	0.121903	0.010939	0.019295	0.019262	0.022174	0.070302	0.066885	0.047948	0.051896	0.036281	0.009760	0.015759	0.050376	0.046084	0.061747	0.072878	0.056135	0.060173	0.047897	0.016607	0.023020	0.041116	0.036177	0.051959	0.022071	0.021869	0.017379	0.012247	0.022626	0.010202	0.009293	0.009099	0.006833	0.038935	0.008103	0.009295	0.009744	0.008803	0.010251	0.007359	0.016599	0.021080	0.012465	0.016958	0.035924	0.008154	0.007104	0.008550	0.007071	0.028505	0.013503	0.011724	0.007318	0.009453	0.013929	0.003021	0.008776	0.021684	0.009693	0.026988	0.038927
5.845000	0.120344	0.010819	0.019071	0.018798	0.022265	0.069553	0.066317	0.047386	0.051892	0.035827	0.009732	0.015880	0.050706	0.045731	0.061453	0.072623	0.055669	0.060003	0.047560	0.016507	0.022957	0.040847	0.036115	0.051521	0.021871	0.022132	0.017532	0.012412	0.022911	0.010774	0.009130	0.008462	0.006198	0.039674	0.008773	0.009293	0.009853	0.009035	0.010395	0.006764	0.016254	0.020261	0.013996	0.016540	0.036793	0.008770	0.007461	0.008283	0.007140	0.030020	0.012712	0.012322	0.006693	0.009603	0.014122	0.003336	0.008815	0.021419	0.011384	0.027996	0.039661
5.850000	0.119405	0.010835	0.019219	0.018320	0.022087	0.068902	0.065801	0.047093	0.051522	0.035711	0.010108	0.015847	0.051283	0.045805	0.060729	0.072283	0.055264	0.059719	0.047072	0.016410	0.022786	0.041110	0.036016	0.051040	0.021924	0.022394	0.017040	0.012279	0.022972	0.011807	0.009291	0.008041	0.005791	0.039795	0.009376	0.009231	0.009687	0.009210	0.009988	0.006767	0.016182	0.019548	0.016630	0.016757	0.037655	0.009068	0.007275	0.007174	0.007170	0.031776	0.012535	0.012829	0.006071	0.010141	0.014075	0.003412	0.009069	0.020527	0.013128	0.027812	0.040522
5.855000	0.117688	0.010269	0.019208	0.017866	0.021315	0.068099	0.065288	0.046601	0.051353	0.035117	0.009899	0.015780	0.050620	0.045870	0.060464	0.072210	0.054571	0.059550	0.046761	0.016334	0.022709	0.041260	0.036249	0.050636	0.021699	0.022463	0.017661	0.012506	0.022989	0.012701	0.009818	0.007924	0.006110	0.039109	0.010381	0.009141	0.010245	0.009949	0.009600	0.007084	0.015847	0.019408	0.017076	0.015400	0.039963	0.009147	0.007146	0.006370	0.007668	0.032078	0.013414	0.013014	0.005796	0.010275	0.013764	0.002828	0.008903	0.019698	0.014753	0.028580	0.041420
5.860000	0.116282	0.010476	0.019183	0.017519	0.021465	0.067303	0.064448	0.046023	0.050827	0.034698	0.009786	0.015923	0.050864	0.045781	0.060009	0.072001	0.054222	0.059364	0.046558	0.016131	0.022809	0.041180	0.036052	0.050412	0.021395	0.022539	0.017695	0.012770	0.023220	0.013292	0.010643	0.008288	0.006816	0.038222	0.011072	0.009316	0.011068	0.010216	0.008459	0.007394	0.015919	0.020305	0.015909	0.014637	0.040866	0.008806	0.006750	0.006042	0.007673	0.031442	0.014243	0.012871	0.005876	0.010408	0.013460	0.002291	0.009026	0.019754	0.015342	0.026772	0.042848
5.865000	0.115260	0.010054	0.019613	0.016873	0.020744	0.066773	0.063544	0.045431	0.050032	0.034233	0.010006	0.016066	0.051158	0.045936	0.059656	0.071688	0.053568	0.058838	0.046021	0.016191	0.022693	0.041137	0.036300	0.050138	0.021298	0.022365	0.018085	0.012998	0.022930	0.014088	0.011779	0.009726	0.007907	0.037047	0.011508	0.009828	0.012142	0.011039	0.008304	0.007562	0.016569	0.021842	0.016017	0.015168	0.042046	0.008508	0.006879	0.006094	0.007383	0.030109	0.014746	0.012940	0.006024	0.010387	0.013445	0.003457	0.009571	0.020572	0.016223	0.026315	0.044057
5.870000	0.114939	0.010219	0.020116	0.016561	0.020767	0.066248	0.062876	0.044715	0.049367	0.033838	0.010152	0.016314	0.051414	0.046012	0.059382	0.071618	0.053000	0.058253	0.045696	0.015989	0.022661	0.041504	0.036160	0.049853	0.021476	0.022328	0.018541	0.013644	0.023067	0.014639	0.012785	0.010651	0.009068	0.035985	0.011577	0.010395	0.012774	0.011542	0.008062	0.008153	0.017289	0.022537	0.015534	0.015352	0.042026	0.008416	0.007077	0.007001	0.007683	0.028708	0.014129	0.013035	0.006312	0.010481	0.013227	0.003837	0.009988	0.021035	0.016682	0.026282	0.045410
5.875000	0.114287	0.010331	0.020683	0.016361	0.020377	0.065875	0.062336	0.044001	0.048912	0.033275	0.010196	0.016418	0.052439	0.046045	0.059082	0.071739	0.052359	0.057989	0.045357	0.015679	0.022538	0.041495	0.036547	0.049627	0.021563	0.022605	0.018622	0.014037	0.023477	0.014999	0.013492	0.011809	0.010244	0.034943	0.011154	0.011018	0.013775	0.012310	0.008503	0.007535	0.017884	0.021667	0.013653	0.013738	0.042478	0.008264	0.008117	0.008195	0.008430	0.027331	0.013391	0.013054	0.006732	0.010622	0.013498	0.004589	0.010573	0.020849	0.016223	0.024970	0.046387
5.880000	0.114870	0.010702	0.021578	0.016328	0.019956	0.065702	0.061995	0.043188	0.048219	0.032768	0.010595	0.016969	0.052702	0.046357	0.058803	0.071830	0.051812	0.057170	0.045029	0.015626	0.022574	0.041611	0.036985	0.048995	0.021243	0.022302	0.019501	0.014398	0.023767	0.014625	0.013290	0.012236	0.009991	0.034567	0.010769	0.011379	0.013858	0.012479	0.008438	0.006439	0.018371	0.020838	0.012940	0.015193	0.041982	0.007696	0.007927	0.009197	0.008731	0.026466	0.012162	0.013635	0.006681	0.010608	0.013528	0.004600	0.010811	0.020004	0.016851	0.024868	0.046003
5.885000	0.113767	0.010582	0.021674	0.017298	0.019656	0.065882	0.061523	0.043113	0.047551	0.032443	0.010293	0.017130	0.052495	0.046536	0.058627	0.072522	0.051555	0.056673	0.044871	0.015125	0.022865	0.041833	0.036729	0.048857	0.021586	0.022243	0.019234	0.014228	0.023395	0.014306	0.012939	0.012338	0.009702	0.034012	0.010262	0.011601	0.013979	0.012846	0.008803	0.005465	0.018997	0.019277	0.010004	0.015134	0.042059	0.006814	0.008249	0.010173	0.008226	0.025067	0.011097	0.013964	0.007052	0.010907	0.013828	0.004768	0.010980	0.018827	0.016624	0.024997	0.046345
5.890000	0.113874	0.010986	0.022168	0.017576	0.019249	0.065690	0.061324	0.041785	0.046660	0.031927	0.010492	0.017415	0.055847	0.046510	0.058607	0.072788	0.050972	0.055694	0.044585	0.014740	0.022759	0.039952	0.036455	0.048632	0.021218	0.021484	0.018850	0.013899	0.023250	0.013279	0.012255	0.012117	0.008991	0.033818	0.009797	0.012060	0.014118	0.013316	0.009263	0.005191	0.019407	0.018966	0.008925	0.015567	0.041795	0.005888	0.008200	0.011138	0.008298	0.024202	0.011116	0.014739	0.007361	0.011232	0.014169	0.005288	0.011288	0.018237	0.017048	0.024792	0.045691
5.895000	0.114385	0.011087	0.022693	0.018065	0.019285	0.065811	0.061446	0.041515	0.046352	0.031533	0.010641	0.017867	0.055232	0.046756	0.059067	0.073370	0.050475	0.055274	0.044216	0.014734	0.022654	0.040739	0.036417	0.048416	0.021123	0.021628	0.018284	0.013658	0.022740	0.012220	0.011616	0.010563	0.008490	0.033889	0.009682	0.012030	0.014061	0.012644	0.009205	0.004867	0.019718	0.018647	0.008361	0.015862	0.041514	0.005337	0.008241	0.011354	0.007454	0.023623	0.010983	0.015339	0.007871	0.011881	0.014506	0.005913	0.012812	0.017906	0.017406	0.025530	0.045176
5.900000	0.114374	0.011475	0.022922	0.018598	0.018775	0.065888	0.061858	0.040748	0.045780	0.030676	0.010969	0.018437	0.053998	0.046872	0.058972	0.074091	0.049968	0.054634	0.043845	0.014664	0.022761	0.040671	0.036274	0.048178	0.020925	0.021343	0.017886	0.012780	0.022260	0.011072	0.010806	0.010393	0.007765	0.033670	0.009818	0.011611	0.013958	0.013252	0.009496	0.004818	0.019565	0.018431	0.008211	0.016210	0.041406	0.004462	0.008045	0.011637	0.007336	0.022863	0.011655	0.015886	0.008301	0.012000	0.015010	0.006566	0.012922	0.017915	0.018087	0.025248	0.045329
5.905000	0.114430	0.011771	0.023274	0.018882	0.019388	0.065831	0.061964	0.039976	0.044784	0.030379	0.011332	0.018664	0.054931	0.046410	0.059230	0.074661	0.049513	0.054074	0.043301	0.014516	0.022632	0.040880	0.036127	0.048072	0.020543	0.021324	0.016975	0.012320	0.021815	0.009717	0.010223	0.009805	0.006758	0.033957	0.010224	0.011276	0.013643	0.012479	0.009733	0.004748	0.019761	0.018909	0.008712	0.016803	0.041515	0.003976	0.008068	0.012080	0.007070	0.022462	0.011950	0.016420	0.008753	0.012554	0.015803	0.007433	0.013525	0.017949	0.017664	0.025741	0.045271
5.910000	0.115064	0.011623	0.023301	0.019031	0.019492	0.065802	0.062166	0.039279	0.044155	0.029775	0.011524	0.019159	0.055212	0.046250	0.059472	0.075239	0.048805	0.053496	0.042718	0.014455	0.022554	0.041016	0.035916	0.048055	0.020166	0.020183	0.015828	0.011569	0.021280	0.008981	0.009897	0.009427	0.006617	0.033969	0.010857	0.011352	0.013070	0.012297	0.010215	0.004762	0.019425	0.018830	0.009032	0.017902	0.041682	0.003600	0.007872	0.012045	0.007085	0.022198	0.012442	0.016754	0.008839	0.012852	0.015863	0.007957	0.013627	0.017733	0.017835	0.026275	0.045611
5.915000	0.115367	0.011512	0.023420	0.019295	0.019006	0.065997	0.062688	0.038813	0.042798	0.029000	0.012086	0.019302	0.054530	0.046070	0.059820	0.075868	0.048167	0.052984	0.042304	0.013977	0.022609	0.040785	0.035706	0.048247	0.019695	0.019473	0.015025	0.010898	0.020835	0.008111	0.009829	0.009057	0.006741	0.034472	0.011504	0.010808	0.012925	0.011976	0.010158	0.004785	0.019636	0.018738	0.009794	0.017977	0.042105	0.003816	0.007695	0.011769	0.006921	0.022251	0.012296	0.016862	0.009243	0.013252	0.016583	0.008451	0.013421	0.017310	0.017581	0.026502	0.045056
5.920000	0.115559	0.012044	0.023415	0.019393	0.019309	0.066197	0.062832	0.038258	0.042542	0.028849	0.012092	0.019262	0.055617	0.045818	0.060265	0.076326	0.047731	0.052228	0.041872	0.013971	0.022615	0.040529	0.035741	0.048215	0.018959	0.019176	0.014513	0.010563	0.020458	0.007837	0.009928	0.009027	0.006855	0.034579	0.011588	0.010587	0.012515	0.011638	0.009829	0.005019	0.019713	0.018962	0.010441	0.018065	0.042636	0.003816	0.007563	0.011512	0.007193	0.022446	0.012228	0.017182	0.009831	0.013415	0.016494	0.008997	0.013696	0.017162	0.017540	0.026854	0.044738
5.925000	0.115269	0.011252	0.023137	0.019522	0.019517	0.066370	0.063248	0.037604	0.041871	0.028256	0.012681	0.019643	0.055233	0.046153	0.060588	0.077137	0.047273	0.051751	0.041750	0.014020	0.022756	0.040380	0.035577	0.048493	0.018536	0.018613	0.014245	0.009985	0.020106	0.007888	0.010090	0.008845	0.007248	0.035104	0.011760	0.009812	0.011888	0.011100	0.009694	0.005000	0.019461	0.018478	0.011344	0.017946	0.042881	0.003580	0.007611	0.011196	0.007015	0.022618	0.011706	0.016669	0.009451	0.013359	0.016889	0.009062	0.013797	0.017356	0.016927	0.027420	0.044582
5.930000	0.116201	0.011971	0.023692	0.018667	0.019494	0.066316	0.063192	0.036898	0.041060	0.027890	0.012902	0.019617	0.055236	0.045844	0.061332	0.076883	0.046449	0.051152	0.041073	0.013834	0.022235	0.040495	0.035577	0.048953	0.017956	0.018383	0.013321	0.009585	0.019842	0.008068	0.010235	0.008710	0.007340	0.035480	0.011257	0.009145	0.011180	0.010186	0.009520	0.005391	0.019495	0.018761	0.011632	0.018024	0.043238	0.003377	0.006705	0.010697	0.007047	0.023033	0.010972	0.016428	0.009243	0.013270	0.016489	0.009142	0.013686	0.017867	0.017209	0.027809	0.044137
5.935000	0.115695	0.011256	0.023274	0.019239	0.019567	0.066583	0.063428	0.036740	0.040564	0.027917	0.013352	0.019417	0.054377	0.045758	0.061199	0.077745	0.046225	0.050377	0.040992	0.013792	0.022504	0.039629	0.035532	0.048907	0.017628	0.017793	0.013350	0.009151	0.019413	0.008773	0.010601	0.009011	0.007647	0.035995	0.011684	0.008337	0.010536	0.009672	0.009395	0.005422	0.019511	0.018920	0.012807	0.017898	0.043630	0.003448	0.006832	0.010801	0.007045	0.023203	0.010509	0.015910	0.009194	0.012893	0.016295	0.009169	0.013647	0.018427	0.016511	0.027838	0.044040
5.940000	0.116072	0.012200	0.023919	0.018509	0.019795	0.066763	0.062805	0.035929	0.039927	0.027438	0.013562	0.019602	0.053951	0.046326	0.061322	0.077673	0.045622	0.050080	0.040459	0.013813	0.022310	0.038989	0.035536	0.049229	0.017416	0.017915	0.012394	0.008713	0.019189	0.009318	0.010925	0.008851	0.007882	0.036329	0.011272	0.007562	0.009796	0.009002	0.008781	0.005921	0.019526	0.019584	0.013076	0.018251	0.043742	0.003285	0.006660	0.010098	0.007125	0.023513	0.009679	0.015618	0.008902	0.012760	0.016284	0.009269	0.013967	0.019227	0.016536	0.028532	0.043748
5.945000	0.115259	0.011643	0.023602	0.019144	0.019686	0.067042	0.063052	0.035815	0.039516	0.027353	0.013651	0.019379	0.053653	0.046203	0.062001	0.078271	0.045606	0.049546	0.040352	0.013643	0.022542	0.039196	0.035269	0.049446	0.017103	0.017402	0.012613	0.008595	0.019038	0.009539	0.010999	0.008914	0.007783	0.036480	0.011635	0.007101	0.008958	0.008471	0.008910	0.006275	0.019698	0.020329	0.013872	0.018212	0.044100	0.003385	0.006234	0.009807	0.007032	0.023574	0.009424	0.015167	0.007901	0.012382	0.015823	0.008636	0.013429	0.019970	0.016094	0.029011	0.043747
5.950000	0.115120	0.012730	0.023575	0.019002	0.019692	0.067306	0.062851	0.035633	0.038975	0.027280	0.013873	0.019215	0.054026	0.046212	0.062206	0.078582	0.045309	0.049199	0.040103	0.013727	0.022652	0.038232	0.035431	0.049371	0.016822	0.017394	0.012277	0.009129	0.019018	0.009796	0.011044	0.009091	0.007533	0.036457	0.011780	0.006536	0.008258	0.008011	0.008261	0.006803	0.020192	0.021002	0.013316	0.018365	0.044248	0.003256	0.006408	0.009590	0.007020	0.023953	0.009000	0.014800	0.007191	0.011813	0.015263	0.008383	0.013224	0.020949	0.016300	0.028958	0.043478
5.955000	0.114535	0.011978	0.023550	0.019147	0.019812	0.067740	0.062664	0.035285	0.038606	0.027162	0.013759	0.018950	0.052980	0.046496	0.062474	0.079018	0.045221	0.048897	0.040110	0.013703	0.022956	0.038019	0.035434	0.049537	0.016718	0.017563	0.011500	0.008181	0.018993	0.010135	0.011064	0.009224	0.007415	0.036501	0.011762	0.006131	0.007491	0.007273	0.008018	0.007145	0.020180	0.021854	0.013994	0.018726	0.044370	0.003095	0.006046	0.009161	0.006823	0.024234	0.008644	0.014021	0.006750	0.011327	0.014712	0.008195	0.013391	0.021911	0.015775	0.029517	0.043419
5.960000	0.114526	0.013198	0.024037	0.019321	0.019483	0.067749	0.062302	0.035178	0.038221	0.027029	0.014366	0.019278	0.053703	0.047011	0.062109	0.079096	0.045100	0.048730	0.039764	0.013462	0.022976	0.037952	0.035674	0.049348	0.016958	0.018158	0.011696	0.008171	0.018665	0.010458	0.011219	0.009581	0.007393	0.036504	0.012108	0.005866	0.006875	0.006876	0.007740	0.007727	0.020441	0.022495	0.013933	0.018482	0.044514	0.003002	0.005367	0.008340	0.006868	0.024670	0.008652	0.013422	0.005470	0.010569	0.013900	0.007575	0.012980	0.022966	0.015569	0.029795	0.043335
5.965000	0.114207	0.013498	0.024121	0.019642	0.019565	0.067740	0.062091	0.034915	0.038011	0.026893	0.014294	0.019084	0.053164	0.047155	0.062243	0.079353	0.044860	0.048715	0.039919	0.013408	0.023227	0.037914	0.035017	0.049106	0.016979	0.018173	0.011273	0.007804	0.018557	0.010687	0.011224	0.009837	0.007183	0.036251	0.011997	0.005421	0.006221	0.006572	0.007179	0.008483	0.021010	0.023327	0.013773	0.019078	0.044703	0.003107	0.005897	0.007958	0.007014	0.024900	0.008667	0.013111	0.005107	0.010013	0.013522	0.007281	0.012729	0.024114	0.015263	0.030009	0.043087
5.970000	0.113728	0.013036	0.024491	0.019685	0.019284	0.067586	0.061784	0.034889	0.037636	0.026655	0.014174	0.019212	0.053417	0.047506	0.062284	0.079732	0.044827	0.048813	0.039692	0.013542	0.023399	0.037324	0.035997	0.048944	0.017241	0.018729	0.010959	0.007913	0.018357	0.010455	0.011339	0.010064	0.007112	0.036039	0.012152	0.004972	0.006090	0.006422	0.006829	0.009242	0.021289	0.024634	0.013539	0.018458	0.044891	0.002941	0.005479	0.007840	0.007031	0.025075	0.008960	0.012355	0.004336	0.009355	0.012765	0.007179	0.012698	0.025099	0.014870	0.029984	0.043015
5.975000	0.113904	0.013060	0.024949	0.019832	0.019443	0.067809	0.061365	0.035097	0.036929	0.026738	0.014055	0.018920	0.052723	0.047600	0.062809	0.079978	0.044853	0.048497	0.039495	0.013580	0.023719	0.039496	0.035867	0.048586	0.017387	0.018839	0.011218	0.007628	0.018517	0.010367	0.011336	0.010465	0.007016	0.035608	0.012247	0.004720	0.005854	0.006341	0.006768	0.009795	0.021855	0.025819	0.013555	0.017890	0.044774	0.003052	0.005433	0.007490	0.007447	0.025714	0.010347	0.011616	0.004390	0.009254	0.012374	0.007292	0.012634	0.025679	0.014295	0.029895	0.043586
5.980000	0.113548	0.014630	0.025452	0.020093	0.019117	0.067591	0.061063	0.035091	0.037124	0.026342	0.013982	0.018914	0.052841	0.048029	0.062224	0.080261	0.044904	0.048644	0.039226	0.013329	0.023855	0.039053	0.036192	0.048156	0.017511	0.019326	0.010476	0.007772	0.018367	0.010547	0.011597	0.010672	0.007164	0.035282	0.012447	0.005032	0.005890	0.006627	0.006596	0.010329	0.022011	0.026798	0.013601	0.018268	0.045081	0.003162	0.005758	0.007449	0.007629	0.025631	0.010972	0.011318	0.004511	0.009044	0.011449	0.007715	0.012627	0.026670	0.013944	0.029940	0.043608
5.985000	0.112618	0.013411	0.025684	0.020687	0.019152	0.067922	0.060890	0.035023	0.036816	0.026276	0.013822	0.019147	0.053067	0.048107	0.062175	0.080945	0.044808	0.048841	0.039241	0.013817	0.024286	0.038823	0.036114	0.048202	0.017964	0.019225	0.010948	0.007657	0.018245	0.010734	0.011886	0.011498	0.007300	0.034720	0.012470	0.005474	0.006124	0.006806	0.006251	0.011074	0.022541	0.027394	0.013250	0.017584	0.045307	0.003402	0.005549	0.007513	0.007833	0.025801	0.011807	0.010841	0.004555	0.008618	0.010843	0.007826	0.013134	0.027271	0.013487	0.029638	0.043825
5.990000	0.113141	0.015515	0.026832	0.020480	0.018973	0.067671	0.060349	0.034958	0.036714	0.026128	0.013919	0.018977	0.052901	0.048291	0.062016	0.081014	0.044468	0.048864	0.038843	0.013299	0.024284	0.039158	0.036613	0.047237	0.017915	0.019383	0.010265	0.007445	0.018091	0.010771	0.011972	0.011428	0.007289	0.034292	0.012510	0.005393	0.006460	0.006751	0.005780	0.011648	0.023119	0.028888	0.012916	0.017804	0.045294	0.003761	0.005684	0.007455	0.008164	0.025765	0.012900	0.010485	0.005007	0.008659	0.010686	0.008290	0.013491	0.027471	0.012323	0.029657	0.044536
5.995000	0.112764	0.015143	0.027017	0.021190	0.018736	0.067752	0.060314	0.034888	0.036530	0.025755	0.013941	0.019222	0.053653	0.048406	0.061946	0.081401	0.044172	0.048876	0.038854	0.013761	0.024544	0.039403	0.036507	0.046764	0.017996	0.019190	0.010228	0.007664	0.018129	0.010599	0.011954	0.011288	0.007750	0.033839	0.012457	0.005400	0.006777	0.007062	0.005908	0.012132	0.023402	0.029385	0.012857	0.017655	0.045524	0.004189	0.006057	0.007500	0.008458	0.025728	0.013467	0.009941	0.005204	0.008616	0.010313	0.008435	0.013676	0.028029	0.011981	0.030139	0.044927
6.000000	0.112298	0.015606	0.027757	0.021329	0.018690	0.067351	0.060171	0.034855	0.036343	0.025614	0.013633	0.019577	0.053058	0.048669	0.061521	0.081844	0.043926	0.048768	0.038528	0.013640	0.024758	0.039350	0.036629	0.046592	0.018034	0.019626	0.009936	0.007286	0.017910	0.010520	0.011864	0.011766	0.007874	0.033401	0.012432	0.006012	0.007015	0.007166	0.005830	0.012649	0.023588	0.030182	0.012446	0.017689	0.045815	0.004216	0.006354	0.007661	0.008286	0.025148	0.013662	0.009678	0.005496	0.008426	0.010198	0.008951	0.013850	0.028508	0.011431	0.029778	0.045068
6.005000	0.112157	0.015785	0.028315	0.021530	0.018400	0.067073	0.060003	0.034321	0.036131	0.025119	0.013745	0.019699	0.053375	0.048737	0.061150	0.081957	0.043522	0.048576	0.038188	0.013869	0.024945	0.039231	0.036916	0.045923	0.018105	0.019456	0.010048	0.007503	0.017721	0.010627	0.012065	0.011667	0.007561	0.032963	0.012478	0.006182	0.007449	0.007601	0.005815	0.012914	0.023966	0.030635	0.011892	0.017450	0.046072	0.004456	0.006414	0.007610	0.008311	0.025004	0.013553	0.009619	0.005655	0.008358	0.010154	0.009404	0.014541	0.028832	0.010804	0.028948	0.045591
6.010000	0.112049	0.015037	0.028859	0.021779	0.018220	0.066996	0.059800	0.034367	0.035843	0.025011	0.013733	0.019758	0.053895	0.048826	0.060763	0.082445	0.042945	0.048457	0.037727	0.013868	0.024690	0.038431	0.036358	0.045463	0.018055	0.019253	0.009948	0.007571	0.017555	0.010360	0.011783	0.011873	0.007871	0.032752	0.012300	0.006270	0.007365	0.007356	0.005648	0.013576	0.024448	0.031318	0.011811	0.017448	0.045956	0.004900	0.006603	0.008131	0.008627	0.024251	0.013359	0.009760	0.005935	0.008649	0.010348	0.009666	0.015338	0.029096	0.010325	0.028884	0.045912
6.015000	0.112105	0.016335	0.029557	0.021696	0.018070	0.066569	0.059505	0.034114	0.035787	0.024651	0.014133	0.020295	0.053491	0.049116	0.060416	0.082581	0.042311	0.047860	0.037051	0.014184	0.024677	0.038660	0.036962	0.045114	0.017901	0.019297	0.010189	0.007169	0.017661	0.010258	0.011895	0.011518	0.007760	0.032253	0.011596	0.006786	0.008087	0.007975	0.005884	0.013728	0.024558	0.031192	0.010633	0.017127	0.046416	0.004883	0.006749	0.008029	0.008508	0.023878	0.013124	0.009768	0.006012	0.008759	0.010365	0.010026	0.015548	0.029390	0.009859	0.029067	0.046303
6.020000	0.112094	0.016509	0.030288	0.021873	0.017861	0.065841	0.059234	0.033767	0.035417	0.024054	0.014306	0.020362	0.053619	0.049161	0.060192	0.082787	0.041605	0.047601	0.036722	0.014481	0.024519	0.039376	0.036996	0.044379	0.017882	0.019157	0.009903	0.007196	0.017514	0.010275	0.011871	0.012058	0.008300	0.031668	0.011983	0.007592	0.008421	0.008385	0.005919	0.013745	0.024989	0.031732	0.010251	0.016992	0.046720	0.005157	0.006925	0.008376	0.008584	0.023154	0.012344	0.009582	0.006360	0.008838	0.010471	0.010272	0.016253	0.029778	0.009382	0.028510	0.046674
6.025000	0.111898	0.017280	0.030640	0.021951	0.017776	0.065312	0.059161	0.033261	0.035088	0.023662	0.014901	0.020515	0.053708	0.049491	0.059640	0.082987	0.040872	0.046937	0.036249	0.014585	0.024408	0.039993	0.037031	0.043667	0.017856	0.019187	0.009723	0.007345	0.017257	0.010620	0.011886	0.011814	0.008324	0.031302	0.011829	0.007665	0.008987	0.008654	0.006034	0.013812	0.025438	0.031653	0.009509	0.017227	0.046970	0.005468	0.007013	0.008233	0.008437	0.022326	0.011934	0.009691	0.006773	0.008960	0.010541	0.010556	0.016461	0.029941	0.009194	0.028695	0.046859
6.030000	0.111519	0.016895	0.031093	0.022169	0.017659	0.065164	0.059022	0.032298	0.034727	0.023193	0.015622	0.021060	0.054224	0.049456	0.059569	0.083018	0.040003	0.046298	0.035638	0.015113	0.024866	0.038901	0.037418	0.044174	0.017571	0.018964	0.009887	0.007198	0.017234	0.010024	0.011752	0.011694	0.008286	0.031054	0.011657	0.007804	0.008809	0.008732	0.006512	0.013773	0.025592	0.031587	0.008278	0.016977	0.047786	0.005640	0.007027	0.008144	0.008484	0.021593	0.011094	0.009991	0.006885	0.009240	0.010794	0.010959	0.017305	0.030439	0.009010	0.028063	0.047058
6.035000	0.111609	0.017204	0.031423	0.022073	0.017503	0.064665	0.058778	0.031745	0.034583	0.022680	0.016096	0.021481	0.053826	0.049571	0.059087	0.083109	0.039668	0.045579	0.035158	0.015053	0.024615	0.039349	0.037387	0.043639	0.017213	0.018792	0.009469	0.006856	0.017114	0.009644	0.011354	0.011461	0.008388	0.031014	0.011452	0.008280	0.008822	0.008779	0.006485	0.013874	0.025650	0.031178	0.008308	0.017427	0.047655	0.005877	0.007402	0.008540	0.008545	0.020978	0.009987	0.010028	0.006891	0.009115	0.010994	0.010997	0.017710	0.030979	0.008871	0.027936	0.046876
6.040000	0.110875	0.017028	0.031371	0.022429	0.017211	0.064134	0.058781	0.031377	0.034080	0.022500	0.016222	0.021498	0.054052	0.049828	0.058618	0.083393	0.039102	0.045020	0.034821	0.015465	0.024550	0.039493	0.037313	0.043909	0.017366	0.018762	0.008987	0.007151	0.016921	0.009607	0.011485	0.011537	0.008636	0.030656	0.011364	0.008272	0.008982	0.009198	0.006749	0.013982	0.025718	0.030751	0.007226	0.018122	0.048481	0.005907	0.007460	0.008660	0.008504	0.020451	0.008579	0.010125	0.006676	0.009093	0.011224	0.011138	0.017618	0.030906	0.008539	0.027710	0.047202
6.045000	0.110953	0.017201	0.031526	0.022340	0.017111	0.063683	0.058895	0.030820	0.033593	0.022062	0.016690	0.021779	0.054534	0.049907	0.058411	0.083217	0.038422	0.044498	0.034278	0.015754	0.024631	0.039401	0.037746	0.043600	0.017066	0.018415	0.008605	0.007161	0.016697	0.009647	0.011651	0.011574	0.008773	0.030400	0.011371	0.008390	0.009101	0.009111	0.007570	0.014031	0.026152	0.031119	0.006933	0.018414	0.048520	0.006103	0.007890	0.008611	0.008625	0.019810	0.008330	0.010139	0.006797	0.009151	0.011064	0.011145	0.017994	0.031203	0.008246	0.028117	0.046970
6.050000	0.110072	0.017255	0.031458	0.022629	0.017059	0.063456	0.058852	0.030782	0.033285	0.021893	0.016792	0.021894	0.054383	0.050105	0.058107	0.083503	0.038173	0.043854	0.033931	0.015758	0.024621	0.039463	0.037904	0.043395	0.016923	0.018420	0.008739	0.008056	0.016651	0.009426	0.011391	0.011580	0.008881	0.030153	0.011340	0.008726	0.009220	0.009309	0.007548	0.014055	0.026268	0.030998	0.006555	0.018212	0.048840	0.006395	0.007663	0.008871	0.008639	0.019457	0.007415	0.010129	0.006607	0.008972	0.010745	0.011144	0.018032	0.031122	0.007885	0.028034	0.046974
6.055000	0.109671	0.017578	0.031184	0.022661	0.017145	0.063171	0.058899	0.030303	0.033022	0.021709	0.017107	0.022307	0.053852	0.050442	0.057855	0.083498	0.037918	0.043153	0.033650	0.015820	0.024530	0.039457	0.037822	0.043645	0.017016	0.017997	0.008095	0.006654	0.016544	0.009609	0.011647	0.011674	0.009201	0.029775	0.011839	0.009084	0.009407	0.009701	0.007826	0.014066	0.026484	0.031393	0.006372	0.018548	0.049039	0.006662	0.008221	0.009302	0.008802	0.019069	0.006812	0.010006	0.006645	0.009095	0.010920	0.011288	0.018040	0.031483	0.007599	0.027963	0.047055
