Coordinates
version=1
nRows=133
nColumns=40
inDegrees=yes

Units are S.I. units (second, meters, Newtons, ...)
If the header above contains a line with 'inDegrees', this indicates whether rotational values are in degrees (yes) or radians (no).

endheader
time	pelvis_tilt	pelvis_list	pelvis_rotation	pelvis_tx	pelvis_ty	pelvis_tz	hip_flexion_r	hip_adduction_r	hip_rotation_r	knee_angle_r	knee_angle_r_beta	ankle_angle_r	subtalar_angle_r	mtp_angle_r	hip_flexion_l	hip_adduction_l	hip_rotation_l	knee_angle_l	knee_angle_l_beta	ankle_angle_l	subtalar_angle_l	mtp_angle_l	lumbar_extension	lumbar_bending	lumbar_rotation	arm_flex_r	arm_add_r	arm_rot_r	elbow_flex_r	pro_sup_r	wrist_flex_r	wrist_dev_r	arm_flex_l	arm_add_l	arm_rot_l	elbow_flex_l	pro_sup_l	wrist_flex_l	wrist_dev_l
      3.71000000	    -32.92899556	      2.18285694	     -2.78714490	     -0.44554032	      0.45371354	     -0.92857959	    119.73980122	    -22.40801258	      6.46426888	    118.61396953	      2.07020431	     36.15197534	      0.00000000	      0.00000000	    118.75017758	    -28.87783348	      7.85600671	    120.07385854	      2.09568418	     35.37895688	      0.00000000	      0.00000000	    -33.82173427	     -3.65211051	    -11.56378986	     16.28212598	    -55.31900310	     83.06065383	    103.69897276	     87.89942997	      0.00000000	      0.00000000	    -29.10617469	    -49.19913414	     38.28138478	     97.69899494	     87.88928678	      0.00000000	      0.00000000
      3.71500000	    -32.97469205	      2.17412653	     -2.83325195	     -0.44497304	      0.45362217	     -0.92853269	    119.73791890	    -22.40499163	      6.43346525	    118.66045717	      2.07101567	     36.16560471	      0.00000000	      0.00000000	    118.75267239	    -28.89400067	      7.92378930	    120.11474830	      2.09639784	     35.42028011	      0.00000000	      0.00000000	    -33.65074279	     -3.67248352	    -11.56795929	     16.29360132	    -55.25798549	     83.06266775	    103.67507123	     87.89647543	      0.00000000	      0.00000000	    -29.05202235	    -49.22191709	     38.26465519	     97.65384395	     87.87679373	      0.00000000	      0.00000000
      3.72000000	    -33.01151157	      2.18342171	     -2.91752832	     -0.44418981	      0.45364443	     -0.92834665	    119.72511300	    -22.39301847	      6.37260028	    118.72420470	      2.07212827	     36.19150425	      0.00000000	      0.00000000	    118.71170629	    -28.91443442	      8.04576982	    120.14368829	      2.09690294	     35.45859286	      0.00000000	      0.00000000	    -33.46675746	     -3.74280149	    -11.55932757	     16.29665046	    -55.18905713	     83.07099392	    103.63425717	     87.89459701	      0.00000000	      0.00000000	    -29.03320913	    -49.21120825	     38.28053404	     97.60214695	     87.87312812	      0.00000000	      0.00000000
      3.72500000	    -33.11121767	      2.20708513	     -3.01396654	     -0.44364874	      0.45393213	     -0.92810794	    119.72307522	    -22.27711513	      6.28251494	    118.66395469	      2.07107671	     36.15128751	      0.00000000	      0.00000000	    118.69422122	    -28.96935193	      8.12341245	    120.11783390	      2.09645169	     35.52757254	      0.00000000	      0.00000000	    -33.23002303	     -3.84470805	    -11.55916536	     16.31305336	    -55.07143838	     83.06332987	    103.55576051	     87.89038672	      0.00000000	      0.00000000	    -29.01419090	    -49.23162758	     38.31219156	     97.50778984	     87.86988944	      0.00000000	      0.00000000
      3.73000000	    -33.26973035	      1.64073739	     -1.42789236	     -0.44311418	      0.45464164	     -0.93189599	    119.74384418	    -24.21966254	      6.66124498	    118.64292971	      2.07070976	     36.34932693	      0.00000000	      0.00000000	    118.51568870	    -26.85381745	      7.69929449	    119.84781870	      2.09173904	     35.73462299	      0.00000000	      0.00000000	    -33.04101737	     -2.30162365	    -12.59351261	     16.50347962	    -55.22793062	     83.14142687	    103.38191256	     87.88940022	      0.00000000	      0.00000000	    -28.46757584	    -48.88610168	     38.82861008	     97.09777095	     87.86924537	      0.00000000	      0.00000000
      3.73500000	    -33.53280279	      1.88588053	     -2.47672859	     -0.44276527	      0.45503302	     -0.92952253	    119.72977027	    -22.85805229	      6.28447319	    118.41102216	      2.06666221	     36.25194621	      0.00000000	      0.00000000	    118.76892296	    -28.03768801	      8.10505115	    119.82073909	      2.09126641	     35.88106713	      0.00000000	      0.00000000	    -32.50314399	     -3.20126005	    -11.85936048	     16.54506452	    -54.92031589	     83.24428734	    103.15340435	     87.89061440	      0.00000000	      0.00000000	    -28.39319463	    -49.06460486	     38.95872097	     96.99670661	     87.86024410	      0.00000000	      0.00000000
      3.74000000	    -33.46036227	      2.47729104	     -2.81823142	     -0.44135702	      0.45609238	     -0.92930783	    119.72119930	    -22.35115037	      6.72362292	    118.33803676	      2.06538837	     36.26633734	      0.00000000	      0.00000000	    118.20780912	    -28.58935782	      7.59744525	    119.88508048	      2.09238938	     35.95010443	      0.00000000	      0.00000000	    -32.36294696	     -3.93924904	    -11.92825809	     16.48557487	    -54.65899566	     83.19406070	    102.87566041	     87.87964220	      0.00000000	      0.00000000	    -28.28106392	    -49.04215736	     39.09017219	     96.72496029	     87.85785523	      0.00000000	      0.00000000
      3.74500000	    -33.76931086	      2.46079274	     -3.29641017	     -0.44116276	      0.45687756	     -0.92828124	    119.71632368	    -21.67759337	      6.43613182	    118.16227340	      2.06232072	     36.24326334	      0.00000000	      0.00000000	    118.45928885	    -28.97755629	      7.93913110	    119.74701210	      2.08997963	     36.07076453	      0.00000000	      0.00000000	    -31.81398679	     -4.21520841	    -11.49454232	     16.45555457	    -54.55019290	     83.16982064	    102.77643563	     87.88091063	      0.00000000	      0.00000000	    -28.19050518	    -49.08948476	     39.32023341	     96.67894790	     87.88662346	      0.00000000	      0.00000000
      3.75000000	    -34.01333991	      2.14751017	     -2.36853911	     -0.44061337	      0.45809115	     -0.93022944	    119.71835239	    -22.79320869	      6.56722360	    118.08015343	      2.06088746	     36.56318626	      0.00000000	      0.00000000	    118.32914326	    -27.66698399	      7.71310963	    119.44196053	      2.08465548	     36.12791462	      0.00000000	      0.00000000	    -31.42765487	     -3.39531913	    -12.04944256	     16.39730248	    -54.60312668	     83.06552472	    102.60284234	     87.87671359	      0.00000000	      0.00000000	    -27.93414360	    -49.00164578	     39.38825022	     96.62963853	     87.86287151	      0.00000000	      0.00000000
      3.75500000	    -33.87813399	      4.44725522	     -7.05421350	     -0.43935057	      0.45949847	     -0.92097413	    119.64022942	    -16.76174733	      6.33904781	    117.42489676	      2.04945107	     35.91065367	      0.00000000	      0.00000000	    117.96400232	    -33.82767314	      7.85943760	    119.91206980	      2.09286043	     36.49808244	      0.00000000	      0.00000000	    -30.76250957	     -8.30196548	     -9.26826425	     16.04348183	    -53.46787913	     82.97531969	    101.89512336	     87.86870299	      0.00000000	      0.00000000	    -28.59057619	    -49.66834556	     38.94090908	     96.68514924	     87.84316697	      0.00000000	      0.00000000
      3.76000000	    -34.66559648	      1.66290096	     -1.49758839	     -0.43978561	      0.46098415	     -0.93201877	    119.70829462	    -23.67682914	      6.54919713	    117.59741570	      2.05246210	     36.58754550	      0.00000000	      0.00000000	    118.35841180	    -26.15139031	      7.71466583	    118.77698199	      2.07304941	     36.21576448	      0.00000000	      0.00000000	    -30.38077607	     -2.44991438	    -12.41879534	     16.27624230	    -54.65380228	     82.76550722	    102.45962820	     87.88234769	      0.00000000	      0.00000000	    -27.61438316	    -48.73010027	     39.49809270	     96.37094849	     87.86971052	      0.00000000	      0.00000000
      3.76500000	    -34.75479401	      2.79009387	     -3.10533539	     -0.43846907	      0.46290012	     -0.92924038	    119.67919545	    -21.42430441	      6.84187356	    117.20422305	      2.04559959	     36.04463748	      0.00000000	      0.00000000	    117.82704628	    -28.23577863	      7.32018857	    118.80723976	      2.07357751	     36.48345778	      0.00000000	      0.00000000	    -29.91302689	     -4.44894318	    -11.61144017	     16.14255542	    -54.13698641	     82.74273451	    102.00629167	     87.87238349	      0.00000000	      0.00000000	    -27.70366338	    -49.04348325	     39.50789626	     96.36854975	     87.87157978	      0.00000000	      0.00000000
      3.77000000	    -35.14993808	      3.14900656	     -4.36148315	     -0.43841943	      0.46475138	     -0.92656058	    119.64693470	    -19.69838840	      6.46175391	    116.69822860	      2.03676832	     36.15455916	      0.00000000	      0.00000000	    118.00735059	    -29.57882365	      7.66230628	    118.56242097	      2.06930462	     36.61888211	      0.00000000	      0.00000000	    -29.15481429	     -5.52908792	    -10.65909216	     16.09133494	    -53.81913591	     82.68355787	    101.79325878	     87.86835010	      0.00000000	      0.00000000	    -27.90817476	    -49.31896173	     39.29322738	     96.53894846	     87.88118249	      0.00000000	      0.00000000
      3.77500000	    -35.28905190	      3.52691542	     -4.02465638	     -0.43715526	      0.46744456	     -0.92785476	    119.63458702	    -19.90410477	      7.02186768	    116.39258130	      2.03143377	     36.07663349	      0.00000000	      0.00000000	    117.25876561	    -29.10149327	      6.89414267	    118.20263257	      2.06302512	     36.73120598	      0.00000000	      0.00000000	    -28.74509192	     -5.68940787	    -11.00530424	     15.97923777	    -53.70896283	     82.53300663	    101.54648370	     87.86042350	      0.00000000	      0.00000000	    -27.73995532	    -49.13630221	     39.32053376	     96.27847327	     87.87259004	      0.00000000	      0.00000000
      3.78000000	    -35.29472049	      3.73268952	     -2.69816715	     -0.43574655	      0.47044301	     -0.93123574	    119.63234931	    -21.27894785	      8.00647901	    116.21016651	      2.02825003	     36.19417116	      0.00000000	      0.00000000	    116.17168654	    -27.41456360	      5.73654268	    117.76814560	      2.05544189	     36.94115506	      0.00000000	      0.00000000	    -28.61459538	     -5.15949016	    -12.07421989	     15.79428820	    -53.79578212	     82.20974028	    101.45563163	     87.84973768	      0.00000000	      0.00000000	    -27.38525239	    -48.88730207	     39.52827095	     96.00499010	     87.87165061	      0.00000000	      0.00000000
      3.78500000	    -35.70766827	      3.67104974	     -2.47175053	     -0.43561104	      0.47312360	     -0.93192901	    119.61106851	    -21.36264972	      8.00463465	    115.74514786	      2.02013392	     36.08936516	      0.00000000	      0.00000000	    116.05673346	    -26.82665948	      5.65491496	    117.21101730	      2.04571817	     36.92993152	      0.00000000	      0.00000000	    -27.94787665	     -4.98114058	    -12.08617081	     15.78973374	    -53.87375343	     82.16085600	    101.47432475	     87.85350635	      0.00000000	      0.00000000	    -27.26241876	    -48.81941449	     39.47801402	     96.01724676	     87.86354224	      0.00000000	      0.00000000
      3.79000000	    -36.20578332	      3.92062508	     -3.25103241	     -0.43523307	      0.47589134	     -0.93019378	    119.55552568	    -20.16262450	      7.76771100	    115.16691786	      2.01004191	     35.96243856	      0.00000000	      0.00000000	    116.10969783	    -27.58149985	      5.73254024	    116.81355538	      2.03878115	     37.14041093	      0.00000000	      0.00000000	    -27.03587340	     -5.65855598	    -11.39381643	     15.68684425	    -53.53223407	     82.02072929	    101.21468584	     87.85278798	      0.00000000	      0.00000000	    -27.22394371	    -48.80069097	     39.51795919	     95.65669306	     87.85813902	      0.00000000	      0.00000000
      3.79500000	    -36.57424343	      3.97808434	     -3.36910024	     -0.43478775	      0.47895617	     -0.92997578	    119.44505831	    -19.88737201	      7.63392077	    114.65746123	      2.00115021	     35.83702923	      0.00000000	      0.00000000	    115.89723511	    -27.42236376	      5.72600291	    116.24513996	      2.02886043	     37.10310432	      0.00000000	      0.00000000	    -26.36570853	     -5.78780337	    -11.19585067	     15.61882852	    -53.49451000	     82.00662829	    101.22182943	     87.84921542	      0.00000000	      0.00000000	    -27.18337478	    -48.75785806	     39.45355862	     95.60415050	     87.85330948	      0.00000000	      0.00000000
      3.80000000	    -37.03346734	      4.61617780	     -4.30669359	     -0.43433813	      0.48243650	     -0.92830475	    119.41972426	    -18.35130226	      7.75447857	    113.88672561	      1.98769834	     35.67539494	      0.00000000	      0.00000000	    115.64501536	    -28.48193040	      5.35036347	    115.82311748	      2.02149475	     37.30031274	      0.00000000	      0.00000000	    -25.42747234	     -6.87630001	    -10.45238341	     15.53921018	    -53.11656358	     81.84252952	    100.86755017	     87.83832772	      0.00000000	      0.00000000	    -27.12538671	    -48.73441169	     39.39454358	     95.20930484	     87.85271572	      0.00000000	      0.00000000
      3.80500000	    -37.50616032	      4.65802502	     -4.26954093	     -0.43406757	      0.48601026	     -0.92853586	    119.32343771	    -18.14653401	      7.73934511	    113.25507432	      1.97667394	     35.51532534	      0.00000000	      0.00000000	    115.47632084	    -28.15781376	      5.18314721	    115.17979014	      2.01026657	     37.29386341	      0.00000000	      0.00000000	    -24.61140755	     -6.89053440	    -10.31258322	     15.54457114	    -53.13492267	     81.62577254	    101.02398019	     87.83269236	      0.00000000	      0.00000000	    -27.05262825	    -48.68313168	     39.32112854	     95.13888668	     87.84746828	      0.00000000	      0.00000000
      3.81000000	    -37.78492688	      4.68419685	     -4.15862910	     -0.43322602	      0.48999067	     -0.92896221	    119.03497871	    -18.13818631	      7.69287596	    112.65883467	      1.96626760	     35.43174661	      0.00000000	      0.00000000	    115.01943367	    -27.72140882	      5.03077810	    114.52794478	      1.99888972	     37.20833144	      0.00000000	      0.00000000	    -24.02867468	     -6.85916919	    -10.24256109	     15.51974106	    -53.12062797	     81.53427993	    100.98005613	     87.83074629	      0.00000000	      0.00000000	    -26.94729945	    -48.55357271	     39.22210651	     95.01647938	     87.83767624	      0.00000000	      0.00000000
      3.81500000	    -38.24699765	      5.12208999	     -3.82920295	     -0.43231940	      0.49423652	     -0.93003091	    119.08883691	    -18.13862106	      8.27393549	    112.01082575	      1.95495771	     35.34122045	      0.00000000	      0.00000000	    114.42146852	    -27.26072400	      4.10201813	    113.83763431	      1.98684153	     37.36503387	      0.00000000	      0.00000000	    -23.16027800	     -7.11749027	    -10.51699408	     15.39175133	    -52.92337796	     81.15830883	    100.69912734	     87.81116665	      0.00000000	      0.00000000	    -26.71699271	    -48.26237807	     39.21155806	     94.28723082	     87.83338274	      0.00000000	      0.00000000
      3.82000000	    -38.59343490	      5.47928908	     -3.82011242	     -0.43138257	      0.49864838	     -0.93021704	    118.92701173	    -17.83553961	      8.55825921	    111.32988875	      1.94307311	     35.19929882	      0.00000000	      0.00000000	    113.79769153	    -27.08709772	      3.51378630	    113.11352429	      1.97420343	     37.49745826	      0.00000000	      0.00000000	    -22.41953704	     -7.49969190	    -10.39940197	     15.09938285	    -52.72666630	     80.84481811	    100.40616781	     87.81646646	      0.00000000	      0.00000000	    -26.53949325	    -48.18746669	     39.17534891	     94.05579153	     87.83138927	      0.00000000	      0.00000000
      3.82500000	    -38.68457249	      5.57048395	     -3.91101152	     -0.43000000	      0.50340859	     -0.93001420	    118.36228108	    -17.62396222	      8.46822053	    110.70785735	      1.93221662	     35.08624105	      0.00000000	      0.00000000	    113.09645975	    -26.96942239	      3.30981472	    112.44810827	      1.96258973	     37.38175364	      0.00000000	      0.00000000	    -21.91742004	     -7.64758359	    -10.18583676	     15.11898279	    -52.66430438	     80.70852515	    100.37053725	     87.80840299	      0.00000000	      0.00000000	    -26.49889683	    -48.10338826	     39.08055895	     93.93757615	     87.81988340	      0.00000000	      0.00000000
      3.83000000	    -39.25687658	      5.58814181	     -3.67197896	     -0.42937668	      0.50810887	     -0.93073092	    118.19143069	    -17.64497168	      8.46766974	    109.87907945	      1.91775172	     35.06755335	      0.00000000	      0.00000000	    112.83232316	    -26.46167301	      2.92253771	    111.58943599	      1.94760307	     37.52138667	      0.00000000	      0.00000000	    -20.91372096	     -7.54791834	    -10.15739952	     14.96713361	    -52.54883378	     80.32445034	    100.04265609	     87.78217862	      0.00000000	      0.00000000	    -26.27992534	    -47.79945351	     38.92155523	     93.40654731	     87.80752043	      0.00000000	      0.00000000
      3.83500000	    -39.11745891	      5.94689590	     -3.53437055	     -0.42716647	      0.51383761	     -0.93131145	    117.46041697	    -17.70355392	      8.77498870	    109.21944660	      1.90623895	     35.04365246	      0.00000000	      0.00000000	    111.49132992	    -26.33527640	      1.75804799	    110.63714687	      1.93098249	     38.03938696	      0.00000000	      0.00000000	    -20.64496083	     -7.86325047	    -10.16716739	     14.74767666	    -52.30712147	     79.93721555	     99.58978052	     87.77647857	      0.00000000	      0.00000000	    -26.05200934	    -47.59375259	     38.80332260	     92.92863381	     87.80555203	      0.00000000	      0.00000000
      3.84000000	    -39.27207057	      6.16073733	     -4.04201854	     -0.42592845	      0.51913131	     -0.93025110	    116.80861179	    -16.93668053	      8.60956724	    108.36543986	      1.89133372	     34.98541446	      0.00000000	      0.00000000	    110.81924304	    -26.64236094	      1.82144350	    110.09106747	      1.92145160	     37.60849705	      0.00000000	      0.00000000	    -19.92253882	     -8.31390716	     -9.49753752	     14.52625817	    -52.07375781	     79.52104299	     99.23831317	     87.78426718	      0.00000000	      0.00000000	    -25.95327920	    -47.56600837	     38.60674609	     92.79785937	     87.80373332	      0.00000000	      0.00000000
      3.84500000	    -39.43301440	      6.06870827	     -3.91561567	     -0.42464529	      0.52460489	     -0.93059604	    116.13550256	    -16.95101091	      8.49077877	    107.58204199	      1.87766085	     34.84765499	      0.00000000	      0.00000000	    110.17156879	    -26.26107244	      1.58772666	    109.21753979	      1.90620567	     37.49222955	      0.00000000	      0.00000000	    -19.29915732	     -8.15484344	     -9.33244144	     14.51868391	    -52.12158397	     79.38559314	     99.18237769	     87.78010325	      0.00000000	      0.00000000	    -25.84949947	    -47.45571824	     38.47589073	     92.77647023	     87.79766401	      0.00000000	      0.00000000
      3.85000000	    -39.47025880	      5.97798823	     -3.83978203	     -0.42291785	      0.53060908	     -0.93082733	    115.32302549	    -17.01324331	      8.24552740	    106.85346911	      1.86494485	     34.71211760	      0.00000000	      0.00000000	    109.33230678	    -26.10719803	      0.99502208	    108.11098813	      1.88689270	     37.53486734	      0.00000000	      0.00000000	    -18.76936067	     -8.01230004	     -9.17839464	     14.53420414	    -52.07826572	     79.18193418	     98.97801648	     87.76581116	      0.00000000	      0.00000000	    -25.72930455	    -47.27779014	     38.34128883	     92.56903294	     87.79280466	      0.00000000	      0.00000000
      3.85500000	    -39.11514722	      6.23842562	     -4.52781518	     -0.42027714	      0.53700317	     -0.92955247	    114.06619041	    -16.26562366	      8.00765017	    106.01305332	      1.85027683	     34.82230021	      0.00000000	      0.00000000	    107.91311100	    -26.67700094	      0.82397191	    107.61206913	      1.87818492	     37.73160006	      0.00000000	      0.00000000	    -18.48835812	     -8.55022827	     -8.40859331	     14.25694727	    -51.53521960	     78.58693852	     98.03640632	     87.75203816	      0.00000000	      0.00000000	    -25.57708412	    -46.93397276	     37.98472633	     91.74494004	     87.79855125	      0.00000000	      0.00000000
      3.86000000	    -39.11707963	      6.12925854	     -4.46067809	     -0.41829482	      0.54327267	     -0.92974197	    113.12734465	    -16.30396553	      7.77457567	    105.10373308	      1.83440620	     34.64232723	      0.00000000	      0.00000000	    107.01027718	    -26.56388131	      0.18937737	    106.47419227	      1.85832522	     37.71904786	      0.00000000	      0.00000000	    -17.95103092	     -8.39209647	     -8.19256689	     14.17831031	    -51.52746119	     78.40684284	     97.88396590	     87.74603763	      0.00000000	      0.00000000	    -25.48388464	    -46.79803356	     37.78533631	     91.68180607	     87.79095854	      0.00000000	      0.00000000
      3.86500000	    -39.15119905	      6.03571653	     -4.26710862	     -0.41651749	      0.54963559	     -0.93053767	    112.22694952	    -16.49554639	      7.61242974	    104.15408040	      1.81783163	     34.51659167	      0.00000000	      0.00000000	    106.11265964	    -26.12729324	     -0.18347197	    105.51030826	      1.84150227	     37.66781330	      0.00000000	      0.00000000	    -17.27674621	     -8.16379303	     -8.17415720	     14.23314128	    -51.56835985	     78.08039566	     97.62110455	     87.72993238	      0.00000000	      0.00000000	    -25.39030549	    -46.55687106	     37.57881491	     91.45433716	     87.78040781	      0.00000000	      0.00000000
      3.87000000	    -38.64253145	      6.15968326	     -4.43061192	     -0.41337049	      0.55692765	     -0.93028056	    110.78257619	    -16.49419633	      7.40202895	    103.33645416	      1.80356136	     34.67071052	      0.00000000	      0.00000000	    104.40142696	    -26.20166479	     -0.86074427	    104.58632627	      1.82537575	     37.90477709	      0.00000000	      0.00000000	    -17.37095202	     -8.33880715	     -7.93399224	     13.76051956	    -51.09715199	     77.30759697	     96.73037907	     87.72749786	      0.00000000	      0.00000000	    -25.37098041	    -46.04890988	     36.97279914	     90.58771244	     87.76176920	      0.00000000	      0.00000000
      3.87500000	    -38.35939417	      5.52255414	     -4.59526573	     -0.41093547	      0.56364083	     -0.92970439	    109.20104297	    -16.42360313	      6.48170036	    102.39881186	      1.78719642	     34.76775602	      0.00000000	      0.00000000	    103.52168435	    -26.25220104	     -0.55269713	    103.71296494	      1.81013272	     37.84427722	      0.00000000	      0.00000000	    -17.13578878	     -7.71125331	     -7.30887082	     12.61121386	    -51.10689549	     75.46910985	     96.48434635	     87.78734381	      0.00000000	      0.00000000	    -25.68541379	    -45.63244123	     35.94533654	     90.40089868	     87.80798976	      0.00000000	      0.00000000
      3.88000000	    -38.31586972	      5.51351185	     -4.46957956	     -0.40857880	      0.57046599	     -0.93014972	    108.21614313	    -16.59384917	      6.26844339	    101.40605862	      1.76986960	     34.52494144	      0.00000000	      0.00000000	    102.44077221	    -25.94192448	     -1.02815680	    102.66312639	      1.79180958	     37.65602366	      0.00000000	      0.00000000	    -16.50944803	     -7.62747188	     -7.19233650	     12.57873955	    -50.95538060	     75.22044619	     96.12887172	     87.76772223	      0.00000000	      0.00000000	    -25.56815825	    -45.41472686	     35.79437223	     90.15404543	     87.79054070	      0.00000000	      0.00000000
      3.88500000	    -37.67943616	      5.37190077	     -4.54047225	     -0.40507806	      0.57806634	     -0.92992717	    106.49199807	    -16.69896896	      5.82909073	    100.52890915	      1.75456046	     34.56267326	      0.00000000	      0.00000000	    100.71075669	    -25.98584216	     -1.51330428	    101.71817315	      1.77531703	     37.74520099	      0.00000000	      0.00000000	    -16.50887023	     -7.52691254	     -7.01853404	     12.22387819	    -50.63255212	     74.55047634	     95.33948839	     87.75816979	      0.00000000	      0.00000000	    -25.58697019	    -45.00476698	     35.41538385	     89.51784004	     87.77522062	      0.00000000	      0.00000000
      3.89000000	    -37.56730435	      4.24176369	     -3.32881099	     -0.40259375	      0.58525646	     -0.93220391	    104.91848921	    -18.30403840	      4.65225905	     99.64499867	      1.73913331	     34.84597895	      0.00000000	      0.00000000	    100.11073625	    -24.34825884	     -0.87443876	    100.52053600	      1.75441432	     37.40744525	      0.00000000	      0.00000000	    -16.16304498	     -5.94608744	     -7.30278574	     10.84729217	    -50.93448714	     72.64364690	     95.20743078	     87.77354336	      0.00000000	      0.00000000	    -24.86962477	    -44.72292968	     35.77693720	     89.25599294	     87.79136815	      0.00000000	      0.00000000
      3.89500000	    -36.84566822	      4.54373471	     -4.16649083	     -0.39889177	      0.59305484	     -0.93049746	    103.21937507	    -17.41125419	      4.50107004	     98.62128875	      1.72126620	     34.66357932	      0.00000000	      0.00000000	     98.11763234	    -25.34150064	     -1.73446613	     99.62108936	      1.73871601	     37.29687827	      0.00000000	      0.00000000	    -16.05986981	     -6.53924066	     -6.59172417	     10.74690352	    -50.41458045	     72.28760071	     94.53454325	     87.74882386	      0.00000000	      0.00000000	    -24.98767074	    -44.57665999	     35.45800266	     88.84165498	     87.76540814	      0.00000000	      0.00000000
      3.90000000	    -36.11829795	      4.73718858	     -4.76281610	     -0.39511001	      0.60128905	     -0.92919504	    101.43947480	    -16.80054137	      4.32729544	     97.56373196	      1.70280835	     34.59298682	      0.00000000	      0.00000000	     96.06716939	    -26.04799648	     -2.64308707	     98.60355774	      1.72095674	     37.28986513	      0.00000000	      0.00000000	    -15.99525508	     -7.01059345	     -5.98106514	     10.46467249	    -49.96544961	     71.75252797	     93.87051395	     87.72868337	      0.00000000	      0.00000000	    -25.07991508	    -44.44027901	     35.07788651	     88.50153820	     87.75008418	      0.00000000	      0.00000000
      3.90500000	    -36.56165909	      3.80360566	     -3.55596050	     -0.39345247	      0.60790923	     -0.93143495	    100.51639279	    -18.11781286	      3.27508098	     96.45522547	      1.68346127	     34.48160775	      0.00000000	      0.00000000	     96.03706279	    -24.48004232	     -2.03131090	     97.26786212	      1.69764445	     36.95047148	      0.00000000	      0.00000000	    -14.89547580	     -5.55519245	     -6.72427343	     10.10560041	    -50.14294032	     71.07848159	     93.80132494	     87.73273797	      0.00000000	      0.00000000	    -25.11741253	    -43.95867707	     34.84483626	     88.18645895	     87.77342979	      0.00000000	      0.00000000
      3.91000000	    -35.20650339	      4.12395954	     -4.53220613	     -0.38824853	      0.61709258	     -0.92936679	     98.07411221	    -17.20229630	      3.16321788	     95.43484016	      1.66565218	     34.43185520	      0.00000000	      0.00000000	     93.14486361	    -25.69105251	     -3.22942682	     96.34514111	      1.68153993	     36.84938559	      0.00000000	      0.00000000	    -15.32284842	     -6.28800732	     -5.99984309	     10.01965043	    -49.48122951	     70.66507601	     92.89293361	     87.71347037	      0.00000000	      0.00000000	    -25.26948847	    -43.72449912	     34.45329980	     87.64146164	     87.75528755	      0.00000000	      0.00000000
      3.91500000	    -35.00341707	      3.95515741	     -4.53073858	     -0.38581956	      0.62484655	     -0.92924335	     96.73112576	    -17.15320846	      2.67479245	     94.13990370	      1.64305128	     34.15176133	      0.00000000	      0.00000000	     91.92842950	    -25.58391420	     -3.58599747	     95.06312552	      1.65916454	     36.59405563	      0.00000000	      0.00000000	    -14.75907514	     -6.10756783	     -5.88022563	      9.96774218	    -49.46370763	     70.22789999	     92.92426096	     87.68420058	      0.00000000	      0.00000000	    -25.33573969	    -43.67132882	     34.20831477	     87.70176269	     87.75367578	      0.00000000	      0.00000000
      3.92000000	    -34.05871299	      3.00592591	     -4.50255309	     -0.38126684	      0.63371825	     -0.92853272	     94.06721057	    -17.23072650	      1.28832460	     93.02390009	      1.62357334	     34.35110474	      0.00000000	      0.00000000	     90.18760226	    -25.70162597	     -3.23442910	     93.95364532	      1.63980046	     36.47966679	      0.00000000	      0.00000000	    -14.95467652	     -5.17254547	     -5.65005794	      9.14193057	    -49.13637880	     68.79366258	     92.35461210	     87.69334362	      0.00000000	      0.00000000	    -25.57400325	    -43.14910257	     33.48816797	     87.23141112	     87.77635026	      0.00000000	      0.00000000
      3.92500000	    -33.64125597	      2.72411372	     -4.33360293	     -0.37762668	      0.64204973	     -0.92855013	     92.36270493	    -17.38245176	      0.68805004	     91.81227890	      1.60242656	     34.14965733	      0.00000000	      0.00000000	     88.68170170	    -25.51907905	     -3.59346569	     92.65607299	      1.61715355	     36.21490733	      0.00000000	      0.00000000	    -14.50293819	     -4.82107602	     -5.73210319	      8.85412973	    -48.81814950	     68.03382095	     91.84464033	     87.61045062	      0.00000000	      0.00000000	    -25.64589115	    -42.83545048	     33.15584079	     86.80915574	     87.75317597	      0.00000000	      0.00000000
      3.93000000	    -33.03483499	      2.04643399	     -4.17918315	     -0.37343155	      0.65069743	     -0.92842158	     90.19309163	    -17.51563479	     -0.44703197	     90.55810949	      1.58053717	     34.13607801	      0.00000000	      0.00000000	     87.15858804	    -25.43797561	     -3.49849089	     91.40468631	      1.59531273	     35.97167377	      0.00000000	      0.00000000	    -14.29331121	     -4.07558475	     -5.15964493	      6.84324399	    -48.71435499	     65.40246793	     91.67876758	     87.63034488	      0.00000000	      0.00000000	    -24.84272791	    -42.78419785	     33.77320448	     86.42329945	     87.76315858	      0.00000000	      0.00000000
      3.93500000	    -32.29996888	      1.53635331	     -3.96119951	     -0.36937473	      0.65955070	     -0.92841860	     87.96400915	    -17.70349694	     -1.39703790	     89.28281834	      1.55827915	     34.10211853	      0.00000000	      0.00000000	     85.41289466	    -25.26048693	     -3.58790404	     90.08890723	      1.57234805	     35.68648862	      0.00000000	      0.00000000	    -14.18167766	     -3.46081186	     -5.41157543	      6.56057817	    -48.44677215	     64.54333986	     91.39670845	     87.59475286	      0.00000000	      0.00000000	    -25.28295331	    -42.28503652	     32.89737695	     86.12036788	     87.74112624	      0.00000000	      0.00000000
      3.94000000	    -31.81852677	      1.10597980	     -3.78507396	     -0.36528022	      0.66846943	     -0.92835602	     86.00884138	    -17.79657753	     -2.30451429	     87.89293504	      1.53402111	     33.88909934	      0.00000000	      0.00000000	     83.83886892	    -25.15087923	     -3.81059775	     88.66129953	      1.54743160	     35.37634674	      0.00000000	      0.00000000	    -13.72289966	     -3.00757630	     -5.52306679	      5.92844434	    -48.12296318	     63.36351439	     91.03627752	     87.56084186	      0.00000000	      0.00000000	    -25.66272786	    -41.76900659	     32.03118146	     85.78311834	     87.73348412	      0.00000000	      0.00000000
      3.94500000	    -31.13626508	      0.60756768	     -3.56307364	     -0.36111162	      0.67774827	     -0.92830517	     83.79338241	    -17.88995292	     -3.29630714	     86.44698988	      1.50878460	     33.69216612	      0.00000000	      0.00000000	     82.06890879	    -25.00010577	     -3.91779760	     87.19145532	      1.52177797	     35.00612107	      0.00000000	      0.00000000	    -13.50466107	     -2.45259654	     -5.70269239	      5.37360993	    -47.86953065	     62.25944281	     90.82911641	     87.54377733	      0.00000000	      0.00000000	    -25.93780676	    -41.32553855	     31.30111459	     85.57346632	     87.72203032	      0.00000000	      0.00000000
      3.95000000	    -30.52916658	     -0.02228470	     -3.51321938	     -0.35678453	      0.68680779	     -0.92794816	     81.58175555	    -17.65883003	     -4.31497495	     84.97502702	      1.48309400	     33.45727622	      0.00000000	      0.00000000	     80.47380790	    -25.12079110	     -3.90225752	     85.79257331	      1.49736288	     34.65910791	      0.00000000	      0.00000000	    -13.13115995	     -1.78602725	     -5.60094991	      4.58548075	    -47.63721796	     60.99537862	     90.65894715	     87.51860820	      0.00000000	      0.00000000	    -26.30849672	    -40.81235375	     30.35818368	     85.33969120	     87.71380061	      0.00000000	      0.00000000
      3.95500000	    -28.91717135	     -1.27967456	      0.76421419	     -0.35050274	      0.69796240	     -0.94023757	     77.28762933	    -22.99897010	     -7.93778427	     83.62550516	      1.45954040	     33.20584740	      0.00000000	      0.00000000	     78.31450961	    -20.11146778	     -2.18505670	     84.12483764	      1.46825540	     34.45024951	      0.00000000	      0.00000000	    -13.87386464	      1.15708765	     -9.36147106	      3.93470206	    -48.60022974	     59.60587906	     90.91022102	     87.29667773	      0.00000000	      0.00000000	    -25.33816485	    -39.12052031	     30.83917232	     84.09016264	     87.50879401	      0.00000000	      0.00000000
      3.96000000	    -28.32172391	     -1.36454419	      0.87648279	     -0.34636170	      0.70749011	     -0.94019055	     75.27734404	    -22.91514373	     -8.66080626	     82.00732271	      1.43129779	     32.73434691	      0.00000000	      0.00000000	     76.43168516	    -20.04234468	     -2.64445075	     82.48247276	      1.43959072	     33.89077953	      0.00000000	      0.00000000	    -13.39397073	      1.20577996	     -9.55486310	      3.43731230	    -48.31784878	     58.77732822	     90.76426507	     87.25448519	      0.00000000	      0.00000000	    -25.61085378	    -38.80247672	     30.34106905	     83.87621131	     87.45218886	      0.00000000	      0.00000000
      3.96500000	    -27.64118547	     -1.80797642	      1.00404949	     -0.34186649	      0.71739827	     -0.94013341	     72.89875934	    -22.70878873	     -9.88754285	     80.26432961	      1.40087682	     32.24675179	      0.00000000	      0.00000000	     74.59739217	    -20.11336142	     -2.75429752	     80.82387958	      1.41064281	     33.35790752	      0.00000000	      0.00000000	    -13.03355456	      1.66101687	     -9.66720556	      2.60702580	    -48.19963391	     57.71745458	     91.03253798	     87.16380548	      0.00000000	      0.00000000	    -26.05580586	    -38.29466465	     29.44363077	     83.80056213	     87.41586624	      0.00000000	      0.00000000
      3.97000000	    -27.10557024	     -1.86656149	      0.97858813	     -0.33758816	      0.72715715	     -0.93989855	     70.93849892	    -22.43681160	    -10.56275395	     78.49633357	      1.37001947	     31.67234865	      0.00000000	      0.00000000	     72.72217028	    -20.21347841	     -3.36159657	     79.10836459	      1.38070143	     32.68419283	      0.00000000	      0.00000000	    -12.48863015	      1.63569406	     -9.63422811	      1.70675067	    -47.98029304	     56.60894735	     91.08259384	     87.12482961	      0.00000000	      0.00000000	    -26.59162183	    -37.88109290	     28.54680674	     83.84568088	     87.38580926	      0.00000000	      0.00000000
      3.97500000	    -26.65071764	     -1.87813064	      0.92570336	     -0.33352288	      0.73690598	     -0.93974669	     69.09779475	    -22.15915114	    -11.18670012	     76.65707373	      1.33791833	     31.08062082	      0.00000000	      0.00000000	     70.91271614	    -20.22671606	     -3.93396552	     77.31435811	      1.34939011	     32.06761301	      0.00000000	      0.00000000	    -11.88607749	      1.59064212	     -9.54506051	      0.52526847	    -47.91115334	     55.15591227	     91.50879733	     87.15062036	      0.00000000	      0.00000000	    -27.21804268	    -37.54620698	     27.47462861	     84.22296829	     87.39627744	      0.00000000	      0.00000000
      3.98000000	    -25.78503302	     -2.17605974	      0.95167392	     -0.32853615	      0.74777178	     -0.93954572	     66.53116768	    -21.80256781	    -12.25355686	     74.70679904	      1.30387962	     30.32817894	      0.00000000	      0.00000000	     68.70816286	    -20.40827274	     -4.35304794	     75.49085941	      1.31756405	     31.17700277	      0.00000000	      0.00000000	    -11.67301983	      1.83654199	     -9.54118797	     -0.11948801	    -47.89154423	     54.51410185	     91.59246584	     87.13545029	      0.00000000	      0.00000000	    -27.56166200	    -37.22173415	     26.86266833	     84.27633352	     87.37209401	      0.00000000	      0.00000000
      3.98500000	    -24.94081763	     -2.41159794	      1.06047699	     -0.32349993	      0.75868596	     -0.93960888	     63.97518579	    -21.58438440	    -13.40983550	     72.64145170	      1.26783251	     29.54986601	      0.00000000	      0.00000000	     66.47499487	    -20.43092502	     -4.77374623	     73.58966187	      1.28438189	     30.41584479	      0.00000000	      0.00000000	    -11.43615001	      2.06639779	     -9.61269440	     -0.95285201	    -47.92477669	     53.67490904	     91.90200519	     87.14199765	      0.00000000	      0.00000000	    -28.19588460	    -36.84479759	     26.04328583	     84.54941923	     87.36256187	      0.00000000	      0.00000000
      3.99000000	    -24.05780880	     -2.49883645	      1.07839429	     -0.31851869	      0.76996916	     -0.93954458	     61.46889698	    -21.26606113	    -14.23660000	     70.56374242	      1.23156964	     28.60834681	      0.00000000	      0.00000000	     64.09208008	    -20.47182573	     -5.41121272	     71.56601881	      1.24906266	     29.39692612	      0.00000000	      0.00000000	    -11.26687168	      2.09996126	     -9.61805711	     -1.62783597	    -48.02723735	     53.05162105	     92.17441191	     87.14593275	      0.00000000	      0.00000000	    -28.76262025	    -36.60610357	     25.31710166	     84.93859813	     87.34296295	      0.00000000	      0.00000000
      3.99500000	    -23.33167647	     -2.32665839	      1.05580946	     -0.31357155	      0.78112498	     -0.93959169	     59.28783108	    -21.06879828	    -14.76377523	     68.42841698	      1.19430118	     27.43641902	      0.00000000	      0.00000000	     61.71368672	    -20.30744593	     -6.23426474	     69.42929761	      1.21176984	     28.27707255	      0.00000000	      0.00000000	    -10.89936598	      1.86414247	     -9.66821078	     -2.36488690	    -48.17681912	     52.48547119	     92.54796282	     87.15109248	      0.00000000	      0.00000000	    -29.48523650	    -36.38913622	     24.48519598	     85.49983637	     87.31803191	      0.00000000	      0.00000000
      4.00000000	    -22.33842578	     -2.36217779	      1.07857958	     -0.30814008	      0.79299335	     -0.93971250	     56.59489355	    -20.80341536	    -15.68193794	     66.15511833	      1.15462463	     26.24644657	      0.00000000	      0.00000000	     59.08192979	    -20.28644651	     -6.99919205	     67.23478284	      1.17346833	     27.16817143	      0.00000000	      0.00000000	    -10.85678534	      1.91105057	     -9.77164442	     -3.14251465	    -48.40837196	     51.86276803	     92.99972934	     87.16250686	      0.00000000	      0.00000000	    -30.36080994	    -36.07096933	     23.51059294	     86.03769267	     87.30757291	      0.00000000	      0.00000000
      4.00500000	    -21.37578084	     -2.47935196	      1.14946023	     -0.30274590	      0.80516451	     -0.93996433	     53.85944824	    -20.46321423	    -16.64957102	     63.74322743	      1.11252919	     24.89821220	      0.00000000	      0.00000000	     56.49410374	    -20.18594042	     -7.55607283	     64.92705059	      1.13319081	     25.89935700	      0.00000000	      0.00000000	    -10.77048473	      2.03084110	     -9.84233348	     -3.86163516	    -48.69041259	     51.37003250	     93.46577481	     87.17548972	      0.00000000	      0.00000000	    -31.19644853	    -35.81268338	     22.60954284	     86.65997255	     87.30239023	      0.00000000	      0.00000000
      4.01000000	    -20.35697093	     -2.57351167	      1.16251516	     -0.29742002	      0.81777603	     -0.94019306	     51.04482950	    -20.04672003	    -17.59659648	     61.11886947	      1.06672551	     23.27393025	      0.00000000	      0.00000000	     53.76185986	    -20.10504169	     -8.19064898	     62.44318312	      1.08983914	     24.47673742	      0.00000000	      0.00000000	    -10.77849205	      2.08067328	     -9.85081129	     -4.62295865	    -49.07138921	     50.86518184	     93.99095467	     87.18348019	      0.00000000	      0.00000000	    -32.03278731	    -35.61776239	     21.69760768	     87.39680692	     87.29891630	      0.00000000	      0.00000000
      4.01500000	    -19.37180439	     -2.60971294	      1.27706723	     -0.29169021	      0.83048526	     -0.94054747	     48.21829544	    -19.71143167	    -18.51696104	     58.46268474	      1.02036634	     21.54967145	      0.00000000	      0.00000000	     51.04834297	    -19.77175750	     -8.29031073	     60.05486237	      1.04815508	     22.78385960	      0.00000000	      0.00000000	    -10.70343233	      2.14798388	    -10.04988332	     -5.39474850	    -49.40573064	     50.40184388	     94.52095146	     87.19667695	      0.00000000	      0.00000000	    -32.96862539	    -35.39086327	     20.78184521	     88.10954838	     87.29834601	      0.00000000	      0.00000000
      4.02000000	    -18.26915732	     -2.71067408	      1.33890360	     -0.28598636	      0.84372400	     -0.94079789	     45.18886582	    -19.22676059	    -19.53857112	     55.57600986	      0.96998436	     19.65135147	      0.00000000	      0.00000000	     48.06971683	    -19.75857008	     -9.49168007	     57.09790921	      0.99654651	     21.21926534	      0.00000000	      0.00000000	    -10.80427082	      2.25796583	    -10.23334202	     -6.13878894	    -49.78140137	     49.92120794	     95.12643447	     87.21559228	      0.00000000	      0.00000000	    -33.99656683	    -35.19100973	     19.71972878	     88.90968886	     87.30894337	      0.00000000	      0.00000000
      4.02500000	    -17.22843488	     -2.78050011	      1.49349263	     -0.28020590	      0.85711293	     -0.94124814	     42.16165777	    -18.79927668	    -20.61206154	     52.54704153	      0.91711889	     17.50316097	      0.00000000	      0.00000000	     45.21304704	    -19.37897227	     -9.48905551	     54.38849367	      0.94925829	     18.96389002	      0.00000000	      0.00000000	    -10.80298417	      2.34052662	    -10.44027118	     -6.98873860	    -50.15759293	     49.32262442	     95.70899006	     87.22177879	      0.00000000	      0.00000000	    -35.06150758	    -34.95001474	     18.64259459	     89.70038584	     87.30087549	      0.00000000	      0.00000000
      4.03000000	    -16.24309579	     -2.80074145	      1.54096744	     -0.27460884	      0.87082214	     -0.94147940	     39.25340603	    -18.22476135	    -21.42646654	     49.37614693	      0.86177634	     15.09854417	      0.00000000	      0.00000000	     42.29559886	    -19.09623013	    -10.07549811	     51.32324154	      0.89575955	     16.80743243	      0.00000000	      0.00000000	    -10.81035856	      2.34381513	    -10.62159233	     -7.89356313	    -50.49897304	     48.66984775	     96.28465222	     87.22982156	      0.00000000	      0.00000000	    -36.14087276	    -34.70593042	     17.56450388	     90.49153836	     87.31361438	      0.00000000	      0.00000000
      4.03500000	    -15.29148934	     -2.84523015	      1.69670332	     -0.26871637	      0.88462645	     -0.94188332	     36.22750594	    -17.61710806	    -22.28594572	     45.95868222	      0.80213032	     12.49842118	      0.00000000	      0.00000000	     39.37380716	    -18.74829058	    -10.63378513	     48.07568925	      0.83907907	     14.42006375	      0.00000000	      0.00000000	    -10.71581961	      2.41287016	    -10.82332825	     -8.84823568	    -50.84579069	     48.04282442	     96.91963192	     87.24073889	      0.00000000	      0.00000000	    -37.20821228	    -34.56916591	     16.60225970	     91.23271639	     87.32643586	      0.00000000	      0.00000000
      4.04000000	    -14.50894264	     -2.90079481	      1.73710695	     -0.26290806	      0.89852416	     -0.94211205	     33.39841193	    -16.81007734	    -22.86736930	     42.27788638	      0.73788832	      9.40552794	      0.00000000	      0.00000000	     36.54062610	    -18.44417149	    -11.56019160	     44.49748233	      0.77662758	     11.66875287	      0.00000000	      0.00000000	    -10.46680567	      2.48181045	    -10.98653722	     -9.73542667	    -51.15612640	     47.54709207	     97.54473579	     87.23951597	      0.00000000	      0.00000000	    -38.26371578	    -34.41492649	     15.78850956	     91.98766681	     87.30715261	      0.00000000	      0.00000000
      4.04500000	    -13.47203362	     -2.81505144	      1.81657168	     -0.25690605	      0.91304373	     -0.94238341	     30.20037337	    -16.16536905	    -23.71886683	     38.42786520	      0.67069277	      6.10027785	      0.00000000	      0.00000000	     33.34528117	    -17.90971042	    -11.73882971	     41.00236223	      0.71562622	      8.36568962	      0.00000000	      0.00000000	    -10.58157596	      2.37829210	    -11.24255653	    -10.77764951	    -51.31132314	     46.56385908	     97.98102075	     87.24262320	      0.00000000	      0.00000000	    -39.39465192	    -34.02262891	     14.55495084	     92.54039634	     87.31480954	      0.00000000	      0.00000000
      4.05000000	    -12.55732069	     -2.97876819	      1.98391745	     -0.25071248	      0.92753445	     -0.94264822	     27.00318530	    -15.18472730	    -24.46363683	     34.25844980	      0.59792275	      1.64805345	      0.00000000	      0.00000000	     30.34220656	    -17.55623967	    -12.06231181	     37.28089152	      0.65067431	      5.04225745	      0.00000000	      0.00000000	    -10.57335404	      2.57381240	    -11.09187138	    -13.45745678	    -51.22179607	     43.76351754	     98.69752215	     87.30961793	      0.00000000	      0.00000000	    -40.16378444	    -33.91808234	     13.63871004	     93.20754413	     87.40247724	      0.00000000	      0.00000000
      4.05500000	    -11.90629675	     -2.70872585	      1.95456484	     -0.24524497	      0.94191021	     -0.94283528	     24.32880296	    -14.55074779	    -24.62144140	     30.17343313	      0.52662575	     -2.50703174	      0.00000000	      0.00000000	     27.43839341	    -16.81482460	    -12.66360138	     33.28592618	      0.58094901	      1.12036731	      0.00000000	      0.00000000	    -10.35352466	      2.28077426	    -11.10596886	    -14.66130320	    -51.28736622	     43.03750320	     99.10321013	     87.27942535	      0.00000000	      0.00000000	    -40.93834110	    -33.88971977	     12.96729690	     93.66905449	     87.34771792	      0.00000000	      0.00000000
      4.06000000	    -11.13080799	     -2.71680029	      2.02382439	     -0.23903496	      0.95654115	     -0.94298646	     21.36686188	    -13.61205160	    -24.91418910	     25.92744080	      0.45251921	     -6.16563540	      0.00000000	      0.00000000	     24.40564292	    -16.29802068	    -13.03721347	     29.17257970	      0.50915757	     -3.18244973	      0.00000000	      0.00000000	    -10.18574475	      2.29339180	    -11.18342483	    -16.03571897	    -51.24858761	     41.93585161	     99.51199130	     87.27693025	      0.00000000	      0.00000000	    -41.81418938	    -33.64290838	     12.02019824	     94.17518013	     87.32916605	      0.00000000	      0.00000000
      4.06500000	    -10.48369387	     -2.65125863	      2.05334015	     -0.23337113	      0.97120235	     -0.94320768	     18.56199073	    -12.72743879	    -24.96232293	     21.45636910	      0.37448429	    -11.17042026	      0.00000000	      0.00000000	     21.56627132	    -15.70901858	    -13.37761219	     25.06108843	      0.43739851	     -7.72464256	      0.00000000	      0.00000000	     -9.98255951	      2.23763631	    -11.19647960	    -17.46462418	    -51.16845111	     40.74592632	     99.89978287	     87.30318191	      0.00000000	      0.00000000	    -42.38245009	    -33.39101925	     11.23911052	     94.40931711	     87.35932309	      0.00000000	      0.00000000
      4.07000000	     -9.97714061	     -2.49311382	      2.05207947	     -0.22785161	      0.98559931	     -0.94335885	     16.08199849	    -12.01820453	    -24.70898994	     17.24646848	      0.30100766	    -16.52388478	      0.00000000	      0.00000000	     18.94086625	    -15.01049559	    -13.60469295	     20.93205709	      0.36533332	    -12.81472446	      0.00000000	      0.00000000	     -9.65077818	      2.07169817	    -11.04241005	    -19.11336810	    -50.96075068	     39.52548326	    100.31561205	     87.31477095	      0.00000000	      0.00000000	    -42.99382439	    -33.29131321	     10.58502957	     94.81146135	     87.36231042	      0.00000000	      0.00000000
      4.07500000	     -9.65046777	     -2.30178899	      2.11040921	     -0.22266104	      0.99992096	     -0.94359470	     14.01920266	    -11.51285840	    -24.36113561	     13.48821187	      0.23541371	    -22.10847444	      0.00000000	      0.00000000	     16.67883958	    -14.28770720	    -13.88821381	     16.88680150	      0.29473029	    -18.61065951	      0.00000000	      0.00000000	     -9.16633689	      1.85492959	    -11.01035089	    -20.41447350	    -50.83996882	     38.62095506	    100.59079571	     87.30443708	      0.00000000	      0.00000000	    -43.64015590	    -33.15949230	      9.80074191	     95.20679096	     87.32814464	      0.00000000	      0.00000000
      4.08000000	     -9.02660328	     -2.25733709	      2.16116846	     -0.21715579	      1.01463677	     -0.94373726	     11.38200433	    -10.73032581	    -23.83265876	      9.09486783	      0.15873539	    -27.41831427	      0.00000000	      0.00000000	     14.08828531	    -13.74521649	    -14.07346297	     12.84299820	      0.22415260	    -23.45103772	      0.00000000	      0.00000000	     -9.08577245	      1.93263272	     -8.68141557	    -27.36402988	    -48.71932502	     31.21234029	    101.22813251	     87.38757660	      0.00000000	      0.00000000	    -41.24911063	    -35.32235261	     12.55854247	     95.11692674	     87.35857600	      0.00000000	      0.00000000
      4.08500000	     -8.62983291	     -2.08139954	      2.14659582	     -0.21212471	      1.02914506	     -0.94382849	      9.49912069	    -10.33405472	    -23.27972009	      5.71900384	      0.09981545	    -32.72963783	      0.00000000	      0.00000000	     11.94467770	    -13.12529167	    -14.51718693	      9.05979515	      0.15812325	    -28.44880656	      0.00000000	      0.00000000	     -8.73102672	      1.74056326	     -8.58350958	    -28.24241098	    -48.41267091	     30.72749102	    101.35643337	     87.39171612	      0.00000000	      0.00000000	    -41.69123284	    -35.24861902	     12.07244109	     95.38388621	     87.34329235	      0.00000000	      0.00000000
      4.09000000	     -8.46548690	     -1.85147532	      2.29486283	     -0.20742927	      1.04343692	     -0.94430091	      8.15637670	    -10.22264553	    -23.19471447	      3.06696241	      0.05352859	    -36.39689327	      0.00000000	      0.00000000	     10.33566574	    -12.44171597	    -15.02995028	      5.63319851	      0.09831786	    -32.94633413	      0.00000000	      0.00000000	     -8.15573353	      1.52498862	     -8.57370373	    -29.17552426	    -47.97899966	     30.12057146	    101.30995409	     87.38631295	      0.00000000	      0.00000000	    -41.94192756	    -35.24150343	     11.80539694	     95.50757426	     87.33349804	      0.00000000	      0.00000000
      4.09500000	     -8.39342658	     -1.69646429	      2.44460555	     -0.20352012	      1.05773219	     -0.94479231	      7.32874326	    -10.15887958	    -22.87009774	      1.44654680	      0.02524700	    -38.24027341	      0.00000000	      0.00000000	      9.39404575	    -11.87933436	    -16.71707613	      3.18397994	      0.05557093	    -36.24001501	      0.00000000	      0.00000000	     -7.54408564	      1.38977520	     -8.55755214	    -29.82039193	    -47.57567173	     29.69337520	    101.16152280	     87.36271481	      0.00000000	      0.00000000	    -41.95757090	    -35.30780662	     11.71010391	     95.54557083	     87.30700103	      0.00000000	      0.00000000
      4.10000000	     -8.54484248	     -1.44297535	      2.70904150	     -0.19979580	      1.07151002	     -0.94563311	      7.04566236	    -10.37770511	    -23.33819217	      0.82609423	      0.01441806	    -38.61696665	      0.00000000	      0.00000000	      8.72654768	    -11.25044376	    -16.79648438	      1.43103305	      0.02497624	    -37.34819415	      0.00000000	      0.00000000	     -6.74476578	      1.16797743	     -8.54549658	    -30.64784908	    -46.99920367	     29.06774526	    100.94474572	     87.34784430	      0.00000000	      0.00000000	    -41.87705178	    -35.47025147	     11.87301838	     95.54879589	     87.30568973	      0.00000000	      0.00000000
      4.10500000	     -8.95217069	     -1.30005556	      2.79235763	     -0.19728178	      1.08480325	     -0.94601900	      7.22545706	    -10.44078818	    -23.75780604	      0.62003380	      0.01082163	    -38.57515404	      0.00000000	      0.00000000	      8.83246350	    -10.87984968	    -18.03778972	      0.89740545	      0.01566268	    -37.21899811	      0.00000000	      0.00000000	     -5.85564542	      1.11863379	     -6.78466054	    -34.60686237	    -44.85477832	     24.67584019	    101.03103389	     87.40567458	      0.00000000	      0.00000000	    -39.37843753	    -37.36181297	     14.75372249	     95.26352660	     87.31998854	      0.00000000	      0.00000000
      4.11000000	     -9.39167434	     -1.29071405	      2.84348493	     -0.19541958	      1.09795814	     -0.94615684	      7.40793075	    -10.25769229	    -24.08099015	      0.52627459	      0.00918522	    -37.71351621	      0.00000000	      0.00000000	      9.04670872	    -10.65332993	    -18.50741562	      0.74219363	      0.01295372	    -36.52155616	      0.00000000	      0.00000000	     -4.96414734	      1.08677895	     -6.69449312	    -34.61319222	    -44.47839370	     24.78927684	    100.61436538	     87.40701047	      0.00000000	      0.00000000	    -39.22847032	    -37.40027327	     14.78685243	     95.21513620	     87.30326141	      0.00000000	      0.00000000
      4.11500000	     -9.87161059	     -1.15689545	      2.82198215	     -0.19417811	      1.11049764	     -0.94640148	      7.68431282	    -10.24497708	    -24.76072352	      0.54617400	      0.00953253	    -36.85882203	      0.00000000	      0.00000000	      9.36066517	    -10.30668945	    -18.57127187	      0.83972045	      0.01465589	    -35.76996747	      0.00000000	      0.00000000	     -4.14884952	      0.94357544	     -6.56042935	    -34.56005631	    -44.13571347	     24.84802935	    100.20577766	     87.33008704	      0.00000000	      0.00000000	    -38.98856421	    -37.50867396	     14.92500670	     95.19886054	     87.23539498	      0.00000000	      0.00000000
      4.12000000	    -10.02621509	     -1.14193083	      2.61467629	     -0.19408996	      1.12301137	     -0.94607532	      7.74594121	     -9.93832132	    -24.99094021	      0.66619816	      0.01162735	    -36.76452059	      0.00000000	      0.00000000	      9.43081256	    -10.15733663	    -18.52210404	      1.13341836	      0.01978188	    -35.74267327	      0.00000000	      0.00000000	     -3.85996236	      0.92819461	     -6.25958927	    -34.27990961	    -43.92248154	     24.86079903	    100.09441299	     87.22631403	      0.00000000	      0.00000000	    -38.73796489	    -37.64233880	     14.85589314	     95.26372123	     87.12726648	      0.00000000	      0.00000000
      4.12500000	    -10.31988354	     -1.28033108	      2.61637577	     -0.19472155	      1.13543225	     -0.94592846	      8.06629971	     -9.48895147	    -26.07006053	      0.94789679	      0.01654392	    -37.77808155	      0.00000000	      0.00000000	      9.98865994	    -10.21547690	    -18.54692825	      1.98002435	      0.03455794	    -36.44530300	      0.00000000	      0.00000000	     -3.44658444	      1.03544224	     -6.02144339	    -33.74957231	    -43.48022248	     25.13537681	     99.09153454	     87.34683894	      0.00000000	      0.00000000	    -37.93822307	    -38.11043382	     15.64987893	     95.20281666	     87.27947464	      0.00000000	      0.00000000
      4.13000000	    -10.42023734	     -1.12709745	      2.57889975	     -0.19611813	      1.14761846	     -0.94591667	      8.39869326	     -9.45340527	    -26.97432230	      1.80947074	      0.03158122	    -38.65038243	      0.00000000	      0.00000000	     10.56355600	    -10.00737517	    -18.44252287	      3.37270537	      0.05886481	    -37.33341658	      0.00000000	      0.00000000	     -3.41163083	      0.86692311	     -5.74286406	    -33.24994749	    -43.19391599	     25.28127456	     98.45854516	     87.37425235	      0.00000000	      0.00000000	    -37.03104888	    -38.61745810	     16.22917476	     95.15012868	     87.32211913	      0.00000000	      0.00000000
      4.13500000	    -10.25487805	     -1.12146643	      2.45192423	     -0.19768772	      1.15997679	     -0.94551866	      8.80790279	     -9.39567684	    -28.03400409	      3.63016129	      0.06335827	    -39.12096174	      0.00000000	      0.00000000	     10.94398581	    -10.04520834	    -18.20932659	      5.09344767	      0.08889743	    -37.97524947	      0.00000000	      0.00000000	     -3.76663176	      0.81356326	     -5.40786086	    -32.61944397	    -42.87589352	     25.44115640	     97.70127970	     87.38548238	      0.00000000	      0.00000000	    -36.15128970	    -39.00025926	     16.80315082	     95.06097883	     87.33250226	      0.00000000	      0.00000000
      4.14000000	     -9.94587424	     -0.99427995	      2.16567257	     -0.19943346	      1.17225333	     -0.94506863	      9.00679396	     -9.37481174	    -27.80769658	      5.19008730	      0.09058411	    -39.30513440	      0.00000000	      0.00000000	     11.05093222	     -9.90966305	    -17.55617725	      6.57438107	      0.11474460	    -38.40045347	      0.00000000	      0.00000000	     -4.37937926	      0.63318080	     -5.04311941	    -31.91681726	    -42.57679704	     25.44796962	     96.92357684	     87.37757052	      0.00000000	      0.00000000	    -35.49568360	    -39.21519541	     16.98423876	     95.01844972	     87.34257008	      0.00000000	      0.00000000
      4.14500000	     -9.89612326	     -0.79393291	      1.75812372	     -0.20156424	      1.18396901	     -0.94450295	      9.80441136	     -9.61366830	    -27.88198801	      7.29196877	      0.12726886	    -39.33589049	      0.00000000	      0.00000000	     11.54792722	     -9.74647861	    -17.18365756	      8.33984516	      0.14555776	    -38.44890327	      0.00000000	      0.00000000	     -4.71397241	      0.33005770	     -4.51361886	    -30.98745171	    -42.35901604	     25.82818161	     95.91994496	     87.38784822	      0.00000000	      0.00000000	    -34.53028820	    -39.63258422	     17.75890253	     94.88560402	     87.36482217	      0.00000000	      0.00000000
      4.15000000	     -9.40441014	     -0.72247351	      1.50368486	     -0.20341265	      1.19578645	     -0.94387327	      9.79904625	     -9.30731744	    -26.59443107	      8.49730236	      0.14830590	    -39.46404386	      0.00000000	      0.00000000	     11.43725301	     -9.63427117	    -15.99747575	      9.59291593	      0.16742797	    -38.77995909	      0.00000000	      0.00000000	     -5.59750820	      0.15900486	     -4.15515090	    -30.31374762	    -42.10485735	     25.82487112	     95.23682262	     87.37225849	      0.00000000	      0.00000000	    -33.94057491	    -39.78359756	     17.74770880	     94.88032864	     87.36019618	      0.00000000	      0.00000000
      4.15500000	     -9.23569431	     -0.52900288	      1.25872051	     -0.20507525	      1.20693382	     -0.94340660	     10.27582171	     -9.49603852	    -25.39979478	     10.14142225	      0.17700121	    -39.45437393	      0.00000000	      0.00000000	     11.73818946	     -9.39209315	    -15.16226425	     10.94790116	      0.19107692	    -38.62892513	      0.00000000	      0.00000000	     -6.05914609	     -0.18308714	     -3.89282690	    -29.22578463	    -41.99582697	     26.49364699	     94.09456411	     87.38020822	      0.00000000	      0.00000000	    -33.01307508	    -40.32887890	     18.82060414	     94.69926805	     87.37574431	      0.00000000	      0.00000000
      4.16000000	     -8.81746507	     -0.35544832	      1.03412013	     -0.20678304	      1.21794788	     -0.94287915	     10.31597364	     -9.44260298	    -23.86779666	     11.10774646	      0.19386675	    -39.49386831	      0.00000000	      0.00000000	     11.67897629	     -9.18728112	    -14.09224828	     12.02338618	      0.20984768	    -38.79045335	      0.00000000	      0.00000000	     -6.92433860	     -0.49105492	     -3.64069415	    -28.58114121	    -41.80852287	     26.57460420	     93.44592070	     87.36634619	      0.00000000	      0.00000000	    -32.53764126	    -40.46609463	     18.89015907	     94.70510748	     87.37548680	      0.00000000	      0.00000000
      4.16500000	     -8.72296518	     -0.13153680	      0.71459015	     -0.20848480	      1.22842116	     -0.94220525	     10.74831366	     -9.40515521	    -21.56427899	     12.01067525	      0.20962583	    -39.48590048	      0.00000000	      0.00000000	     11.97198607	     -8.99275191	    -13.58730476	     13.07871913	      0.22826671	    -38.63533775	      0.00000000	      0.00000000	     -7.30303474	     -0.90167876	     -3.44694434	    -27.17210179	    -41.97504075	     27.77563566	     92.50413498	     87.36359301	      0.00000000	      0.00000000	    -31.77917572	    -40.96206704	     19.99013171	     94.52110372	     87.37629954	      0.00000000	      0.00000000
      4.17000000	     -8.30139077	     -0.12018790	      0.64742965	     -0.20955456	      1.23905955	     -0.94186527	     10.60824324	     -9.17156589	    -19.93898869	     12.67073682	      0.22114608	    -39.47062102	      0.00000000	      0.00000000	     11.89330534	     -8.99926814	    -12.84023152	     13.95125611	      0.24349535	    -38.58343299	      0.00000000	      0.00000000	     -8.05332077	     -1.03632593	     -3.56587492	    -25.86787579	    -42.15380625	     28.88856603	     91.79450988	     87.31697464	      0.00000000	      0.00000000	    -31.30024912	    -41.16434374	     20.54138204	     94.34488963	     87.35950356	      0.00000000	      0.00000000
      4.17500000	     -7.87044318	     -0.15370201	      0.61542978	     -0.21068707	      1.24950395	     -0.94144457	     10.36146977	     -8.88013174	    -18.39309041	     12.92714555	      0.22562125	    -39.43989466	      0.00000000	      0.00000000	     11.86185732	     -9.13038201	    -12.34274956	     14.92050807	      0.26041199	    -38.44537188	      0.00000000	      0.00000000	     -8.79758762	     -1.15781400	     -4.24001023	    -23.50407070	    -42.75784329	     31.31131285	     91.02784951	     87.25071874	      0.00000000	      0.00000000	    -31.78987999	    -40.93698970	     20.07095667	     94.28447762	     87.34337147	      0.00000000	      0.00000000
      4.18000000	     -7.45073489	     -0.10628747	      0.68701175	     -0.21131443	      1.25954865	     -0.94134418	     10.12609392	     -8.80894298	    -17.55121867	     13.32745957	      0.23260805	    -39.42983726	      0.00000000	      0.00000000	     11.73934105	     -9.14299447	    -11.73736120	     15.59341699	      0.27215647	    -38.46860755	      0.00000000	      0.00000000	     -9.53976077	     -1.27751391	     -4.41116286	    -22.94795474	    -42.66492928	     31.31414769	     90.76407833	     87.23923643	      0.00000000	      0.00000000	    -31.50127138	    -40.93420317	     20.35387292	     94.10670832	     87.36628258	      0.00000000	      0.00000000
      4.18500000	     -7.05805529	     -0.09163376	      0.78964934	     -0.21197828	      1.26936566	     -0.94126794	      9.87150818	     -8.72840512	    -16.72869609	     13.58706178	      0.23713896	    -39.36849376	      0.00000000	      0.00000000	     11.70549543	     -9.22244011	    -11.19608183	     16.44522024	      0.28702324	    -38.31818005	      0.00000000	      0.00000000	    -10.22316577	     -1.35499543	     -4.55400592	    -22.27876058	    -42.63938732	     31.82521258	     90.30528141	     87.25032761	      0.00000000	      0.00000000	    -31.02413213	    -41.08703178	     21.00593779	     93.78563130	     87.39958416	      0.00000000	      0.00000000
      4.19000000	     -6.91993570	     -0.27146523	      0.92095351	     -0.21240374	      1.27872305	     -0.94127788	      9.61597007	     -8.34719442	    -15.61145596	     13.24478744	      0.23116515	    -39.32925784	      0.00000000	      0.00000000	     11.99502923	     -9.61108189	    -11.19891440	     17.36854372	      0.30313827	    -37.83590525	      0.00000000	      0.00000000	    -10.42073467	     -1.20613972	     -4.89609965	    -20.55850168	    -43.13642800	     34.08925906	     89.66933737	     87.24076459	      0.00000000	      0.00000000	    -29.95907569	    -41.58320508	     23.12401282	     93.13004672	     87.38319083	      0.00000000	      0.00000000
      4.19500000	     -6.62889301	     -0.25269386	      1.15547887	     -0.21237072	      1.28832558	     -0.94170930	      9.20081730	     -8.27315069	    -14.88225799	     12.97264872	      0.22641543	    -39.27245467	      0.00000000	      0.00000000	     11.96447062	     -9.65431783	    -10.65706551	     17.85357936	      0.31160374	    -37.04705516	      0.00000000	      0.00000000	    -10.77448520	     -1.18679269	     -5.23660073	    -19.76898100	    -43.16260947	     34.86123840	     89.16709990	     87.19637559	      0.00000000	      0.00000000	    -29.34494355	    -41.48646732	     23.90280893	     92.39427364	     87.36428591	      0.00000000	      0.00000000
      4.20000000	     -6.57743407	     -0.48922522	      1.39035078	     -0.21249072	      1.29739942	     -0.94187733	      9.14909371	     -8.09686977	    -15.73584745	     12.92276141	      0.22554474	    -39.26834135	      0.00000000	      0.00000000	     12.20498492	    -10.02541242	    -10.26132990	     18.25334988	      0.31858105	    -36.62832802	      0.00000000	      0.00000000	    -10.91773268	     -0.92166201	     -5.60435726	    -18.99437409	    -43.17633166	     35.65508549	     88.76336580	     87.17420014	      0.00000000	      0.00000000	    -28.82659596	    -41.36325047	     24.73882983	     91.65218178	     87.35341127	      0.00000000	      0.00000000
      4.20500000	     -6.38866204	     -0.63710114	      1.68346769	     -0.21241605	      1.30644241	     -0.94251471	      8.71565816	     -7.80284271	    -14.39978769	     12.28144328	      0.21435162	    -39.19776295	      0.00000000	      0.00000000	     12.19358884	    -10.21484319	     -9.67462140	     18.41269160	      0.32136209	    -36.00803669	      0.00000000	      0.00000000	    -11.18874141	     -0.72200023	     -6.51235560	    -17.33149991	    -43.54780125	     37.44892753	     88.33512974	     87.10598314	      0.00000000	      0.00000000	    -28.97867748	    -40.96795803	     24.93755788	     91.01773350	     87.28435907	      0.00000000	      0.00000000
      4.21000000	     -6.40095137	     -0.81191977	      1.87336757	     -0.21227032	      1.31497361	     -0.94287439	      8.56705125	     -7.58886024	    -14.26137627	     11.80749286	      0.20607963	    -39.15181859	      0.00000000	      0.00000000	     12.33979750	    -10.46104903	     -9.25445564	     18.42125051	      0.32151147	    -35.30502229	      0.00000000	      0.00000000	    -11.17772677	     -0.49551318	     -6.85816105	    -16.91963430	    -43.48599263	     37.67483181	     88.11721802	     87.13039022	      0.00000000	      0.00000000	    -28.63612383	    -40.70971053	     25.41318836	     90.21128527	     87.29114930	      0.00000000	      0.00000000
      4.21500000	     -6.59144440	     -0.84419499	      1.96980292	     -0.21206262	      1.32293205	     -0.94321310	      8.64310250	     -7.54811435	    -14.19958913	     11.29640824	      0.19715952	    -39.03344465	      0.00000000	      0.00000000	     12.52860406	    -10.53865158	     -8.97739383	     18.17412568	      0.31719833	    -34.63467483	      0.00000000	      0.00000000	    -10.92602000	     -0.42576594	     -7.12698337	    -16.70913943	    -43.36764931	     37.69432495	     87.86513559	     87.13480127	      0.00000000	      0.00000000	    -28.38235237	    -40.39223158	     25.69805472	     89.34148666	     87.28194477	      0.00000000	      0.00000000
      4.22000000	     -6.76159626	     -0.95910093	      2.08985707	     -0.21199914	      1.33071937	     -0.94356671	      8.59058661	     -7.38151616	    -13.96528493	     10.53503624	      0.18387107	    -38.91011587	      0.00000000	      0.00000000	     12.67453562	    -10.65668135	     -8.40510065	     17.78580864	      0.31042092	    -33.72783623	      0.00000000	      0.00000000	    -10.67582160	     -0.23502546	     -7.30400690	    -16.51000438	    -43.28263454	     37.72370904	     87.67395210	     87.15032728	      0.00000000	      0.00000000	    -27.84505234	    -40.11121952	     26.22625224	     88.41045514	     87.27784277	      0.00000000	      0.00000000
      4.22500000	     -6.96146517	     -1.10306181	      2.13240817	     -0.21187507	      1.33816633	     -0.94371703	      8.56907244	     -7.17852461	    -13.88146124	      9.72881389	      0.16979983	    -38.72830315	      0.00000000	      0.00000000	     12.76832385	    -10.83412994	     -8.12963213	     17.25911634	      0.30122841	    -32.89475189	      0.00000000	      0.00000000	    -10.38279299	     -0.05303612	     -7.40145492	    -16.46718074	    -43.17393782	     37.53741026	     87.52413809	     87.15327256	      0.00000000	      0.00000000	    -27.45951233	    -39.93172956	     26.71884147	     87.55835974	     87.27227633	      0.00000000	      0.00000000
      4.23000000	     -7.25996944	     -1.12259006	      2.10382495	     -0.21184002	      1.34517015	     -0.94382812	      8.75958599	     -7.15579428	    -14.08172276	      9.12266369	      0.15922052	    -38.35631458	      0.00000000	      0.00000000	     12.92269711	    -10.90220242	     -8.22809076	     16.59103121	      0.28956812	    -31.97851536	      0.00000000	      0.00000000	    -10.05676690	     -0.01956717	     -7.60826156	    -16.42134280	    -43.05035766	     37.33581836	     87.45867841	     87.15150982	      0.00000000	      0.00000000	    -27.42264103	    -39.72428700	     26.89268905	     87.00790150	     87.25313330	      0.00000000	      0.00000000
      4.23500000	     -7.49455667	     -1.21201021	      2.08226319	     -0.21169341	      1.35200774	     -0.94403157	      8.75828461	     -7.02212019	    -14.10089899	      8.27120960	      0.14435984	    -38.05087261	      0.00000000	      0.00000000	     12.90905467	    -10.97853400	     -7.91804723	     15.75899308	      0.27504632	    -30.82128205	      0.00000000	      0.00000000	     -9.71547288	      0.10995935	     -7.63873320	    -16.46056923	    -42.90812266	     37.04575601	     87.31400612	     87.17662010	      0.00000000	      0.00000000	    -27.12091313	    -39.40109382	     27.01386042	     86.09702650	     87.22642555	      0.00000000	      0.00000000
      4.24000000	     -7.81699414	     -1.23364642	      2.04185649	     -0.21161666	      1.35845327	     -0.94407800	      8.95960064	     -7.00426348	    -14.43252799	      7.67955670	      0.13403355	    -37.51110006	      0.00000000	      0.00000000	     13.04117764	    -11.06035088	     -8.25153370	     14.99048107	      0.26163325	    -29.88931066	      0.00000000	      0.00000000	     -9.28344604	      0.13713536	     -7.70122902	    -16.49321730	    -42.80087900	     36.86476654	     87.26869394	     87.17823317	      0.00000000	      0.00000000	    -27.05859890	    -39.27638151	     27.09496325	     85.71098474	     87.22266588	      0.00000000	      0.00000000
      4.24500000	     -8.02082108	     -1.29536715	      1.92222735	     -0.21148670	      1.36476520	     -0.94427094	      9.01003725	     -6.92469488	    -14.64574576	      7.03673941	      0.12281427	    -36.95680154	      0.00000000	      0.00000000	     13.01150910	    -11.14625061	     -9.03480136	     14.02503355	      0.24478301	    -29.01568961	      0.00000000	      0.00000000	     -9.00183742	      0.23526785	     -7.59557855	    -16.59661167	    -42.71644429	     36.52068503	     87.19478037	     87.19597679	      0.00000000	      0.00000000	    -26.81370549	    -38.98830577	     27.16102231	     85.00293746	     87.21475311	      0.00000000	      0.00000000
      4.25000000	     -8.34080497	     -1.27390383	      1.79037165	     -0.21149971	      1.37067540	     -0.94437372	      9.24815038	     -6.96028267	    -14.98454751	      6.53444994	      0.11404767	    -36.39305039	      0.00000000	      0.00000000	     13.04473162	    -11.19985010	     -9.13491732	     13.28608089	      0.23188586	    -27.96765551	      0.00000000	      0.00000000	     -8.61387653	      0.20931827	     -7.55301854	    -16.64873293	    -42.67100747	     36.35069697	     87.18564784	     87.20200666	      0.00000000	      0.00000000	    -26.76920474	    -38.87329273	     27.20694972	     84.70258896	     87.22186803	      0.00000000	      0.00000000
      4.25500000	     -8.43367548	     -1.34066158	      1.70731567	     -0.21134021	      1.37661024	     -0.94463061	      9.22083566	     -6.90483620	    -15.28004397	      6.07481342	      0.10602550	    -35.60987637	      0.00000000	      0.00000000	     12.85334989	    -11.29782963	     -9.33641284	     12.44425251	      0.21719318	    -26.90507223	      0.00000000	      0.00000000	     -8.47073706	      0.31769398	     -7.39174578	    -16.83430778	    -42.62781694	     35.98987812	     87.19277353	     87.21486900	      0.00000000	      0.00000000	    -26.44859615	    -38.68356159	     27.32557751	     84.18619430	     87.24530455	      0.00000000	      0.00000000
      4.26000000	     -8.70387594	     -1.34918652	      1.60664807	     -0.21136566	      1.38196438	     -0.94484704	      9.42888908	     -6.93198120	    -15.76992270	      5.72766519	      0.09996662	    -35.22452603	      0.00000000	      0.00000000	     12.95353028	    -11.38343168	    -10.01119146	     11.79229971	      0.20581446	    -26.29941576	      0.00000000	      0.00000000	     -8.14929751	      0.33482676	     -7.28078626	    -16.88976438	    -42.65150199	     35.88657431	     87.23957469	     87.21708084	      0.00000000	      0.00000000	    -26.36636141	    -38.63983157	     27.34436932	     84.06954400	     87.24873323	      0.00000000	      0.00000000
      4.26500000	     -8.84029256	     -1.26107950	      1.41201987	     -0.21135204	      1.38725378	     -0.94501652	      9.58248794	     -7.07022438	    -16.04688105	      5.55357023	      0.09692809	    -34.75729058	      0.00000000	      0.00000000	     12.87109325	    -11.38956012	    -10.91078707	     11.16496629	      0.19486542	    -25.80500681	      0.00000000	      0.00000000	     -7.97407384	      0.24831888	     -6.97207030	    -17.05826751	    -42.69958133	     35.71703216	     87.34126497	     87.22198770	      0.00000000	      0.00000000	    -26.02867062	    -38.55823999	     27.45409758	     83.82028221	     87.26041354	      0.00000000	      0.00000000
      4.27000000	     -9.06953655	     -1.23907016	      1.33873687	     -0.21143802	      1.39206897	     -0.94535042	      9.77149817	     -7.15232721	    -16.45469879	      5.32017043	      0.09285449	    -34.41044003	      0.00000000	      0.00000000	     12.99245068	    -11.44761509	    -11.54006269	     10.69000243	      0.18657574	    -25.43663814	      0.00000000	      0.00000000	     -7.72717700	      0.24169195	     -6.86448510	    -17.08703404	    -42.77012718	     35.68985034	     87.46082638	     87.22405738	      0.00000000	      0.00000000	    -25.93098602	    -38.53689633	     27.46296266	     83.84440036	     87.26457531	      0.00000000	      0.00000000
      4.27500000	     -9.09580015	     -1.20574955	      1.12757508	     -0.21140509	      1.39697511	     -0.94550486	      9.86869442	     -7.25272561	    -16.74070920	      5.35720057	      0.09350079	    -34.04035751	      0.00000000	      0.00000000	     12.85982341	    -11.54362481	    -12.67526785	     10.25479286	      0.17897990	    -25.25537987	      0.00000000	      0.00000000	     -7.72112732	      0.20653226	     -6.53160184	    -17.19610744	    -42.90822752	     35.66403320	     87.72126192	     87.22592579	      0.00000000	      0.00000000	    -25.69045750	    -38.54607764	     27.53467495	     83.85140730	     87.27641123	      0.00000000	      0.00000000
      4.28000000	     -9.24827199	     -1.07306186	      1.03199999	     -0.21151670	      1.40148183	     -0.94584048	     10.06875231	     -7.48415678	    -17.02562021	      5.35029516	      0.09338027	    -33.93220179	      0.00000000	      0.00000000	     12.92809169	    -11.49758629	    -13.47353757	      9.94782800	      0.17362235	    -25.22899496	      0.00000000	      0.00000000	     -7.56608634	      0.05462941	     -6.28180537	    -17.30017260	    -43.00857656	     35.64832093	     87.86785220	     87.22029899	      0.00000000	      0.00000000	    -25.40615828	    -38.65385302	     27.74144835	     83.96192842	     87.28876546	      0.00000000	      0.00000000
      4.28500000	     -9.38920000	     -1.17855961	      0.88845373	     -0.21171185	      1.40578096	     -0.94585089	     10.27878645	     -7.45025703	    -18.02860995	      5.41560585	      0.09452015	    -33.99255474	      0.00000000	      0.00000000	     13.02001831	    -11.73022188	    -14.11886678	      9.69794286	      0.16926103	    -25.21905913	      0.00000000	      0.00000000	     -7.42290473	      0.17023849	     -5.96638562	    -17.36196003	    -43.11309534	     35.85406117	     87.98776252	     87.22122085	      0.00000000	      0.00000000	    -25.17272690	    -38.73688160	     27.85501690	     84.08438006	     87.29821778	      0.00000000	      0.00000000
      4.29000000	     -9.27197015	     -1.14471118	      0.94953128	     -0.21158078	      1.41002566	     -0.94647720	     10.12802374	     -7.57653716	    -17.45835332	      5.45279299	      0.09516919	    -33.88619347	      0.00000000	      0.00000000	     12.88409463	    -11.73849698	    -14.56421295	      9.53278468	      0.16637848	    -25.29876444	      0.00000000	      0.00000000	     -7.53131613	      0.19339180	     -5.93653373	    -17.34127225	    -43.35256882	     36.04979368	     88.29952710	     87.21971560	      0.00000000	      0.00000000	    -24.92259588	    -38.86955367	     28.08109985	     84.30380523	     87.31296743	      0.00000000	      0.00000000
      4.29500000	     -9.34786675	     -1.06868197	      0.98688774	     -0.21170672	      1.41384257	     -0.94686329	     10.19838036	     -7.74295461	    -17.48384689	      5.44463163	      0.09502675	    -34.13204194	      0.00000000	      0.00000000	     12.97490108	    -11.71231043	    -14.81040763	      9.43214778	      0.16462203	    -25.33990173	      0.00000000	      0.00000000	     -7.47331833	      0.11941432	     -5.84476557	    -17.33582551	    -43.40655973	     36.14314251	     88.39047913	     87.21853201	      0.00000000	      0.00000000	    -24.72903269	    -38.93744823	     28.05734548	     84.45514831	     87.30905251	      0.00000000	      0.00000000
      4.30000000	     -9.36927838	     -1.06307956	      0.97518694	     -0.21176618	      1.41765002	     -0.94719361	     10.16879782	     -7.80828800	    -17.48100710	      5.44834702	      0.09509159	    -34.13367142	      0.00000000	      0.00000000	     13.01125122	    -11.76605182	    -14.81862780	      9.41887560	      0.16439039	    -25.34194789	      0.00000000	      0.00000000	     -7.47208906	      0.12709078	     -5.83081277	    -17.32618497	    -43.40995735	     36.14429794	     88.39813876	     87.21829872	      0.00000000	      0.00000000	    -24.71774521	    -38.94072214	     28.05456911	     84.46646191	     87.30888318	      0.00000000	      0.00000000
      4.30500000	     -9.41065014	     -0.83756693	      0.69664988	     -0.21213672	      1.42104389	     -0.94726784	     10.40589309	     -8.10842697	    -16.90990699	      5.69706195	      0.09943249	    -34.59907433	      0.00000000	      0.00000000	     13.01953323	    -11.66353430	    -15.86451515	      9.40536676	      0.16415462	    -25.99774488	      0.00000000	      0.00000000	     -7.41597763	     -0.10270485	     -5.41155496	    -17.03325970	    -43.71338584	     36.75659026	     88.72167954	     87.19883511	      0.00000000	      0.00000000	    -24.24535623	    -39.31475203	     28.56560264	     84.91865425	     87.31481905	      0.00000000	      0.00000000
      4.31000000	     -9.43550737	     -0.83235239	      0.69395515	     -0.21221724	      1.42430851	     -0.94760850	     10.36986972	     -8.16156439	    -16.90316295	      5.69938434	      0.09947302	    -34.60593987	      0.00000000	      0.00000000	     13.04755532	    -11.69603466	    -15.86509860	      9.40009021	      0.16406252	    -26.00116840	      0.00000000	      0.00000000	     -7.40765811	     -0.08737248	     -5.39866356	    -17.02002787	    -43.71880835	     36.75446964	     88.72813589	     87.19839059	      0.00000000	      0.00000000	    -24.22977558	    -39.31933141	     28.55821034	     84.92961118	     87.31414012	      0.00000000	      0.00000000
      4.31500000	     -9.31809840	     -0.89438999	      0.69962770	     -0.21232466	      1.42756857	     -0.94789926	     10.33506301	     -8.18944678	    -16.34180743	      6.04141939	      0.10544266	    -34.76415658	      0.00000000	      0.00000000	     13.06621979	    -11.85475147	    -15.88527427	      9.70326375	      0.16935390	    -26.47057837	      0.00000000	      0.00000000	     -7.54060047	      0.01409162	     -5.30489366	    -16.86561987	    -43.86687746	     36.91925917	     88.91585661	     87.19411029	      0.00000000	      0.00000000	    -24.00145419	    -39.52459543	     28.68167481	     85.28934013	     87.31471243	      0.00000000	      0.00000000
      4.32000000	     -9.41134603	     -0.77534978	      0.70416935	     -0.21239692	      1.43028765	     -0.94828491	     10.30727015	     -8.33694967	    -15.93702487	      5.89339436	      0.10285914	    -34.91582132	      0.00000000	      0.00000000	     13.24258612	    -11.77928830	    -16.07605682	      9.91245905	      0.17300505	    -26.59701583	      0.00000000	      0.00000000	     -7.43633254	     -0.10249660	     -5.24080227	    -16.76374847	    -43.86879809	     37.16881091	     88.84944592	     87.17973382	      0.00000000	      0.00000000	    -23.77896710	    -39.68527546	     28.90318683	     85.46869812	     87.30829360	      0.00000000	      0.00000000
      4.32500000	     -9.33585500	     -0.78296649	      0.75099706	     -0.21241422	      1.43290121	     -0.94860900	     10.21931276	     -8.38410320	    -15.71363858	      6.02505423	      0.10515703	    -35.19025903	      0.00000000	      0.00000000	     13.21316164	    -11.82010069	    -16.02013171	     10.06629070	      0.17568992	    -26.71570433	      0.00000000	      0.00000000	     -7.49081281	     -0.03877683	     -5.24514407	    -16.71979308	    -43.88336853	     37.21028528	     88.85755605	     87.17933435	      0.00000000	      0.00000000	    -23.65078944	    -39.72592149	     28.88230474	     85.55218128	     87.30364366	      0.00000000	      0.00000000
      4.33000000	     -9.21019951	     -0.80276294	      0.74000780	     -0.21248364	      1.43551658	     -0.94889756	     10.09749517	     -8.41500901	    -15.26396899	      6.21970367	      0.10855431	    -35.38448852	      0.00000000	      0.00000000	     13.20209662	    -11.90893486	    -15.88672156	     10.42107719	      0.18188211	    -26.94094455	      0.00000000	      0.00000000	     -7.65370102	      0.00142865	     -5.19937812	    -16.64174235	    -43.86019642	     37.29202843	     88.81529701	     87.18026166	      0.00000000	      0.00000000	    -23.53064610	    -39.80207286	     28.94243135	     85.67938686	     87.30581831	      0.00000000	      0.00000000
      4.33500000	     -9.22214527	     -0.73841518	      0.62965246	     -0.21253128	      1.43748037	     -0.94901521	     10.23891985	     -8.53706635	    -14.50609533	      6.60830530	      0.11533669	    -35.23048800	      0.00000000	      0.00000000	     13.36381516	    -11.96887473	    -16.20682510	     10.97667592	      0.19157914	    -26.81530979	      0.00000000	      0.00000000	     -7.60462644	     -0.04541977	     -5.08865174	    -16.45387564	    -43.89004461	     37.59715750	     88.68183781	     87.16783365	      0.00000000	      0.00000000	    -23.34458716	    -40.04975122	     29.34942973	     85.84102925	     87.29426763	      0.00000000	      0.00000000
      4.34000000	     -9.14810677	     -0.68512746	      0.65700194	     -0.21253713	      1.43936025	     -0.94940531	     10.16110939	     -8.65535746	    -14.16427985	      6.79404272	      0.11857841	    -35.40066785	      0.00000000	      0.00000000	     13.36608358	    -11.94691536	    -16.04416722	     11.27261239	      0.19674420	    -26.97628673	      0.00000000	      0.00000000	     -7.68614892	     -0.05762075	     -5.12622412	    -16.44643078	    -43.90256209	     37.62554641	     88.61599657	     87.16771845	      0.00000000	      0.00000000	    -23.26473316	    -40.09365420	     29.34537192	     85.92257736	     87.29171394	      0.00000000	      0.00000000
      4.34500000	     -9.06078423	     -0.65926003	      0.72350510	     -0.21247920	      1.44091082	     -0.94977310	     10.05396302	     -8.74237278	    -13.78652292	      6.98016833	      0.12182692	    -35.53607376	      0.00000000	      0.00000000	     13.43676401	    -11.93733137	    -16.36187665	     11.60624055	      0.20256711	    -27.15580208	      0.00000000	      0.00000000	     -7.75540589	     -0.03195343	     -5.26177986	    -16.34331225	    -43.85354696	     37.58257821	     88.52579487	     87.16236120	      0.00000000	      0.00000000	    -23.25021730	    -40.21099936	     29.43532132	     85.99968246	     87.29484829	      0.00000000	      0.00000000
      4.35000000	     -9.08656990	     -0.62629905	      0.63124833	     -0.21243090	      1.44212971	     -0.94989441	     10.06500043	     -8.78267195	    -13.13759403	      7.09975399	      0.12391408	    -35.54080189	      0.00000000	      0.00000000	     13.66813051	    -12.04873227	    -16.72617355	     12.32416891	      0.21509733	    -27.00943521	      0.00000000	      0.00000000	     -7.68508751	     -0.04807256	     -5.10801198	    -16.37240361	    -43.81826300	     37.57343801	     88.38213363	     87.12905362	      0.00000000	      0.00000000	    -23.06093968	    -40.37929851	     29.76713879	     86.07638839	     87.29917445	      0.00000000	      0.00000000
      4.35500000	     -9.02908837	     -0.56434824	      0.63201524	     -0.21235359	      1.44330732	     -0.95011914	      9.98893228	     -8.87804126	    -12.71517813	      7.24168089	      0.12639117	    -35.64325146	      0.00000000	      0.00000000	     13.62916347	    -12.03456527	    -15.82862774	     12.74980885	      0.22252614	    -26.85975487	      0.00000000	      0.00000000	     -7.71826176	     -0.09370100	     -5.14798095	    -16.28650001	    -43.75844651	     37.65419237	     88.18390999	     87.13470871	      0.00000000	      0.00000000	    -22.98970509	    -40.46471595	     30.01247092	     86.07235801	     87.27346448	      0.00000000	      0.00000000
      4.36000000	     -8.96753201	     -0.56396781	      0.64825696	     -0.21222951	      1.44407977	     -0.95034381	      9.83931913	     -8.89344459	    -12.27571483	      7.25622091	      0.12664495	    -35.75178041	      0.00000000	      0.00000000	     13.74613640	    -12.09287150	    -16.35521591	     13.15992894	      0.22968409	    -26.97466063	      0.00000000	      0.00000000	     -7.74617027	     -0.06199386	     -5.19734160	    -16.30724007	    -43.70870508	     37.57028054	     88.07208361	     87.12727331	      0.00000000	      0.00000000	    -23.02517231	    -40.53634724	     29.97283867	     86.11879295	     87.26411126	      0.00000000	      0.00000000
      4.36500000	     -8.88195414	     -0.49214553	      0.67511777	     -0.21197358	      1.44475329	     -0.95061298	      9.66894513	     -8.99231463	    -11.88036341	      7.30164587	      0.12743776	    -35.82227871	      0.00000000	      0.00000000	     13.63641376	    -12.04110523	    -15.44895443	     13.52192618	      0.23600213	    -26.84904918	      0.00000000	      0.00000000	     -7.78228206	     -0.11169226	     -5.28314965	    -16.21253499	    -43.64481938	     37.44569192	     87.94890605	     87.08433446	      0.00000000	      0.00000000	    -23.02485946	    -40.58717911	     30.08230816	     86.07707871	     87.22648629	      0.00000000	      0.00000000
      4.37000000	     -8.89302936	     -0.52332781	      0.81554175	     -0.21178621	      1.44502053	     -0.95104722	      9.61520870	     -9.01079846	    -11.82635955	      7.42456890	      0.12958317	    -35.89704253	      0.00000000	      0.00000000	     13.79112655	    -12.08860576	    -15.06969961	     13.95304736	      0.24352662	    -26.79734162	      0.00000000	      0.00000000	     -7.72890474	     -0.02851206	     -5.35725726	    -16.46726991	    -43.53367297	     37.04375070	     87.86586261	     87.12119143	      0.00000000	      0.00000000	    -22.87248671	    -40.68632862	     30.37974019	     86.04526511	     87.27696369	      0.00000000	      0.00000000
