Model Marker Errors from IK
version=1
nRows=138
nColumns=4
inDegrees=no
endheader
time	total_squared_error	marker_error_RMS	marker_error_max
      3.94500000	      0.05125319	      0.02898648	      0.07777652
      3.95000000	      0.05138092	      0.02902258	      0.07817421
      3.95500000	      0.05141253	      0.02903151	      0.07857958
      3.96000000	      0.05150524	      0.02905767	      0.07793579
      3.96500000	      0.05166743	      0.02910338	      0.07864492
      3.97000000	      0.05163286	      0.02909365	      0.07864333
      3.97500000	      0.05180319	      0.02914160	      0.07914970
      3.98000000	      0.05200231	      0.02919755	      0.07944254
      3.98500000	      0.05215322	      0.02923988	      0.07968009
      3.99000000	      0.05219972	      0.02925292	      0.08003047
      3.99500000	      0.05256418	      0.02935486	      0.08020976
      4.00000000	      0.05257172	      0.02935697	      0.08050286
      4.00500000	      0.05285023	      0.02943463	      0.08091981
      4.01000000	      0.05287789	      0.02944233	      0.08115352
      4.01500000	      0.05315885	      0.02952044	      0.08152344
      4.02000000	      0.05331673	      0.02956425	      0.08186428
      4.02500000	      0.05325634	      0.02954750	      0.08269917
      4.03000000	      0.05337143	      0.02957941	      0.08295823
      4.03500000	      0.05350319	      0.02961590	      0.08328102
      4.04000000	      0.05376179	      0.02968739	      0.08380734
      4.04500000	      0.05388567	      0.02972157	      0.08432709
      4.05000000	      0.05403348	      0.02976231	      0.08481159
      4.05500000	      0.05437622	      0.02985655	      0.08538951
      4.06000000	      0.05458917	      0.02991495	      0.08619954
      4.06500000	      0.05485230	      0.02998697	      0.08656117
      4.07000000	      0.05519689	      0.03008101	      0.08701404
      4.07500000	      0.05556268	      0.03018052	      0.08791512
      4.08000000	      0.05590889	      0.03027440	      0.08834006
      4.08500000	      0.05623243	      0.03036187	      0.08905705
      4.09000000	      0.05661911	      0.03046608	      0.08975820
      4.09500000	      0.05701663	      0.03057285	      0.09069784
      4.10000000	      0.05746626	      0.03069316	      0.09130511
      4.10500000	      0.05769074	      0.03075305	      0.09210269
      4.11000000	      0.05803772	      0.03084539	      0.09313318
      4.11500000	      0.05837890	      0.03093592	      0.09369727
      4.12000000	      0.05869749	      0.03102022	      0.09415286
      4.12500000	      0.05902314	      0.03110615	      0.09505058
      4.13000000	      0.05917019	      0.03114487	      0.09558526
      4.13500000	      0.05930229	      0.03117962	      0.09634849
      4.14000000	      0.05948972	      0.03122885	      0.09707072
      4.14500000	      0.05954735	      0.03124398	      0.09724414
      4.15000000	      0.05964585	      0.03126981	      0.09800099
      4.15500000	      0.05981187	      0.03131330	      0.09876907
      4.16000000	      0.05986043	      0.03132600	      0.09943628
      4.16500000	      0.05984902	      0.03132302	      0.09953423
      4.17000000	      0.05973585	      0.03129339	      0.09881150
      4.17500000	      0.05979599	      0.03130914	      0.09942554
      4.18000000	      0.05995707	      0.03135128	      0.09973964
      4.18500000	      0.06015656	      0.03140339	      0.10038485
      4.19000000	      0.06033362	      0.03144958	      0.10023699
      4.19500000	      0.06059167	      0.03151676	      0.10062349
      4.20000000	      0.06095255	      0.03161048	      0.10089911
      4.20500000	      0.06141249	      0.03172952	      0.10092661
      4.21000000	      0.06176886	      0.03182144	      0.10116171
      4.21500000	      0.06262694	      0.03204171	      0.10158065
      4.22000000	      0.06302371	      0.03214305	      0.10209469
      4.22500000	      0.06382268	      0.03234615	      0.10280528
      4.23000000	      0.06404770	      0.03240312	      0.10310548
      4.23500000	      0.06470068	      0.03256788	      0.10326151
      4.24000000	      0.06497935	      0.03263794	      0.10379624
      4.24500000	      0.06545837	      0.03275802	      0.10424543
      4.25000000	      0.06573077	      0.03282611	      0.10481147
      4.25500000	      0.06554742	      0.03278030	      0.10580545
      4.26000000	      0.06640258	      0.03299344	      0.10669726
      4.26500000	      0.06716817	      0.03318309	      0.10777684
      4.27000000	      0.06688458	      0.03311297	      0.10882470
      4.27500000	      0.06533658	      0.03272753	      0.10967106
      4.28000000	      0.06586375	      0.03285930	      0.11164201
      4.28500000	      0.06781049	      0.03334138	      0.11360267
      4.29000000	      0.07162293	      0.03426582	      0.11566178
      4.29500000	      0.07364463	      0.03474607	      0.11954261
      4.30000000	      0.07538266	      0.03515368	      0.12312602
      4.30500000	      0.07709840	      0.03555149	      0.12500896
      4.31000000	      0.07913741	      0.03601853	      0.12728475
      4.31500000	      0.08141753	      0.03653373	      0.12884133
      4.32000000	      0.08280962	      0.03684474	      0.13006794
      4.32500000	      0.08363234	      0.03702731	      0.13084390
      4.33000000	      0.08350024	      0.03699806	      0.13132687
      4.33500000	      0.08290948	      0.03686695	      0.13178536
      4.34000000	      0.08233152	      0.03673822	      0.13222616
      4.34500000	      0.08139513	      0.03652871	      0.13062323
      4.35000000	      0.08140927	      0.03653188	      0.13178132
      4.35500000	      0.08162865	      0.03658107	      0.13203325
      4.36000000	      0.08194402	      0.03665167	      0.13170513
      4.36500000	      0.08279833	      0.03684223	      0.13194809
      4.37000000	      0.08340036	      0.03697593	      0.13219197
      4.37500000	      0.08459909	      0.03724071	      0.13267144
      4.38000000	      0.08581798	      0.03750803	      0.13393184
      4.38500000	      0.08679062	      0.03771998	      0.13313913
      4.39000000	      0.08820012	      0.03802504	      0.13428607
      4.39500000	      0.08898388	      0.03819361	      0.13509772
      4.40000000	      0.09013024	      0.03843885	      0.13597875
      4.40500000	      0.09176050	      0.03878493	      0.13770358
      4.41000000	      0.09277977	      0.03899974	      0.13888145
      4.41500000	      0.09370131	      0.03919295	      0.13895129
      4.42000000	      0.09492122	      0.03944725	      0.14015054
      4.42500000	      0.09542542	      0.03955188	      0.14090254
      4.43000000	      0.09582356	      0.03963430	      0.14147472
      4.43500000	      0.09639803	      0.03975293	      0.14209946
      4.44000000	      0.09718082	      0.03991401	      0.14248768
      4.44500000	      0.09812735	      0.04010792	      0.14312145
      4.45000000	      0.09857353	      0.04019900	      0.14326767
      4.45500000	      0.09877019	      0.04023908	      0.14323344
      4.46000000	      0.09976690	      0.04044160	      0.14426314
      4.46500000	      0.10018766	      0.04052679	      0.14442069
      4.47000000	      0.10063212	      0.04061658	      0.14464641
      4.47500000	      0.10145542	      0.04078239	      0.14473163
      4.48000000	      0.10231049	      0.04095389	      0.14565551
      4.48500000	      0.10313182	      0.04111795	      0.14649766
      4.49000000	      0.10403067	      0.04129674	      0.14686541
      4.49500000	      0.10469034	      0.04142747	      0.14761733
      4.50000000	      0.10555635	      0.04159846	      0.14771369
      4.50500000	      0.10618701	      0.04172254	      0.14805370
      4.51000000	      0.10725779	      0.04193238	      0.14790987
      4.51500000	      0.10770872	      0.04202043	      0.14760359
      4.52000000	      0.10802665	      0.04208240	      0.14797866
      4.52500000	      0.10875654	      0.04222433	      0.14844416
      4.53000000	      0.10882681	      0.04223797	      0.14842330
      4.53500000	      0.10849317	      0.04217317	      0.14811077
      4.54000000	      0.10848218	      0.04217104	      0.14825943
      4.54500000	      0.10888290	      0.04224885	      0.14880433
      4.55000000	      0.10926249	      0.04232243	      0.14949331
      4.55500000	      0.10956700	      0.04238137	      0.14851359
      4.56000000	      0.11013178	      0.04249046	      0.14912921
      4.56500000	      0.10974679	      0.04241612	      0.14901688
      4.57000000	      0.10996523	      0.04245832	      0.14932839
      4.57500000	      0.10989569	      0.04244489	      0.14933343
      4.58000000	      0.10998741	      0.04246260	      0.14971582
      4.58500000	      0.11005597	      0.04247583	      0.14997154
      4.59000000	      0.11040232	      0.04254262	      0.14946865
      4.59500000	      0.11033167	      0.04252900	      0.14987029
      4.60000000	      0.11068476	      0.04259700	      0.15010703
      4.60500000	      0.11075130	      0.04260980	      0.14961271
      4.61000000	      0.11082994	      0.04262492	      0.14950858
      4.61500000	      0.11092331	      0.04264288	      0.14966082
      4.62000000	      0.11072580	      0.04260490	      0.14944039
      4.62500000	      0.11066953	      0.04259407	      0.14937739
      4.63000000	      0.11100879	      0.04265930	      0.14975652
