Inverse Dynamics Generalized Forces
version=1
nRows=130
nColumns=40
inDegrees=no
endheader
time	pelvis_tilt_moment	pelvis_list_moment	pelvis_rotation_moment	pelvis_tx_force	pelvis_ty_force	pelvis_tz_force	hip_flexion_r_moment	hip_adduction_r_moment	hip_rotation_r_moment	hip_flexion_l_moment	hip_adduction_l_moment	hip_rotation_l_moment	lumbar_extension_moment	lumbar_bending_moment	lumbar_rotation_moment	knee_angle_r_moment	knee_angle_r_beta_force	knee_angle_l_moment	knee_angle_l_beta_force	arm_flex_r_moment	arm_add_r_moment	arm_rot_r_moment	arm_flex_l_moment	arm_add_l_moment	arm_rot_l_moment	ankle_angle_r_moment	ankle_angle_l_moment	elbow_flex_r_moment	elbow_flex_l_moment	subtalar_angle_r_moment	subtalar_angle_l_moment	pro_sup_r_moment	pro_sup_l_moment	mtp_angle_r_moment	mtp_angle_l_moment	wrist_flex_r_moment	wrist_dev_r_moment	wrist_flex_l_moment	wrist_dev_l_moment
      4.46000000	   -118.86775068	     10.81431179	      0.76263024	      0.27893710	    901.48211028	      2.83993058	    -19.36831810	     -6.82440763	      0.60682086	    -17.37467216	    -13.67313953	      0.79123620	     -7.34173492	     -3.20795659	     -0.78381995	      5.52148442	     -0.04882203	      4.76043793	     -0.04754646	     -2.99415703	     -2.89280949	     -0.20598510	     -2.12199129	     -4.03633386	     -0.61288194	      0.48753769	      0.48847648	      2.55139764	      2.52075225	     -0.24285459	     -0.29152976	     -0.05504321	     -0.06445358	     -0.04492458	     -0.03981306	      0.07238808	     -0.25876276	      0.03540510	     -0.26463820
      4.46500000	   -103.62635506	     10.41742237	      1.38443939	      2.96687970	    789.21142474	      4.68861011	    -14.64075376	     -6.87285692	      0.55330229	    -15.02193435	    -12.56040852	      0.49086701	     -8.64533398	     -2.12898236	     -0.94941517	      3.79451117	     -0.04320402	      4.48972488	     -0.04216603	     -2.71567203	     -2.55104787	     -0.17054537	     -1.92917834	     -3.86259640	     -0.58809541	      0.56567812	      0.38115633	      2.12578824	      1.97539611	     -0.24529173	     -0.25250528	     -0.04790106	     -0.05238298	     -0.04775916	     -0.03176778	      0.05856162	     -0.21165829	      0.02058922	     -0.19621183
      4.47000000	    -88.79058153	     10.13253283	      1.99014756	      5.67902564	    678.38765806	      6.20280245	    -10.03541391	     -6.80440479	      0.50044013	    -12.75221820	    -11.47132450	      0.20848349	    -10.02650682	     -1.06651121	     -1.09222693	      2.13451826	     -0.03763786	      4.24271084	     -0.03682710	     -2.43690920	     -2.21744734	     -0.13651762	     -1.73653653	     -3.68311922	     -0.56635462	      0.63930225	      0.27318413	      1.70854278	      1.43743779	     -0.24403436	     -0.21484532	     -0.04087512	     -0.04071841	     -0.05055778	     -0.02377016	      0.04510129	     -0.16551354	      0.00537851	     -0.12896375
      4.47500000	    -74.58890170	      9.91363022	      2.55610521	      8.35744403	    570.96909024	      7.27798204	     -5.63803657	     -6.61241141	      0.45249445	    -10.58802491	    -10.40284946	     -0.04695736	    -11.43697951	     -0.05944841	     -1.20362051	      0.57347935	     -0.03222884	      4.01294878	     -0.03162188	     -2.16331249	     -1.89563269	     -0.10212120	     -1.54677377	     -3.49642085	     -0.54874931	      0.70681959	      0.16793756	      1.31023056	      0.91936922	     -0.23881526	     -0.17877768	     -0.03404462	     -0.02981211	     -0.05326018	     -0.01607135	      0.03270963	     -0.12147994	     -0.01015931	     -0.06462081
      4.48000000	    -61.21905928	      9.70303527	      3.05835388	     10.95254335	    468.72723226	      7.84006054	     -1.52613278	     -6.29639401	      0.41320772	     -8.54282456	     -9.34422610	     -0.26838453	    -12.83026365	      0.85487545	     -1.27918630	     -0.86080428	     -0.02707341	      3.79248408	     -0.02663578	     -1.89995628	     -1.58895920	     -0.06573857	     -1.36243672	     -3.30089668	     -0.53559953	      0.76682712	      0.06874277	      0.94019586	      0.43315174	     -0.22951826	     -0.14423274	     -0.02747356	     -0.01996599	     -0.05580580	     -0.00891912	      0.02201472	     -0.08056973	     -0.02582880	     -0.00480794
      4.48500000	    -48.84270473	      9.43774767	      3.47354181	     13.42204548	    373.18288186	      7.84960720	      2.23327388	     -5.86248435	      0.38559890	     -6.62157656	     -8.27992654	     -0.45073308	    -14.16359579	      1.64376577	     -1.31887867	     -2.14568337	     -0.02225556	      3.57224314	     -0.02194275	     -1.65138237	     -1.30050438	     -0.02601700	     -1.18593482	     -3.09495348	     -0.52628511	      0.81815373	     -0.02125866	      0.60607844	     -0.01029741	     -0.21620220	     -0.11093726	     -0.02120684	     -0.01141073	     -0.05813403	     -0.00254613	      0.01353866	     -0.04360235	     -0.04128450	      0.04903099
      4.49000000	    -37.58251171	      9.05765963	      3.78108264	     15.72790254	    285.56764304	      7.30409515	      5.58518534	     -5.32330489	      0.37185275	     -4.82213169	     -7.19356623	     -0.59092867	    -15.39899353	      2.28237943	     -1.32579442	     -3.26419815	     -0.01784400	      3.34253432	     -0.01760389	     -1.42145619	     -1.03304968	      0.01804680	     -1.01953549	     -2.87720134	     -0.51925455	      0.85988481	     -0.09923317	      0.31351145	     -0.40158444	     -0.19910864	     -0.07853768	     -0.01527023	     -0.00429205	     -0.06018446	      0.00284175	      0.00767360	     -0.01117152	     -0.05603826	      0.09570061
      4.49500000	    -27.52197282	      8.51344701	      3.96569751	     17.83453410	    206.80634682	      6.23859833	      8.48750700	     -4.69746805	      0.37330708	     -3.13698728	     -6.07193541	     -0.68779922	    -16.50419776	      2.75622233	     -1.30429966	     -4.20528488	     -0.01389098	      3.09363591	     -0.01366696	     -1.21325511	     -0.78901975	      0.06702578	     -0.86532504	     -2.64668468	     -0.51219853	      0.89137722	     -0.16276295	      0.06598856	     -0.73323090	     -0.17865734	     -0.04672538	     -0.00967496	      0.00133391	     -0.06189764	      0.00707552	      0.00466119	      0.01636724	     -0.06949334	      0.13430306
      4.50000000	    -18.70788962	      7.77301318	      4.01970350	     19.70960159	    137.51552638	      4.72444300	     10.91141813	     -4.00861474	      0.39052254	     -1.55534067	     -4.90853085	     -0.74193194	    -17.45384971	      3.06244479	     -1.25807780	     -4.96372433	     -0.01043199	      2.81644972	     -0.01016601	     -1.02902272	     -0.57040106	      0.12098244	     -0.72516681	     -2.40311447	     -0.50233057	      0.91226737	     -0.20993068	     -0.13512682	     -0.99995596	     -0.15542494	     -0.01534891	     -0.00442621	      0.00549671	     -0.06321675	      0.01003058	      0.00457405	      0.03889242	     -0.08099703	      0.16426719
      4.50500000	    -11.15442633	      6.82586134	      3.94504866	     21.32509471	     78.01352482	      2.86623406	     12.84146250	     -3.28412460	      0.42338196	     -0.06524383	     -3.70591146	     -0.75550518	    -18.23066617	      3.21016469	     -1.18828197	     -5.53989621	     -0.00748591	      2.50318199	     -0.00712165	     -0.87019177	     -0.37868078	      0.17943349	     -0.60066861	     -2.14706527	     -0.48671212	      0.92246644	     -0.23938926	     -0.29046735	     -1.19887045	     -0.13010952	      0.01550998	      0.00046849	      0.00830208	     -0.06408908	      0.01163187	      0.00730909	      0.05649881	     -0.08990207	      0.18536337
      4.51000000	     -4.84714227	      5.68442168	      3.75377450	     22.65817400	     28.33906625	      0.79632265	     14.27563244	     -2.55364944	      0.47116326	      1.34461843	     -2.47653058	     -0.73209467	    -18.82623417	      3.21951118	     -1.09290415	     -5.93940530	     -0.00505589	      2.14793493	     -0.00454173	     -0.73744347	     -0.21480253	      0.24139492	     -0.49314129	     -1.88013609	     -0.46258715	      0.92213970	     -0.25041938	     -0.40242156	     -1.32959233	     -0.10348400	      0.04551152	      0.00499504	      0.00991779	     -0.06446674	      0.01185748	      0.01260087	      0.06946905	     -0.09563075	      0.19770663
      4.51500000	      0.25383092	      4.38095365	      3.46478036	     23.69405902	    -11.72343871	     -1.33655488	     15.22540248	     -1.84748191	      0.53261463	      2.68380790	     -1.24208521	     -0.67642205	    -19.24092611	      3.11822207	     -0.96895164	     -6.17259710	     -0.00313077	      1.74708905	     -0.00242267	     -0.63077693	     -0.07911369	      0.30546743	     -0.40355001	     -1.60503621	     -0.42770019	      0.91167743	     -0.24295997	     -0.47482789	     -1.39422658	     -0.07634325	      0.07408212	      0.00913358	      0.01055294	     -0.06430733	      0.01073966	      0.02004741	      0.07823687	     -0.09773725	      0.20174113
      4.52000000	      4.21178796	      2.96113364	      3.09835481	     24.43106892	    -42.61295785	     -3.38348510	     15.71547316	     -1.19476676	      0.60605258	      3.95960336	     -0.03166171	     -0.59405264	    -19.48242765	      2.93649320	     -0.81615680	     -6.25394055	     -0.00168690	      1.29944983	     -0.00075091	     -0.54959592	      0.02868277	      0.36993574	     -0.33248955	     -1.32550820	     -0.38053840	      0.89166309	     -0.21759717	     -0.51264191	     -1.39717244	     -0.04945161	      0.10047623	      0.01286197	      0.01043343	     -0.06357491	      0.00836207	      0.02914114	      0.08334733	     -0.09595731	      0.19820134
      4.52500000	      7.11229558	      1.47770203	      2.67289597	     24.88389453	    -64.95675426	     -5.20938312	     15.78309951	     -0.62175783	      0.68943398	      5.17691193	      1.12099124	     -0.49107851	    -19.56324282	      2.70283418	     -0.63869841	     -6.20128554	     -0.00069026	      0.80619067	      0.00049538	     -0.49282426	      0.10954600	      0.43291340	     -0.28020394	     -1.04607239	     -0.32044035	      0.86283468	     -0.17551488	     -0.52159119	     -1.34480529	     -0.02349598	      0.12386486	      0.01615938	      0.00978191	     -0.06224087	      0.00485370	      0.03930712	      0.08541931	     -0.09023243	      0.18805828
      4.53000000	      9.06175425	     -0.01432726	      2.20515366	     25.08178208	    -79.53303577	     -6.70067700	     15.47690586	     -0.15028644	      0.78038440	      6.33850817	      2.18075496	     -0.37381023	    -19.49825183	      2.44205174	     -0.44394134	     -6.03502985	     -0.00009869	      0.27065752	      0.00134471	     -0.45903720	      0.16507788	      0.49252984	     -0.24663668	     -0.77167019	     -0.24759049	      0.82603783	     -0.11842541	     -0.50782761	     -1.24509681	      0.00095599	      0.14343953	      0.01900874	      0.00880543	     -0.06028414	      0.00038121	      0.04994717	      0.08511153	     -0.08070979	      0.17246026
      4.53500000	     10.18456180	     -1.46170795	      1.71168717	     25.06484546	    -87.23296607	     -7.76881306	     14.85511704	      0.20355170	      0.87621620	      7.44547829	      3.11461979	     -0.24849412	    -19.30311288	      2.17429791	     -0.24013001	     -5.77720888	      0.00013586	     -0.30187337	      0.00183076	     -0.44658549	      0.19746130	      0.54711251	     -0.23147631	     -0.50729273	     -0.16295757	      0.78217240	     -0.04849595	     -0.47760195	     -1.10720051	      0.02349216	      0.15851710	      0.02139886	      0.00768753	     -0.05769097	     -0.00485892	      0.06048266	      0.08309243	     -0.06772851	      0.15267157
      4.54000000	     10.61829448	     -2.81660493	      1.20974295	     24.88320062	    -89.02335855	     -8.35252526	     13.98320187	      0.43050040	      0.97397726	      8.49768381	      3.89490252	     -0.12105486	    -18.99376694	      1.91438722	     -0.03464101	     -5.45049759	      0.00006516	     -0.90446759	      0.00199105	     -0.45368543	      0.20936877	      0.59533082	     -0.23417392	     -0.25765301	     -0.06820044	      0.73212986	      0.03173197	     -0.43697320	     -0.94100371	      0.04388305	      0.16862947	      0.02332633	      0.00658189	     -0.05445384	     -0.01064826	      0.07039106	      0.08001319	     -0.05179591	      0.13001001
      4.54500000	     10.50733324	     -4.03910936	      0.71724040	     24.59580435	    -85.91126317	     -8.42014629	     12.93082219	      0.52904667	      1.07054746	      9.49414686	      4.50165947	      0.00312559	    -18.58662126	      1.67132972	      0.16689355	     -5.07713263	     -0.00025718	     -1.52889263	      0.00186577	     -0.47845521	      0.20386556	      0.63628376	     -0.25393597	     -0.02692975	      0.03445806	      0.67672843	      0.11943757	     -0.39153863	     -0.75666848	      0.06209455	      0.17358500	      0.02479564	      0.00560766	     -0.05057006	     -0.01675485	      0.07923344	      0.07648014	     -0.03355410	      0.10578670
      4.55000000	      9.99610529	     -5.09811933	      0.25192529	     24.26562016	    -78.91137980	     -7.97200270	     11.76821118	      0.50603438	      1.16273926	     10.43344933	      4.92385585	      0.11932667	    -18.09881335	      1.44817438	      0.36077368	     -4.67782668	     -0.00077692	     -2.16603429	      0.00149669	     -0.51890978	      0.18429343	      0.66952671	     -0.28970100	      0.18141704	      0.14237847	      0.61666526	      0.21162413	     -0.34618869	     -0.56421336	      0.07828249	      0.17349261	      0.02581871	      0.00484841	     -0.04604171	     -0.02294116	      0.08667284	      0.07302653	     -0.01374043	      0.08125433
      4.55500000	      9.22278074	     -5.97098171	     -0.16994915	     23.95549841	    -69.01680956	     -7.04134725	     10.56261277	      0.37669815	      1.24736643	     11.31419321	      5.15936647	      0.22347823	    -17.54850241	      1.24241684	      0.54500778	     -4.27078387	     -0.00144044	     -2.80626876	      0.00092603	     -0.57294691	      0.15411040	      0.69505262	     -0.34011925	      0.36477844	      0.25266674	      0.55248824	      0.30522071	     -0.30492650	     -0.37314655	      0.09277100	      0.16874663	      0.02641552	      0.00435437	     -0.04087665	     -0.02897152	      0.09248454	      0.07009042	      0.00685472	      0.05756509
      4.56000000	      8.31397346	     -6.64237418	     -0.53486171	     23.72748566	    -57.17397981	     -5.69214873	      9.37519812	      0.16393868	      1.32131335	     12.13554358	      5.21416247	      0.31209425	    -16.95515753	      1.04718527	      0.71896807	     -3.87088148	     -0.00219598	     -3.43980224	      0.00019557	     -0.63834734	      0.11671138	      0.71325267	     -0.40356896	      0.52149032	      0.36235387	      0.48457788	      0.39718025	     -0.27077727	     -0.19212494	      0.10601926	      0.15998171	      0.02661565	      0.00414648	     -0.03508927	     -0.03461882	      0.09655990	      0.06800319	      0.02743267	      0.03573426
      4.56500000	      7.38035937	     -7.10238166	     -0.83293061	     23.64170409	    -44.26305183	     -4.01368783	      8.25831259	     -0.10297010	      1.38163597	     12.89781776	      5.10090208	      0.38223533	    -16.33988765	      0.85305689	      0.88305109	     -3.48903632	     -0.00299473	     -4.05703018	     -0.00065423	     -0.71280432	      0.07527411	      0.72487574	     -0.47822441	      0.65087318	      0.46859206	      0.41314229	      0.48457017	     -0.24578343	     -0.02864574	      0.11857874	      0.14801129	      0.02645961	      0.00422153	     -0.02870131	     -0.03967023	      0.09890494	      0.06698839	      0.04723331	      0.01661009
      4.57000000	      6.51246181	     -7.34405380	     -1.05845698	     23.75209656	    -31.08389402	     -2.11312252	      7.25300741	     -0.38994881	      1.42568761	     13.60276336	      4.83717987	      0.43151777	    -15.72606687	      0.65003310	      1.03827688	     -3.13177674	     -0.00379144	     -4.64884130	     -0.00158489	     -0.79398368	      0.03263316	      0.73097847	     -0.56216907	      0.75321632	      0.56886622	      0.33823379	      0.56465314	     -0.23108041	      0.11119115	      0.13104523	      0.13375830	      0.02599909	      0.00455888	     -0.02174378	     -0.04393238	      0.09963223	      0.06717020	      0.06558258	      0.00085462
      4.57500000	      5.77684864	     -7.36146650	     -1.21014153	     24.10059947	    -18.34614226	     -0.10770712	      6.38710577	     -0.65985635	      1.45125760	     14.25322313	      4.44381114	      0.45814563	    -15.13979878	      0.42913194	      1.18577666	     -2.80103127	     -0.00454485	     -5.20676483	     -0.00256033	     -0.87958743	     -0.00882627	      0.73283921	     -0.65353282	      0.82973621	      0.66120546	      0.25978820	      0.63496266	     -0.22703828	      0.22282487	      0.14401011	      0.11818284	      0.02529612	      0.00512854	     -0.01425990	     -0.04723676	      0.09894261	      0.06858904	      0.08193619	     -0.01106266
      4.58000000	      5.21381354	     -7.14905632	     -1.29105989	     24.71123657	     -6.66211954	      1.88256141	      5.67401382	     -0.87445140	      1.45669387	     14.85231206	      3.94337089	      0.46096329	    -14.60948648	      0.18331269	      1.32623982	     -2.49414361	     -0.00521816	     -5.72296193	     -0.00354707	     -0.96739820	     -0.04722722	      0.73184440	     -0.75058744	      0.88251912	      0.74433820	      0.17768323	      0.69337493	     -0.23342413	      0.30330174	      0.15801231	      0.10221255	      0.02442059	      0.00589835	     -0.00630889	     -0.04944576	      0.09709969	      0.07121848	      0.09591181	     -0.01886437
      4.58500000	      4.83698200	     -6.70210391	     -1.30835104	     25.58428557	      3.45745606	      3.74251502	      5.11241243	     -0.99656379	      1.44096586	     15.40235889	      3.35898044	      0.43954677	    -14.16451489	     -0.09215878	      1.45946939	     -2.20414540	     -0.00577944	     -6.19010341	     -0.00451420	     -1.05530954	     -0.08118496	      0.72939039	     -0.85173311	      0.91443035	      0.81773321	      0.09181286	      0.73816926	     -0.24953731	      0.35130736	      0.17349209	      0.08668210	      0.02344671	      0.00683780	      0.00202996	     -0.05045828	      0.09440548	      0.07497842	      0.10730319	     -0.02246572
      4.59000000	      4.63454236	     -6.01771019	     -1.27259861	     26.69156704	     11.60455074	      5.36920530	      4.68673652	     -0.99235328	      1.40368396	     15.90376538	      2.71321252	      0.39430228	    -13.83342261	     -0.39958770	      1.58415258	     -1.92024086	     -0.00620202	     -6.60114435	     -0.00543378	     -1.14135094	     -0.10973955	      0.72682012	     -0.95540430	      0.92897170	      0.88153908	      0.00217108	      0.76807172	     -0.27431323	      0.36713495	      0.19074987	      0.07228175	      0.02244959	      0.00791975	      0.01065304	     -0.05021447	      0.09118162	      0.07974511	      0.11607715	     -0.02197096
      4.59500000	      4.57165250	     -5.09594673	     -1.19696499	     27.97345489	     17.47167801	      6.67786015	      4.36807087	     -0.83349364	      1.34513422	     16.35400684	      2.02726824	      0.32648012	    -13.64181203	     -0.73869632	      1.69791932	     -1.62837444	     -0.00646461	     -6.94901097	     -0.00628077	     -1.22371170	     -0.13229296	      0.72538246	     -1.05999824	      0.93009660	      0.93648821	     -0.09106538	      0.78228327	     -0.30642280	      0.35252753	      0.20991276	      0.05952115	      0.02150351	      0.00912343	      0.01942830	     -0.04869969	      0.08775489	      0.08536131	      0.12235942	     -0.01765396
      4.60000000	      4.59347237	     -3.94097035	     -1.09596623	     29.33693201	     20.84798874	      7.60597909	      4.11548320	     -0.49910697	      1.26628993	     16.74670891	      1.32046909	      0.23810074	    -13.61032851	     -1.10647686	      1.79775979	     -1.31187198	     -0.00655142	     -7.22629157	     -0.00703286	     -1.30076979	     -0.14857644	      0.72620169	     -1.16387962	      0.92202420	      0.98380165	     -0.18746266	      0.78049913	     -0.34438117	      0.31042003	      0.23090973	      0.04870856	      0.02068100	      0.01043783	      0.02819188	     -0.04594769	      0.08444511	      0.09164887	      0.12641389	     -0.00992543
      4.60500000	      4.62823579	     -2.56245791	     -0.98390465	     30.65663847	     21.61562627	      8.11580933	      3.87828733	      0.02265312	      1.16868573	     17.07068965	      0.61011529	      0.13188767	    -13.75341781	     -1.49748104	      1.88067914	     -0.95225179	     -0.00645224	     -7.42501415	     -0.00767049	     -1.37112333	     -0.15862004	      0.73025523	     -1.26542407	      0.90905605	      1.02507065	     -0.28627111	      0.76291325	     -0.38665953	      0.24466515	      0.25345343	      0.03994904	      0.02005050	      0.01186129	      0.03674698	     -0.04204186	      0.08155339	      0.09842301	      0.12861429	      0.00070045
      4.61000000	      4.58979676	     -0.97781112	     -0.87338040	     31.78093362	     19.74721813	      8.19506086	      3.59916354	      0.73333509	      1.05418934	     17.30920649	     -0.08834424	      0.01125133	    -14.07942397	     -1.90483199	      1.94431478	     -0.53017193	     -0.00616282	     -7.53649869	     -0.00817700	     -1.43358435	     -0.16270051	      0.73834734	     -1.36304476	      0.89536034	      1.06209325	     -0.38638974	      0.73019308	     -0.43176727	      0.15976851	      0.27703013	      0.03316452	      0.01967150	      0.01339657	      0.04486541	     -0.03711331	      0.07935010	      0.10550355	      0.12940823	      0.01363599
      4.61500000	      4.37960903	      0.78535977	     -0.77432783	     32.54027412	     15.30441697	      7.85558883	      3.21731256	      1.62334764	      0.92485151	     17.43976570	     -0.76096312	     -0.11974997	    -14.59156167	     -2.32162917	      1.98736147	     -0.02636989	     -0.00568530	     -7.55123838	     -0.00853898	     -1.48707758	     -0.16129574	      0.75105042	     -1.45518075	      0.88474386	      1.09669465	     -0.48634714	      0.68343248	     -0.47824897	      0.06062762	      0.30090631	      0.02813146	      0.01958887	      0.01504593	      0.05229048	     -0.03133706	      0.07806287	      0.11271368	      0.12927934	      0.02824899
      4.62000000	      3.88898554	      2.68751295	     -0.69365752	     32.75561006	      8.43811691	      7.13031342	      2.67128802	      2.67177927	      0.78288685	     17.43460524	     -1.39488482	     -0.25653329	    -15.28870521	     -2.74219882	      2.00985215	      0.57745176	     -0.00502849	     -7.45885081	     -0.00874666	     -1.53048189	     -0.15508558	      0.76861907	     -1.54026329	      0.88044950	      1.13056673	     -0.58429450	      0.62411143	     -0.52461186	     -0.04771133	      0.32415632	      0.02452533	      0.01982870	      0.01680911	      0.05874021	     -0.02492899	      0.07786633	      0.11986829	      0.12871354	      0.04389055
      4.62500000	      3.00295878	      4.67636666	     -0.63521681	     32.24787533	     -0.60956286	      6.06935666	      1.90203212	      3.84681234	      0.63066685	     17.26188580	     -1.97786144	     -0.39416845	    -16.16547355	     -3.16297817	      2.01349657	      1.29771270	     -0.00420826	     -7.24819786	     -0.00879452	     -1.56253104	     -0.14498768	      0.79093087	     -1.61670911	      0.88497128	      1.16513384	     -0.67803084	      0.55407038	     -0.56928692	     -0.16028697	      0.34570568	      0.02196809	      0.02039764	      0.01868359	      0.06391253	     -0.01814363	      0.07887567	      0.12676828	      0.12816938	      0.05992284
      4.63000000	      1.60619169	      6.68667379	     -0.59978820	     30.84691884	    -11.50328513	      4.73568865	      0.85642543	      5.10651353	      0.47067519	     16.88753178	     -2.49768525	     -0.52755917	    -17.21173863	     -3.58305709	      2.00220937	      2.14794015	     -0.00324811	     -6.90771861	     -0.00868215	     -1.58180312	     -0.13218018	      0.81747640	     -1.68297268	      0.89990615	      1.20144739	     -0.76506189	      0.47548175	     -0.61065473	     -0.27245620	      0.36438354	      0.02008174	      0.02128480	      0.02066537	      0.06749397	     -0.01127062	      0.08114428	      0.13320539	      0.12805065	      0.07574752
      4.63500000	     -0.41003420	      8.64084005	     -0.58527528	     28.39702311	    -23.81339823	      3.19967316	     -0.50899854	      6.40002932	      0.30552044	     16.27754711	     -2.94168317	     -0.65160793	    -18.41200307	     -4.00438619	      1.98257066	      3.13765278	     -0.00217984	     -6.42597659	     -0.00841521	     -1.58674282	     -0.11808058	      0.84736956	     -1.73761741	      0.92587974	      1.24010670	     -0.84264126	      0.39081018	     -0.64706236	     -0.38009537	      0.37898545	      0.01854579	      0.02246331	      0.02274908	      0.06917127	     -0.00462905	      0.08466343	      0.13896525	      0.12868224	      0.09082986
      4.64000000	     -3.14127482	     10.45030031	     -0.58767532	     24.76285042	    -37.01511102	      1.53313420	     -2.22461036	      7.66922151	      0.13799592	     15.40077152	     -3.29634884	     -0.76136902	    -19.74542765	     -4.43184753	      1.96362664	      4.27127768	     -0.00104428	     -5.79240418	     -0.00800666	     -1.57569945	     -0.10428420	      0.87936149	     -1.77934289	      0.96250587	      1.28119531	     -0.90780716	      0.30276725	     -0.67680158	     -0.47973525	      0.38833913	      0.01715001	      0.02389020	      0.02492664	      0.06864521	      0.00144028	      0.08936277	      0.14382365	      0.13029140	      0.10471465
      4.64500000	     -6.66482039	     12.01647739	     -0.60338401	     19.84228433	    -50.48802167	     -0.19548533	     -4.30482611	      8.85048730	     -0.02908796	     14.23211143	     -3.54689860	     -0.85221713	    -21.18709015	     -4.87362893	      1.95567889	      5.54738271	      0.00010775	     -4.99818815	     -0.00747818	     -1.54698820	     -0.09246765	      0.91186852	     -1.80697583	      1.00831321	      1.32423599	     -0.95758016	      0.21425901	     -0.69808689	     -0.56862933	      0.39134663	      0.01583772	      0.02550582	      0.02718446	      0.06564617	      0.00658470	      0.09511186	      0.14754274	      0.13299673	      0.11703470
      4.65000000	    -11.03515816	     13.23098753	     -0.63207638	     13.58381602	    -63.51572496	     -1.92452041	     -6.74556636	      9.87657294	     -0.19321918	     12.75607658	     -3.67676553	     -0.92004219	    -22.70980598	     -5.34188837	      1.96849090	      6.95811410	      0.00121398	     -4.03726096	     -0.00686165	     -1.49897759	     -0.08426066	      0.94302816	     -1.81948471	      1.06067120	      1.36817940	     -0.98923540	      0.12832557	     -0.70906013	     -0.64476699	      0.38701562	      0.01473764	      0.02723371	      0.02949941	      0.05995149	      0.01045187	      0.10172446	      0.14987139	      0.13680463	      0.12751316
      4.65500000	    -16.27741687	     13.97676177	     -0.67778083	      5.99961911	    -75.28457019	     -3.60158784	     -9.52083063	     10.67870222	     -0.35172084	     10.97021327	     -3.66754466	     -0.96143841	    -24.28498691	     -5.85299189	      2.00979866	      8.48797198	      0.00219932	     -2.90737816	     -0.00620056	     -1.43023419	     -0.08112245	      0.97079352	     -1.81603681	      1.11581875	      1.41143106	     -1.00001527	      0.04809101	     -0.70782976	     -0.70683651	      0.37452991	      0.01417721	      0.02898274	      0.03183522	      0.05140215	      0.01270238	      0.10896765	      0.15055130	      0.14161129	      0.13595903
      4.66000000	    -22.37979967	     14.13134951	     -0.74810186	     -2.82942960	    -84.88338349	     -5.18505372	    -12.57957026	     11.18909682	     -0.50084499	      8.88797067	     -3.49980490	     -0.97386868	    -25.88202264	     -6.42696383	      2.08460110	     10.11247279	      0.00297479	     -1.61117492	     -0.00555110	     -1.33975113	     -0.08425594	      0.99306764	     -1.79607312	      1.16904125	      1.45191675	     -0.98657842	     -0.02326291	     -0.69254472	     -0.75414392	      0.35334056	      0.01466696	      0.03065222	      0.03414101	      0.03991647	      0.01302113	      0.11657677	      0.14932907	      0.14721029	      0.14225631
      4.66500000	    -29.29265234	     13.57140078	     -0.85683123	    -12.75659475	    -91.30796951	     -6.64337328	    -15.84894881	     11.34232304	     -0.63762548	      6.54068972	     -3.15482181	     -0.95582174	    -27.46698312	     -7.08661248	      2.19508507	     11.80020718	      0.00343738	     -0.15706086	     -0.00498282	     -1.22724046	     -0.09453067	      1.00787443	     -1.75940342	      1.21496045	      1.48719459	     -0.94635111	     -0.08250471	     -0.66148038	     -0.78649961	      0.32295269	      0.01684967	      0.03213846	      0.03635229	      0.02549856	      0.01112785	      0.12427491	      0.14597166	      0.15330744	      0.14634902
      4.67000000	    -36.93215250	     12.17883770	     -1.02849578	    -23.57564309	    -93.46946138	     -7.95445759	    -19.24116561	     11.07640575	     -0.76318413	      3.97860359	     -2.61731351	     -0.90695072	    -29.00130309	     -7.85664120	      2.34078959	     13.51694074	      0.00347062	      1.44010950	     -0.00457877	     -1.09344831	     -0.11238925	      1.01355183	     -1.70633285	      1.24786131	      1.51461439	     -0.87985446	     -0.12635073	     -0.61311620	     -0.80409128	      0.28318435	      0.02141574	      0.03334152	      0.03839388	      0.00824132	      0.00678722	      0.13179523	      0.14028166	      0.15954372	      0.14822587
      4.67500000	    -45.16545481	      9.84857202	     -1.28616430	    -35.01369048	    -90.19979304	     -9.11311034	    -22.64181261	     10.33720117	     -0.87536614	      1.27075923	     -1.87930899	     -0.82814657	    -30.44063077	     -8.76249923	      2.51862886	     15.21846978	      0.00294626	      3.15863155	     -0.00443513	     -0.94045295	     -0.13777098	      1.00893600	     -1.63779430	      1.26196964	      1.53150365	     -0.78538470	     -0.15146371	     -0.54620771	     -0.80736046	      0.23314227	      0.02899126	      0.03417190	      0.04018473	     -0.01167485	     -0.00018071	      0.13890283	      0.13211147	      0.16552471	      0.14790771
      4.68000000	    -53.78684437	      6.50367689	     -1.62952590	    -46.71835404	    -80.25889264	    -10.14192399	    -25.88903080	      9.09148709	     -0.95696742	     -1.49647089	     -0.94503914	     -0.72153293	    -31.73404780	     -9.82886808	      2.72267453	     16.83975054	      0.00172716	      4.96991226	     -0.00466025	     -0.77191160	     -0.17007749	      0.99352113	     -1.55545713	      1.25165510	      1.53535996	     -0.65232622	     -0.15446692	     -0.45984825	     -0.79688564	      0.17581168	      0.04000308	      0.03455736	      0.04164421	     -0.03398503	     -0.00988897	      0.14541561	      0.12137453	      0.17085433	      0.14543789
      4.68500000	    -62.57784060	      2.08088906	     -2.07447809	    -58.30854862	    -62.36996440	    -11.07427327	    -28.82751487	      7.29559643	     -0.99818598	     -4.22269638	      0.16346647	     -0.59039765	    -32.82375985	    -11.07809574	      2.94399138	     18.32016933	     -0.00032815	      6.83889267	     -0.00537273	     -0.59323770	     -0.20817530	      0.96759948	     -1.46181058	      1.21159821	      1.52403790	     -0.47317996	     -0.13197619	     -0.35351059	     -0.77327197	      0.09784867	      0.05451936	      0.03444907	      0.04269864	     -0.05834245	     -0.02237152	      0.15122483	      0.10805362	      0.17516892	      0.14087396
      4.69000000	    -71.39496269	     -3.40106518	     -2.72505808	    -69.46217971	    -35.27523793	    -11.92226706	    -31.39114051	      4.93455870	     -1.05273790	     -6.79874211	      1.40055127	     -0.43902194	    -33.64522531	    -12.52877739	      3.17092251	     19.66886138	     -0.00335900	      8.72498469	     -0.00669824	     -0.41169654	     -0.25045497	      0.93236320	     -1.36024065	      1.13694979	      1.49591939	     -0.29004647	     -0.08065395	     -0.22707346	     -0.73705458	      0.03350305	      0.07207268	      0.03382625	      0.04328692	     -0.08431966	     -0.03757115	      0.15631255	      0.09220662	      0.17816782	      0.13428027
      4.69500000	    -80.02993538	    -10.09113948	     -3.61761993	    -79.78162340	      2.27463200	    -12.74592489	    -33.45175425	      1.80249528	     -1.09203144	     -9.11361793	      2.69147273	     -0.27231385	    -34.12768286	    -14.19436878	      3.38990098	     20.80300404	     -0.00749412	     10.58356996	     -0.00876513	     -0.23639305	     -0.29497066	      0.88993016	     -1.25510964	      1.02350128	      1.45006496	     -0.05780367	      0.00269479	     -0.08083782	     -0.68861510	     -0.20301153	      0.09148245	      0.03269834	      0.04336531	     -0.11140749	     -0.05532709	      0.16076000	      0.07396929	      0.17963850	      0.12572125
      4.70000000	    -87.74229396	    -17.39219541	     -4.41049429	    -88.53855193	     51.56075124	    -13.77783059	    -34.44304983	     -1.51038831	     -1.01018941	    -11.06266962	      3.92790632	     -0.09517071	    -34.19489011	    -16.08192368	      3.58640320	     21.57290250	     -0.01284120	     12.36799562	     -0.01169867	     -0.07811128	     -0.33962902	      0.84327793	     -1.15178906	      0.86787413	      1.38633250	      0.21727396	      0.12097562	      0.08446191	     -0.62810990	     -0.14012679	      0.11069131	      0.03110520	      0.04291079	     -0.13901126	     -0.07536255	      0.16474434	      0.05355419	      0.17947505	      0.11525460
      4.70500000	    -94.58755909	    -27.78497579	     -5.06125309	    -95.26437252	    113.63361325	    -15.16918414	    -34.33255482	     -7.56424077	     -0.18915295	    -12.55584240	      4.96522756	      0.08848108	    -33.76606422	    -18.19126072	      3.74568748	     21.29930351	     -0.01947548	     14.03183845	     -0.01561451	      0.05100805	     -0.38237355	      0.79610266	     -1.05659129	      0.66768669	      1.30543600	      1.24711789	      0.27661750	      0.26764895	     -0.55542288	     -2.37530553	      0.12663446	      0.02911605	      0.04192297	     -0.16644362	     -0.09727395	      0.16852492	      0.03124646	      0.17768700	      0.10292587
      4.71000000	   -100.64162591	    -34.43045628	     -6.56353819	   -100.80052457	    188.88198365	    -16.52685610	    -33.72818864	    -10.15229589	     -0.77831242	    -13.52501751	      5.62283251	      0.27704573	    -32.75750095	    -20.51457356	      3.85343415	     22.18186960	     -0.02742860	     15.53122847	     -0.02061145	      0.13791343	     -0.42135422	      0.75263687	     -0.97662900	      0.42163978	      1.20895065	      0.87202818	      0.47133873	      0.46712288	     -0.47014926	     -0.34287803	      0.13517950	      0.02682645	      0.04042448	     -0.19291578	     -0.12052303	      0.17242467	      0.00739468	      0.17440042	      0.08876598
      4.71500000	   -111.93524077	    -73.79438748	    -10.36363989	   -105.19230854	    277.67989360	    -17.85841239	    -35.73880106	    -45.56026296	      5.83191519	    -13.92990529	      5.68874819	      0.47306157	    -31.08524297	    -23.03629917	      3.89657727	     16.11744264	     -0.03668006	     16.82713833	     -0.02676369	      0.16915901	     -0.45511480	      0.71744715	     -0.91964538	      0.12951647	      1.09929519	      8.25861748	      0.70583710	      0.68093538	     -0.37159331	    -29.96624955	      0.13118198	      0.02435223	      0.03846004	     -0.21753156	     -0.14443151	      0.17681134	     -0.01760588	      0.16985676	      0.07279044
      4.72000000	   -108.07176179	    -52.48815455	     -8.73853158	   -103.85849967	    381.62443526	    -21.28567661	    -28.13158433	    -20.67160163	     -0.30368421	    -13.76209360	      4.92921505	      0.68532477	    -28.66859227	    -25.73310381	      3.86446052	     21.27612794	     -0.04715855	     17.88755948	     -0.03411248	      0.13146927	     -0.48281845	      0.69520288	     -0.89380413	     -0.20785920	      0.97969682	      1.65856117	      0.97938464	      0.90691739	     -0.25876919	     -0.57593658	      0.10869160	      0.02181968	      0.03609381	     -0.23929259	     -0.16817917	      0.18207722	     -0.04333743	      0.16441028	      0.05499817
      4.72500000	   -170.28143345	   -482.15965489	    -19.80245335	    -95.54055208	    500.73140299	    -27.48157968	    -49.31572497	   -435.31748326	    118.04955458	    -13.04663719	      3.10341083	      0.93099893	    -25.43415532	    -28.57395803	      3.75019150	    -81.45747053	     -0.05884846	     18.68945335	     -0.04265699	      0.01235701	     -0.50448666	      0.69039931	     -0.90743264	     -0.58868001	      0.85412577	    106.56432293	      1.28934068	      1.14282065	     -0.13042773	   -407.58881628	      0.06133257	      0.01935286	      0.03340519	     -0.25712080	     -0.19080869	      0.18861252	     -0.06938660	      0.15851974	      0.03537257
      4.73000000	   -108.57605178	    -68.74039651	    -10.16324551	    -96.66052157	    628.41551070	    -29.26895056	    -17.05271853	    -32.50206664	      0.45705959	    -11.84087241	     -0.01667097	      1.23720476	    -21.32038781	    -31.52055784	      3.55183885	     18.87014831	     -0.07154345	     19.22043835	     -0.05234369	     -0.19920554	     -0.52118691	      0.70704677	     -0.96873587	     -1.01023674	      0.72718817	      2.52721887	      1.63063843	      1.38643746	      0.01486089	     -0.84188532	     -0.01712533	      0.01706009	      0.03048345	     -0.26993402	     -0.21124394	      0.19677138	     -0.09536960	      0.15273097	      0.01388861
      4.73500000	    870.49011142	 -12728.85635592	   -374.98447396	   -102.43860599	    764.56954961	     -7.63144013	   2050.87740463	 -11962.06007604	   3063.58541579	    -10.23095020	     -4.62149537	      1.64147157	    -16.28241695	    -34.52834605	      3.27327208	  -5945.37729742	     -0.08502714	     19.48038301	     -0.06305269	     -0.51210407	     -0.53510709	      0.74837705	     -1.08550254	     -1.46901488	      0.60397829	   5793.53289919	      1.99533702	      1.63568598	      0.17855972	 -11800.57300317	     -0.13201010	      0.01502200	      0.02742182	     -0.27674603	     -0.22832972	      0.20683723	     -0.12095270	      0.14764961	     -0.00947351
      4.74000000	  42143.82019554	 -83396.88752801	    599.73184756	     -5.28610752	    942.76152466	     95.94951471	  49224.35112568	 -74027.83370140	  12708.08534322	     -8.29800309	    -10.78982470	      2.18336794	    -10.29641512	    -37.54789986	      2.92468711	 -73557.97709468	     -0.09902055	     19.48527949	     -0.07419222	     -0.93246153	     -0.54948900	      0.81662084	     -1.26483498	     -1.96078690	      0.48991358	  70860.04767621	      2.37206571	      1.88866681	      0.36195654	 -74316.01915677	     -0.28509697	      0.01328307	      0.02431248	     -0.27682198	     -0.24092755	      0.21899578	     -0.14586751	      0.14390821	     -0.03470816
      4.74500000	 196135.03047928	-245227.49890951	  10231.84061769	    262.00746526	   1175.22632143	    329.18592941	 216412.04315116	-206573.61696317	  25104.12561237	     -6.16622436	    -18.54622956	      2.91200402	     -3.36305490	    -40.52629093	      2.52268806	-284858.96212449	     -0.11315545	     19.26501766	     -0.08552777	     -1.46313942	     -0.56840961	      0.91288240	     -1.51292953	     -2.48068975	      0.39057948	 274352.67924332	      2.74685817	      2.14369842	      0.56590346	-210437.91954701	     -0.47707458	      0.01184703	      0.02124360	     -0.26982816	     -0.24797674	      0.23331946	     -0.16992185	      0.14213248	     -0.06175712
      4.75000000	 435394.86757652	-537731.34125835	  25655.13453483	    502.93196932	   1356.17109475	    657.09038055	 480103.84005253	-445418.09543301	  64721.80761397	     -3.98336388	    -27.80998086	      3.87798560	      4.48964533	    -43.40836807	      2.08955045	-630214.03666909	     -0.12603929	     18.86600772	     -0.09696941	     -2.10340089	     -0.59639790	      1.03712079	     -1.83490573	     -3.02328551	      0.31158811	 605975.53581188	      3.10380325	      2.39932984	      0.79054140	-454723.47374791	     -0.70587097	      0.01067622	      0.01829732	     -0.25597977	     -0.24865699	      0.24976412	     -0.19300524	      0.14290859	     -0.09047960
      4.75500000	 627611.32744766	-886624.31901122	  31801.31290439	    516.46776072	   1404.06856552	    990.14302566	 702894.57611432	-735273.74997774	 143563.31227783	     -1.89618357	    -38.35032422	      5.12092145	     13.20391551	    -46.13804684	      1.65141274	-956161.92796439	     -0.13750183	     18.35156065	     -0.10829903	     -2.84876206	     -0.63789945	      1.18823544	     -2.23464868	     -3.58260160	      0.25843552	 915569.13638866	      3.42626668	      2.65431400	      1.03507475	-746429.95278398	     -0.96523364	      0.00969561	      0.01554650	     -0.23590764	     -0.24255602	      0.26817710	     -0.21508647	      0.14675248	     -0.12062833
      4.76000000	 537030.37295369	-1003098.66863425	  19558.82756502	    347.74163017	   1453.14754971	   1102.70515989	 624418.28203425	-839883.36060222	 227389.56940567	     -0.04549639	    -49.79651729	      6.66171953	     22.69104650	    -48.65953311	      1.23559904	-923045.70407765	     -0.14806759	     17.79584556	     -0.11927896	     -3.69103256	     -0.69664483	      1.36423042	     -2.71462836	     -4.15210850	      0.23635659	 876001.40885532	      3.69845003	      2.90752763	      1.29762999	-841932.01618534	     -1.24523390	      0.00880154	      0.01305073	     -0.21058647	     -0.22975025	      0.28831405	     -0.23620148	      0.15408361	     -0.15183683
      4.76500000	 239953.17494281	-869600.74009803	   1594.60791289	    104.36922125	   1636.33254371	    924.35467947	 317912.22729561	-741141.74683784	 282304.47082071	      1.50181926	    -61.59293774	      8.47769688	     32.83262133	    -50.91827491	      0.86770671	-594282.00765631	     -0.15756815	     17.26997168	     -0.13035972	     -4.61853756	     -0.77499646	      1.56243337	     -3.27570512	     -4.72456585	      0.25020037	 551298.78199930	      3.90616795	      3.15784685	      1.57517949	-727400.79689807	     -1.53025428	      0.00787518	      0.01085411	     -0.18132478	     -0.21082431	      0.30986290	     -0.25643303	      0.16520557	     -0.18361480
      4.77000000	 -68881.86881605	-966674.60348237	  17418.91907617	   -102.81222032	   1866.01910069	   1141.20801123	  19074.14241044	-828019.30558351	 470676.70219046	      2.71094472	    -73.12353329	     10.51226770	     43.48465596	    -52.86151378	      0.56901673	-356447.93534069	     -0.16714423	     16.82933268	     -0.14059037	     -5.61652371	     -0.87335357	      1.77974595	     -3.91692530	     -5.29174838	      0.30431563	 302115.55050637	      4.03859334	      3.40399858	      1.86353030	-786189.06907279	     -1.80354021	      0.00679995	      0.00898622	     -0.14965654	     -0.18675473	      0.33247310	     -0.27588400	      0.18029307	     -0.21535190
      4.77500000	-197853.68984353	-1681470.64946801	 140301.71822380	   -196.16816731	   2031.29268250	   2249.38813679	 -47433.73025362	-1359399.81369233	 978985.47251549	      3.55958608	    -83.80548019	     12.68716750	     54.48378110	    -54.43868348	      0.35434589	-559593.27108436	     -0.17425750	     16.50647280	     -0.14826316	     -6.66772097	     -0.98970832	      2.01286158	     -4.63525339	     -5.84417175	      0.40238501	 449844.29620959	      4.08939992	      3.64439132	      2.15741120	-1269228.76037245	     -2.05026802	      0.00548029	      0.00746512	     -0.11708160	     -0.15878874	      0.35578030	     -0.29464593	      0.19938080	     -0.24633554
      4.78000000	-186454.84535162	-2408695.12925769	 316622.24037530	   -233.78852461	   2147.81205312	   3227.68499246	  27001.82000992	-1826025.24206033	1516214.26834683	      4.13337580	    -93.00783484	     14.87177183	     65.65426970	    -55.60213705	      0.23039773	-906532.63347758	     -0.17686305	     16.29962237	     -0.15264357	     -7.75299306	     -1.11944176	      2.25838422	     -5.42521046	     -6.37092828	      0.54717230	 731379.58578363	      4.05630568	      3.87692214	      2.45066822	-1692834.02509971	     -2.25382379	      0.00385830	      0.00630071	     -0.08498450	     -0.12839136	      0.37941575	     -0.31276268	      0.22235169	     -0.27578353
      4.78500000	-153215.49742707	-2400193.25440451	 309295.34538648	   -288.35048463	   2255.05885480	   3110.96714499	  62360.23105835	-1764728.14956823	1548483.59282187	      4.61860559	   -100.06780564	     16.87734089	     76.81577285	    -56.30844639	      0.19502035	-946503.31534660	     -0.17412564	     16.18029198	     -0.15222755	     -8.85200822	     -1.25541288	      2.51284971	     -6.27847347	     -6.85967147	      0.74020966	 763608.83287881	      3.94118619	      4.09879537	      2.73655599	-1635681.02617971	     -2.39625138	      0.00192521	      0.00549752	     -0.05460523	     -0.09716221	      0.40300241	     -0.33019278	      0.24892746	     -0.30288810
      4.79000000	-219086.47079609	-2279870.02505644	 166853.83561759	   -356.04781098	   2359.86513882	   2675.48634161	  -7759.87481663	-1703329.60493781	1454908.59901518	      5.18742077	   -104.50686450	     18.51756310	     87.79181814	    -56.52008345	      0.23775543	-840585.74755914	     -0.16510609	     16.08869848	     -0.14821894	     -9.94388003	     -1.38836163	      2.77269572	     -7.18352323	     -7.29680262	      0.98146881	 671106.26740093	      3.75040064	      4.30642175	      3.00812162	-1588369.50408249	     -2.46574137	     -0.00027378	      0.00505608	     -0.02705879	     -0.06659709	      0.42614859	     -0.34677882	      0.27866686	     -0.32686865
      4.79500000	-439147.63851110	-2705870.71083623	  59692.32767773	   -399.60121393	   2452.55359653	   2785.57905551	-181715.27260080	-2057094.57209726	1759569.77035684	      5.93119367	   -106.16117263	     19.66555119	     98.41787023	    -56.20707310	      0.34146956	-844460.00963606	     -0.15476029	     15.93925387	     -0.14268754	    -11.00776472	     -1.50760502	      3.03422684	     -8.12542497	     -7.66796129	      1.26904676	 649770.60338717	      3.49466157	      4.49544177	      3.25867697	-1927869.32086454	     -2.46063860	     -0.00264074	      0.00497309	     -0.00284237	     -0.03792526	      0.44844805	     -0.36223139	      0.31097545	     -0.34703286
      4.80000000	-538959.16882183	-3015741.78101537	  13017.00317506	   -322.00202069	   2486.25741416	   2914.71279107	-248852.45512624	-2258385.16848394	2016831.46613199	      6.98446912	   -104.96530633	     20.19926371	    108.54704189	    -55.34851884	      0.48419488	-907705.16785526	     -0.14362901	     15.64646661	     -0.13604898	    -12.02343199	     -1.60193116	      3.29360114	     -9.08583136	     -7.95886900	      1.59888688	 694029.34810156	      3.18739869	      4.66088133	      3.48232858	-2132937.02306181	     -2.38105435	     -0.00503085	      0.00523939	      0.01762849	     -0.01219424	      0.46948871	     -0.37613292	      0.34512401	     -0.36284409
      4.80500000	-289425.88358898	-2549682.33651351	 -43790.66140920	    -64.46933512	   2425.44551336	   2446.19124083	 -42671.59149809	-1872153.38145187	1662250.01255176	      8.51367922	   -100.93811621	     20.00078376	    118.05237136	    -53.93437244	      0.64003434	-922549.01502567	     -0.13219508	     15.12349950	     -0.12868087	    -12.97181610	     -1.66058001	      3.54682222	    -10.04330328	     -8.15645882	      1.96457457	 753833.30774184	      2.84338021	      4.79742859	      3.67449325	-1797921.10450955	     -2.22812161	     -0.00726247	      0.00583377	      0.03411058	      0.00980605	      0.48886340	     -0.38796394	      0.38026892	     -0.37398641
      4.81000000	  78856.28983927	-1817904.97623826	 -77556.18211422	    219.00531742	   2315.32886937	   1793.99958146	 254808.46403480	-1303242.02829629	1080196.24489278	     10.51951964	    -94.51607012	     19.09877408	    126.82626661	    -51.96754100	      0.77890708	-914275.25971127	     -0.11925064	     14.32003740	     -0.11955071	    -13.83553699	     -1.67427796	      3.78972498	    -10.97402049	     -8.25014905	      2.35730027	 809541.26526047	      2.48036202	      4.89978308	      3.83229198	-1282168.21562251	     -2.01637071	     -0.00913101	      0.00671435	      0.04660963	      0.02767735	      0.50617835	     -0.39714507	      0.41547595	     -0.38040962
      4.81500000	 285593.54982059	-1449458.09665706	 -93189.15924028	    365.71309470	   2211.39744081	   1476.78110026	 425496.83426015	-1011786.85074771	 780704.93909493	     12.95651806	    -86.24856449	     17.58075315	    134.77884784	    -49.46544513	      0.86666964	-928317.80492045	     -0.10504721	     13.22384819	     -0.10895724	    -14.59937520	     -1.63627862	      4.01802189	    -11.85288753	     -8.23311473	      2.76609918	 857090.42517513	      2.11596218	      4.96302114	      3.95471563	-1019031.84862957	     -1.76284343	     -0.01042293	      0.00781582	      0.05525971	      0.04128430	      0.52106902	     -0.40308251	      0.44975908	     -0.38233565
      4.82000000	 340542.59208518	-1346659.49284603	-111980.82095929	    391.02137788	   2128.64490195	   1401.56799110	 470494.92710568	-921434.34679350	 705936.28519401	     15.74063478	    -76.70823520	     15.56623092	    141.83675805	    -46.45987476	      0.86732248	-931060.26123826	     -0.09028659	     11.86190086	     -0.09751184	    -15.25065817	     -1.54320237	      4.22748964	    -12.65495603	     -8.10343531	      3.17839029	 872465.72071457	      1.76619804	      4.98298724	      4.04251021	-945131.46412939	     -1.48437766	     -0.01092740	      0.00905784	      0.06025424	      0.05069848	      0.53323549	     -0.40521635	      0.48213841	     -0.38022019
      4.82500000	 322473.20268274	-1281524.37951088	-121240.00354225	    352.01051453	   2068.50346065	   1371.03125157	 446219.84213012	-856793.05283396	 688991.73248633	     18.77968351	    -66.38347936	     13.16213064	    147.94328295	    -42.99505293	      0.74719007	-887473.07634420	     -0.07561238	     10.30356674	     -0.08578031	    -15.77950949	     -1.39542635	      4.41427725	    -13.35702661	     -7.86499722	      3.58072799	 835503.98327047	      1.44390960	      4.95673877	      4.09781527	-894311.65489391	     -1.19401254	     -0.01044718	      0.01036117	      0.06180414	      0.05611472	      0.54249210	     -0.40307856	      0.51170393	     -0.37467944
      4.83000000	 277523.43243685	-1250057.02401005	-123863.99322187	    293.79331562	   2019.61377881	   1382.41747878	 398342.69737087	-811237.11685184	 708173.16628168	     21.83701272	    -55.94521728	     10.58452773	    153.05960566	    -39.12494618	      0.47959266	-836794.52940967	     -0.06261755	      8.64259950	     -0.07528698	    -16.17897914	     -1.19694864	      4.57523733	    -13.93927381	     -7.52800135	      3.95964404	 787285.87020869	      1.16071896	      4.88299103	      4.12366267	-863609.45261721	     -0.91145880	     -0.00881049	      0.01166221	      0.06029810	      0.05795374	      0.54881179	     -0.39635698	      0.53766724	     -0.36640176
      4.83500000	 234573.94061896	-1287697.67185448	-129559.23509934	    248.24841642	   1970.22981248	   1463.70653913	 359167.72054090	-807663.51008289	 773461.20026226	     24.70789569	    -45.90230556	      8.00764707	    157.16638155	    -34.91089194	      0.04870662	-821352.99414185	     -0.05150100	      6.99201335	     -0.06626185	    -16.44511848	     -0.95481637	      4.70819274	    -14.38669802	     -7.10891110	      4.30247448	 770385.84624861	      0.92407784	      4.76245969	      4.12346443	-880003.47143145	     -0.65048429	     -0.00588426	      0.01292005	      0.05610828	      0.05666441	      0.55234800	     -0.38495202	      0.55939116	     -0.35606522
      4.84000000	 187907.56369483	-1363037.85747746	-141109.69451366	    205.42426442	   1921.37364490	   1571.28859331	 319983.90092480	-826809.45475397	 865912.12343030	     27.21797463	    -36.63796238	      5.57070032	    160.26594427	    -30.41964756	     -0.54763277	-821415.85913741	     -0.04225636	      5.46421001	     -0.05868601	    -16.57700430	     -0.67824356	      4.81211281	    -14.69017480	     -6.62972806	      4.59810331	 767491.30325011	      0.73762311	      4.59804584	      4.10056486	-925007.81426542	     -0.42048718	     -0.00158695	      0.01411710	      0.04962276	      0.05272226	      0.55343273	     -0.36901686	      0.57640084	     -0.34427176
      4.84500000	 128971.61651779	-1434096.04535034	-158013.89322334	    151.18821252	   1874.97515520	   1654.62770784	 268208.17905652	-845017.96079704	 959579.83608810	     29.24617036	    -28.40703901	      3.36875621	    162.38614596	    -25.72113121	     -1.29557989	-809392.68526460	     -0.03496702	      4.15509085	     -0.05261061	    -16.57666613	     -0.37758460	      4.88719268	    -14.84695420	     -6.11661246	      4.83758560	 753375.09751016	      0.60150882	      4.39484785	      4.05789918	-972924.52780637	     -0.22649000	      0.00410149	      0.01525913	      0.04123977	      0.04660795	      0.55255675	     -0.34897588	      0.58838738	     -0.33150161
      4.85000000	  71799.20282612	-1487231.72304918	-177660.43192438	     96.12691409	   1824.74013747	   1706.72934771	 216488.11838051	-853552.86556122	1038841.92863854	     30.71426059	    -21.37274197	      1.46726217	    163.58492166	    -20.88531835	     -2.16296146	-790931.70069632	     -0.02948263	      3.13528113	     -0.04781925	    -16.44894568	     -0.06341147	      4.93479363	    -14.86060957	     -5.59799814	      5.01460165	 734329.15310139	      0.51314504	      4.15996183	      3.99782132	-1013071.97414183	     -0.07072337	      0.01113225	      0.01637572	      0.03137847	      0.03880672	      0.55032844	     -0.32551452	      0.59520873	     -0.31809498
      4.85500000	  32840.68322600	-1518790.06140848	-198131.96879492	     54.40180133	   1764.19017654	   1732.96116164	 180858.90161703	-850066.57991345	1093352.85001614	     31.56180154	    -15.65995135	     -0.07054998	    163.95309499	    -15.97865995	     -3.09780238	-778338.92260367	     -0.02529224	      2.44747837	     -0.04373341	    -16.20140234	      0.25409120	      4.95721804	    -14.74051933	     -5.10243949	      5.12569147	 722838.62609627	      0.46820618	      3.90202996	      3.92211745	-1040883.93783835	      0.04512145	      0.01938265	      0.01751852	      0.02049062	      0.02981388	      0.54740709	     -0.29953424	      0.59688367	     -0.30426296
      4.86000000	  15954.04855597	-1535174.40640559	-218514.82167836	     29.97265042	   1694.90256216	   1744.23244258	 165802.37577023	-838238.24369971	1125726.08992162	     31.81428602	    -11.26641064	     -1.23696885	    163.61344209	    -11.06193157	     -4.03072660	-777828.88396174	     -0.02229241	      2.10185035	     -0.04024145	    -15.84430511	      0.56537803	      4.95734264	    -14.50098788	     -4.65644002	      5.17025747	 724580.70893600	      0.46059773	      3.63055650	      3.83215626	-1058975.95078354	      0.12348911	      0.02865709	      0.01875313	      0.00899612	      0.02007078	      0.54441710	     -0.27207566	      0.59357455	     -0.29012037
      4.86500000	  19091.14625614	-1543819.11308638	-238017.18189860	     21.88651279	   1621.60140486	   1750.50042716	 170013.72560051	-821745.50531239	1142389.69322637	     31.53826772	     -8.13140220	     -2.04522989	    162.71521761	     -6.19187142	     -4.88420343	-791093.61389471	     -0.02035305	      2.08161508	     -0.03724055	    -15.39057612	      0.86157154	      4.93814411	    -14.16008158	     -4.28239594	      5.15036300	 740548.47697090	      0.48353630	      3.35510423	      3.72915882	-1070840.31673490	      0.16819182	      0.03869741	      0.02014078	     -0.00270194	      0.00997927	      0.54185626	     -0.24422669	      0.58555921	     -0.27573771
      4.87000000	  29110.56270002	-1547017.97147675	-256401.45595636	     19.68108762	   1553.93410182	   1752.06625422	 180640.99861421	-802422.45814776	1151082.87569781	     30.82920371	     -6.15203383	     -2.52269704	    161.42513918	     -1.42552573	     -5.58564199	-807762.07725125	     -0.01932687	      2.34906591	     -0.03464540	    -14.85552236	      1.13443437	      4.90219104	    -13.73820888	     -3.99673812	      5.07036829	 759889.74323577	      0.53015238	      3.08453610	      3.61457447	-1078361.40979298	      0.18379183	      0.04919954	      0.02171544	     -0.01422907	     -0.00010673	      0.54001409	     -0.21703561	      0.57320217	     -0.26120966
      4.87500000	  33653.92525633	-1545942.33293894	-273614.02244275	     13.67901609	   1500.14277868	   1747.46816912	 185492.33985488	-781466.99723883	1158571.52396766	     29.80122378	     -5.19147580	     -2.70860304	    159.91744163	      3.17698667	     -6.07707604	-817691.26403308	     -0.01904299	      2.85236798	     -0.03233852	    -14.25636254	      1.37638359	      4.85125324	    -13.25653932	     -3.80853690	      4.93645264	 772132.62295375	      0.59388478	      2.82641371	      3.49045006	-1083110.19152553	      0.17535672	      0.05983088	      0.02347068	     -0.02525089	     -0.00988925	      0.53892035	     -0.19143670	      0.55693648	     -0.24672068
      4.88000000	  34415.47813637	-1541945.34432536	-289921.54624701	      6.83413076	   1458.22469495	   1737.61089591	 186371.69972439	-759752.93779731	1165077.48334427	     28.57214958	     -5.09992064	     -2.64443438	    158.36478873	      7.55330772	     -6.31878772	-822968.19557758	     -0.01926450	      3.53244720	     -0.03028127	    -13.61166625	      1.58058615	      4.78615503	    -12.73553019	     -3.71892611	      4.75610166	 779375.71457047	      0.66887767	      2.58657219	      3.35962323	-1085896.34366605	      0.14772504	      0.07024842	      0.02536258	     -0.03548538	     -0.01912467	      0.53833817	     -0.16818749	      0.53725775	     -0.23257954
      4.88500000	  35358.13711932	-1535852.69660119	-305491.33859552	      3.63492837	   1424.71086996	   1723.98445873	 187281.38921741	-737724.93841320	1169322.17706625	     27.24858423	     -5.73836978	     -2.36182056	    156.92960062	     11.64176101	     -6.28942529	-827344.95110006	     -0.02001466	      4.32910401	     -0.02858167	    -12.94077849	      1.74114767	      4.70687987	    -12.19387760	     -3.72149220	      4.53765213	 785450.52519009	      0.75030873	      2.36886691	      3.22563618	-1086890.68432827	      0.10464828	      0.08011894	      0.02732267	     -0.04468985	     -0.02761715	      0.53780000	     -0.14781997	      0.51472151	     -0.21920610
      4.89000000	  35539.63135024	-1526313.55846927	-319681.13297896	      2.36291690	   1400.55594587	   1707.80681190	 187114.72673924	-714550.41087801	1170835.84177512	     25.93245660	     -6.95221609	     -1.90068890	    155.75520051	     15.38455050	     -5.98477490	-829245.39099475	     -0.02113635	      5.18480968	     -0.02719674	    -12.26324057	      1.85338168	      4.61286812	    -11.64799860	     -3.80348226	      4.28994481	 788754.50148484	      0.83409406	      2.17511527	      3.09241465	-1084868.07474324	      0.05008581	      0.08913930	      0.02927355	     -0.05269016	     -0.03523076	      0.53667655	     -0.13061340	      0.48993883	     -0.20707796
      4.89500000	  33564.69250489	-1511536.03627658	-331805.70628536	      0.42176172	   1386.33602493	   1689.49842660	 184262.37917083	-689355.53090933	1168960.24970431	     24.70960929	     -8.59322167	     -1.29822343	    154.95781597	     18.73050297	     -5.41579598	-826457.86474639	     -0.02249002	      6.04831836	     -0.02609633	    -11.59819377	      1.91413622	      4.50345511	    -11.11193973	     -3.94750494	      4.02209748	 787073.20681769	      0.91701520	      2.00525563	      2.96386035	-1078451.43698800	     -0.01254071	      0.09705533	      0.03114435	     -0.05937348	     -0.04187645	      0.53427061	     -0.11659451	      0.46357430	     -0.19666007
      4.90000000	  31141.49935918	-1489995.04926619	-341809.51787079	     -1.90475339	   1376.81267508	   1666.46885656	 180232.95030158	-662004.09704134	1161500.76507165	     23.64737268	    -10.52298632	     -0.58836545	    154.62095731	     21.63735862	     -4.60617588	-819518.02437811	     -0.02395535	      6.87667133	     -0.02525814	    -10.96377205	      1.92214433	      4.37838987	    -10.59759194	     -4.13340758	      3.74339415	 781130.86180440	      0.99662571	      1.85768476	      2.84347527	-1066674.41284601	     -0.08033013	      0.10367837	      0.03288493	     -0.06468814	     -0.04750617	      0.52992543	     -0.10556260	      0.43635036	     -0.18833611
      4.90500000	  30312.35191899	-1461140.59036148	-349754.21449302	     -3.86370291	   1366.46013877	   1636.76756431	 176964.42970705	-632804.71489781	1146852.46611497	     22.79407492	    -12.61519467	      0.19817769	    154.79288010	     24.07373902	     -3.58963971	-809745.53958545	     -0.02543209	      7.63608659	     -0.02466365	    -10.37653483	      1.87834302	      4.23835464	    -10.11509402	     -4.34013738	      3.46323807	 772408.62121596	      1.07114106	      1.72969544	      2.73406241	-1049181.45617690	     -0.15084738	      0.10889814	      0.03447728	     -0.06864004	     -0.05210752	      0.52313174	     -0.09713188	      0.40905295	     -0.18235105
      4.91000000	  31302.75497845	-1428149.78557326	-355946.70679283	     -5.58936658	   1354.49231801	   1604.05141652	 174956.11611408	-603053.42282133	1127428.53305224	     22.17995014	    -14.75689144	      1.03355799	    155.48717626	     26.02048686	     -2.40719506	-798934.18491247	     -0.02683998	      8.30198546	     -0.02429499	     -9.85100119	      1.78608489	      4.08540613	     -9.67328262	     -4.54743553	      3.19109874	 762591.88169957	      1.13932901	      1.61794985	      2.63751493	-1027963.98128301	     -0.22204798	      0.11269037	      0.03594318	     -0.07128640	     -0.05569949	      0.51361942	     -0.09078397	      0.38253135	     -0.17877057
      4.91500000	  33316.15839232	-1394533.82732314	-360852.31839100	     -7.76953140	   1341.91911455	   1572.50282984	 173731.60072672	-573994.15589323	1106484.60850928	     21.81885506	    -16.84881015	      1.89212213	    156.68628438	     27.47108294	     -1.10432793	-788254.00201804	     -0.02811803	      8.85845571	     -0.02413278	     -9.39934005	      1.65116163	      3.92327700	     -9.28008938	     -4.73721849	      2.93641119	 752704.27954293	      1.20040076	      1.51892056	      2.55470085	-1005376.48618206	     -0.29218801	      0.11511910	      0.03734718	     -0.07272798	     -0.05832847	      0.50142379	     -0.08592154	      0.35768779	     -0.17746108
      4.92000000	  33312.89140812	-1361381.10903304	-364855.73454999	    -12.35787215	   1332.19462841	   1542.94665648	 170352.83605624	-546196.41969941	1086467.31730899	     21.71039051	    -18.80498487	      2.74963140	    158.34726299	     28.43125999	      0.27169242	-775730.17885250	     -0.02922335	      9.29738987	     -0.02415476	     -9.03122004	      1.48161049	      3.75747115	     -8.94278686	     -4.89457451	      2.70837655	 740734.75982486	      1.25390540	      1.42923823	      2.48545192	-982716.91615692	     -0.35973118	      0.11633275	      0.03879343	     -0.07310020	     -0.06006430	      0.48691501	     -0.08191553	      0.33545058	     -0.17809334
      4.92500000	  28726.78162854	-1329266.06487289	-368327.75082798	    -20.87863695	   1328.17318901	   1515.22827479	 162309.74853654	-520047.89913531	1069197.68718223	     21.84280256	    -20.55118673	      3.58195507	    160.40864560	     28.91792574	      1.67407565	-759545.56992565	     -0.03012974	      9.61740216	     -0.02434162	     -8.75371631	      1.28736710	      3.59507915	     -8.66798080	     -5.00832455	      2.51562727	 724871.20951575	      1.29962514	      1.34595105	      2.42863892	-960982.26085099	     -0.42322739	      0.11655175	      0.04041579	     -0.07256330	     -0.06099604	      0.47077999	     -0.07814930	      0.31672660	     -0.18016805
      4.93000000	  21138.87519425	-1299067.31386943	-371598.48239655	    -31.84665620	   1327.79842555	   1488.79375707	 151254.80665419	-495832.35701617	1054626.43697057	     22.19394861	    -22.02654078	      4.36618826	    162.79771326	     28.95761391	      3.05818488	-741550.37319571	     -0.03082708	      9.82272787	     -0.02467229	     -8.57119267	      1.07984391	      3.44431336	     -8.46137444	     -5.07112923	      2.36581724	 707009.91787517	      1.33750766	      1.26671826	      2.38230208	-940752.56194664	     -0.48136026	      0.11604785	      0.04236407	     -0.07129146	     -0.06122552	      0.45395793	     -0.07406366	      0.30234183	     -0.18305630
      4.93500000	  12652.46078175	-1271896.49383234	-375121.60807414	    -43.26579335	   1328.44631650	   1463.63966676	 139389.03473572	-473927.09835983	1042615.51119662	     22.73287905	    -23.18410611	      5.08138509	    165.43819625	     28.58505039	      4.38266326	-724172.01176582	     -0.03132535	      9.92207482	     -0.02510424	     -8.48520954	      0.87142385	      3.31386244	     -8.32744111	     -5.07927126	      2.26523830	 689626.36193079	      1.36760566	      1.18991139	      2.34385761	-922709.26268742	     -0.53297161	      0.11512015	      0.04478948	     -0.06946229	     -0.06086121	      0.43754628	     -0.06919488	      0.29298737	     -0.18605223
      4.94000000	   3338.60388889	-1249677.96794813	-379758.54126332	    -54.11289804	   1330.01213843	   1442.50867408	 126975.06424313	-455124.24983666	1034765.65021018	     23.42418144	    -23.98733618	      5.70659927	    168.25733572	     27.84220072	      5.61034793	-708611.51516702	     -0.03162849	      9.92727406	     -0.02560070	     -8.49453186	      0.67481772	      3.21217812	     -8.26911923	     -5.03228039	      2.21850885	 673930.19972449	      1.39001038	      1.11460026	      2.31038321	-908491.62098719	     -0.57691049	      0.11407198	      0.04782972	     -0.06724530	     -0.06001536	      0.42269482	     -0.06319695	      0.28917731	     -0.18843453
      4.94500000	  -6886.39305062	-1233374.11276191	-386012.97411514	    -63.75231152	   1332.62725105	   1427.43477037	 114021.56996897	-439700.31230376	1032002.90971037	     24.22898111	    -24.41250869	      6.22314173	    171.19048883	     26.77761835	      6.70933252	-695418.06233213	     -0.03175704	      9.85220520	     -0.02612496	     -8.59527589	      0.50232276	      3.14678837	     -8.28759552	     -4.93248014	      2.22834581	 660473.68924290	      1.40486883	      1.04043780	      2.27888117	-898957.13646337	     -0.61217114	      0.11318996	      0.05159439	     -0.06479814	     -0.05879900	      0.41050079	     -0.05584588	      0.29121415	     -0.18952189
      4.95000000	 -16696.46300392	-1219255.81441822	-392401.04319589	    -72.15447627	   1334.71184288	   1414.94655753	 101477.82505961	-425768.13801423	1030603.83371894	     25.10715647	    -24.44934438	      6.61568473	    174.18298510	     25.44575030	      7.65392958	-683616.20421004	     -0.03173836	      9.71178866	     -0.02664208	     -8.78117497	      0.36508789	      3.12370052	     -8.38217224	     -4.78450003	      2.29542506	 648333.24865357	      1.41240895	      0.96748301	      2.24644442	-890888.45526214	     -0.63796161	      0.11272574	      0.05615311	     -0.06226067	     -0.05731913	      0.40191358	     -0.04703080	      0.29916137	     -0.18871086
      4.95500000	 -24491.97822571	-1204533.78514971	-397664.25166883	    -79.20395973	   1334.56080118	   1402.03916877	  90678.93652192	-411937.41409538	1027387.64019869	     26.01951370	    -24.10145661	      6.87334688	    177.18998168	     23.90599797	      8.42509994	-672929.63085083	     -0.03160376	      9.52109639	     -0.02712080	     -9.04382564	      0.27245749	      3.14687262	     -8.55013121	     -4.59474708	      2.41830171	 637275.92863557	      1.41296719	      0.89603902	      2.21038730	-881715.94418367	     -0.65377259	      0.11287883	      0.06152554	     -0.05975162	     -0.05567576	      0.39764895	     -0.03674465	      0.31282409	     -0.18550531
      4.96000000	 -29000.96841137	-1194681.79092530	-403952.32284333	    -83.89099349	   1331.58854319	   1393.09037262	  83438.55630267	-400381.98402269	1026262.28147503	     26.92990145	    -23.38630556	      6.99055284	    180.17472452	     22.22143213	      9.01035973	-667585.40286815	     -0.03138562	      9.29454773	     -0.02753516	     -9.37283166	      0.23144897	      3.21774666	     -8.78656698	     -4.37081039	      2.59337392	 631471.68144961	      1.40700783	      0.82656971	      2.16841654	-875535.06423412	     -0.65943130	      0.11377947	      0.06767182	     -0.05736679	     -0.05395894	      0.39811371	     -0.02508430	      0.33173855	     -0.17954845
      4.96500000	 -29849.26651562	-1194720.73231088	-413436.37199734	    -85.62548616	   1326.10807152	   1392.30204260	  80601.42147636	-392995.11783582	1031328.79444611	     27.80710448	    -22.33401830	      6.96743890	    183.10571266	     20.45703715	      9.40332149	-670877.08794680	     -0.03111475	      9.04523645	     -0.02786583	     -9.75596775	      0.24643343	      3.33496968	     -9.08430274	     -4.12086080	      2.81495134	 634139.33215265	      1.39513755	      0.75968007	      2.11882395	-876242.54862785	     -0.65512745	      0.11547542	      0.07448619	     -0.05517955	     -0.05224714	      0.40335783	     -0.01225381	      0.35517916	     -0.17065293
      4.97000000	 -29918.68359500	-1199882.84368368	-424193.88451784	    -86.50702229	   1320.87028886	   1395.78728744	  78845.32758643	-387614.67599475	1040144.81085563	     28.62615736	    -20.98507241	      6.80986257	    185.95349213	     18.67739578	      9.60296170	-677679.85662888	     -0.03081840	      8.78451934	     -0.02810096	    -10.17951081	      0.31903888	      3.49443849	     -9.43401844	     -3.85311381	      3.07551181	 640151.85423284	      1.37811678	      0.69610704	      2.06064788	-880435.19462411	     -0.64141424	      0.11792916	      0.08179833	     -0.05324281	     -0.05060700	      0.41307255	      0.00144117	      0.38219462	     -0.15881911
      4.97500000	 -32072.49810019	-1204180.24010699	-433707.65358688	    -88.60883093	   1318.55557649	   1398.58609825	  74795.49600011	-381802.64028870	1049130.89693222	     29.36883825	    -19.38787817	      6.52934370	    188.68790032	     16.94383821	      9.61264160	-682103.53112473	     -0.03051904	      8.52192808	     -0.02823675	    -10.62875309	      0.44823643	      3.68966575	     -9.82459562	     -3.57534399	      3.36614707	 643672.98956540	      1.35685967	      0.63668519	      1.99378472	-883853.29725787	     -0.61920191	      0.12102695	      0.08938312	     -0.05159113	     -0.04909314	      0.42663491	      0.01561303	      0.41167309	     -0.14423921
      4.98000000	 -35804.19905165	-1206335.48013939	-441891.25871046	    -91.26746723	   1319.14276591	   1399.47341774	  68886.74434493	-375599.75755741	1056901.80127673	     30.02344440	    -17.59747369	      6.14314130	    191.27635300	     15.31137865	      9.43881511	-683828.21122440	     -0.03023379	      8.26529589	     -0.02827747	    -11.08857601	      0.63057042	      3.91232497	    -10.24353180	     -3.29442936	      3.67707765	 644538.40217447	      1.33241815	      0.58230155	      1.91903828	-885908.66937145	     -0.58975743	      0.12459537	      0.09697555	     -0.05024230	     -0.04774708	      0.44317874	      0.02981832	      0.44241838	     -0.12729008
      4.98500000	 -39817.85836571	-1206335.42780686	-449086.44622549	    -93.21714506	   1321.84427358	   1398.42941811	  62455.08965807	-369444.93703425	1062742.65457322	     30.58422583	    -15.67532273	      5.67415248	    193.68273799	     13.82609274	      9.08955790	-683924.91844133	     -0.02997413	      8.02091630	     -0.02823455	    -11.54394813	      0.86050239	      4.15281380	    -10.67728786	     -3.01596554	      3.99810294	 643940.35683447	      1.30595254	      0.53388491	      1.83807335	-886769.79011499	     -0.55469629	      0.12841833	      0.10428701	     -0.04919913	     -0.04659608	      0.46166937	      0.04357775	      0.47321643	     -0.10851329
      4.99000000	 -43032.53793444	-1204542.61186731	-454742.99321232	    -93.46091192	   1325.56191400	   1396.48378113	  56664.58872946	-362845.42856717	1066319.47420968	     31.05088436	    -13.68850185	      5.14997482	    195.86650191	     12.52312436	      8.57327548	-683411.94366541	     -0.02974594	      7.79361922	     -0.02812489	    -11.98037580	      1.13083293	      4.40081160	    -11.11160965	     -2.74403960	      4.31897777	 642778.75446113	      1.27869381	      0.49241773	      1.75327983	-885949.16610168	     -0.51592596	      0.13225344	      0.11102262	     -0.04845202	     -0.04565405	      0.48097715	      0.05639212	      0.50289065	     -0.08858282
      4.99500000	 -44818.06382515	-1201479.14224727	-458403.16665473	    -91.51732164	   1329.20588159	   1394.70586468	  52246.32399743	-355357.05649379	1067662.31245773	     31.42823967	    -11.70666938	      4.60088159	    197.78289616	     11.42483651	      7.89775179	-683021.86462779	     -0.02954992	      7.58674396	     -0.02796882	    -12.38442058	      1.43316817	      4.64589087	    -11.53192093	     -2.48120389	      4.62977093	 641654.61552186	      1.25189429	      0.45890899	      1.66760607	-883143.34362451	     -0.47552083	      0.13585066	      0.11689998	     -0.04798135	     -0.04492446	      0.49995620	      0.06776623	      0.53035590	     -0.06826742
      5.00000000	 -46137.64978347	-1197910.68657138	-460796.33503146	    -88.68022409	   1332.09729252	   1393.32734060	  48340.71171472	-347649.92889720	1067969.38833825	     31.72571475	     -9.79703506	      4.05711823	    199.38515021	     10.53905464	      7.06950930	-682434.18954490	     -0.02938265	      7.40208280	     -0.02778816	    -12.74428749	      1.75839518	      4.87817449	    -11.92382044	     -2.22860531	      4.92123245	 640309.28637816	      1.22675251	      0.43431046	      1.58437896	-879493.09098977	     -0.43555040	      0.13897400	      0.12166885	     -0.04775933	     -0.04440253	      0.51752781	      0.07724342	      0.55467367	     -0.04838978
      5.00500000	 -47972.71290034	-1194760.85924763	-462802.11467819	    -86.21984866	   1333.73765717	   1392.52118211	  44063.43963093	-340484.43803122	1068630.53478004	     31.95618698	     -8.01900965	      3.54618387	    200.62731136	      9.85818466	      6.09373657	-681435.92264820	     -0.02923810	      7.23993899	     -0.02760432	    -13.05037867	      2.09711317	      5.08895992	    -12.27370831	     -1.98624125	      5.18518076	 638598.83012168	      1.20431410	      0.41939346	      1.50706758	-876336.34648926	     -0.39790215	      0.14142314	      0.12513073	     -0.04775151	     -0.04407558	      0.53275932	      0.08444482	      0.57510454	     -0.02977600
      5.01000000	 -49793.24832538	-1193397.63176944	-464708.41149051	    -83.51896418	   1333.99948732	   1393.07183197	  40071.16686624	-333958.22306180	1070546.11284584	     32.13420637	     -6.42017000	      3.09059077	    201.46586014	      9.36008331	      4.97534104	-681249.37966596	     -0.02910919	      7.09937649	     -0.02743636	    -13.29565270	      2.43996305	      5.27119493	    -12.56947725	     -1.75336074	      5.41484208	 637649.08408790	      1.18538181	      0.41459660	      1.43896001	-874325.69909531	     -0.36413371	      0.14305023	      0.12715539	     -0.04791895	     -0.04392335	      0.54492342	      0.08910748	      0.59114431	     -0.01319292
      5.01500000	 -50873.89685141	-1194684.53306451	-466633.58565713	    -79.63740248	   1332.88483529	   1395.31191837	  37165.60402412	-328020.02429852	1074070.99906975	     32.27390375	     -5.03394489	      2.70631145	    201.85997210	      9.01081630	      3.72131899	-682954.97481164	     -0.02898915	      6.97864125	     -0.02729918	    -13.47567040	      2.77783273	      5.41971802	    -12.80109808	     -1.52900536	      5.60502106	 638460.91470752	      1.17046350	      0.41987095	      1.38278064	-873701.04870089	     -0.33536751	      0.14376874	      0.12769008	     -0.04822083	     -0.04392034	      0.55352721	      0.09111440	      0.60252709	      0.00071751
      5.02000000	 -51234.33221198	-1197051.30138230	-468561.58453922	    -74.17832381	   1330.62312559	   1397.12218496	  35196.79985538	-322748.07422013	1077931.38986595	     32.38685102	     -3.87903137	      2.40225388	    201.77139308	      8.76857306	      2.34390534	-685640.73993104	     -0.02887260	      6.87572452	     -0.02720239	    -13.58837097	      3.10196698	      5.53128814	    -12.96102931	     -1.31262661	      5.75210459	 640292.10933605	      1.15976775	      0.43456858	      1.34031986	-873830.20634719	     -0.31224762	      0.14355496	      0.12676115	     -0.04861736	     -0.04403986	      0.55831601	      0.09050980	      0.60920036	      0.01149514
      5.02500000	 -50920.86456962	-1198107.16191510	-470202.35951465	    -66.89354462	   1327.42589873	   1395.69739890	  33926.75169004	-318084.02628738	1080161.42573475	     32.48049063	     -2.96104615	      2.18110638	    201.16399284	      8.58832929	      0.86385075	-687877.91159211	     -0.02875611	      6.78889891	     -0.02715028	    -13.63372176	      3.40403525	      5.60447888	    -13.04449239	     -1.10468551	      5.85399737	 641928.96205560	      1.15324122	      0.45740937	      1.31214549	-873555.06934874	     -0.29499072	      0.14244306	      0.12447078	     -0.04907231	     -0.04425671	      0.55926036	      0.08749810	      0.61129000	      0.01890470
      5.03000000	 -49309.33389360	-1194631.18069675	-470282.68807074	    -57.29823556	   1323.31366797	   1387.84284673	  33752.84423626	-313148.47043332	1077612.65134240	     32.55787190	     -2.27576494	      2.04087430	    200.00296983	      8.42780887	     -0.68634263	-688195.78256712	     -0.02863850	      6.71692292	     -0.02714256	    -13.61332539	      3.67619414	      5.63947147	    -13.04961626	     -0.90714732	      5.91003357	 642020.89543246	      1.15061191	      0.48652989	      1.29744678	-870387.77961432	     -0.28350123	      0.14051365	      0.12099044	     -0.04955424	     -0.04454550	      0.55652734	      0.08242935	      0.60906366	      0.02296464
      5.03500000	 -45763.12416338	-1184114.14154212	-467705.66633465	    -45.10431610	   1318.06026229	   1371.42935042	  35147.04129761	-307187.77688939	1067727.02917072	     32.61845645	     -1.81179804	      1.97577941	    198.25468541	      8.25423597	     -2.25975782	-685549.99532523	     -0.02852091	      6.65887732	     -0.02717497	    -13.52997117	      3.91116047	      5.63776183	    -12.97741816	     -0.72379267	      5.92086701	 639597.21345509	      1.15140907	      0.51959180	      1.29404462	-862255.29203603	     -0.27744926	      0.13787877	      0.11655132	     -0.05003595	     -0.04487735	      0.55043893	      0.07577491	      0.60289599	      0.02395602
      5.04000000	 -40265.09740663	-1167688.27323767	-463073.70608249	    -31.02326295	   1310.67926288	   1348.85212323	  38203.77226064	-300654.47538980	1051521.74558444	     32.65889165	     -1.55229695	      1.97680001	    195.88727265	      8.04853551	     -3.79555271	-680652.92536750	     -0.02840663	      6.61394502	     -0.02723835	    -13.38712711	      4.10230968	      5.60181817	    -12.83159046	     -0.56024743	      5.88833803	 635351.44729633	      1.15499331	      0.55392865	      1.29856628	-850071.59508828	     -0.27630270	      0.13466943	      0.11142973	     -0.05049366	     -0.04522066	      0.54142816	      0.06809357	      0.59323801	      0.02240180
      5.04500000	 -33225.21464264	-1147944.14190699	-457450.78805063	    -16.22224278	   1300.12815097	   1323.79411214	  42682.08209334	-294219.94998748	1031525.14747585	     32.67387965	     -1.47565627	      2.03208187	    192.87077126	      7.80418431	     -5.22528091	-674760.30231871	     -0.02830030	      6.58132510	     -0.02732175	    -13.18848350	      4.24381535	      5.53474026	    -12.61802676	     -0.42358232	      5.81528108	 630431.90670488	      1.16061433	      0.58671555	      1.30676671	-835777.94331297	     -0.27933071	      0.13102944	      0.10592311	     -0.05090703	     -0.04554575	      0.53000029	      0.05998882	      0.58058439	      0.01901102
      5.05000000	 -26167.79507137	-1129624.05264121	-452085.69000007	     -2.79177898	   1285.83969036	   1300.57331144	  47386.18074663	-288384.17173930	1012689.94078643	     32.65691503	     -1.55719365	      2.12838324	    189.17673735	      7.52324573	     -6.48187643	-669463.99833577	     -0.02820683	      6.56023218	     -0.02741313	    -12.93767436	      4.33084164	      5.43996390	    -12.34403177	     -0.32139216	      5.70523193	 626090.10748832	      1.16749757	      0.61514810	      1.31398433	-822499.70655115	     -0.28568418	      0.12710989	      0.10032095	     -0.05125947	     -0.04582836	      0.51669646	      0.05206370	      0.56543578	      0.01459226
      5.05500000	 -20840.91621725	-1116936.51191897	-448037.42892818	      7.11576251	   1267.50964406	   1282.92074079	  50848.29927322	-283485.90268567	 999629.02415065	     32.60135391	     -1.77124937	      2.25260479	    184.77897656	      7.21422623	     -7.50444549	-665853.08785627	     -0.02813045	      6.54978890	     -0.02750094	    -12.63816776	      4.35979213	      5.32103418	    -12.01732504	     -0.26057332	      5.56205949	 623097.86056917	      1.17492684	      0.63663782	      1.31568526	-813056.21011073	     -0.29450005	      0.12305699	      0.09488249	     -0.05153829	     -0.04605114	      0.50205639	      0.04487970	      0.54826604	      0.00995242
      5.06000000	 -18761.01194587	-1109970.92198603	-445291.98553643	     12.02754270	   1245.32867020	   1271.61307713	  51534.72659887	-279375.18838901	 993271.49146527	     32.50165770	     -2.09301400	      2.39287438	    179.65624395	      6.89136274	     -8.23943366	-662753.69015330	     -0.02807411	      6.54877580	     -0.02757542	    -12.29323320	      4.32857709	      5.18144230	    -11.64511515	     -0.24621403	      5.38961936	 620244.95444040	      1.18230663	      0.64902242	      1.30801402	-807774.74824301	     -0.30498579	      0.11899771	      0.08982346	     -0.05173426	     -0.04620375	      0.48658575	      0.03892025	      0.52950347	      0.00579889
      5.06500000	 -20690.66773280	-1107687.69820114	-443595.13612414	     11.40929248	   1219.62715728	   1266.30693655	  48585.45149018	-275853.49533435	 993156.95446346	     32.35434902	     -2.49961405	      2.53911098	    173.79609817	      6.57184141	     -8.64479414	-658936.95314322	     -0.02803914	      6.55545529	     -0.02762921	    -11.90595734	      4.23681849	      5.02450728	    -11.23345751	     -0.28078226	      5.19151857	 616360.94195804	      1.18919309	      0.65073793	      1.28827416	-806195.40295412	     -0.31646290	      0.11503450	      0.08530341	     -0.05184081	     -0.04628269	      0.47073560	      0.03455975	      0.50952397	      0.00265699
      5.07000000	 -24614.52458102	-1108542.29801724	-442876.63701437	      7.63475195	   1190.63640914	   1265.19302690	  43868.24020106	-273033.05761427	 996898.54140336	     32.15854347	     -2.97079091	      2.68330961	    167.19896666	      6.27180688	     -8.69598322	-655172.37447650	     -0.02802512	      6.56759436	     -0.02765769	    -11.47935874	      4.08594913	      4.85329740	    -10.78690802	     -0.36355952	      4.97100035	 612390.70230267	      1.19530117	      0.64092079	      1.25527922	-807216.26005483	     -0.32837878	      0.11124631	      0.08141513	     -0.05185305	     -0.04629082	      0.45489029	      0.03204167	      0.48865171	      0.00080962
      5.07500000	 -28313.70481367	-1110962.44464088	-442982.17961061	      3.20663825	   1158.53580559	   1266.35476781	  39462.21526745	-270970.13285193	1001960.16291006	     31.91635840	     -3.48942636	      2.81966768	    159.88203548	      6.00530759	     -8.38584774	-652373.88387775	     -0.02802991	      6.58253843	     -0.02765921	    -11.01660390	      3.87923720	      4.67058799	    -10.30842894	     -0.49034259	      4.73091014	 609410.98992254	      1.20049554	      0.61947322	      1.20953046	-809602.58740921	     -0.34030752	      0.10768208	      0.07818683	     -0.05176656	     -0.04623600	      0.43935294	      0.03146662	      0.46716605	      0.00026690
      5.08000000	 -31531.02763868	-1113798.08591323	-443262.65605333	     -1.92646487	   1123.15961559	   1269.04055901	  35552.98733244	-269161.50986316	1007153.99462217	     31.63309915	     -4.04165818	      2.94454106	    151.88241307	      5.78565143	     -7.71944740	-650042.37199685	     -0.02804994	      6.59731468	     -0.02763510	    -10.52121486	      3.62177465	      4.47883987	     -9.79958456	     -0.65353861	      4.47374304	 606920.47453764	      1.20476000	      0.58709622	      1.15319702	-812264.49034713	     -0.35194725	      0.10434837	      0.07559492	     -0.05157638	     -0.04612777	      0.42432936	      0.03278858	      0.44531144	      0.00077015
      5.08500000	 -34372.57425976	-1115800.56701648	-442959.57983808	     -8.15073074	   1084.46729338	   1272.49880316	  31967.92254882	-267018.59958135	1011385.81019762	     31.31669819	     -4.61652406	      3.05631115	    143.25904245	      5.62416354	     -6.71393286	-647323.96632273	     -0.02808042	      6.60896156	     -0.02758934	     -9.99717224	      3.32040871	      4.28019957	     -9.26105171	     -0.84274918	      4.20179865	 604050.52694214	      1.20815631	      0.54522868	      1.08989156	-814060.80093364	     -0.36311361	      0.10121074	      0.07357160	     -0.05127773	     -0.04597420	      0.40992560	      0.03582163	      0.42330581	      0.00183013
      5.09000000	 -36396.64754350	-1114864.41422716	-441301.59620170	    -14.75102168	   1043.01242219	   1274.86093301	  29021.96726709	-264089.09618700	1012542.96713405	     30.97648251	     -5.20551329	      3.15523081	    134.09333203	      5.52578289	     -5.40528200	-643344.09368271	     -0.02811579	      6.61505108	     -0.02752767	     -9.44894829	      2.98355675	      4.07653188	     -8.69334177	     -1.04587119	      3.91739415	 600016.55110844	      1.21079683	      0.49586610	      1.02424011	-813409.42490951	     -0.37373210	      0.09821316	      0.07200408	     -0.05086862	     -0.04578154	      0.39616292	      0.04026146	      0.40134387	      0.00279968
      5.09500000	 -37112.07132621	-1109513.38317508	-437846.04866591	    -20.87454118	    999.51044187	   1274.56850339	  27121.21857036	-260161.48065929	1009051.69152748	     30.62196240	     -5.80236457	      3.24321295	    124.48810116	      5.48642054	     -3.85269277	-637674.04689108	     -0.02814977	      6.61412223	     -0.02745644	     -8.88155229	      2.62087639	      3.86947157	     -8.09758364	     -1.25061173	      3.62302660	 594472.21343260	      1.21283076	      0.44131695	      0.96126399	-809246.16994946	     -0.38382856	      0.09529771	      0.07073803	     -0.05035257	     -0.04555535	      0.38299529	      0.04572035	      0.37959146	      0.00297738
      5.10000000	 -36407.65419236	-1101627.99472740	-433491.89203355	    -26.19209459	    954.50781528	   1272.45575929	  26489.98804355	-255829.26203131	1002538.48071463	     30.26193918	     -6.40305718	      3.32356567	    114.56425260	      5.49455457	     -2.13555799	-631605.94216321	     -0.02817565	      6.60590119	     -0.02738168	     -8.30056967	      2.24281691	      3.66047079	     -7.47626247	     -1.44613239	      3.32144234	 588664.09787658	      1.21442583	      0.38396914	      0.90565622	-803035.01023958	     -0.39351575	      0.09241244	      0.06959196	     -0.04973932	     -0.04530083	      0.37032058	      0.05176734	      0.35817265	      0.00172758
      5.10500000	 -34376.87805710	-1093221.90248758	-429154.53757437	    -30.59311366	    908.55378372	   1269.50436665	  27152.23080482	-251671.40878703	 994862.35682271	     29.90376363	     -7.00584325	      3.40074226	    104.45544405	      5.53520337	     -0.34618403	-626329.55751487	     -0.02818671	      6.59137705	     -0.02730837	     -7.71208255	      1.86010887	      3.45081821	     -6.83379732	     -1.62447585	      3.01563383	 583724.70549211	      1.21574380	      0.32610822	      0.86109186	-796357.41067575	     -0.40297816	      0.08951186	      0.06837722	     -0.04904406	     -0.04502205	      0.35798883	      0.05796355	      0.33715726	     -0.00140703
