_ik_marker_errors_all.sto
version=1
nRows=123
nColumns=61
in_degrees=yes
endheader
time	FHD	LBHD	RBHD	C7	T10	CLAV	LSHO	LUUPA	LMUPA	LDUPA	LLEP	LMEP	LRAD	LUL	LRFIN	RSHO	RUPA1	RMUPA	RDUPA	RLEP	RMEP	RRAD	RUL	RUFIN	LASI	RASI	USACR	LSACR	RSACR	LTHI1	LTHI2	LTHI3	LTHI4	LLFC	LMFC	LTIB1	LTIB2	LTIB3	LTIB4	LLMAL	LMMAL	LMT1	LMT2	LMT5	RTHI	RTHI2	RTHI3	RTHI4	RLFC	RMFC	RTIB1	RTIB2	RTIB3	RTIB4	RLMAL	RMMAL	RHEE	RMT1	RMT2	RMT5
4.095000	0.098140	0.031006	0.025452	0.021055	0.030985	0.071757	0.022687	0.057479	0.043306	0.037551	0.025224	0.033469	0.053912	0.060915	0.063362	0.028900	0.057727	0.043315	0.039929	0.025109	0.025729	0.031865	0.056295	0.046366	0.020457	0.021705	0.009326	0.015411	0.015901	0.028424	0.024795	0.027206	0.024636	0.046209	0.007988	0.008030	0.015711	0.009476	0.004618	0.012296	0.016627	0.018069	0.011762	0.019019	0.024625	0.022694	0.024850	0.023503	0.029731	0.014656	0.025120	0.020636	0.017633	0.010383	0.008630	0.013827	0.011575	0.016991	0.013664	0.025206
4.100000	0.098859	0.032119	0.026433	0.021399	0.030965	0.071903	0.023305	0.057801	0.043350	0.037886	0.025106	0.033516	0.053861	0.060761	0.063402	0.029382	0.057831	0.043362	0.040409	0.025010	0.025730	0.031591	0.056394	0.046431	0.021491	0.021134	0.009331	0.015347	0.016135	0.028441	0.024829	0.027373	0.024604	0.046338	0.008077	0.008190	0.015786	0.009651	0.004431	0.012321	0.016532	0.018070	0.011762	0.019113	0.024737	0.022726	0.025120	0.023566	0.029426	0.014445	0.025308	0.020671	0.017860	0.010406	0.008700	0.013904	0.011593	0.017114	0.013594	0.025253
4.105000	0.099547	0.033354	0.027539	0.021528	0.030887	0.072263	0.023669	0.057644	0.043487	0.038214	0.025152	0.033604	0.053951	0.060621	0.063504	0.029994	0.058111	0.043325	0.040723	0.024807	0.025732	0.031092	0.056348	0.046035	0.020487	0.022268	0.009346	0.015375	0.015935	0.029174	0.025288	0.027777	0.025001	0.046279	0.008279	0.008494	0.015967	0.009861	0.004392	0.012398	0.016710	0.018074	0.011560	0.019170	0.024797	0.022896	0.025542	0.023723	0.030177	0.014286	0.025684	0.020850	0.017976	0.010612	0.008837	0.013886	0.011808	0.016836	0.013542	0.025381
4.110000	0.100568	0.034536	0.028557	0.021423	0.030919	0.072420	0.023938	0.058001	0.043631	0.038584	0.024903	0.033578	0.053861	0.060515	0.063496	0.030582	0.058160	0.043736	0.041095	0.024925	0.025682	0.031009	0.056195	0.045891	0.021380	0.019907	0.009475	0.015190	0.016073	0.029387	0.025479	0.028053	0.025194	0.046541	0.008198	0.008815	0.016239	0.010008	0.004210	0.012329	0.016686	0.018145	0.011905	0.019123	0.025236	0.023329	0.026048	0.024518	0.029261	0.014535	0.026026	0.021237	0.018379	0.010795	0.008805	0.013977	0.011897	0.016770	0.013526	0.025352
4.115000	0.101239	0.035810	0.029895	0.021684	0.030979	0.072323	0.024360	0.058219	0.043501	0.038746	0.024769	0.033742	0.053823	0.060588	0.063429	0.030826	0.058157	0.043183	0.041194	0.024812	0.025481	0.030273	0.055979	0.046089	0.021300	0.020753	0.009467	0.015225	0.016193	0.029170	0.025223	0.027641	0.025046	0.046460	0.008522	0.008116	0.016218	0.009664	0.004414	0.012613	0.017098	0.018348	0.011783	0.019242	0.024652	0.022892	0.025618	0.023746	0.029841	0.014693	0.026008	0.021171	0.018220	0.010938	0.008886	0.013991	0.012001	0.016609	0.013570	0.025520
4.120000	0.102070	0.036702	0.031123	0.021796	0.030732	0.072490	0.025291	0.058427	0.043924	0.039309	0.024681	0.033643	0.053599	0.060541	0.063590	0.030836	0.058120	0.043549	0.041296	0.024844	0.025271	0.030075	0.056077	0.046324	0.023182	0.017783	0.009375	0.014689	0.016202	0.029472	0.025453	0.027779	0.025294	0.046303	0.008539	0.008186	0.016409	0.009589	0.004701	0.012660	0.017145	0.018404	0.011962	0.019164	0.024889	0.023237	0.026084	0.023802	0.029835	0.014341	0.026490	0.021663	0.018522	0.011453	0.008986	0.013932	0.012134	0.016420	0.013642	0.025380
4.125000	0.102396	0.038320	0.032587	0.022338	0.030474	0.072193	0.025310	0.058139	0.043768	0.039104	0.024788	0.033709	0.053517	0.060767	0.063600	0.031452	0.058268	0.043303	0.041536	0.024474	0.024877	0.029715	0.056039	0.046310	0.019889	0.020709	0.009557	0.014941	0.015777	0.029656	0.025231	0.026930	0.025191	0.046243	0.009212	0.007248	0.016462	0.009130	0.004959	0.013005	0.017676	0.018840	0.012308	0.019361	0.024213	0.022799	0.025526	0.023283	0.029544	0.013974	0.026423	0.021526	0.018768	0.011429	0.009085	0.013817	0.012225	0.016004	0.013702	0.025629
4.130000	0.103627	0.039714	0.033876	0.022926	0.030402	0.072124	0.025682	0.058224	0.043749	0.039414	0.024461	0.033615	0.053499	0.060562	0.063721	0.032033	0.058195	0.043011	0.041507	0.024176	0.024744	0.029094	0.056214	0.046322	0.017797	0.022969	0.009488	0.015204	0.015245	0.029594	0.025138	0.026774	0.024795	0.046187	0.009452	0.006938	0.016754	0.008972	0.004576	0.012989	0.017584	0.018899	0.012715	0.019406	0.023878	0.022387	0.025114	0.022613	0.029486	0.014100	0.026290	0.021478	0.018998	0.011585	0.009027	0.013703	0.012210	0.016119	0.014086	0.025310
4.135000	0.104143	0.040932	0.035087	0.022694	0.030118	0.072085	0.025692	0.058195	0.043568	0.039560	0.024175	0.033475	0.053415	0.060610	0.063897	0.032858	0.058093	0.042812	0.041565	0.023816	0.024680	0.028705	0.056326	0.046267	0.021964	0.017372	0.009488	0.014344	0.015420	0.029480	0.025369	0.027312	0.025002	0.046448	0.009445	0.007083	0.016960	0.010111	0.004696	0.012608	0.017392	0.018746	0.012568	0.019401	0.023730	0.022032	0.024354	0.022334	0.029432	0.015284	0.025872	0.021445	0.018963	0.011801	0.008907	0.013972	0.011665	0.016123	0.013670	0.025675
4.140000	0.103808	0.042320	0.036348	0.023107	0.029810	0.071667	0.026148	0.058048	0.043087	0.039291	0.024219	0.033143	0.053395	0.060626	0.064381	0.033146	0.057649	0.042121	0.041269	0.023384	0.024149	0.027927	0.056145	0.046181	0.023015	0.016919	0.009761	0.014465	0.016193	0.028822	0.024259	0.025718	0.024512	0.046504	0.010700	0.005862	0.016154	0.009435	0.004847	0.013079	0.017854	0.019132	0.012886	0.019671	0.022429	0.020822	0.022982	0.021306	0.029306	0.016137	0.025244	0.020865	0.018619	0.011769	0.008864	0.013899	0.011579	0.016159	0.013798	0.025683
4.145000	0.104692	0.043449	0.037711	0.023188	0.030173	0.071825	0.026877	0.058117	0.042805	0.039360	0.023289	0.033214	0.053085	0.060437	0.064062	0.033562	0.057794	0.041605	0.041368	0.023107	0.023924	0.027718	0.056249	0.046162	0.020548	0.020915	0.009239	0.014467	0.015858	0.029549	0.024716	0.025512	0.025117	0.046355	0.010909	0.005631	0.017011	0.009733	0.005095	0.013149	0.018223	0.019429	0.013063	0.019740	0.022402	0.020619	0.023253	0.021311	0.029264	0.015492	0.025913	0.021364	0.019149	0.011927	0.009073	0.014400	0.011887	0.015804	0.013688	0.025920
4.150000	0.106505	0.044492	0.038068	0.022703	0.029353	0.071715	0.026623	0.057789	0.042784	0.039464	0.023348	0.033126	0.053051	0.060534	0.064180	0.034141	0.057789	0.041563	0.041481	0.023209	0.023970	0.026930	0.056315	0.046049	0.020312	0.018436	0.009828	0.014316	0.015150	0.030001	0.025473	0.026382	0.025521	0.045925	0.009971	0.006444	0.017341	0.010005	0.005028	0.012942	0.018064	0.019418	0.012789	0.019509	0.023628	0.021653	0.024688	0.022324	0.029642	0.014102	0.026806	0.022023	0.019698	0.012584	0.009193	0.014290	0.012327	0.015591	0.013800	0.025901
4.155000	0.106324	0.046112	0.039452	0.023029	0.029749	0.071440	0.026963	0.057166	0.043119	0.039325	0.023216	0.032414	0.053370	0.059557	0.065209	0.034650	0.057058	0.040824	0.040931	0.022445	0.022904	0.026801	0.055353	0.047447	0.020678	0.021752	0.009116	0.014582	0.015688	0.029248	0.024376	0.024714	0.024808	0.046544	0.011454	0.005484	0.017097	0.009506	0.005153	0.013531	0.018031	0.019959	0.012861	0.019482	0.022143	0.020449	0.022727	0.020895	0.029837	0.015268	0.025771	0.021293	0.019130	0.015176	0.009326	0.014615	0.012352	0.015937	0.014150	0.025472
4.160000	0.106413	0.046219	0.039253	0.023242	0.028728	0.071633	0.027076	0.058124	0.043576	0.039959	0.021969	0.032562	0.051953	0.060283	0.064740	0.035390	0.057683	0.041222	0.041570	0.021599	0.023231	0.025474	0.056300	0.046806	0.019663	0.018904	0.010305	0.014437	0.015526	0.030488	0.026191	0.027340	0.025835	0.045753	0.009592	0.006935	0.018133	0.010176	0.004452	0.013010	0.017381	0.019389	0.012707	0.019559	0.023906	0.022486	0.025039	0.022349	0.029651	0.013922	0.027283	0.022257	0.020275	0.015189	0.009497	0.014390	0.012743	0.015328	0.013559	0.026304
4.165000	0.107266	0.048217	0.040868	0.023297	0.029058	0.071351	0.028552	0.057151	0.042367	0.039301	0.022087	0.032079	0.052646	0.059466	0.065539	0.035539	0.057141	0.040251	0.041061	0.021363	0.022485	0.025765	0.055783	0.047117	0.020274	0.018700	0.009788	0.014246	0.015179	0.028858	0.024555	0.025091	0.024715	0.046554	0.010995	0.005813	0.017252	0.009336	0.004462	0.013367	0.017670	0.019863	0.012793	0.019163	0.022494	0.020940	0.023362	0.020960	0.029528	0.015138	0.026254	0.021633	0.019530	0.015203	0.009671	0.014642	0.012633	0.015907	0.014116	0.025743
4.170000	0.108046	0.049410	0.041904	0.023064	0.029383	0.071077	0.028946	0.057268	0.042116	0.039178	0.021682	0.032091	0.052818	0.059702	0.064891	0.035949	0.056765	0.039496	0.040713	0.020861	0.022026	0.025250	0.055329	0.047440	0.019434	0.019530	0.009923	0.014310	0.015249	0.029273	0.024966	0.025568	0.024530	0.045874	0.010740	0.006214	0.017633	0.009764	0.003962	0.013393	0.017685	0.019698	0.012848	0.019647	0.022149	0.020496	0.022794	0.020492	0.029313	0.015568	0.026024	0.021590	0.019362	0.015223	0.009713	0.014544	0.012622	0.015862	0.014043	0.026041
4.175000	0.109258	0.050497	0.042442	0.023956	0.029392	0.070988	0.028967	0.057206	0.042007	0.039179	0.021734	0.031517	0.053162	0.059329	0.065391	0.036326	0.056217	0.039000	0.040372	0.020817	0.021830	0.024464	0.055288	0.047453	0.024000	0.016157	0.009705	0.013896	0.015985	0.028570	0.024466	0.024830	0.024405	0.046285	0.010711	0.006220	0.017649	0.009774	0.003846	0.013260	0.017367	0.019548	0.012676	0.019614	0.022342	0.020958	0.023063	0.021036	0.029372	0.015482	0.026248	0.021720	0.019789	0.015723	0.010089	0.014839	0.012519	0.016017	0.014013	0.026091
4.180000	0.110122	0.050752	0.042625	0.023850	0.029156	0.071360	0.029038	0.057483	0.042245	0.039422	0.021270	0.031885	0.052090	0.059291	0.065265	0.036709	0.056531	0.039166	0.040854	0.020290	0.021646	0.023399	0.055776	0.047168	0.017797	0.020657	0.010479	0.014312	0.014841	0.029872	0.025557	0.025416	0.025568	0.045655	0.010474	0.005909	0.017699	0.010241	0.004097	0.013306	0.017832	0.019739	0.012801	0.019789	0.022718	0.021397	0.023921	0.021279	0.028714	0.014763	0.027394	0.022479	0.020476	0.016407	0.010121	0.014446	0.013145	0.015114	0.013993	0.026558
4.185000	0.110258	0.052288	0.044302	0.024344	0.029128	0.071192	0.029580	0.057517	0.041721	0.039350	0.020477	0.031333	0.051002	0.059162	0.064826	0.037269	0.055785	0.038620	0.039963	0.019274	0.020969	0.022715	0.055449	0.047480	0.021871	0.017249	0.010319	0.014306	0.015926	0.028268	0.024304	0.024210	0.024547	0.045707	0.010991	0.005275	0.017325	0.009648	0.003952	0.013603	0.017775	0.019512	0.012380	0.019855	0.021465	0.020051	0.022217	0.019553	0.028744	0.016231	0.026146	0.021807	0.019917	0.016327	0.009844	0.014240	0.012545	0.015166	0.013871	0.026686
4.190000	0.110972	0.052808	0.044431	0.024691	0.029091	0.071692	0.030019	0.058102	0.041899	0.039690	0.019876	0.030996	0.051010	0.058686	0.065503	0.037580	0.055878	0.038364	0.040614	0.019286	0.021122	0.021506	0.055512	0.047431	0.018245	0.020157	0.010500	0.014237	0.014931	0.028808	0.024977	0.024662	0.025146	0.045277	0.010618	0.005930	0.018113	0.009907	0.004096	0.013326	0.017610	0.019298	0.012293	0.020254	0.022306	0.021149	0.023509	0.020397	0.028506	0.015023	0.027175	0.022247	0.020594	0.016411	0.010069	0.014150	0.012980	0.014784	0.013704	0.027055
4.195000	0.111440	0.053993	0.045410	0.024916	0.029375	0.071930	0.030533	0.058224	0.041462	0.039848	0.020218	0.030590	0.050246	0.058661	0.065028	0.037668	0.055278	0.037572	0.039836	0.018601	0.021173	0.021430	0.055254	0.047995	0.022390	0.016507	0.010502	0.014171	0.015851	0.026805	0.024105	0.023617	0.024299	0.045192	0.011178	0.005327	0.017866	0.009926	0.003774	0.013445	0.017524	0.019434	0.012113	0.020203	0.021962	0.020454	0.022986	0.020177	0.028250	0.016192	0.026354	0.022165	0.020578	0.016179	0.009924	0.014192	0.012725	0.015048	0.014042	0.026946
4.200000	0.112298	0.054739	0.046258	0.024712	0.029844	0.072431	0.030829	0.058396	0.041896	0.040271	0.019736	0.030282	0.050276	0.058148	0.065007	0.038066	0.055508	0.037821	0.040183	0.018194	0.021021	0.020873	0.055232	0.048266	0.018251	0.019880	0.011025	0.014391	0.015035	0.027399	0.024780	0.023813	0.025043	0.045539	0.010838	0.006108	0.018360	0.010257	0.003573	0.013359	0.017405	0.019133	0.012066	0.020409	0.022481	0.021548	0.023945	0.020782	0.028608	0.015454	0.027137	0.022418	0.020699	0.016547	0.010128	0.013886	0.013248	0.014694	0.014183	0.027464
4.205000	0.112421	0.055930	0.047130	0.025077	0.029825	0.072898	0.031647	0.058710	0.041935	0.040405	0.019425	0.029762	0.050007	0.057946	0.065604	0.038445	0.055148	0.037228	0.040092	0.017801	0.020803	0.020434	0.055106	0.048336	0.021053	0.016803	0.011368	0.014378	0.015767	0.026321	0.024026	0.024362	0.024483	0.045643	0.011219	0.005460	0.018228	0.009846	0.003749	0.013372	0.017405	0.019112	0.011951	0.020415	0.021817	0.020554	0.022959	0.019809	0.028426	0.016024	0.026482	0.022053	0.020547	0.016490	0.010011	0.014035	0.012763	0.014822	0.014304	0.027332
4.210000	0.112915	0.056927	0.047962	0.025534	0.030968	0.073304	0.031834	0.058875	0.041852	0.040589	0.019096	0.029609	0.049969	0.057619	0.065234	0.038745	0.055369	0.036908	0.040222	0.016983	0.020745	0.020552	0.054899	0.048818	0.020909	0.017657	0.010687	0.014143	0.015488	0.025636	0.023510	0.023343	0.024041	0.045355	0.012023	0.005222	0.017760	0.010266	0.003849	0.013387	0.017526	0.019004	0.011997	0.020598	0.021146	0.020230	0.022378	0.019614	0.027583	0.016493	0.026403	0.021972	0.020739	0.016909	0.009879	0.014009	0.013032	0.014689	0.014355	0.027242
4.215000	0.114167	0.058007	0.048681	0.025729	0.030635	0.073625	0.031911	0.058897	0.042404	0.040880	0.019672	0.029623	0.050082	0.056884	0.065993	0.038946	0.055421	0.036971	0.040321	0.017709	0.020740	0.020060	0.054712	0.048801	0.018913	0.019032	0.011432	0.014416	0.015342	0.026501	0.024035	0.023745	0.024627	0.045908	0.011765	0.005777	0.017745	0.010292	0.003831	0.013360	0.017560	0.019099	0.011955	0.020346	0.021919	0.021088	0.023676	0.020658	0.027552	0.015899	0.027108	0.022384	0.020858	0.016942	0.010135	0.013957	0.013514	0.014479	0.014388	0.027282
4.220000	0.113539	0.058619	0.049297	0.026409	0.030969	0.074070	0.032537	0.059424	0.042742	0.041408	0.018779	0.029384	0.049916	0.056573	0.066664	0.039312	0.055763	0.036998	0.040672	0.016934	0.020672	0.019398	0.054628	0.049474	0.020682	0.017787	0.011223	0.014516	0.015994	0.025891	0.023790	0.023536	0.024252	0.045684	0.011823	0.005486	0.017641	0.010059	0.003885	0.013331	0.017289	0.018764	0.011766	0.020658	0.021390	0.020574	0.023045	0.020324	0.027784	0.016215	0.026582	0.022311	0.020955	0.016693	0.009871	0.013888	0.013191	0.014577	0.014415	0.027347
4.225000	0.114976	0.059777	0.049751	0.025943	0.031465	0.074758	0.032235	0.059477	0.042932	0.041824	0.019347	0.030045	0.050045	0.056192	0.066912	0.039124	0.056214	0.037810	0.041141	0.017627	0.021267	0.019849	0.054158	0.049222	0.021732	0.015913	0.012198	0.014451	0.016024	0.026582	0.024807	0.024777	0.025209	0.045858	0.010951	0.006307	0.017867	0.010552	0.002970	0.013119	0.016712	0.018864	0.011926	0.020533	0.022641	0.021886	0.024411	0.020971	0.027509	0.015491	0.027258	0.022547	0.021324	0.017040	0.010178	0.014038	0.013800	0.014535	0.014537	0.027445
4.230000	0.114287	0.060708	0.050465	0.026946	0.031818	0.075640	0.033251	0.060138	0.043505	0.042485	0.018237	0.029760	0.050170	0.056672	0.067222	0.040125	0.056520	0.037784	0.041636	0.016474	0.020521	0.019376	0.054340	0.049729	0.019972	0.017784	0.011641	0.014409	0.015670	0.025906	0.024056	0.023842	0.025211	0.045626	0.011913	0.005543	0.017744	0.010225	0.003924	0.013293	0.017580	0.019102	0.011818	0.020844	0.020941	0.020510	0.022884	0.019740	0.027338	0.016179	0.026596	0.022045	0.020642	0.016959	0.010170	0.013534	0.013755	0.014332	0.014700	0.027757
4.235000	0.114926	0.061894	0.050987	0.026925	0.031968	0.076218	0.033997	0.060443	0.043986	0.043047	0.018199	0.029908	0.050464	0.056050	0.067779	0.040151	0.057195	0.038563	0.042591	0.016705	0.021172	0.019432	0.053888	0.049987	0.021704	0.016052	0.011938	0.014607	0.016461	0.026331	0.024315	0.023917	0.025359	0.045655	0.012060	0.005858	0.017765	0.010393	0.003497	0.013254	0.017317	0.019149	0.012191	0.020817	0.020971	0.020458	0.022807	0.019790	0.027132	0.016434	0.026370	0.022049	0.020864	0.016820	0.010138	0.013352	0.013618	0.014345	0.014938	0.027857
4.240000	0.115591	0.062053	0.051073	0.027066	0.032699	0.077295	0.034448	0.061332	0.044929	0.044234	0.017964	0.030478	0.050020	0.055523	0.067639	0.041052	0.058057	0.039676	0.043797	0.016953	0.021169	0.019032	0.053646	0.050064	0.020653	0.016807	0.012644	0.014797	0.016455	0.026653	0.024431	0.023552	0.025572	0.045761	0.011648	0.005830	0.017789	0.010235	0.003589	0.013384	0.017409	0.019077	0.011848	0.020967	0.021986	0.021479	0.024126	0.020688	0.026782	0.016164	0.026915	0.022352	0.021277	0.016882	0.010279	0.013525	0.014089	0.014140	0.014910	0.028007
4.245000	0.115744	0.063483	0.051940	0.027108	0.033311	0.078329	0.034650	0.061500	0.045540	0.044819	0.018254	0.030670	0.049711	0.055378	0.068349	0.041173	0.058580	0.040196	0.044647	0.017469	0.021657	0.019106	0.053449	0.050384	0.020132	0.017480	0.012262	0.014815	0.016361	0.026378	0.024418	0.023569	0.025603	0.045641	0.011818	0.005456	0.017958	0.010173	0.003392	0.013559	0.017524	0.019264	0.012038	0.020956	0.021018	0.020786	0.023147	0.019963	0.026345	0.015984	0.026501	0.021951	0.020817	0.016876	0.010615	0.013290	0.014085	0.014161	0.015083	0.028071
4.250000	0.116647	0.064261	0.052235	0.026916	0.033286	0.079392	0.035516	0.062196	0.047073	0.046015	0.018580	0.031247	0.049842	0.055046	0.068289	0.041551	0.059675	0.041484	0.045952	0.017976	0.022171	0.018883	0.052904	0.050322	0.019519	0.018575	0.012972	0.014944	0.016252	0.026840	0.024880	0.023638	0.026209	0.045643	0.011263	0.006468	0.018292	0.010632	0.003503	0.013416	0.017524	0.019100	0.011952	0.020943	0.021672	0.021231	0.023864	0.020275	0.026349	0.012002	0.026752	0.022251	0.020825	0.017099	0.010482	0.013525	0.014402	0.013860	0.014963	0.028329
4.255000	0.116622	0.065222	0.052988	0.027280	0.033731	0.080240	0.035816	0.062908	0.046159	0.046894	0.018149	0.031716	0.049417	0.054718	0.068221	0.042339	0.060656	0.042906	0.046818	0.018564	0.022713	0.018700	0.052700	0.050804	0.021336	0.016009	0.012777	0.015002	0.016944	0.025306	0.023825	0.022730	0.025292	0.045617	0.011811	0.006201	0.017974	0.010229	0.003630	0.013142	0.017487	0.018932	0.012090	0.021159	0.020690	0.019963	0.022414	0.019337	0.025919	0.016861	0.026069	0.021957	0.020784	0.016691	0.010136	0.013517	0.013413	0.014022	0.015004	0.028095
4.260000	0.117298	0.065233	0.053266	0.026902	0.033365	0.081567	0.036479	0.063873	0.047926	0.048439	0.018805	0.032510	0.049510	0.054360	0.068041	0.042827	0.062005	0.044756	0.048328	0.019432	0.023603	0.018357	0.052593	0.050284	0.023900	0.013316	0.012751	0.014664	0.017059	0.025699	0.024013	0.022945	0.025648	0.045495	0.011113	0.006544	0.017676	0.010104	0.003481	0.013554	0.018003	0.019308	0.011801	0.020966	0.021409	0.020981	0.023380	0.019785	0.026158	0.015319	0.026213	0.021941	0.020995	0.016914	0.010142	0.013536	0.013960	0.013867	0.014440	0.028532
4.265000	0.117595	0.065501	0.053565	0.026844	0.033573	0.082220	0.037330	0.064624	0.049271	0.049417	0.019515	0.033203	0.049080	0.054282	0.068035	0.043165	0.063385	0.046416	0.049912	0.020457	0.024468	0.018927	0.052125	0.050718	0.018548	0.019260	0.013376	0.015467	0.016785	0.026444	0.024555	0.022964	0.026328	0.045013	0.011451	0.006388	0.017936	0.010991	0.003784	0.013425	0.018431	0.019540	0.012106	0.021356	0.020796	0.020440	0.023066	0.019736	0.025882	0.015252	0.026442	0.021801	0.020823	0.017099	0.010428	0.013151	0.014790	0.014049	0.014619	0.028321
4.270000	0.118308	0.065944	0.053899	0.026725	0.033255	0.082788	0.037402	0.065764	0.050965	0.050734	0.020346	0.033738	0.048455	0.054297	0.068026	0.043975	0.064524	0.048141	0.051212	0.021584	0.025312	0.018778	0.052401	0.050725	0.021503	0.015743	0.013447	0.015409	0.017371	0.025337	0.023895	0.023105	0.025842	0.045046	0.011211	0.006678	0.017834	0.010689	0.003750	0.013349	0.018172	0.019441	0.012282	0.020695	0.020309	0.020189	0.022616	0.019082	0.025958	0.016035	0.025716	0.021345	0.020626	0.016780	0.010084	0.013146	0.014137	0.014186	0.014616	0.028576
4.275000	0.118386	0.065722	0.053928	0.026280	0.033732	0.084542	0.038282	0.066997	0.052672	0.052057	0.021266	0.034716	0.047884	0.054369	0.067314	0.044634	0.065855	0.050026	0.052854	0.022727	0.026726	0.019038	0.052213	0.050558	0.020496	0.017247	0.013340	0.015206	0.016871	0.024859	0.023769	0.022181	0.025848	0.044843	0.010940	0.007100	0.017844	0.010599	0.004163	0.013331	0.017701	0.019619	0.012401	0.020735	0.020226	0.020159	0.022582	0.019055	0.025636	0.016147	0.025832	0.021588	0.020321	0.017116	0.010121	0.013144	0.014161	0.014109	0.014645	0.028507
4.280000	0.118336	0.066018	0.053889	0.025765	0.033190	0.084563	0.038638	0.068364	0.054670	0.053572	0.022103	0.035458	0.047400	0.054254	0.067366	0.045595	0.066847	0.052051	0.054178	0.023600	0.027833	0.018688	0.052625	0.050217	0.020808	0.016606	0.013704	0.015611	0.017435	0.024273	0.023147	0.021232	0.025531	0.044512	0.010994	0.007436	0.017482	0.010431	0.003815	0.013510	0.017739	0.019661	0.012511	0.020759	0.019546	0.019361	0.021795	0.018669	0.025557	0.016670	0.025406	0.021372	0.020155	0.016993	0.009879	0.013112	0.013687	0.014313	0.014525	0.028800
4.285000	0.118673	0.065554	0.053369	0.025361	0.033948	0.086119	0.040046	0.069747	0.056688	0.054869	0.023410	0.036498	0.046935	0.054160	0.066991	0.045968	0.067837	0.053439	0.055477	0.025024	0.028633	0.019129	0.052212	0.051156	0.024004	0.013126	0.013570	0.015221	0.017955	0.024179	0.023290	0.021452	0.025908	0.044288	0.010545	0.007734	0.017720	0.011173	0.004150	0.013320	0.017483	0.019622	0.012863	0.020684	0.019275	0.019552	0.021783	0.018227	0.025393	0.016631	0.025286	0.021412	0.020286	0.016804	0.009836	0.012928	0.013913	0.014335	0.014415	0.028773
4.290000	0.119264	0.065309	0.053152	0.024382	0.033853	0.086529	0.041065	0.071020	0.058700	0.056189	0.024677	0.037760	0.046307	0.054115	0.066614	0.047060	0.069275	0.055586	0.057281	0.026506	0.030372	0.018548	0.053384	0.050501	0.020760	0.016663	0.014228	0.015959	0.017957	0.024196	0.023218	0.021260	0.025816	0.043899	0.010397	0.007378	0.017618	0.010392	0.004044	0.013626	0.017775	0.019525	0.013083	0.021122	0.019631	0.019922	0.022447	0.018518	0.024980	0.016372	0.025596	0.021652	0.020402	0.017227	0.009993	0.012764	0.014425	0.014328	0.014822	0.029018
4.295000	0.119158	0.065195	0.052000	0.023845	0.033268	0.087636	0.042853	0.072444	0.060875	0.057561	0.026145	0.038650	0.045714	0.054494	0.066441	0.048247	0.070370	0.057206	0.058576	0.027792	0.032132	0.019002	0.053593	0.050370	0.021356	0.015974	0.014124	0.015705	0.017987	0.024645	0.022927	0.020707	0.025956	0.043545	0.010042	0.007976	0.017628	0.011526	0.004520	0.013672	0.017861	0.019601	0.012875	0.021161	0.019206	0.019601	0.022220	0.018743	0.024879	0.016293	0.025689	0.021678	0.020386	0.017098	0.010192	0.012861	0.014303	0.014590	0.014055	0.029057
4.300000	0.119046	0.064678	0.050990	0.023122	0.032022	0.088189	0.044137	0.073947	0.062844	0.059098	0.027234	0.039836	0.045397	0.054380	0.066268	0.049165	0.071647	0.059090	0.059901	0.028919	0.033583	0.018719	0.054032	0.049706	0.022386	0.015331	0.014310	0.015603	0.017967	0.024035	0.023364	0.021246	0.025934	0.043388	0.009775	0.008465	0.017621	0.011119	0.004393	0.013631	0.017562	0.019625	0.012889	0.021103	0.019100	0.019268	0.022086	0.018438	0.024984	0.016533	0.025908	0.021680	0.020529	0.017216	0.010054	0.012655	0.014338	0.014507	0.014161	0.029227
4.305000	0.118575	0.064351	0.049743	0.022255	0.032118	0.088433	0.045481	0.075323	0.065001	0.060418	0.029032	0.040544	0.045274	0.054364	0.066225	0.050314	0.072341	0.060730	0.060950	0.030178	0.035074	0.018882	0.054206	0.049254	0.020876	0.016498	0.014088	0.015774	0.018074	0.024204	0.022767	0.020621	0.026015	0.043137	0.009710	0.008289	0.017275	0.015770	0.004656	0.013856	0.017774	0.020146	0.012818	0.021004	0.018096	0.018621	0.021393	0.017761	0.024485	0.016721	0.025393	0.021413	0.020224	0.017085	0.009741	0.012502	0.014247	0.014527	0.015624	0.029302
4.310000	0.117634	0.067150	0.044019	0.027368	0.032109	0.089480	0.045937	0.074077	0.065336	0.056349	0.027478	0.035837	0.045892	0.055989	0.067598	0.059784	0.073077	0.060736	0.063595	0.031413	0.040941	0.017710	0.053300	0.047840	0.016517	0.022851	0.014866	0.016240	0.018697	0.023834	0.023190	0.021284	0.025966	0.042572	0.009085	0.008712	0.017464	0.011497	0.003755	0.014208	0.017747	0.020023	0.012380	0.021521	0.018244	0.018831	0.021540	0.018037	0.024179	0.016556	0.025463	0.021414	0.020265	0.016995	0.010112	0.012758	0.014608	0.014632	0.015241	0.029415
4.315000	0.117414	0.066652	0.042456	0.027050	0.032665	0.090563	0.048003	0.075864	0.067611	0.058138	0.029702	0.036606	0.045403	0.056165	0.067595	0.061120	0.073766	0.062306	0.064794	0.032793	0.042944	0.017356	0.053580	0.046873	0.020772	0.018259	0.014321	0.015019	0.018723	0.022416	0.022832	0.021899	0.025257	0.042038	0.008572	0.010162	0.017078	0.012298	0.004140	0.013702	0.016852	0.019859	0.012407	0.021042	0.019636	0.020130	0.023016	0.019272	0.024278	0.016323	0.026202	0.021784	0.020552	0.016955	0.009862	0.012928	0.014278	0.015161	0.014676	0.029461
4.320000	0.117243	0.065897	0.040896	0.026887	0.032214	0.091176	0.051037	0.077014	0.069228	0.058794	0.030720	0.037378	0.045102	0.056395	0.067457	0.062260	0.074545	0.064207	0.065655	0.034043	0.044787	0.018147	0.053512	0.046727	0.021300	0.016610	0.014433	0.014616	0.018682	0.022610	0.022918	0.021454	0.025318	0.042027	0.008993	0.010692	0.017212	0.012294	0.004189	0.013827	0.015982	0.019574	0.012338	0.021486	0.019624	0.020341	0.022888	0.019152	0.023685	0.016449	0.026251	0.021963	0.020755	0.017069	0.009982	0.012390	0.014287	0.015466	0.014902	0.029493
4.325000	0.116707	0.064521	0.039365	0.026928	0.031623	0.091302	0.054238	0.078124	0.071157	0.059678	0.031800	0.038035	0.044707	0.057088	0.066884	0.063643	0.075315	0.065670	0.066761	0.035384	0.046341	0.018136	0.053950	0.045666	0.021122	0.017759	0.014480	0.014771	0.014544	0.022789	0.023084	0.022154	0.025597	0.041974	0.009666	0.011419	0.017128	0.012198	0.003681	0.013601	0.015873	0.019586	0.014192	0.021479	0.019503	0.020080	0.022997	0.018914	0.023286	0.016727	0.026215	0.022134	0.020757	0.016638	0.010099	0.012313	0.014624	0.015363	0.014751	0.030072
4.330000	0.115734	0.064117	0.038211	0.027051	0.030728	0.091068	0.057509	0.078719	0.072349	0.059594	0.032555	0.037742	0.044166	0.057754	0.066783	0.064522	0.075557	0.066472	0.067323	0.036119	0.047770	0.018511	0.054130	0.045707	0.021377	0.018143	0.015139	0.015323	0.015106	0.022392	0.023058	0.021474	0.025184	0.041289	0.009524	0.011386	0.016762	0.012053	0.003907	0.014302	0.015852	0.019078	0.013232	0.022335	0.018957	0.019748	0.022429	0.018686	0.023418	0.017653	0.026119	0.021917	0.020605	0.016465	0.009984	0.012343	0.014480	0.015608	0.014714	0.030033
4.335000	0.114700	0.063073	0.036517	0.027563	0.030784	0.091725	0.060732	0.079821	0.073963	0.060220	0.033287	0.038067	0.043991	0.057795	0.066129	0.066055	0.076184	0.068049	0.068109	0.037351	0.049282	0.018792	0.054225	0.044850	0.019288	0.017006	0.014932	0.014910	0.015204	0.021816	0.022455	0.021240	0.024774	0.041423	0.010109	0.011118	0.016569	0.016369	0.003907	0.013950	0.015368	0.019363	0.013433	0.022313	0.018876	0.019627	0.022234	0.018725	0.023088	0.017536	0.026269	0.022017	0.020622	0.016589	0.010076	0.011722	0.014711	0.015535	0.014402	0.030195
4.340000	0.112801	0.062111	0.035424	0.028215	0.033356	0.091736	0.064078	0.080307	0.075166	0.060082	0.033198	0.037881	0.043556	0.058733	0.065500	0.067201	0.076678	0.068775	0.068994	0.038250	0.050740	0.018862	0.054626	0.044114	0.019252	0.018427	0.015041	0.014837	0.015590	0.020383	0.021141	0.020266	0.023592	0.040563	0.009827	0.011107	0.016187	0.012207	0.003255	0.014942	0.015745	0.019331	0.013409	0.022746	0.018999	0.019590	0.022224	0.018397	0.022885	0.016598	0.026078	0.021900	0.020733	0.016393	0.010075	0.011663	0.014726	0.015803	0.014407	0.030112
4.345000	0.110733	0.062781	0.032646	0.033084	0.031604	0.092602	0.069643	0.079937	0.075056	0.056699	0.032075	0.034919	0.043786	0.060096	0.065894	0.072310	0.076612	0.068795	0.070023	0.038980	0.054205	0.018304	0.053950	0.043141	0.019298	0.017848	0.015122	0.014699	0.015375	0.019983	0.020463	0.019844	0.022976	0.040372	0.010246	0.011345	0.016461	0.011789	0.004260	0.014882	0.015286	0.019057	0.013391	0.023173	0.018957	0.019332	0.021865	0.018284	0.022620	0.016915	0.025947	0.022009	0.020561	0.016137	0.010264	0.011827	0.014772	0.016023	0.012405	0.030355
4.350000	0.109203	0.061636	0.031636	0.033799	0.030791	0.092804	0.073841	0.080556	0.076581	0.056593	0.033673	0.035394	0.043025	0.060565	0.065362	0.073257	0.077310	0.069776	0.070697	0.039841	0.055539	0.018956	0.053894	0.043102	0.019330	0.016762	0.015476	0.014533	0.015582	0.019667	0.019753	0.019666	0.022829	0.040022	0.010310	0.011805	0.016055	0.011971	0.004221	0.015310	0.014830	0.019199	0.013206	0.023433	0.018407	0.019064	0.021218	0.017952	0.022562	0.016635	0.025797	0.021680	0.020147	0.015956	0.010245	0.011332	0.014856	0.016075	0.013014	0.030513
4.355000	0.107556	0.060162	0.030357	0.034727	0.035229	0.093007	0.077805	0.081376	0.077981	0.056698	0.033286	0.035361	0.042969	0.061057	0.064479	0.074359	0.078394	0.071549	0.071633	0.041121	0.056993	0.018994	0.054370	0.042196	0.018410	0.017213	0.015311	0.014394	0.018320	0.019551	0.019807	0.019073	0.022213	0.039470	0.010923	0.011961	0.016097	0.012904	0.003709	0.015340	0.014625	0.019195	0.013452	0.023840	0.018336	0.018929	0.020830	0.017808	0.022280	0.017547	0.025395	0.021734	0.020465	0.015628	0.010260	0.010931	0.015412	0.016034	0.012465	0.031003
4.360000	0.106715	0.059911	0.029886	0.036169	0.033111	0.093301	0.082728	0.082063	0.079521	0.056473	0.034239	0.036253	0.042367	0.061647	0.063834	0.075932	0.078894	0.072717	0.072657	0.041639	0.058352	0.019647	0.054427	0.042116	0.017772	0.017596	0.015001	0.014135	0.015287	0.019189	0.019014	0.018977	0.021717	0.039607	0.011589	0.011893	0.015475	0.011816	0.003843	0.015492	0.014523	0.019012	0.013212	0.024113	0.017994	0.018784	0.020621	0.017748	0.022214	0.017023	0.025400	0.021464	0.020218	0.015334	0.010484	0.011371	0.015931	0.016567	0.012402	0.031457
4.365000	0.104869	0.058337	0.028424	0.037898	0.032501	0.093698	0.086999	0.082377	0.080725	0.055746	0.035130	0.036914	0.042439	0.061812	0.062239	0.077493	0.079682	0.074088	0.073343	0.043330	0.059822	0.019816	0.054535	0.041300	0.018295	0.017868	0.015368	0.014242	0.017919	0.018312	0.018737	0.018201	0.021167	0.039700	0.012998	0.011812	0.015098	0.011579	0.003947	0.015733	0.013832	0.018815	0.013089	0.024730	0.017493	0.018095	0.019798	0.017124	0.022749	0.018053	0.024818	0.021010	0.019884	0.015028	0.010630	0.010959	0.016630	0.016077	0.012682	0.032119
4.370000	0.103453	0.057926	0.028424	0.039718	0.032418	0.094299	0.091724	0.082820	0.081906	0.055250	0.035872	0.037849	0.042945	0.061213	0.062330	0.079410	0.080307	0.075386	0.073938	0.044436	0.061119	0.020776	0.054649	0.041518	0.017918	0.017620	0.015479	0.013799	0.015335	0.018218	0.018454	0.017830	0.020557	0.039259	0.013736	0.011900	0.014376	0.011288	0.003335	0.016474	0.013892	0.018716	0.013234	0.025204	0.016779	0.018165	0.019277	0.016685	0.022285	0.017596	0.024364	0.020821	0.019703	0.014744	0.011044	0.010283	0.017521	0.016173	0.012690	0.032484
4.375000	0.101848	0.056659	0.028227	0.041999	0.028728	0.094263	0.096187	0.082993	0.082934	0.054780	0.036551	0.038019	0.042962	0.061496	0.062771	0.080696	0.080632	0.076496	0.074392	0.044846	0.062191	0.021340	0.054318	0.041286	0.018131	0.018192	0.015668	0.013715	0.018042	0.017208	0.017707	0.016777	0.019447	0.039371	0.014494	0.011324	0.013543	0.010791	0.003769	0.017294	0.013207	0.018380	0.015984	0.025694	0.015983	0.017274	0.018436	0.015823	0.022754	0.017543	0.023384	0.020092	0.019120	0.014335	0.011270	0.009866	0.018561	0.015474	0.012667	0.033228
4.380000	0.100313	0.056115	0.028326	0.044119	0.032580	0.094943	0.100715	0.083618	0.084271	0.054067	0.037359	0.039103	0.042380	0.062123	0.062509	0.082571	0.081514	0.077710	0.074889	0.045547	0.063379	0.022048	0.054372	0.041524	0.018078	0.018148	0.015592	0.014175	0.017800	0.016426	0.016653	0.015947	0.018591	0.038892	0.014780	0.010295	0.012544	0.009815	0.003413	0.018259	0.013145	0.017435	0.015483	0.026616	0.015472	0.016745	0.017976	0.015660	0.022722	0.018011	0.022571	0.019662	0.018507	0.013758	0.011919	0.010086	0.019429	0.015477	0.012476	0.033825
4.385000	0.098510	0.054944	0.029186	0.046690	0.028746	0.095887	0.105037	0.083267	0.084432	0.052845	0.038371	0.039756	0.042821	0.062113	0.062947	0.083897	0.081916	0.079219	0.074979	0.045957	0.064009	0.022347	0.054402	0.041408	0.018263	0.018522	0.015731	0.014250	0.017418	0.015440	0.015665	0.014148	0.017250	0.038954	0.015467	0.009129	0.011310	0.008761	0.002941	0.018906	0.012641	0.016946	0.014884	0.027458	0.014442	0.015998	0.017142	0.015128	0.023045	0.017385	0.021900	0.018812	0.018018	0.013133	0.012434	0.009864	0.020794	0.014652	0.012921	0.034813
4.390000	0.096941	0.053858	0.029558	0.048909	0.028452	0.096125	0.108595	0.083718	0.085160	0.052772	0.038794	0.039836	0.043256	0.061645	0.063168	0.084850	0.082228	0.079596	0.075423	0.046373	0.064714	0.023185	0.054353	0.041619	0.018469	0.018761	0.015419	0.013792	0.016918	0.014137	0.014274	0.012997	0.015824	0.038305	0.014871	0.008362	0.010009	0.008213	0.002900	0.019105	0.012138	0.016567	0.016112	0.028037	0.013444	0.015585	0.016113	0.014373	0.023138	0.017001	0.020449	0.017780	0.017162	0.012406	0.013205	0.010270	0.022313	0.014142	0.014129	0.035773
4.395000	0.096352	0.050259	0.027277	0.046363	0.024873	0.096710	0.108162	0.085216	0.087689	0.056627	0.042290	0.044087	0.042171	0.062673	0.061869	0.083960	0.082971	0.082160	0.074267	0.047079	0.061314	0.025894	0.055323	0.043739	0.018771	0.019158	0.015599	0.013596	0.016423	0.013234	0.013143	0.011586	0.014113	0.038173	0.014031	0.006505	0.008389	0.006613	0.002824	0.019956	0.011395	0.016956	0.016413	0.028584	0.012496	0.014433	0.014507	0.013505	0.022803	0.015820	0.018991	0.017165	0.016348	0.011821	0.013776	0.010472	0.023155	0.013054	0.014784	0.036692
4.400000	0.094198	0.049228	0.027621	0.048866	0.024099	0.097483	0.111209	0.084959	0.088044	0.055395	0.042562	0.043868	0.042508	0.062607	0.062069	0.084953	0.082961	0.082694	0.073955	0.047161	0.061569	0.026314	0.055219	0.043801	0.019063	0.020179	0.015346	0.013508	0.016137	0.012099	0.011733	0.010232	0.012347	0.038418	0.011722	0.004825	0.006643	0.004986	0.002524	0.019931	0.009979	0.016243	0.016919	0.029234	0.010974	0.013256	0.013120	0.012119	0.022627	0.014619	0.016734	0.016022	0.015137	0.010754	0.014320	0.010602	0.024040	0.011774	0.016420	0.037792
4.405000	0.092206	0.046168	0.026984	0.048768	0.022089	0.098107	0.111120	0.085650	0.088925	0.056727	0.044611	0.046184	0.042599	0.062799	0.061333	0.085559	0.082727	0.083270	0.072507	0.047088	0.059118	0.027817	0.056004	0.045045	0.019810	0.020658	0.014918	0.013270	0.016215	0.010863	0.010070	0.008442	0.010321	0.038709	0.010109	0.003129	0.006383	0.004244	0.002171	0.019115	0.008423	0.016030	0.018861	0.028465	0.009613	0.011982	0.011518	0.010537	0.022557	0.012688	0.013883	0.014518	0.013595	0.009854	0.014923	0.010709	0.024607	0.010547	0.018040	0.038506
4.410000	0.089534	0.045020	0.027208	0.050946	0.021998	0.098387	0.112559	0.085417	0.088924	0.056078	0.045034	0.046208	0.042754	0.062692	0.061256	0.086215	0.082824	0.083660	0.072216	0.047055	0.058860	0.027986	0.055668	0.045308	0.020417	0.021675	0.014432	0.012656	0.012437	0.009875	0.009377	0.007575	0.008454	0.040277	0.008015	0.002658	0.005117	0.004657	0.004501	0.017269	0.007577	0.017737	0.019841	0.027445	0.008157	0.010542	0.009839	0.008689	0.023646	0.010702	0.010326	0.012493	0.011478	0.008776	0.014404	0.010656	0.024195	0.008653	0.021661	0.038341
4.415000	0.086106	0.043020	0.027098	0.052673	0.021241	0.098301	0.113793	0.084858	0.088696	0.055066	0.045321	0.046109	0.042791	0.062993	0.060739	0.086576	0.082409	0.083724	0.071406	0.046703	0.057934	0.028769	0.055542	0.045513	0.021525	0.022295	0.014536	0.012464	0.012494	0.008502	0.007381	0.007147	0.006866	0.042439	0.007099	0.004155	0.006046	0.005833	0.006803	0.013636	0.007668	0.019028	0.020081	0.026150	0.007012	0.009095	0.007747	0.006332	0.026984	0.008554	0.006596	0.010517	0.009241	0.007415	0.012969	0.009362	0.022784	0.010031	0.022927	0.036758
4.420000	0.082371	0.041518	0.026466	0.054234	0.021466	0.097968	0.114268	0.083850	0.088191	0.053979	0.045709	0.046116	0.043274	0.062503	0.060957	0.086376	0.082030	0.083762	0.070585	0.046581	0.057283	0.029033	0.055066	0.045793	0.022492	0.022967	0.014167	0.011989	0.012123	0.008138	0.006995	0.007951	0.006047	0.047810	0.012002	0.005999	0.008961	0.008924	0.011284	0.008700	0.010406	0.018075	0.021244	0.025518	0.006525	0.007769	0.005982	0.004623	0.031237	0.009529	0.003853	0.008420	0.007386	0.005907	0.011287	0.008731	0.021567	0.013037	0.024214	0.034882
4.425000	0.079221	0.038268	0.025491	0.052994	0.020413	0.097311	0.111292	0.084605	0.088693	0.056144	0.046057	0.047658	0.042202	0.062878	0.058794	0.086900	0.081337	0.083689	0.068495	0.045664	0.053951	0.029644	0.056009	0.046781	0.023640	0.023692	0.013722	0.011389	0.011866	0.007073	0.006052	0.008969	0.006777	0.054512	0.019823	0.008729	0.012328	0.012787	0.015279	0.005460	0.014425	0.018129	0.020925	0.024704	0.006028	0.006701	0.005507	0.005976	0.037330	0.016381	0.004750	0.006644	0.006464	0.005512	0.010649	0.007762	0.021718	0.015031	0.025039	0.033660
4.430000	0.074965	0.036711	0.023407	0.052816	0.021903	0.094500	0.109991	0.083013	0.087422	0.054681	0.045270	0.046640	0.042205	0.063188	0.058850	0.085275	0.081233	0.083489	0.067763	0.045299	0.052576	0.029435	0.056258	0.046395	0.023993	0.024202	0.013094	0.010963	0.011398	0.007041	0.006839	0.012795	0.009056	0.064089	0.029678	0.012349	0.016204	0.016166	0.018167	0.005270	0.016496	0.019583	0.022357	0.023030	0.006123	0.006176	0.007177	0.009176	0.041855	0.024023	0.007051	0.005873	0.007244	0.005816	0.011271	0.007649	0.023175	0.016399	0.024874	0.033393
4.435000	0.071405	0.035274	0.021624	0.051572	0.021829	0.091991	0.107620	0.081939	0.086046	0.053611	0.043965	0.045842	0.041290	0.063479	0.057694	0.083075	0.080910	0.082717	0.067143	0.044626	0.050875	0.028971	0.056452	0.046354	0.024178	0.024600	0.012760	0.010497	0.011235	0.007403	0.009113	0.017716	0.011715	0.070192	0.034004	0.015556	0.018976	0.017486	0.019180	0.006900	0.013754	0.022697	0.020336	0.023376	0.007052	0.006604	0.009088	0.011629	0.045037	0.029835	0.009098	0.006157	0.007894	0.007134	0.013007	0.007210	0.025393	0.016829	0.023439	0.034339
4.440000	0.068746	0.033036	0.019854	0.048348	0.020896	0.089763	0.102771	0.080718	0.084938	0.053990	0.043100	0.045725	0.040823	0.063814	0.056522	0.081597	0.080050	0.081772	0.065360	0.043449	0.047569	0.029011	0.056547	0.047033	0.023643	0.024468	0.013101	0.010465	0.011276	0.007479	0.009817	0.019642	0.011061	0.068731	0.033913	0.015985	0.018522	0.017795	0.018061	0.009533	0.011423	0.020733	0.018059	0.026508	0.008929	0.005480	0.010126	0.011412	0.045504	0.032154	0.010673	0.006010	0.008854	0.008284	0.015030	0.005519	0.026987	0.016623	0.021081	0.037850
4.445000	0.066396	0.031534	0.017965	0.046141	0.020009	0.087693	0.100309	0.079154	0.082913	0.052265	0.041716	0.044961	0.040497	0.063745	0.057242	0.078903	0.079263	0.080590	0.064485	0.042507	0.045675	0.028082	0.057102	0.046512	0.023115	0.023950	0.014637	0.011104	0.012226	0.006857	0.009357	0.019685	0.008232	0.063402	0.031883	0.014361	0.017499	0.015605	0.015692	0.012261	0.009010	0.016635	0.015515	0.030441	0.012500	0.005124	0.010096	0.007982	0.044971	0.032050	0.011039	0.006101	0.009013	0.009019	0.016742	0.004450	0.027904	0.013764	0.017830	0.041384
4.450000	0.064955	0.029941	0.016434	0.043788	0.018046	0.085981	0.097263	0.077465	0.081249	0.051340	0.040698	0.044302	0.039713	0.064555	0.055826	0.076459	0.078427	0.079406	0.063211	0.041387	0.044343	0.027725	0.056328	0.046807	0.022984	0.024272	0.016615	0.011913	0.013731	0.007552	0.008847	0.017304	0.006314	0.057553	0.026530	0.012178	0.015034	0.012708	0.012439	0.013926	0.007649	0.012372	0.012311	0.033487	0.016539	0.008798	0.012093	0.004293	0.042788	0.030420	0.010444	0.005628	0.008701	0.008262	0.018225	0.006015	0.027972	0.013387	0.016558	0.043409
4.455000	0.064073	0.029061	0.015419	0.041369	0.016701	0.084768	0.094453	0.075895	0.079427	0.050143	0.039828	0.043847	0.039943	0.064593	0.055885	0.074227	0.077255	0.077656	0.061689	0.040428	0.042871	0.027202	0.056513	0.047124	0.022633	0.023301	0.018582	0.012467	0.015380	0.009225	0.009177	0.015949	0.005079	0.050620	0.019954	0.008813	0.011494	0.011548	0.010320	0.013337	0.007017	0.010002	0.010670	0.036507	0.019330	0.012656	0.013956	0.004838	0.039377	0.027102	0.008580	0.004421	0.007501	0.007176	0.019199	0.008190	0.028799	0.013336	0.013839	0.044644
4.460000	0.063968	0.027576	0.014583	0.039465	0.015148	0.084589	0.091914	0.074033	0.077649	0.048355	0.039556	0.043382	0.040423	0.064259	0.056384	0.072202	0.076016	0.076366	0.060629	0.039952	0.042077	0.026972	0.055479	0.048249	0.021930	0.023701	0.020134	0.013181	0.016810	0.009210	0.008829	0.013338	0.004476	0.045590	0.013670	0.005430	0.008423	0.008683	0.009088	0.012367	0.006786	0.011410	0.011745	0.039291	0.019533	0.013492	0.014067	0.007138	0.036469	0.022202	0.006418	0.003301	0.006010	0.005872	0.019534	0.010394	0.029329	0.014534	0.013923	0.044479
4.465000	0.063472	0.025616	0.013688	0.036916	0.013457	0.083962	0.088872	0.073050	0.076809	0.048581	0.039552	0.043721	0.039862	0.064989	0.055653	0.071438	0.075161	0.074819	0.058490	0.038925	0.041313	0.027074	0.055541	0.049020	0.021970	0.023363	0.020490	0.012617	0.016876	0.006559	0.006434	0.009818	0.003743	0.044816	0.009239	0.003584	0.006438	0.008384	0.010211	0.011206	0.008218	0.013921	0.015844	0.040805	0.018523	0.013506	0.013573	0.008829	0.033614	0.018049	0.004741	0.001980	0.004228	0.004405	0.020233	0.012550	0.030123	0.017026	0.013993	0.043629
4.470000	0.063273	0.023967	0.014215	0.034795	0.012636	0.083512	0.085490	0.072511	0.076042	0.049004	0.039814	0.044303	0.039598	0.064078	0.054431	0.070999	0.073964	0.073276	0.056312	0.038796	0.040578	0.027405	0.055474	0.050309	0.021740	0.022888	0.019761	0.011477	0.016435	0.004844	0.005716	0.008025	0.003513	0.044693	0.007109	0.003662	0.006546	0.009203	0.011196	0.009952	0.008618	0.017610	0.018610	0.040468	0.015644	0.011432	0.011238	0.008521	0.032169	0.015602	0.004705	0.001407	0.003862	0.003484	0.019590	0.013481	0.029195	0.019402	0.015452	0.043667
4.475000	0.062804	0.023287	0.012942	0.034384	0.012251	0.082508	0.084251	0.071695	0.075326	0.048312	0.040498	0.044629	0.039956	0.064501	0.055000	0.070197	0.072887	0.072064	0.055143	0.038541	0.040959	0.027464	0.054778	0.050980	0.021240	0.022352	0.018289	0.010000	0.015301	0.003507	0.004853	0.007446	0.003869	0.045127	0.007060	0.003684	0.007597	0.010180	0.011400	0.010955	0.009848	0.020355	0.020726	0.040411	0.012549	0.008911	0.008335	0.007218	0.031469	0.015450	0.005318	0.002843	0.004878	0.004798	0.018425	0.013149	0.026909	0.021315	0.017583	0.043879
4.480000	0.062724	0.023040	0.012874	0.034973	0.012396	0.081994	0.083751	0.070630	0.074944	0.048341	0.041216	0.045095	0.040321	0.064377	0.055173	0.069604	0.071955	0.071176	0.054583	0.038478	0.041679	0.027626	0.054454	0.051594	0.021313	0.021755	0.016385	0.008611	0.013793	0.003943	0.004757	0.007531	0.005371	0.045352	0.008034	0.003289	0.009211	0.010853	0.013137	0.012384	0.011665	0.021165	0.021294	0.039664	0.010360	0.006676	0.005340	0.006231	0.031932	0.015038	0.005371	0.004798	0.006300	0.004829	0.017319	0.012324	0.024625	0.022883	0.018956	0.043439
4.485000	0.062168	0.022982	0.012227	0.035716	0.013190	0.080979	0.083481	0.071265	0.075139	0.048969	0.042083	0.045748	0.040969	0.063922	0.055009	0.069553	0.071567	0.071031	0.054417	0.038675	0.042118	0.027750	0.054169	0.052091	0.020660	0.021617	0.014057	0.007445	0.012516	0.004964	0.005263	0.007849	0.007093	0.046009	0.008307	0.003628	0.010264	0.010533	0.013994	0.013855	0.013075	0.020891	0.020726	0.039006	0.008598	0.005527	0.003522	0.006784	0.033004	0.014011	0.005401	0.006946	0.006890	0.005042	0.016073	0.011916	0.022712	0.024243	0.020002	0.042769
4.490000	0.061986	0.023169	0.012197	0.037115	0.016678	0.080346	0.083584	0.071743	0.075743	0.049847	0.043051	0.046345	0.041103	0.063747	0.054783	0.070075	0.071569	0.070915	0.054720	0.039056	0.042728	0.027891	0.054276	0.052205	0.020083	0.020256	0.011486	0.006970	0.011507	0.006499	0.005763	0.008252	0.008089	0.046869	0.007990	0.003841	0.012177	0.010349	0.013978	0.013868	0.014181	0.019607	0.019987	0.038015	0.008206	0.006401	0.002510	0.008587	0.034217	0.013011	0.004816	0.008872	0.007815	0.004916	0.015990	0.014176	0.022141	0.024155	0.020829	0.041925
4.495000	0.062081	0.023361	0.013309	0.038342	0.016416	0.080288	0.084241	0.072527	0.076840	0.051257	0.044023	0.047403	0.041800	0.063163	0.055066	0.070634	0.071605	0.071168	0.055301	0.038998	0.042656	0.028054	0.054534	0.052054	0.018943	0.019674	0.009580	0.007126	0.010454	0.007017	0.005716	0.007939	0.008297	0.048107	0.008950	0.004288	0.011773	0.009735	0.013637	0.013260	0.014360	0.017571	0.018301	0.036999	0.008052	0.006484	0.003570	0.009767	0.035383	0.012386	0.005834	0.010329	0.009130	0.004954	0.015842	0.011565	0.021760	0.023040	0.020578	0.041170
4.500000	0.062221	0.023708	0.013968	0.039297	0.017799	0.080907	0.084890	0.073321	0.077510	0.052678	0.044741	0.047887	0.041794	0.063037	0.054144	0.071233	0.071833	0.071443	0.056016	0.039746	0.042695	0.027643	0.054931	0.051098	0.017648	0.018304	0.008038	0.007381	0.010448	0.007157	0.005306	0.007738	0.007820	0.049326	0.010975	0.004999	0.013661	0.010739	0.013893	0.012304	0.014523	0.015592	0.016156	0.035607	0.007837	0.006790	0.003995	0.010037	0.036288	0.012168	0.006543	0.011018	0.009767	0.004951	0.016196	0.011641	0.021784	0.020714	0.019492	0.040557
4.505000	0.063125	0.024223	0.014641	0.039858	0.019131	0.082105	0.085101	0.074032	0.078265	0.053961	0.045034	0.048444	0.042143	0.063067	0.053032	0.071859	0.072369	0.071865	0.056633	0.040390	0.042760	0.027250	0.055594	0.049923	0.016630	0.017346	0.006955	0.007968	0.009612	0.007097	0.005007	0.007261	0.007293	0.049896	0.012381	0.005461	0.013126	0.011146	0.014247	0.010611	0.014473	0.014231	0.014791	0.035267	0.007495	0.005914	0.003190	0.009909	0.036927	0.014045	0.007467	0.010608	0.009808	0.005270	0.016278	0.011330	0.021538	0.018890	0.018708	0.040195
4.510000	0.064265	0.025116	0.015811	0.040019	0.019152	0.083419	0.085692	0.074432	0.078388	0.054863	0.045271	0.048792	0.042410	0.063217	0.051688	0.072069	0.072305	0.071624	0.057013	0.040895	0.042567	0.026994	0.055976	0.048798	0.016401	0.016754	0.007054	0.008483	0.009497	0.007004	0.005286	0.007746	0.007534	0.051352	0.014827	0.006797	0.011658	0.012006	0.014849	0.009508	0.014337	0.013936	0.013692	0.035260	0.008109	0.005121	0.001963	0.009252	0.037216	0.016841	0.007291	0.009297	0.009612	0.006233	0.016317	0.010739	0.020879	0.017414	0.018145	0.039831
4.515000	0.065478	0.025419	0.016550	0.039340	0.019618	0.084573	0.085229	0.074630	0.078757	0.056119	0.045371	0.048781	0.042917	0.062258	0.051327	0.071997	0.072741	0.071552	0.057912	0.041262	0.042487	0.026584	0.055508	0.047955	0.016403	0.017304	0.007076	0.009091	0.009364	0.006972	0.005524	0.007838	0.007658	0.052003	0.015431	0.007960	0.012154	0.012863	0.016409	0.009191	0.014579	0.013359	0.013374	0.035864	0.009552	0.005271	0.002398	0.008153	0.036973	0.018823	0.007255	0.007901	0.009501	0.007206	0.015863	0.009874	0.021158	0.017136	0.018107	0.039819
4.520000	0.067367	0.026549	0.017120	0.038643	0.021132	0.086029	0.084876	0.075403	0.079096	0.057069	0.044883	0.048631	0.042056	0.063142	0.049639	0.071720	0.073164	0.072151	0.059067	0.041001	0.042286	0.025143	0.055835	0.045988	0.016498	0.016959	0.007221	0.009131	0.008701	0.006898	0.005794	0.008213	0.007932	0.051681	0.015405	0.009166	0.012757	0.014430	0.017769	0.009167	0.014185	0.014050	0.013164	0.036633	0.010786	0.005603	0.003670	0.008528	0.037613	0.020764	0.007898	0.006933	0.009656	0.008657	0.016179	0.009107	0.021820	0.017030	0.018408	0.039777
4.525000	0.068536	0.027388	0.017231	0.037365	0.019393	0.086628	0.083684	0.075490	0.078572	0.057564	0.043795	0.048198	0.041777	0.062829	0.049057	0.070778	0.073124	0.071850	0.059158	0.040543	0.042113	0.024311	0.055309	0.045189	0.016750	0.017361	0.007800	0.009790	0.008662	0.006701	0.005979	0.008364	0.008171	0.052531	0.015145	0.010340	0.012682	0.015245	0.018004	0.009314	0.013524	0.014779	0.014611	0.037374	0.012116	0.006812	0.005407	0.008916	0.038020	0.021612	0.009925	0.006692	0.010796	0.010026	0.015652	0.009047	0.021754	0.017208	0.018483	0.039605
4.530000	0.069556	0.028115	0.017150	0.035805	0.019205	0.087561	0.082002	0.074986	0.077737	0.057799	0.043298	0.048036	0.041546	0.062567	0.049137	0.069469	0.072875	0.071219	0.059068	0.040236	0.042265	0.023416	0.054761	0.044196	0.017734	0.017115	0.008441	0.010018	0.008332	0.006729	0.006261	0.008176	0.008707	0.052386	0.014536	0.010296	0.012853	0.015195	0.018279	0.009759	0.013565	0.015736	0.014440	0.037997	0.012854	0.007558	0.005897	0.009039	0.038141	0.020842	0.011213	0.006561	0.011520	0.011899	0.015524	0.008651	0.021130	0.016735	0.018604	0.040228
4.535000	0.070515	0.028795	0.017001	0.034547	0.018737	0.087764	0.080024	0.074955	0.076860	0.057410	0.042404	0.047867	0.039854	0.063003	0.050126	0.068000	0.072604	0.070627	0.058693	0.039152	0.042329	0.022487	0.053934	0.043816	0.017802	0.017135	0.009178	0.009938	0.008194	0.007388	0.006684	0.008269	0.008982	0.052462	0.013342	0.010066	0.013161	0.015164	0.018418	0.010449	0.014428	0.016322	0.015454	0.038145	0.012918	0.007077	0.005908	0.008915	0.037966	0.019567	0.012195	0.007064	0.012142	0.013145	0.015115	0.008424	0.020214	0.016196	0.018803	0.040294
4.540000	0.070937	0.029830	0.016793	0.033061	0.015854	0.087999	0.077865	0.074006	0.075604	0.056736	0.041534	0.047927	0.041276	0.062183	0.050327	0.066384	0.071531	0.069270	0.057869	0.038559	0.042200	0.022558	0.052091	0.043845	0.017633	0.017429	0.010059	0.009710	0.008241	0.007866	0.007155	0.007981	0.009774	0.052067	0.012093	0.009639	0.013743	0.015670	0.018661	0.011755	0.015683	0.016848	0.015619	0.038508	0.012564	0.007802	0.005989	0.008686	0.037516	0.017979	0.012282	0.007144	0.012380	0.014038	0.014844	0.009022	0.018752	0.015864	0.018797	0.040896
4.545000	0.069885	0.030268	0.015980	0.031408	0.014673	0.087407	0.075071	0.073444	0.074574	0.056058	0.040718	0.047469	0.040612	0.062552	0.051042	0.064310	0.070937	0.068272	0.057190	0.037469	0.041831	0.020955	0.051776	0.043122	0.017393	0.017728	0.010754	0.009708	0.008352	0.008032	0.007004	0.007503	0.009322	0.051171	0.010782	0.008861	0.014061	0.014807	0.018469	0.013419	0.016655	0.016566	0.015678	0.038876	0.012046	0.007367	0.005465	0.008748	0.037686	0.016567	0.011401	0.007070	0.012162	0.013926	0.015190	0.009713	0.018601	0.016222	0.019299	0.040815
4.550000	0.069322	0.030494	0.015877	0.030345	0.014128	0.086749	0.072879	0.072788	0.073553	0.055152	0.040094	0.047106	0.041334	0.062701	0.051542	0.062874	0.069880	0.066962	0.055706	0.036882	0.041986	0.021105	0.050183	0.044448	0.017106	0.017570	0.011344	0.009312	0.008805	0.008012	0.006801	0.006959	0.008680	0.051094	0.009872	0.008305	0.014603	0.014149	0.018925	0.014791	0.017979	0.015152	0.015576	0.038755	0.011170	0.006693	0.004566	0.009137	0.037636	0.015296	0.010936	0.007636	0.012002	0.012633	0.016005	0.010810	0.018442	0.015941	0.019978	0.041311
4.555000	0.068853	0.030685	0.015868	0.029627	0.013945	0.085894	0.070611	0.071756	0.072396	0.053933	0.039529	0.046954	0.041349	0.062618	0.052423	0.061621	0.069256	0.065987	0.055057	0.036080	0.041752	0.020693	0.049370	0.045023	0.016937	0.018051	0.011626	0.008884	0.009092	0.007887	0.006166	0.006321	0.008064	0.050056	0.009238	0.008043	0.015666	0.014379	0.019706	0.015907	0.019153	0.013729	0.015891	0.038925	0.010312	0.005965	0.003897	0.008904	0.037393	0.014831	0.010016	0.008601	0.012046	0.011691	0.017007	0.012625	0.018928	0.015352	0.020504	0.041541
4.560000	0.066869	0.030322	0.015994	0.028692	0.013757	0.084443	0.068340	0.071533	0.071584	0.053431	0.039002	0.047204	0.041372	0.062236	0.052169	0.060598	0.068760	0.065435	0.054430	0.035328	0.041630	0.020369	0.049218	0.044566	0.016828	0.018324	0.011549	0.008406	0.009328	0.007341	0.005319	0.006068	0.006965	0.049560	0.008955	0.008291	0.013782	0.014237	0.020037	0.016546	0.019801	0.011846	0.015956	0.039312	0.009502	0.005455	0.003196	0.008525	0.037049	0.013940	0.008998	0.009279	0.011874	0.010580	0.017828	0.012646	0.019612	0.014976	0.021050	0.042162
4.565000	0.065317	0.029807	0.018710	0.027453	0.013389	0.082822	0.065333	0.071445	0.070892	0.054037	0.039081	0.048035	0.041324	0.061693	0.051711	0.060213	0.067529	0.064766	0.052527	0.034485	0.040338	0.020929	0.049089	0.046164	0.017115	0.017696	0.011285	0.008022	0.009516	0.006761	0.005320	0.006212	0.006097	0.048999	0.008852	0.008421	0.014268	0.014151	0.020181	0.017272	0.020849	0.010552	0.016053	0.039307	0.008525	0.004581	0.002413	0.007757	0.036383	0.012806	0.007070	0.009652	0.011110	0.010118	0.018914	0.014018	0.020119	0.014004	0.021675	0.042710
4.570000	0.063497	0.029541	0.018407	0.027190	0.013227	0.081623	0.064338	0.070369	0.069796	0.052904	0.039395	0.048163	0.042110	0.061669	0.051940	0.059365	0.066550	0.063940	0.051346	0.034427	0.040838	0.021924	0.048922	0.046969	0.016573	0.017855	0.011156	0.008033	0.009608	0.007171	0.005324	0.005971	0.004801	0.048261	0.009383	0.008668	0.013994	0.014318	0.021075	0.018376	0.021559	0.010094	0.016376	0.039109	0.008050	0.004017	0.002200	0.006805	0.035970	0.012210	0.005938	0.009974	0.011028	0.009198	0.019195	0.014935	0.020599	0.013700	0.022283	0.043112
4.575000	0.061920	0.029096	0.018075	0.026593	0.013562	0.080637	0.062790	0.070375	0.069624	0.052879	0.038843	0.047119	0.041298	0.061359	0.052366	0.058635	0.067011	0.064288	0.051673	0.034091	0.040732	0.021745	0.049052	0.046830	0.016882	0.017672	0.010605	0.007876	0.009524	0.005015	0.003959	0.005868	0.004905	0.048114	0.008163	0.008579	0.013205	0.014496	0.020834	0.018608	0.022261	0.008218	0.016233	0.039599	0.007674	0.004018	0.002555	0.006431	0.035665	0.011901	0.005148	0.009984	0.010538	0.008557	0.019801	0.015222	0.020931	0.013273	0.022731	0.043532
4.580000	0.061121	0.028920	0.018296	0.026527	0.013468	0.079740	0.062122	0.069333	0.068784	0.051882	0.039248	0.047056	0.042254	0.061002	0.052344	0.058153	0.065883	0.063723	0.050887	0.034732	0.040358	0.022725	0.048821	0.047715	0.017135	0.017656	0.009889	0.008528	0.008938	0.004840	0.003751	0.006057	0.004722	0.048547	0.008269	0.008521	0.013195	0.014758	0.021299	0.018541	0.022671	0.007492	0.016594	0.039197	0.007728	0.003229	0.003046	0.005770	0.035901	0.011577	0.004532	0.009217	0.010002	0.008398	0.020143	0.015895	0.021353	0.013758	0.023304	0.043748
4.585000	0.059763	0.028443	0.017937	0.025997	0.017978	0.078551	0.061313	0.069576	0.068574	0.051959	0.038734	0.046309	0.041378	0.060896	0.051486	0.058079	0.066229	0.063868	0.051186	0.034420	0.040355	0.022411	0.049723	0.046243	0.016925	0.017701	0.009287	0.008713	0.008748	0.003393	0.003219	0.006072	0.004968	0.048623	0.007544	0.008355	0.013065	0.014497	0.021677	0.018739	0.022706	0.006513	0.016475	0.039425	0.007834	0.003822	0.003936	0.005167	0.035810	0.011533	0.004411	0.008626	0.009871	0.008894	0.020471	0.015429	0.021302	0.013225	0.023509	0.044248
4.590000	0.059563	0.028662	0.017751	0.025680	0.018628	0.078185	0.060767	0.068646	0.068166	0.051877	0.039130	0.046052	0.041208	0.060988	0.051169	0.057994	0.065968	0.063331	0.050359	0.034854	0.039951	0.022537	0.050147	0.045731	0.016889	0.016970	0.008810	0.009299	0.008484	0.002874	0.003433	0.006172	0.005800	0.048708	0.006830	0.008358	0.013056	0.014397	0.021565	0.018139	0.023075	0.005609	0.016336	0.039146	0.008320	0.004240	0.004454	0.005038	0.035892	0.012342	0.005125	0.007957	0.010263	0.009292	0.020274	0.015926	0.021032	0.013071	0.023520	0.044359
4.595000	0.059661	0.028425	0.017405	0.025444	0.018091	0.078609	0.060097	0.068729	0.067968	0.052019	0.038419	0.045716	0.040546	0.060680	0.050115	0.057840	0.065601	0.063022	0.050577	0.034671	0.039465	0.022517	0.050410	0.044915	0.016629	0.016487	0.008495	0.009979	0.008002	0.002331	0.003528	0.007276	0.006290	0.048432	0.006418	0.008410	0.013765	0.014991	0.022132	0.018157	0.023509	0.005189	0.016651	0.039093	0.008456	0.004113	0.004711	0.004805	0.036056	0.012561	0.005688	0.007533	0.010275	0.010014	0.020212	0.016057	0.020959	0.012801	0.023712	0.044598
4.600000	0.059731	0.028102	0.016945	0.024767	0.018921	0.078514	0.059715	0.069041	0.067500	0.051957	0.037772	0.045350	0.040687	0.060912	0.049051	0.057764	0.065602	0.062936	0.050919	0.034713	0.039384	0.022571	0.050543	0.044401	0.016553	0.016555	0.008227	0.010162	0.007846	0.002517	0.003863	0.007512	0.006290	0.048330	0.006459	0.008392	0.013553	0.014929	0.021972	0.018056	0.023480	0.005221	0.016650	0.038755	0.008639	0.004431	0.004987	0.004625	0.036149	0.013099	0.006448	0.007018	0.010397	0.010384	0.019836	0.015514	0.020830	0.012887	0.023494	0.044619
4.605000	0.059813	0.028766	0.016694	0.024460	0.019336	0.078943	0.058935	0.068463	0.067002	0.051846	0.037343	0.045021	0.040307	0.060727	0.049227	0.057355	0.065208	0.062148	0.050591	0.034624	0.039047	0.022649	0.050835	0.043550	0.016646	0.016157	0.007995	0.010647	0.007673	0.002784	0.004206	0.007695	0.006319	0.048455	0.006447	0.008294	0.013466	0.015240	0.022234	0.017820	0.023095	0.005279	0.016835	0.038418	0.008847	0.004639	0.005091	0.004595	0.036091	0.013082	0.007088	0.006920	0.010414	0.011533	0.019777	0.014908	0.021028	0.012377	0.023475	0.044675
4.610000	0.060302	0.029294	0.016089	0.024266	0.019707	0.079252	0.058501	0.068127	0.066458	0.051748	0.036909	0.044941	0.040315	0.060637	0.048193	0.057162	0.064966	0.061737	0.050681	0.034272	0.039102	0.022335	0.050761	0.042815	0.016368	0.016477	0.007790	0.010652	0.007641	0.002923	0.004730	0.008943	0.006670	0.048406	0.006648	0.008242	0.013619	0.014988	0.022410	0.017747	0.023126	0.005543	0.016798	0.037999	0.009263	0.004603	0.005059	0.004266	0.035869	0.012246	0.007317	0.006467	0.010366	0.011871	0.019653	0.013969	0.021016	0.011836	0.023256	0.044591
4.615000	0.060444	0.029827	0.016192	0.024061	0.020972	0.079268	0.057807	0.067644	0.065844	0.051499	0.036596	0.044876	0.040787	0.060720	0.048004	0.056630	0.064946	0.061191	0.050386	0.033974	0.039025	0.022256	0.050585	0.043080	0.016457	0.016404	0.007863	0.010536	0.007930	0.003308	0.004994	0.008993	0.006810	0.048349	0.006533	0.007987	0.013255	0.015142	0.022000	0.017384	0.022739	0.005487	0.017062	0.037850	0.009238	0.004785	0.005574	0.004305	0.035693	0.011625	0.007249	0.006287	0.010196	0.011877	0.019543	0.014345	0.020770	0.011507	0.023138	0.044646
4.620000	0.060528	0.030222	0.016302	0.023763	0.019631	0.079325	0.057056	0.067321	0.065418	0.051317	0.036195	0.044798	0.040202	0.061115	0.048352	0.055917	0.064382	0.060724	0.050008	0.033694	0.039101	0.022049	0.050956	0.042470	0.016079	0.016158	0.007668	0.010334	0.008263	0.003203	0.005293	0.009462	0.006438	0.048169	0.006216	0.007953	0.013016	0.014988	0.021655	0.017500	0.022612	0.005698	0.017465	0.037756	0.009471	0.005049	0.005529	0.004163	0.035415	0.010857	0.007014	0.006085	0.009908	0.011658	0.019417	0.014499	0.021126	0.010693	0.022934	0.044686
4.625000	0.060720	0.030873	0.016614	0.023565	0.019731	0.079123	0.056506	0.066982	0.064831	0.051036	0.035763	0.044761	0.040808	0.061019	0.048355	0.055250	0.064508	0.059920	0.050219	0.033358	0.039285	0.022134	0.050814	0.042499	0.015853	0.016418	0.007755	0.009575	0.008865	0.003205	0.005563	0.009838	0.006508	0.047663	0.006036	0.007266	0.012933	0.014495	0.021370	0.017494	0.022602	0.005884	0.018271	0.037799	0.009416	0.004506	0.005541	0.003741	0.035538	0.010356	0.006708	0.006203	0.009511	0.011067	0.019382	0.014234	0.021258	0.010791	0.022812	0.044708
4.630000	0.060386	0.030981	0.016869	0.023197	0.019785	0.078885	0.055697	0.066180	0.064147	0.050764	0.035445	0.045077	0.041150	0.060731	0.048594	0.054421	0.064505	0.059627	0.049915	0.032657	0.039490	0.022438	0.050930	0.042758	0.015655	0.016480	0.007639	0.009456	0.009103	0.003177	0.005363	0.010117	0.005930	0.047172	0.005508	0.007058	0.012789	0.014115	0.021700	0.017555	0.022371	0.006048	0.018297	0.038084	0.009032	0.004293	0.005502	0.003539	0.035106	0.009543	0.005905	0.005971	0.009058	0.010460	0.019495	0.014099	0.021617	0.010292	0.022949	0.044968
4.635000	0.060130	0.031630	0.017286	0.022941	0.020060	0.078697	0.054934	0.066476	0.063690	0.050525	0.035002	0.044970	0.041599	0.061150	0.048467	0.053482	0.064416	0.059296	0.049746	0.032662	0.039565	0.022544	0.050937	0.042761	0.015733	0.016166	0.007538	0.009248	0.009447	0.003179	0.005617	0.009794	0.005653	0.046626	0.005046	0.006732	0.012537	0.014090	0.020781	0.017725	0.022540	0.006429	0.018786	0.038423	0.008606	0.004440	0.005787	0.002959	0.034811	0.009277	0.005335	0.005761	0.008716	0.009942	0.019617	0.014564	0.021802	0.011135	0.022334	0.045298
4.640000	0.059767	0.031988	0.017809	0.022777	0.020192	0.078372	0.054365	0.066013	0.063346	0.050188	0.034884	0.044955	0.041831	0.060804	0.049118	0.052403	0.064284	0.058899	0.049580	0.032258	0.039547	0.022644	0.050742	0.042909	0.015356	0.015923	0.007608	0.009154	0.009687	0.002901	0.005195	0.010414	0.005314	0.046294	0.004930	0.006666	0.012309	0.014076	0.020440	0.017790	0.022336	0.006298	0.019234	0.038754	0.008166	0.004462	0.005980	0.002977	0.034545	0.009122	0.004874	0.006084	0.008349	0.009015	0.019570	0.014422	0.021840	0.010670	0.022877	0.045446
4.645000	0.059420	0.031936	0.017907	0.022351	0.020236	0.077968	0.053952	0.065881	0.062858	0.049913	0.034898	0.045080	0.042133	0.061834	0.049033	0.051749	0.064510	0.058791	0.049415	0.032211	0.039367	0.022906	0.050634	0.043706	0.015092	0.016353	0.007548	0.009348	0.009757	0.002974	0.005475	0.010035	0.005067	0.045928	0.004622	0.006363	0.012126	0.013161	0.020696	0.017913	0.022534	0.006416	0.019968	0.039202	0.008118	0.004629	0.006059	0.002856	0.034251	0.008704	0.004159	0.005943	0.008000	0.009060	0.019579	0.014021	0.022081	0.010580	0.022893	0.045942
4.650000	0.058611	0.031268	0.017864	0.022042	0.017522	0.077495	0.053036	0.065389	0.062426	0.049646	0.035189	0.045358	0.042206	0.061754	0.048710	0.050992	0.064305	0.058241	0.049164	0.032322	0.039652	0.023876	0.050482	0.043971	0.014961	0.016899	0.007569	0.009347	0.010060	0.003254	0.005616	0.010266	0.005158	0.045757	0.004677	0.006506	0.011748	0.013510	0.020545	0.018053	0.022186	0.006789	0.020009	0.039521	0.008312	0.004731	0.006406	0.002994	0.034072	0.008783	0.003801	0.006081	0.008041	0.008769	0.020004	0.014466	0.022176	0.010291	0.022507	0.046080
4.655000	0.057681	0.031220	0.018261	0.021701	0.020024	0.077096	0.052503	0.065329	0.062196	0.049218	0.034806	0.044772	0.042337	0.060772	0.049986	0.050189	0.064037	0.058129	0.048842	0.032167	0.039095	0.023369	0.050582	0.044167	0.015333	0.016103	0.007456	0.009716	0.009911	0.003256	0.005882	0.010824	0.005501	0.045820	0.003995	0.006238	0.011338	0.012972	0.020150	0.017868	0.022110	0.007112	0.020323	0.039922	0.007665	0.004637	0.006377	0.003238	0.033752	0.008813	0.003648	0.005693	0.007604	0.007525	0.020143	0.014188	0.022628	0.010330	0.023140	0.046287
4.660000	0.057033	0.031158	0.018091	0.021492	0.017814	0.076695	0.051527	0.064883	0.061498	0.048523	0.034946	0.044888	0.042733	0.061142	0.049817	0.049683	0.063642	0.057496	0.048345	0.032133	0.039276	0.024519	0.050356	0.044779	0.015082	0.016519	0.007642	0.010078	0.009810	0.003341	0.005758	0.011108	0.005393	0.045657	0.003858	0.006008	0.011077	0.012573	0.020124	0.017858	0.022026	0.007112	0.021048	0.039880	0.007635	0.004983	0.006548	0.003590	0.033429	0.008761	0.003491	0.005723	0.007301	0.008308	0.020091	0.013759	0.022704	0.010582	0.022905	0.046417
4.665000	0.056591	0.030932	0.017968	0.021417	0.020048	0.076027	0.051209	0.064550	0.061006	0.047909	0.034419	0.044219	0.043088	0.061051	0.049849	0.049176	0.063273	0.057404	0.047996	0.032411	0.038782	0.024145	0.050966	0.044424	0.015975	0.016290	0.007487	0.010404	0.009791	0.003323	0.005873	0.011102	0.005557	0.045529	0.003909	0.006103	0.010804	0.012683	0.019666	0.017846	0.022132	0.007054	0.020712	0.040206	0.007188	0.004627	0.006540	0.003756	0.033510	0.008449	0.003251	0.005109	0.007079	0.007057	0.020344	0.014521	0.022749	0.010431	0.023260	0.046792
4.670000	0.055494	0.030613	0.017812	0.021220	0.019645	0.075566	0.050330	0.063896	0.060237	0.047197	0.034816	0.044334	0.043560	0.060805	0.050114	0.048781	0.062289	0.056474	0.047253	0.032681	0.038780	0.024956	0.050554	0.045201	0.015384	0.016795	0.007754	0.010837	0.009858	0.003149	0.006508	0.010206	0.005933	0.045072	0.003884	0.005748	0.010290	0.011897	0.019373	0.017606	0.021810	0.007672	0.021304	0.040424	0.007128	0.004732	0.006468	0.003682	0.033659	0.008104	0.003108	0.005353	0.007003	0.008043	0.020397	0.014015	0.023023	0.010323	0.023254	0.046646
4.675000	0.054650	0.030475	0.017159	0.020739	0.019930	0.075158	0.049440	0.063887	0.059873	0.046995	0.034028	0.043554	0.043555	0.060488	0.049922	0.048531	0.062575	0.056459	0.047371	0.032077	0.038439	0.024296	0.050942	0.045490	0.015774	0.015646	0.007380	0.010740	0.009861	0.003487	0.006245	0.011294	0.006062	0.045057	0.003234	0.005695	0.010286	0.012151	0.019058	0.017359	0.021681	0.008111	0.021566	0.040695	0.006825	0.004704	0.006219	0.003856	0.033521	0.007329	0.002978	0.004319	0.006587	0.007629	0.020056	0.013744	0.023505	0.010701	0.023327	0.047177
4.680000	0.054280	0.030161	0.017125	0.020479	0.019978	0.075260	0.048739	0.063574	0.059228	0.046555	0.033674	0.043212	0.043513	0.061276	0.049717	0.048019	0.062288	0.056018	0.047026	0.031711	0.038037	0.023864	0.051361	0.044576	0.015406	0.016593	0.007355	0.011087	0.009908	0.003606	0.006935	0.010537	0.006124	0.044787	0.003581	0.005911	0.010010	0.012010	0.018940	0.017523	0.021569	0.008329	0.022013	0.040734	0.006859	0.004704	0.006469	0.003531	0.033473	0.007361	0.002841	0.004355	0.005761	0.007406	0.020139	0.013678	0.023696	0.010343	0.023551	0.046994
4.685000	0.053508	0.029928	0.016650	0.020217	0.019924	0.074904	0.047962	0.063029	0.058757	0.046253	0.033405	0.042939	0.043699	0.061173	0.049443	0.047625	0.061872	0.055448	0.046656	0.031581	0.037937	0.023901	0.051396	0.044357	0.015631	0.016237	0.007481	0.011058	0.009856	0.003611	0.006342	0.012208	0.006218	0.044853	0.003675	0.005872	0.009962	0.011638	0.018762	0.017687	0.021683	0.008558	0.021990	0.040955	0.006892	0.004769	0.006556	0.003972	0.033456	0.007048	0.002976	0.004094	0.005850	0.006838	0.020248	0.013590	0.024107	0.010774	0.023523	0.047366
4.690000	0.052945	0.029691	0.016470	0.019843	0.020016	0.074317	0.047167	0.062641	0.058130	0.046055	0.032936	0.042807	0.043451	0.061322	0.048777	0.047094	0.061580	0.055067	0.046269	0.031487	0.037419	0.023736	0.051720	0.043906	0.015612	0.016437	0.007452	0.011198	0.009924	0.003800	0.006428	0.012325	0.006273	0.044665	0.003343	0.006132	0.009713	0.011494	0.018554	0.017678	0.021528	0.008967	0.022719	0.041303	0.006776	0.005072	0.006757	0.003911	0.033107	0.006613	0.003009	0.003862	0.005643	0.007490	0.020432	0.013580	0.024735	0.010242	0.023776	0.047439
4.695000	0.052727	0.029763	0.017024	0.019974	0.019963	0.073869	0.046610	0.062058	0.057602	0.045678	0.032847	0.042441	0.043348	0.061171	0.048626	0.046588	0.061193	0.054342	0.045724	0.031140	0.037409	0.024028	0.051854	0.043628	0.015593	0.016260	0.007553	0.011114	0.010077	0.004161	0.006736	0.012548	0.006355	0.044507	0.003364	0.006144	0.009711	0.011713	0.018491	0.017968	0.021557	0.009071	0.022562	0.041505	0.007228	0.005366	0.006923	0.003890	0.032958	0.006516	0.002582	0.003967	0.005151	0.006247	0.020405	0.013450	0.025388	0.009787	0.023887	0.047121
4.700000	0.052125	0.029934	0.017232	0.019662	0.019999	0.073438	0.045850	0.062204	0.057072	0.045391	0.032358	0.042134	0.043862	0.061262	0.048362	0.046004	0.060839	0.053964	0.045423	0.030907	0.037202	0.023610	0.051747	0.043639	0.015559	0.016077	0.007616	0.011288	0.010064	0.004630	0.007807	0.011501	0.006429	0.044309	0.003190	0.006210	0.009258	0.011267	0.018231	0.017992	0.021504	0.009177	0.023093	0.041725	0.007391	0.005554	0.007255	0.003872	0.032812	0.006333	0.002660	0.004178	0.005546	0.006459	0.020403	0.013027	0.025494	0.009487	0.024202	0.047169
4.705000	0.051353	0.029869	0.016834	0.019849	0.018137	0.072739	0.045123	0.061832	0.056674	0.044989	0.032121	0.041864	0.043673	0.061081	0.048368	0.045435	0.060772	0.053554	0.045424	0.030514	0.037015	0.023484	0.051497	0.043257	0.015687	0.015894	0.007772	0.011380	0.010123	0.005109	0.008109	0.011653	0.006455	0.044131	0.003186	0.006033	0.009391	0.011673	0.018268	0.018202	0.021299	0.009535	0.023454	0.041989	0.007852	0.005742	0.007575	0.003973	0.032470	0.006410	0.002778	0.003769	0.005126	0.006211	0.020702	0.012850	0.026505	0.009838	0.024666	0.046887
