Model Marker Errors from IK
version=1
nRows=153
nColumns=4
inDegrees=no
endheader
time	total_squared_error	marker_error_RMS	marker_error_max
      5.86500000	      0.09929779	      0.04034641	      0.15268062
      5.87000000	      0.09951564	      0.04039064	      0.15327553
      5.87500000	      0.09963125	      0.04041410	      0.15314455
      5.88000000	      0.09983679	      0.04045576	      0.15331193
      5.88500000	      0.10013679	      0.04051650	      0.15323706
      5.89000000	      0.10012230	      0.04051357	      0.15346940
      5.89500000	      0.10052922	      0.04059581	      0.15317306
      5.90000000	      0.10081058	      0.04065258	      0.15397716
      5.90500000	      0.10094116	      0.04067890	      0.15385101
      5.91000000	      0.10090337	      0.04067129	      0.15384079
      5.91500000	      0.10108591	      0.04070806	      0.15381277
      5.92000000	      0.10118183	      0.04072737	      0.15394635
      5.92500000	      0.10134726	      0.04076065	      0.15437747
      5.93000000	      0.10153786	      0.04079896	      0.15461669
      5.93500000	      0.10182175	      0.04085595	      0.15469364
      5.94000000	      0.10190158	      0.04087197	      0.15483362
      5.94500000	      0.10200361	      0.04089242	      0.15482780
      5.95000000	      0.10215118	      0.04092199	      0.15487435
      5.95500000	      0.10523437	      0.04153497	      0.15539043
      5.96000000	      0.10240873	      0.04097355	      0.15469866
      5.96500000	      0.10542167	      0.04157191	      0.15546965
      5.97000000	      0.10500496	      0.04148967	      0.15496190
      5.97500000	      0.10523444	      0.04153498	      0.15498890
      5.98000000	      0.10520694	      0.04152956	      0.15578228
      5.98500000	      0.10550960	      0.04158925	      0.15498107
      5.99000000	      0.10529287	      0.04154651	      0.15491187
      5.99500000	      0.10562168	      0.04161133	      0.15463838
      6.00000000	      0.10578150	      0.04164280	      0.15481311
      6.00500000	      0.10545270	      0.04157803	      0.15461254
      6.01000000	      0.10573326	      0.04163330	      0.15493584
      6.01500000	      0.10595856	      0.04167764	      0.15464409
      6.02000000	      0.10600904	      0.04168757	      0.15475403
      6.02500000	      0.10644958	      0.04177410	      0.15491134
      6.03000000	      0.10670094	      0.04182339	      0.15509428
      6.03500000	      0.10311359	      0.04111431	      0.15481915
      6.04000000	      0.10315650	      0.04112287	      0.15513538
      6.04500000	      0.10659857	      0.04180332	      0.15550390
      6.05000000	      0.10644818	      0.04177382	      0.15600418
      6.05500000	      0.10700881	      0.04188368	      0.15585189
      6.06000000	      0.10382116	      0.04125514	      0.15552490
      6.06500000	      0.10712416	      0.04190625	      0.15635291
      6.07000000	      0.10734983	      0.04195037	      0.15658870
      6.07500000	      0.10757061	      0.04199348	      0.15703492
      6.08000000	      0.10759971	      0.04199916	      0.15712849
      6.08500000	      0.10752223	      0.04198404	      0.15700557
      6.09000000	      0.10781935	      0.04204201	      0.15703067
      6.09500000	      0.10845046	      0.04216487	      0.15716485
      6.10000000	      0.10852534	      0.04217942	      0.15718752
      6.10500000	      0.10485648	      0.04146033	      0.15653796
      6.11000000	      0.10771897	      0.04202243	      0.15666952
      6.11500000	      0.10869213	      0.04221183	      0.15712972
      6.12000000	      0.10786533	      0.04205097	      0.15676090
      6.12500000	      0.10777814	      0.04203397	      0.15663252
      6.13000000	      0.10482476	      0.04145405	      0.15598967
      6.13500000	      0.10777929	      0.04203420	      0.15652245
      6.14000000	      0.10454921	      0.04139953	      0.15621886
      6.14500000	      0.10438048	      0.04136611	      0.15649636
      6.15000000	      0.10442966	      0.04137586	      0.15650283
      6.15500000	      0.10439155	      0.04136831	      0.15691278
      6.16000000	      0.10428687	      0.04134756	      0.15689139
      6.16500000	      0.10446899	      0.04138365	      0.15728060
      6.17000000	      0.10390037	      0.04127087	      0.15683498
      6.17500000	      0.10344999	      0.04118132	      0.15656755
      6.18000000	      0.10283237	      0.04105821	      0.15649324
      6.18500000	      0.10255741	      0.04100328	      0.15608587
      6.19000000	      0.10228305	      0.04094840	      0.15560100
      6.19500000	      0.10171526	      0.04083458	      0.15486529
      6.20000000	      0.10116033	      0.04072304	      0.15479669
      6.20500000	      0.10083346	      0.04065720	      0.15361687
      6.21000000	      0.10028536	      0.04054655	      0.15424035
      6.21500000	      0.09949240	      0.04038593	      0.15350147
      6.22000000	      0.09888560	      0.04026258	      0.15287039
      6.22500000	      0.09814902	      0.04011235	      0.15090352
      6.23000000	      0.09731414	      0.03994138	      0.15148607
      6.23500000	      0.09633558	      0.03974005	      0.15062991
      6.24000000	      0.09559325	      0.03958664	      0.14958167
      6.24500000	      0.09466503	      0.03939398	      0.14747955
      6.25000000	      0.09375211	      0.03920357	      0.14749252
      6.25500000	      0.09293783	      0.03903295	      0.14636968
      6.26000000	      0.09205850	      0.03884785	      0.14534586
      6.26500000	      0.09096485	      0.03861641	      0.14392531
      6.27000000	      0.08973439	      0.03835434	      0.14238277
      6.27500000	      0.08876715	      0.03814707	      0.14179208
      6.28000000	      0.08796079	      0.03797341	      0.14075013
      6.28500000	      0.08666822	      0.03769337	      0.13946647
      6.29000000	      0.08543035	      0.03742322	      0.13792988
      6.29500000	      0.08431964	      0.03717915	      0.13646863
      6.30000000	      0.08273391	      0.03682789	      0.13420339
      6.30500000	      0.08123592	      0.03649296	      0.13280876
      6.31000000	      0.07962648	      0.03612966	      0.13084984
      6.31500000	      0.07772306	      0.03569522	      0.12847433
      6.32000000	      0.07585509	      0.03526367	      0.12657082
      6.32500000	      0.07401723	      0.03483385	      0.12398751
      6.33000000	      0.07214835	      0.03439128	      0.12186475
      6.33500000	      0.07019048	      0.03392143	      0.11945695
      6.34000000	      0.06820023	      0.03343705	      0.11683417
      6.34500000	      0.06654927	      0.03302986	      0.11436194
      6.35000000	      0.06513395	      0.03267675	      0.11193592
      6.35500000	      0.06396647	      0.03238257	      0.10965359
      6.36000000	      0.06253174	      0.03201735	      0.10698890
      6.36500000	      0.06142896	      0.03173377	      0.10446491
      6.37000000	      0.06052934	      0.03150054	      0.10195041
      6.37500000	      0.05994959	      0.03134933	      0.09969350
      6.38000000	      0.05953361	      0.03124037	      0.09742155
      6.38500000	      0.05894294	      0.03108501	      0.09535821
      6.39000000	      0.05884264	      0.03105855	      0.09350990
      6.39500000	      0.05866977	      0.03101289	      0.09164656
      6.40000000	      0.05867257	      0.03101363	      0.09042563
      6.40500000	      0.05831009	      0.03091768	      0.08913926
      6.41000000	      0.05793640	      0.03081845	      0.08798904
      6.41500000	      0.05777777	      0.03077623	      0.08710317
      6.42000000	      0.05785953	      0.03079800	      0.08682058
      6.42500000	      0.05810392	      0.03086298	      0.08678491
      6.43000000	      0.05828172	      0.03091016	      0.08694328
      6.43500000	      0.05857086	      0.03098674	      0.08784552
      6.44000000	      0.05840357	      0.03094246	      0.08781491
      6.44500000	      0.05804725	      0.03084792	      0.08935616
      6.45000000	      0.05767933	      0.03075001	      0.08960245
      6.45500000	      0.05750868	      0.03070448	      0.09035990
      6.46000000	      0.05762680	      0.03073600	      0.09186226
      6.46500000	      0.05760392	      0.03072990	      0.09212849
      6.47000000	      0.05757530	      0.03072226	      0.09254578
      6.47500000	      0.05722665	      0.03062910	      0.09317733
      6.48000000	      0.05703332	      0.03057732	      0.09364301
      6.48500000	      0.05664702	      0.03047359	      0.09367405
      6.49000000	      0.05646951	      0.03042581	      0.09419182
      6.49500000	      0.05624576	      0.03036547	      0.09420609
      6.50000000	      0.05614157	      0.03033733	      0.09463178
      6.50500000	      0.05621322	      0.03035668	      0.09517487
      6.51000000	      0.05628231	      0.03037533	      0.09544521
      6.51500000	      0.05643654	      0.03041692	      0.09569078
      6.52000000	      0.05675068	      0.03050146	      0.09631294
      6.52500000	      0.05722356	      0.03062827	      0.09650930
      6.53000000	      0.05756701	      0.03072005	      0.09680616
      6.53500000	      0.05800317	      0.03083621	      0.09808836
      6.54000000	      0.05833974	      0.03092554	      0.09855994
      6.54500000	      0.05892583	      0.03108049	      0.09862779
      6.55000000	      0.05910880	      0.03112871	      0.09895736
      6.55500000	      0.05943545	      0.03121460	      0.09927025
      6.56000000	      0.05947454	      0.03122487	      0.09914621
      6.56500000	      0.05952986	      0.03123939	      0.09949715
      6.57000000	      0.05949271	      0.03122964	      0.09899955
      6.57500000	      0.05934495	      0.03119083	      0.09959286
      6.58000000	      0.05908838	      0.03112333	      0.09900617
      6.58500000	      0.05884472	      0.03105910	      0.09953869
      6.59000000	      0.05849391	      0.03096638	      0.09900631
      6.59500000	      0.05834577	      0.03092714	      0.09920439
      6.60000000	      0.05780836	      0.03078438	      0.09894795
      6.60500000	      0.05755089	      0.03071575	      0.09897008
      6.61000000	      0.05720784	      0.03062407	      0.09845637
      6.61500000	      0.05684827	      0.03052767	      0.09863630
      6.62000000	      0.05667907	      0.03048221	      0.09817638
      6.62500000	      0.05630048	      0.03038024	      0.09785008
