Model Marker Errors from IK
version=1
nRows=1302
nColumns=4
inDegrees=no
endheader
time	total_squared_error	marker_error_RMS	marker_error_max
      0.00000000	      0.05128104	      0.02948169	      0.14180181
      0.00500000	      0.05128845	      0.02948382	      0.14191288
      0.01000000	      0.05133564	      0.02949738	      0.14201841
      0.01500000	      0.05133703	      0.02949778	      0.14200275
      0.02000000	      0.05132192	      0.02949344	      0.14200624
      0.02500000	      0.05131388	      0.02949113	      0.14186393
      0.03000000	      0.05145783	      0.02953247	      0.14199837
      0.03500000	      0.05135434	      0.02950275	      0.14203699
      0.04000000	      0.05120731	      0.02946049	      0.14161348
      0.04500000	      0.05130885	      0.02948968	      0.14189539
      0.05000000	      0.05112637	      0.02943720	      0.14163926
      0.05500000	      0.05105926	      0.02941787	      0.14154918
      0.06000000	      0.05112499	      0.02943680	      0.14168629
      0.06500000	      0.05113842	      0.02944067	      0.14136557
      0.07000000	      0.05114245	      0.02944183	      0.14139429
      0.07500000	      0.05099098	      0.02939820	      0.14136648
      0.08000000	      0.05100546	      0.02940237	      0.14149136
      0.08500000	      0.05096504	      0.02939072	      0.14132109
      0.09000000	      0.05097298	      0.02939301	      0.14142450
      0.09500000	      0.05096093	      0.02938953	      0.14118855
      0.10000000	      0.05094425	      0.02938472	      0.14130287
      0.10500000	      0.05094035	      0.02938360	      0.14119660
      0.11000000	      0.05092428	      0.02937896	      0.14117493
      0.11500000	      0.05086837	      0.02936283	      0.14063249
      0.12000000	      0.05092650	      0.02937960	      0.14109990
      0.12500000	      0.05091343	      0.02937583	      0.14100840
      0.13000000	      0.05085798	      0.02935983	      0.14099724
      0.13500000	      0.05090217	      0.02937258	      0.14093108
      0.14000000	      0.05089617	      0.02937085	      0.14093053
      0.14500000	      0.05091354	      0.02937586	      0.14083819
      0.15000000	      0.05087799	      0.02936561	      0.14098286
      0.15500000	      0.05086139	      0.02936082	      0.14094967
      0.16000000	      0.05085042	      0.02935765	      0.14086217
      0.16500000	      0.05085986	      0.02936037	      0.14074827
      0.17000000	      0.05086026	      0.02936049	      0.14098365
      0.17500000	      0.05085056	      0.02935769	      0.14074605
      0.18000000	      0.05084620	      0.02935643	      0.14066617
      0.18500000	      0.05075472	      0.02933001	      0.14046131
      0.19000000	      0.05079304	      0.02934108	      0.14052896
      0.19500000	      0.05081597	      0.02934770	      0.14060140
      0.20000000	      0.05088891	      0.02936876	      0.14019124
      0.20500000	      0.05072901	      0.02932258	      0.14039184
      0.21000000	      0.05082619	      0.02935065	      0.14017258
      0.21500000	      0.05081766	      0.02934819	      0.14008114
      0.22000000	      0.05080290	      0.02934393	      0.14008989
      0.22500000	      0.05078247	      0.02933803	      0.13999044
      0.23000000	      0.05077034	      0.02933452	      0.13994968
      0.23500000	      0.05077097	      0.02933470	      0.14001396
      0.24000000	      0.05073164	      0.02932334	      0.13993797
      0.24500000	      0.05068735	      0.02931054	      0.13972997
      0.25000000	      0.05067063	      0.02930570	      0.13975644
      0.25500000	      0.05068244	      0.02930912	      0.13961917
      0.26000000	      0.05062521	      0.02929256	      0.13956337
      0.26500000	      0.05056260	      0.02927445	      0.13959516
      0.27000000	      0.05062531	      0.02929259	      0.13961627
      0.27500000	      0.05065646	      0.02930160	      0.13962833
      0.28000000	      0.05059953	      0.02928514	      0.13967942
      0.28500000	      0.05055665	      0.02927272	      0.13941759
      0.29000000	      0.05050393	      0.02925746	      0.13921403
      0.29500000	      0.05043486	      0.02923745	      0.13918898
      0.30000000	      0.05040853	      0.02922981	      0.13903658
      0.30500000	      0.05042539	      0.02923470	      0.13916607
      0.31000000	      0.05030415	      0.02919953	      0.13890585
      0.31500000	      0.05021488	      0.02917361	      0.13864542
      0.32000000	      0.05021388	      0.02917332	      0.13861693
      0.32500000	      0.05018043	      0.02916360	      0.13844533
      0.33000000	      0.05023405	      0.02917918	      0.13876682
      0.33500000	      0.05023784	      0.02918028	      0.13886183
      0.34000000	      0.05016331	      0.02915863	      0.13884920
      0.34500000	      0.05021074	      0.02917241	      0.13864002
      0.35000000	      0.04997800	      0.02910472	      0.13834620
      0.35500000	      0.05006921	      0.02913127	      0.13819468
      0.36000000	      0.04985967	      0.02907025	      0.13831060
      0.36500000	      0.05010770	      0.02914246	      0.13823210
      0.37000000	      0.04994206	      0.02909425	      0.13792341
      0.37500000	      0.04997172	      0.02910289	      0.13837383
      0.38000000	      0.04984974	      0.02906735	      0.13772952
      0.38500000	      0.04988753	      0.02907837	      0.13804735
      0.39000000	      0.04989441	      0.02908037	      0.13778455
      0.39500000	      0.04984453	      0.02906583	      0.13804201
      0.40000000	      0.04997121	      0.02910274	      0.13794967
      0.40500000	      0.04999721	      0.02911031	      0.13818784
      0.41000000	      0.05009581	      0.02913900	      0.13861009
      0.41500000	      0.05014339	      0.02915284	      0.13821642
      0.42000000	      0.05024652	      0.02918280	      0.13879547
      0.42500000	      0.05025552	      0.02918542	      0.13863235
      0.43000000	      0.05040828	      0.02922974	      0.13886344
      0.43500000	      0.05042758	      0.02923533	      0.13902043
      0.44000000	      0.05049872	      0.02925595	      0.13913976
      0.44500000	      0.05064606	      0.02929860	      0.13867105
      0.45000000	      0.05078273	      0.02933810	      0.13891343
      0.45500000	      0.05102987	      0.02940940	      0.13909246
      0.46000000	      0.05123251	      0.02946774	      0.13909522
      0.46500000	      0.05112657	      0.02943726	      0.13927677
      0.47000000	      0.05128877	      0.02948391	      0.13965963
      0.47500000	      0.05166253	      0.02959115	      0.13994806
      0.48000000	      0.05224926	      0.02975871	      0.14049210
      0.48500000	      0.05209267	      0.02971408	      0.14072509
      0.49000000	      0.05219879	      0.02974433	      0.14113505
      0.49500000	      0.05256871	      0.02984954	      0.14159794
      0.50000000	      0.05307588	      0.02999318	      0.14228550
      0.50500000	      0.05309334	      0.02999812	      0.14142631
      0.51000000	      0.05338344	      0.03007996	      0.14263219
      0.51500000	      0.05356744	      0.03013176	      0.14306530
      0.52000000	      0.05403384	      0.03026265	      0.14346606
      0.52500000	      0.05390153	      0.03022557	      0.14359567
      0.53000000	      0.05455075	      0.03040705	      0.14414888
      0.53500000	      0.05452325	      0.03039939	      0.14470518
      0.54000000	      0.05492164	      0.03051025	      0.14590696
      0.54500000	      0.05529085	      0.03061263	      0.14561957
      0.55000000	      0.05551778	      0.03067539	      0.14650190
      0.55500000	      0.05592571	      0.03078788	      0.14682332
      0.56000000	      0.05617719	      0.03085702	      0.14752826
      0.56500000	      0.05625003	      0.03087702	      0.14790868
      0.57000000	      0.05626659	      0.03088156	      0.14841250
      0.57500000	      0.05670394	      0.03100135	      0.14954196
      0.58000000	      0.05685652	      0.03104303	      0.14995865
      0.58500000	      0.05729945	      0.03116372	      0.15057282
      0.59000000	      0.05716574	      0.03112733	      0.15075859
      0.59500000	      0.05781354	      0.03130320	      0.15167971
      0.60000000	      0.05781225	      0.03130285	      0.15247214
      0.60500000	      0.05812919	      0.03138854	      0.15297159
      0.61000000	      0.05804002	      0.03136446	      0.15333468
      0.61500000	      0.05825416	      0.03142226	      0.15405680
      0.62000000	      0.05880263	      0.03156984	      0.15508825
      0.62500000	      0.05876274	      0.03155913	      0.15527300
      0.63000000	      0.05952679	      0.03176364	      0.15684593
      0.63500000	      0.05998668	      0.03188610	      0.15752389
      0.64000000	      0.06033731	      0.03197915	      0.15792889
      0.64500000	      0.06077501	      0.03209494	      0.15846496
      0.65000000	      0.06127818	      0.03222752	      0.15935673
      0.65500000	      0.06159782	      0.03231147	      0.16011075
      0.66000000	      0.06188241	      0.03238602	      0.16110987
      0.66500000	      0.06221637	      0.03247329	      0.16155582
      0.67000000	      0.06253503	      0.03255635	      0.16264939
      0.67500000	      0.06268707	      0.03259590	      0.16345768
      0.68000000	      0.06312823	      0.03271040	      0.16402268
      0.68500000	      0.06344545	      0.03279248	      0.16512088
      0.69000000	      0.06336623	      0.03277200	      0.16517608
      0.69500000	      0.06406442	      0.03295205	      0.16643955
      0.70000000	      0.06411120	      0.03296408	      0.16682712
      0.70500000	      0.06423451	      0.03299577	      0.16696921
      0.71000000	      0.06449158	      0.03306172	      0.16754439
      0.71500000	      0.06487085	      0.03315880	      0.16837284
      0.72000000	      0.06533565	      0.03327738	      0.16891571
      0.72500000	      0.06551771	      0.03332371	      0.16995311
      0.73000000	      0.06581284	      0.03339868	      0.17041611
      0.73500000	      0.06584583	      0.03340705	      0.17002030
      0.74000000	      0.06628703	      0.03351879	      0.17113667
      0.74500000	      0.06684730	      0.03366014	      0.17168863
      0.75000000	      0.06665361	      0.03361134	      0.17121114
      0.75500000	      0.06719674	      0.03374800	      0.17208991
      0.76000000	      0.06758429	      0.03384518	      0.17293695
      0.76500000	      0.06804031	      0.03395918	      0.17349427
      0.77000000	      0.06818733	      0.03399584	      0.17328044
      0.77500000	      0.06865227	      0.03411155	      0.17366410
      0.78000000	      0.06884326	      0.03415897	      0.17411495
      0.78500000	      0.06947790	      0.03431605	      0.17486192
      0.79000000	      0.06943160	      0.03430462	      0.17487724
      0.79500000	      0.07004504	      0.03445583	      0.17567403
      0.80000000	      0.07046244	      0.03455834	      0.17668025
      0.80500000	      0.07102762	      0.03469666	      0.17672782
      0.81000000	      0.07140916	      0.03478972	      0.17773848
      0.81500000	      0.07161581	      0.03484002	      0.17776286
      0.82000000	      0.07233948	      0.03501561	      0.17899386
      0.82500000	      0.07237479	      0.03502415	      0.17845123
      0.83000000	      0.07289612	      0.03515007	      0.17917520
      0.83500000	      0.07337718	      0.03526586	      0.18009628
      0.84000000	      0.07369387	      0.03534188	      0.18001800
      0.84500000	      0.07422437	      0.03546886	      0.18060849
      0.85000000	      0.07432373	      0.03549259	      0.18088162
      0.85500000	      0.07491088	      0.03563251	      0.18141208
      0.86000000	      0.07570127	      0.03582000	      0.18247286
      0.86500000	      0.07602463	      0.03589642	      0.18243113
      0.87000000	      0.07705777	      0.03613951	      0.18384841
      0.87500000	      0.07717761	      0.03616760	      0.18358814
      0.88000000	      0.07799827	      0.03635938	      0.18476253
      0.88500000	      0.07829435	      0.03642832	      0.18467991
      0.89000000	      0.07910787	      0.03661709	      0.18579690
      0.89500000	      0.07927220	      0.03665510	      0.18554065
      0.90000000	      0.08020971	      0.03687122	      0.18631189
      0.90500000	      0.08028481	      0.03688847	      0.18655335
      0.91000000	      0.08124640	      0.03710873	      0.18722136
      0.91500000	      0.08139030	      0.03714157	      0.18757460
      0.92000000	      0.08173844	      0.03722093	      0.18746118
      0.92500000	      0.08239325	      0.03736972	      0.18808757
      0.93000000	      0.08286826	      0.03747728	      0.18857326
      0.93500000	      0.08341814	      0.03760142	      0.18889924
      0.94000000	      0.08410632	      0.03775620	      0.18983689
      0.94500000	      0.08436698	      0.03781466	      0.18947281
      0.95000000	      0.08488218	      0.03792995	      0.18987354
      0.95500000	      0.08554132	      0.03807693	      0.19079144
      0.96000000	      0.08576970	      0.03812773	      0.19048539
      0.96500000	      0.08644062	      0.03827656	      0.19130562
      0.97000000	      0.08690819	      0.03837995	      0.19164452
      0.97500000	      0.08698235	      0.03839632	      0.19118750
      0.98000000	      0.08748400	      0.03850688	      0.19173838
      0.98500000	      0.08796693	      0.03861302	      0.19181214
      0.99000000	      0.08830970	      0.03868817	      0.19239957
      0.99500000	      0.08869877	      0.03877330	      0.19235800
      1.00000000	      0.08911519	      0.03886421	      0.19252580
      1.00500000	      0.08963399	      0.03897717	      0.19287570
      1.01000000	      0.08996364	      0.03904878	      0.19343612
      1.01500000	      0.09064209	      0.03919575	      0.19391504
      1.02000000	      0.08700050	      0.03840032	      0.19089771
      1.02500000	      0.08751417	      0.03851352	      0.19132044
      1.03000000	      0.08797108	      0.03861393	      0.19203427
      1.03500000	      0.08817602	      0.03865888	      0.19159889
      1.04000000	      0.08835982	      0.03869915	      0.19138167
      1.04500000	      0.08930792	      0.03890621	      0.19254320
      1.05000000	      0.08912510	      0.03886637	      0.19214969
      1.05500000	      0.08920972	      0.03888482	      0.19228795
      1.06000000	      0.08971956	      0.03899577	      0.19281373
      1.06500000	      0.08988974	      0.03903274	      0.19272063
      1.07000000	      0.08986009	      0.03902630	      0.19326183
      1.07500000	      0.09043333	      0.03915059	      0.19388173
      1.08000000	      0.09064765	      0.03919695	      0.19359188
      1.08500000	      0.09075406	      0.03921995	      0.19290680
      1.09000000	      0.09079054	      0.03922783	      0.19368744
      1.09500000	      0.09118799	      0.03931360	      0.19381795
      1.10000000	      0.09113347	      0.03930184	      0.19337549
      1.10500000	      0.09142529	      0.03936472	      0.19396500
      1.11000000	      0.09184140	      0.03945420	      0.19405225
      1.11500000	      0.09223525	      0.03953871	      0.19378536
      1.12000000	      0.09251041	      0.03959764	      0.19422813
      1.12500000	      0.09262438	      0.03962202	      0.19455909
      1.13000000	      0.09260772	      0.03961846	      0.19412607
      1.13500000	      0.09296345	      0.03969448	      0.19405605
      1.14000000	      0.09334136	      0.03977508	      0.19433239
      1.14500000	      0.09350359	      0.03980963	      0.19448449
      1.15000000	      0.09292699	      0.03968670	      0.19400257
      1.15500000	      0.09254329	      0.03960468	      0.19376124
      1.16000000	      0.09332890	      0.03977243	      0.19466567
      1.16500000	      0.09316137	      0.03973671	      0.19434166
      1.17000000	      0.09320287	      0.03974556	      0.19410629
      1.17500000	      0.09331996	      0.03977052	      0.19401147
      1.18000000	      0.09348999	      0.03980673	      0.19410066
      1.18500000	      0.09351077	      0.03981116	      0.19399586
      1.19000000	      0.09357111	      0.03982400	      0.19413222
      1.19500000	      0.09368508	      0.03984825	      0.19391900
      1.20000000	      0.09373003	      0.03985780	      0.19398046
      1.20500000	      0.09441693	      0.04000359	      0.19409731
      1.21000000	      0.09451746	      0.04002488	      0.19396431
      1.21500000	      0.09463447	      0.04004964	      0.19362351
      1.22000000	      0.09509000	      0.04014592	      0.19429027
      1.22500000	      0.09521529	      0.04017236	      0.19411202
      1.23000000	      0.09506703	      0.04014107	      0.19361779
      1.23500000	      0.09579907	      0.04029532	      0.19407776
      1.24000000	      0.09549256	      0.04023081	      0.19413026
      1.24500000	      0.09598168	      0.04033371	      0.19461019
      1.25000000	      0.09592614	      0.04032204	      0.19447752
      1.25500000	      0.09547480	      0.04022707	      0.19405188
      1.26000000	      0.09614299	      0.04036759	      0.19485956
      1.26500000	      0.09644399	      0.04043073	      0.19536422
      1.27000000	      0.09659498	      0.04046237	      0.19554306
      1.27500000	      0.09659018	      0.04046136	      0.19496004
      1.28000000	      0.09642545	      0.04042684	      0.19420515
      1.28500000	      0.09683318	      0.04051223	      0.19467937
      1.29000000	      0.09703146	      0.04055368	      0.19478413
      1.29500000	      0.09752550	      0.04065679	      0.19519378
      1.30000000	      0.09765064	      0.04068287	      0.19548160
      1.30500000	      0.09741874	      0.04063453	      0.19445326
      1.31000000	      0.09730763	      0.04061135	      0.19430842
      1.31500000	      0.09761612	      0.04067567	      0.19436813
      1.32000000	      0.09790638	      0.04073610	      0.19455876
      1.32500000	      0.09775602	      0.04070481	      0.19509932
      1.33000000	      0.09802015	      0.04075977	      0.19537646
      1.33500000	      0.09793597	      0.04074226	      0.19560626
      1.34000000	      0.09810282	      0.04077695	      0.19501317
      1.34500000	      0.09782895	      0.04071999	      0.19465525
      1.35000000	      0.09786005	      0.04072647	      0.19478064
      1.35500000	      0.09819178	      0.04079543	      0.19547210
      1.36000000	      0.09824739	      0.04080698	      0.19523735
      1.36500000	      0.09847921	      0.04085510	      0.19531011
      1.37000000	      0.09852566	      0.04086473	      0.19528887
      1.37500000	      0.09844641	      0.04084829	      0.19512381
      1.38000000	      0.09842189	      0.04084321	      0.19504481
      1.38500000	      0.09857548	      0.04087506	      0.19487029
      1.39000000	      0.09879831	      0.04092124	      0.19513765
      1.39500000	      0.09872399	      0.04090584	      0.19528775
      1.40000000	      0.09878968	      0.04091945	      0.19534077
      1.40500000	      0.09881937	      0.04092560	      0.19512195
      1.41000000	      0.09889732	      0.04094174	      0.19531031
      1.41500000	      0.09916737	      0.04099760	      0.19538733
      1.42000000	      0.09914606	      0.04099319	      0.19540160
      1.42500000	      0.09919376	      0.04100305	      0.19557069
      1.43000000	      0.09921590	      0.04100763	      0.19562131
      1.43500000	      0.09923953	      0.04101251	      0.19546952
      1.44000000	      0.09909673	      0.04098299	      0.19537942
      1.44500000	      0.09906712	      0.04097687	      0.19518341
      1.45000000	      0.09895951	      0.04095461	      0.19521753
      1.45500000	      0.09887194	      0.04093648	      0.19494563
      1.46000000	      0.09899070	      0.04096106	      0.19507508
      1.46500000	      0.09919363	      0.04100302	      0.19451457
      1.47000000	      0.09928089	      0.04102105	      0.19435540
      1.47500000	      0.09923723	      0.04101203	      0.19474889
      1.48000000	      0.09915705	      0.04099546	      0.19470855
      1.48500000	      0.09930219	      0.04102545	      0.19487863
      1.49000000	      0.09911660	      0.04098710	      0.19498786
      1.49500000	      0.09931788	      0.04102870	      0.19494150
      1.50000000	      0.09923070	      0.04101068	      0.19497277
      1.50500000	      0.09901308	      0.04096569	      0.19509438
      1.51000000	      0.09918554	      0.04100135	      0.19508411
      1.51500000	      0.09916835	      0.04099780	      0.19522370
      1.52000000	      0.09921613	      0.04100767	      0.19531926
      1.52500000	      0.09929597	      0.04102417	      0.19525535
      1.53000000	      0.09931039	      0.04102715	      0.19516710
      1.53500000	      0.09920064	      0.04100447	      0.19523604
      1.54000000	      0.09947320	      0.04106076	      0.19559449
      1.54500000	      0.09953994	      0.04107454	      0.19558942
      1.55000000	      0.09948775	      0.04106377	      0.19550635
      1.55500000	      0.09964242	      0.04109568	      0.19579769
      1.56000000	      0.10027271	      0.04122545	      0.19600463
      1.56500000	      0.09966175	      0.04109966	      0.19580055
      1.57000000	      0.09974398	      0.04111661	      0.19571211
      1.57500000	      0.09973314	      0.04111438	      0.19566265
      1.58000000	      0.09961759	      0.04109056	      0.19485692
      1.58500000	      0.09953484	      0.04107349	      0.19476414
      1.59000000	      0.09966470	      0.04110027	      0.19508781
      1.59500000	      0.09958004	      0.04108281	      0.19486195
      1.60000000	      0.09968402	      0.04110425	      0.19540068
      1.60500000	      0.09986215	      0.04114096	      0.19585429
      1.61000000	      0.09986540	      0.04114163	      0.19584911
      1.61500000	      0.09998953	      0.04116719	      0.19555771
      1.62000000	      0.09986670	      0.04114190	      0.19578108
      1.62500000	      0.09980108	      0.04112838	      0.19603360
      1.63000000	      0.09947563	      0.04106127	      0.19608730
      1.63500000	      0.09959793	      0.04108650	      0.19563421
      1.64000000	      0.09958527	      0.04108389	      0.19517046
      1.64500000	      0.09955999	      0.04107867	      0.19623674
      1.65000000	      0.09944596	      0.04105514	      0.19625855
      1.65500000	      0.09967062	      0.04110149	      0.19531753
      1.66000000	      0.09963128	      0.04109338	      0.19575226
      1.66500000	      0.09979147	      0.04112640	      0.19606196
      1.67000000	      0.09968544	      0.04110455	      0.19614664
      1.67500000	      0.09973512	      0.04111479	      0.19530310
      1.68000000	      0.09995581	      0.04116025	      0.19542412
      1.68500000	      0.09995929	      0.04116097	      0.19573693
      1.69000000	      0.10010086	      0.04119011	      0.19603967
      1.69500000	      0.10005411	      0.04118049	      0.19508745
      1.70000000	      0.10021430	      0.04121344	      0.19556871
      1.70500000	      0.10013641	      0.04119742	      0.19579440
      1.71000000	      0.10014337	      0.04119885	      0.19614604
      1.71500000	      0.10029858	      0.04123076	      0.19624703
      1.72000000	      0.10013343	      0.04119681	      0.19573317
      1.72500000	      0.10025874	      0.04122257	      0.19596750
      1.73000000	      0.10018523	      0.04120746	      0.19582798
      1.73500000	      0.10032039	      0.04123525	      0.19594582
      1.74000000	      0.10052808	      0.04127791	      0.19610727
      1.74500000	      0.10049836	      0.04127181	      0.19566556
      1.75000000	      0.10068748	      0.04131062	      0.19593945
      1.75500000	      0.10069330	      0.04131182	      0.19612528
      1.76000000	      0.10086982	      0.04134801	      0.19649409
      1.76500000	      0.10106271	      0.04138752	      0.19558325
      1.77000000	      0.10136491	      0.04144936	      0.19593409
      1.77500000	      0.10143755	      0.04146421	      0.19619583
      1.78000000	      0.10144263	      0.04146525	      0.19617950
      1.78500000	      0.10141717	      0.04146004	      0.19615027
      1.79000000	      0.10137155	      0.04145072	      0.19577169
      1.79500000	      0.10168068	      0.04151387	      0.19613214
      1.80000000	      0.10195500	      0.04156983	      0.19653745
      1.80500000	      0.10230306	      0.04164073	      0.19707684
      1.81000000	      0.10244496	      0.04166960	      0.19751054
      1.81500000	      0.10262320	      0.04170583	      0.19755858
      1.82000000	      0.10268377	      0.04171814	      0.19724434
      1.82500000	      0.10287052	      0.04175606	      0.19735427
      1.83000000	      0.10273501	      0.04172854	      0.19708886
      1.83500000	      0.10295063	      0.04177231	      0.19746115
      1.84000000	      0.10301660	      0.04178569	      0.19732153
      1.84500000	      0.10308743	      0.04180005	      0.19755128
      1.85000000	      0.10291886	      0.04176586	      0.19751901
      1.85500000	      0.10308150	      0.04179885	      0.19796479
      1.86000000	      0.10335401	      0.04185407	      0.19829890
      1.86500000	      0.10330641	      0.04184443	      0.19817103
      1.87000000	      0.10365643	      0.04191526	      0.19742611
      1.87500000	      0.10358595	      0.04190100	      0.19766583
      1.88000000	      0.10364833	      0.04191362	      0.19773559
      1.88500000	      0.10365984	      0.04191595	      0.19770403
      1.89000000	      0.10372840	      0.04192980	      0.19795385
      1.89500000	      0.10367798	      0.04191961	      0.19821198
      1.90000000	      0.10399127	      0.04198290	      0.19828173
      1.90500000	      0.10405667	      0.04199610	      0.19858587
      1.91000000	      0.10403456	      0.04199164	      0.19744742
      1.91500000	      0.10420952	      0.04202693	      0.19774846
      1.92000000	      0.10447841	      0.04208112	      0.19851419
      1.92500000	      0.10464315	      0.04211428	      0.19849883
      1.93000000	      0.10476344	      0.04213848	      0.19784182
      1.93500000	      0.10498070	      0.04218215	      0.19832683
      1.94000000	      0.10514630	      0.04221541	      0.19902819
      1.94500000	      0.10526509	      0.04223925	      0.19892634
      1.95000000	      0.10537423	      0.04226114	      0.19902241
      1.95500000	      0.10536351	      0.04225899	      0.19906236
      1.96000000	      0.10556141	      0.04229866	      0.19901555
      1.96500000	      0.10554100	      0.04229457	      0.19870237
      1.97000000	      0.10550809	      0.04228797	      0.19868928
      1.97500000	      0.10528318	      0.04224288	      0.19834018
      1.98000000	      0.10532438	      0.04225114	      0.19885253
      1.98500000	      0.10524034	      0.04223428	      0.19843381
      1.99000000	      0.10523129	      0.04223247	      0.19751280
      1.99500000	      0.10532315	      0.04225090	      0.19795866
      2.00000000	      0.10550328	      0.04228701	      0.19827752
      2.00500000	      0.10569525	      0.04232546	      0.19840608
      2.01000000	      0.10583534	      0.04235350	      0.19851380
      2.01500000	      0.10622998	      0.04243239	      0.19845852
      2.02000000	      0.10623457	      0.04243331	      0.19804695
      2.02500000	      0.10622162	      0.04243072	      0.19820261
      2.03000000	      0.10645055	      0.04247642	      0.19834234
      2.03500000	      0.10656707	      0.04249967	      0.19867584
      2.04000000	      0.10666050	      0.04251829	      0.19865926
      2.04500000	      0.10669003	      0.04252418	      0.19871024
      2.05000000	      0.10665602	      0.04251740	      0.19793620
      2.05500000	      0.10708107	      0.04260204	      0.19830910
      2.06000000	      0.10718433	      0.04262257	      0.19886743
      2.06500000	      0.10753215	      0.04269167	      0.19787453
      2.07000000	      0.10748292	      0.04268190	      0.19792977
      2.07500000	      0.10755005	      0.04269523	      0.19791729
      2.08000000	      0.10770185	      0.04272534	      0.19798358
      2.08500000	      0.10777644	      0.04274014	      0.19834128
      2.09000000	      0.10784640	      0.04275401	      0.19849979
      2.09500000	      0.10801546	      0.04278750	      0.19829142
      2.10000000	      0.10788835	      0.04276232	      0.19887098
      2.10500000	      0.10771238	      0.04272743	      0.19860441
      2.11000000	      0.10762245	      0.04270959	      0.19739907
      2.11500000	      0.10771589	      0.04272813	      0.19784186
      2.12000000	      0.10770359	      0.04272569	      0.19789477
      2.12500000	      0.10767239	      0.04271950	      0.19819955
      2.13000000	      0.10772699	      0.04273033	      0.19824552
      2.13500000	      0.10776384	      0.04273764	      0.19838789
      2.14000000	      0.10810031	      0.04280431	      0.19855756
      2.14500000	      0.10717294	      0.04262031	      0.19707918
      2.15000000	      0.10815332	      0.04281480	      0.19709533
      2.15500000	      0.10772727	      0.04273039	      0.19663618
      2.16000000	      0.10813329	      0.04281084	      0.19717246
      2.16500000	      0.10825137	      0.04283420	      0.19656498
      2.17000000	      0.10835479	      0.04285466	      0.19706810
      2.17500000	      0.10850132	      0.04288363	      0.19684282
      2.18000000	      0.10879474	      0.04294157	      0.19686045
      2.18500000	      0.10875614	      0.04293395	      0.19750448
      2.19000000	      0.10877214	      0.04293711	      0.19791242
      2.19500000	      0.10897668	      0.04297746	      0.19827634
      2.20000000	      0.10933801	      0.04304865	      0.19852309
      2.20500000	      0.10930392	      0.04304194	      0.19864796
      2.21000000	      0.10909391	      0.04300057	      0.19855092
      2.21500000	      0.10918502	      0.04301853	      0.19861315
      2.22000000	      0.10942700	      0.04306617	      0.19895997
      2.22500000	      0.10939880	      0.04306062	      0.19902745
      2.23000000	      0.10945613	      0.04307190	      0.19906347
      2.23500000	      0.10969057	      0.04311800	      0.19798998
      2.24000000	      0.11008578	      0.04319561	      0.19848598
      2.24500000	      0.11000384	      0.04317953	      0.19873734
      2.25000000	      0.11015231	      0.04320866	      0.19899099
      2.25500000	      0.10993150	      0.04316533	      0.19908181
      2.26000000	      0.10983101	      0.04314560	      0.19819332
      2.26500000	      0.11007613	      0.04319372	      0.19871647
      2.27000000	      0.11002485	      0.04318365	      0.19903901
      2.27500000	      0.10999275	      0.04317735	      0.19899801
      2.28000000	      0.11009959	      0.04319832	      0.19932181
      2.28500000	      0.11023010	      0.04322391	      0.19955184
      2.29000000	      0.11028325	      0.04323433	      0.19947801
      2.29500000	      0.11028227	      0.04323414	      0.19971753
      2.30000000	      0.11039324	      0.04325589	      0.19967967
      2.30500000	      0.11047924	      0.04327273	      0.19970801
      2.31000000	      0.11063295	      0.04330283	      0.19989373
      2.31500000	      0.11072063	      0.04331998	      0.20028322
      2.32000000	      0.11098084	      0.04337086	      0.19910914
      2.32500000	      0.11095292	      0.04336540	      0.19974226
      2.33000000	      0.11098848	      0.04337235	      0.20007037
      2.33500000	      0.11133332	      0.04343967	      0.20032935
      2.34000000	      0.11142988	      0.04345851	      0.19968364
      2.34500000	      0.11179364	      0.04352939	      0.20010300
      2.35000000	      0.11164021	      0.04349951	      0.20033440
      2.35500000	      0.11207339	      0.04358382	      0.20063512
      2.36000000	      0.11207869	      0.04358485	      0.20075578
      2.36500000	      0.11228602	      0.04362514	      0.20149093
      2.37000000	      0.11262418	      0.04369078	      0.20179426
      2.37500000	      0.11265729	      0.04369720	      0.20070641
      2.38000000	      0.11231149	      0.04363009	      0.20124134
      2.38500000	      0.11291722	      0.04374758	      0.20180617
      2.39000000	      0.11276358	      0.04371781	      0.20220676
      2.39500000	      0.11363334	      0.04388609	      0.20222558
      2.40000000	      0.11364872	      0.04388906	      0.20262052
      2.40500000	      0.11379305	      0.04391692	      0.20275244
      2.41000000	      0.11398923	      0.04395476	      0.20314431
      2.41500000	      0.11413086	      0.04398206	      0.20294594
      2.42000000	      0.11456234	      0.04406512	      0.20300665
      2.42500000	      0.11441026	      0.04403586	      0.20315811
      2.43000000	      0.11457324	      0.04406721	      0.20303373
      2.43500000	      0.11449319	      0.04405182	      0.20216117
      2.44000000	      0.11457186	      0.04406695	      0.20284099
      2.44500000	      0.11466225	      0.04408433	      0.20221226
      2.45000000	      0.11468785	      0.04408925	      0.20259990
      2.45500000	      0.11446259	      0.04404593	      0.20290308
      2.46000000	      0.11495043	      0.04413969	      0.20312165
      2.46500000	      0.11526221	      0.04419951	      0.20297908
      2.47000000	      0.11536885	      0.04421995	      0.20306754
      2.47500000	      0.11546794	      0.04423894	      0.20274344
      2.48000000	      0.11570082	      0.04428353	      0.20303190
      2.48500000	      0.11557307	      0.04425907	      0.20293838
      2.49000000	      0.11567040	      0.04427771	      0.20295945
      2.49500000	      0.11594873	      0.04433095	      0.20301813
      2.50000000	      0.11583584	      0.04430936	      0.20188110
      2.50500000	      0.11594008	      0.04432929	      0.20216652
      2.51000000	      0.11625659	      0.04438976	      0.20222281
      2.51500000	      0.11636985	      0.04441138	      0.20253502
      2.52000000	      0.11651126	      0.04443835	      0.20176643
      2.52500000	      0.11639743	      0.04441664	      0.20217150
      2.53000000	      0.11647932	      0.04443226	      0.20151711
      2.53500000	      0.11662898	      0.04446080	      0.20203149
      2.54000000	      0.11665214	      0.04446521	      0.20161954
      2.54500000	      0.11653116	      0.04444215	      0.20184438
      2.55000000	      0.11649086	      0.04443446	      0.20185313
      2.55500000	      0.11698387	      0.04452839	      0.20196708
      2.56000000	      0.11702361	      0.04453595	      0.20236144
      2.56500000	      0.11723840	      0.04457680	      0.20237835
      2.57000000	      0.11755694	      0.04463732	      0.20291340
      2.57500000	      0.11771925	      0.04466813	      0.20304204
      2.58000000	      0.11781436	      0.04468617	      0.20332140
      2.58500000	      0.11816986	      0.04475354	      0.20324458
      2.59000000	      0.11861588	      0.04483792	      0.20387358
      2.59500000	      0.11831935	      0.04478183	      0.20359088
      2.60000000	      0.11852205	      0.04482018	      0.20341008
      2.60500000	      0.11855281	      0.04482599	      0.20368870
      2.61000000	      0.11876216	      0.04486555	      0.20384272
      2.61500000	      0.11887972	      0.04488775	      0.20367381
      2.62000000	      0.11906024	      0.04492182	      0.20426094
      2.62500000	      0.11929972	      0.04496698	      0.20296618
      2.63000000	      0.11928166	      0.04496357	      0.20322753
      2.63500000	      0.11943535	      0.04499253	      0.20347529
      2.64000000	      0.11943201	      0.04499190	      0.20364206
      2.64500000	      0.11994881	      0.04508914	      0.20296179
      2.65000000	      0.11987067	      0.04507445	      0.20322268
      2.65500000	      0.12062221	      0.04521553	      0.20355937
      2.66000000	      0.12035415	      0.04516526	      0.20329677
      2.66500000	      0.12047039	      0.04518707	      0.20358304
      2.67000000	      0.12024130	      0.04514408	      0.20346706
      2.67500000	      0.12093282	      0.04527371	      0.20348127
      2.68000000	      0.12092645	      0.04527252	      0.20336036
      2.68500000	      0.12084914	      0.04525804	      0.20353248
      2.69000000	      0.12095367	      0.04527761	      0.20317184
      2.69500000	      0.12107973	      0.04530120	      0.20322332
      2.70000000	      0.12129515	      0.04534148	      0.20349332
      2.70500000	      0.12132036	      0.04534619	      0.20360497
      2.71000000	      0.12142982	      0.04536665	      0.20394371
      2.71500000	      0.12122912	      0.04532914	      0.20299749
      2.72000000	      0.12142645	      0.04536602	      0.20341142
      2.72500000	      0.12140391	      0.04536181	      0.20359614
      2.73000000	      0.12160495	      0.04539935	      0.20359838
      2.73500000	      0.12171295	      0.04541950	      0.20334125
      2.74000000	      0.12170282	      0.04541761	      0.20341700
      2.74500000	      0.12206276	      0.04548473	      0.20394962
      2.75000000	      0.12181064	      0.04543773	      0.20297056
      2.75500000	      0.12191276	      0.04545677	      0.20347667
      2.76000000	      0.12211414	      0.04549430	      0.20343231
      2.76500000	      0.12228613	      0.04552632	      0.20365809
      2.77000000	      0.12244885	      0.04555660	      0.20312426
      2.77500000	      0.12263546	      0.04559131	      0.20333688
      2.78000000	      0.12277985	      0.04561814	      0.20371534
      2.78500000	      0.12292493	      0.04564508	      0.20387758
      2.79000000	      0.12304345	      0.04566708	      0.20387175
      2.79500000	      0.12347527	      0.04574714	      0.20379847
      2.80000000	      0.12359193	      0.04576875	      0.20396953
      2.80500000	      0.12362007	      0.04577396	      0.20321204
      2.81000000	      0.12384947	      0.04581641	      0.20380013
      2.81500000	      0.12379094	      0.04580558	      0.20395360
      2.82000000	      0.12432399	      0.04590410	      0.20406032
      2.82500000	      0.12454276	      0.04594447	      0.20333746
      2.83000000	      0.12477539	      0.04598736	      0.20358087
      2.83500000	      0.12466506	      0.04596702	      0.20393683
      2.84000000	      0.12488268	      0.04600713	      0.20335748
      2.84500000	      0.12472395	      0.04597788	      0.20354939
      2.85000000	      0.12508259	      0.04604393	      0.20405968
      2.85500000	      0.12493297	      0.04601639	      0.20363970
      2.86000000	      0.12457481	      0.04595038	      0.20346450
      2.86500000	      0.12518946	      0.04606360	      0.20338776
      2.87000000	      0.12475334	      0.04598329	      0.20307060
      2.87500000	      0.12533313	      0.04609002	      0.20303692
      2.88000000	      0.12505726	      0.04603927	      0.20288988
      2.88500000	      0.12610638	      0.04623198	      0.20259713
      2.89000000	      0.12616154	      0.04624209	      0.20288563
      2.89500000	      0.12641689	      0.04628887	      0.20292641
      2.90000000	      0.12636537	      0.04627943	      0.20313943
      2.90500000	      0.12614524	      0.04623911	      0.20356376
      2.91000000	      0.12593114	      0.04619985	      0.20328142
      2.91500000	      0.12604345	      0.04622045	      0.20357019
      2.92000000	      0.12612145	      0.04623475	      0.20343568
      2.92500000	      0.12623088	      0.04625480	      0.20358467
      2.93000000	      0.12615490	      0.04624088	      0.20366491
      2.93500000	      0.12570084	      0.04615759	      0.20381137
      2.94000000	      0.12570692	      0.04615870	      0.20314450
      2.94500000	      0.12583774	      0.04618271	      0.20303372
      2.95000000	      0.12608334	      0.04622776	      0.20296271
      2.95500000	      0.12591396	      0.04619670	      0.20293543
      2.96000000	      0.12597702	      0.04620826	      0.20304355
      2.96500000	      0.12593825	      0.04620115	      0.20329258
      2.97000000	      0.12599036	      0.04621071	      0.20281980
      2.97500000	      0.12610149	      0.04623109	      0.20299232
      2.98000000	      0.12618951	      0.04624722	      0.20314071
      2.98500000	      0.12653954	      0.04631132	      0.20304426
      2.99000000	      0.12701196	      0.04639768	      0.20340834
      2.99500000	      0.12661496	      0.04632512	      0.20371610
      3.00000000	      0.12657535	      0.04631787	      0.20331306
      3.00500000	      0.12655247	      0.04631368	      0.20360862
      3.01000000	      0.12663138	      0.04632812	      0.20401271
      3.01500000	      0.12658034	      0.04631878	      0.20383296
      3.02000000	      0.12680363	      0.04635962	      0.20368434
      3.02500000	      0.12695450	      0.04638719	      0.20415087
      3.03000000	      0.12767165	      0.04651802	      0.20352373
      3.03500000	      0.12755955	      0.04649759	      0.20379733
      3.04000000	      0.12748777	      0.04648451	      0.20364176
      3.04500000	      0.12769299	      0.04652191	      0.20365691
      3.05000000	      0.12746576	      0.04648050	      0.20411071
      3.05500000	      0.12706784	      0.04640789	      0.20330614
      3.06000000	      0.12708445	      0.04641092	      0.20340511
      3.06500000	      0.12689545	      0.04637640	      0.20364555
      3.07000000	      0.12689833	      0.04637692	      0.20337639
      3.07500000	      0.12708311	      0.04641068	      0.20277850
      3.08000000	      0.12716809	      0.04642619	      0.20316908
      3.08500000	      0.12722539	      0.04643665	      0.20359132
      3.09000000	      0.12757502	      0.04650041	      0.20376859
      3.09500000	      0.12700319	      0.04639608	      0.20357133
      3.10000000	      0.12757957	      0.04650124	      0.20393773
      3.10500000	      0.12760391	      0.04650568	      0.20380130
      3.11000000	      0.12783613	      0.04654798	      0.20389732
      3.11500000	      0.12791974	      0.04656319	      0.20442155
      3.12000000	      0.12796026	      0.04657057	      0.20335440
      3.12500000	      0.12770877	      0.04652478	      0.20312326
      3.13000000	      0.12786749	      0.04655369	      0.20312954
      3.13500000	      0.12795935	      0.04657040	      0.20343379
      3.14000000	      0.12739748	      0.04646805	      0.20368943
      3.14500000	      0.12802784	      0.04658287	      0.20362152
      3.15000000	      0.12776121	      0.04653433	      0.20342138
      3.15500000	      0.12768827	      0.04652105	      0.20402199
      3.16000000	      0.12861306	      0.04668921	      0.20393812
      3.16500000	      0.12797032	      0.04657240	      0.20330254
      3.17000000	      0.12808169	      0.04659266	      0.20336571
      3.17500000	      0.12784817	      0.04655017	      0.20316940
      3.18000000	      0.12817945	      0.04661044	      0.20361554
      3.18500000	      0.12830376	      0.04663304	      0.20383384
      3.19000000	      0.12838528	      0.04664785	      0.20360546
      3.19500000	      0.12826130	      0.04662532	      0.20261308
      3.20000000	      0.12844597	      0.04665887	      0.20253122
      3.20500000	      0.12832566	      0.04663701	      0.20267144
      3.21000000	      0.12840505	      0.04665144	      0.20262464
      3.21500000	      0.12885515	      0.04673313	      0.20324330
      3.22000000	      0.12854414	      0.04667670	      0.20320709
      3.22500000	      0.12883964	      0.04673032	      0.20237336
      3.23000000	      0.12951495	      0.04685263	      0.20342813
      3.23500000	      0.12978497	      0.04690144	      0.20368260
      3.24000000	      0.12931070	      0.04681567	      0.20328780
      3.24500000	      0.12970392	      0.04688680	      0.20465516
      3.25000000	      0.12982045	      0.04690785	      0.20460445
      3.25500000	      0.12954244	      0.04685760	      0.20414490
      3.26000000	      0.12951789	      0.04685316	      0.20506751
      3.26500000	      0.12950726	      0.04685124	      0.20536354
      3.27000000	      0.12842575	      0.04665520	      0.20489590
      3.27500000	      0.12783031	      0.04654692	      0.20465270
      3.28000000	      0.12770436	      0.04652398	      0.20495714
      3.28500000	      0.12768460	      0.04652038	      0.20504375
      3.29000000	      0.12727752	      0.04644616	      0.20551975
      3.29500000	      0.12631720	      0.04627061	      0.20502608
      3.30000000	      0.12589929	      0.04619401	      0.20486632
      3.30500000	      0.12522720	      0.04607054	      0.20471772
      3.31000000	      0.12508387	      0.04604417	      0.20524515
      3.31500000	      0.12466970	      0.04596788	      0.20525387
      3.32000000	      0.12429793	      0.04589929	      0.20563812
      3.32500000	      0.12383978	      0.04581462	      0.20651825
      3.33000000	      0.12347794	      0.04574764	      0.20685114
      3.33500000	      0.12351716	      0.04575490	      0.20781407
      3.34000000	      0.12351461	      0.04575443	      0.20791465
      3.34500000	      0.12241112	      0.04554959	      0.20781485
      3.35000000	      0.12206245	      0.04548467	      0.20802562
      3.35500000	      0.12130661	      0.04534362	      0.20847272
      3.36000000	      0.12081956	      0.04525250	      0.20857433
      3.36500000	      0.11975008	      0.04505177	      0.20843174
      3.37000000	      0.11968805	      0.04504010	      0.20872758
      3.37500000	      0.11827348	      0.04477315	      0.20802181
      3.38000000	      0.11839772	      0.04479666	      0.20865496
      3.38500000	      0.11805889	      0.04473252	      0.20873296
      3.39000000	      0.11765126	      0.04465523	      0.20877251
      3.39500000	      0.11682167	      0.04449751	      0.20822352
      3.40000000	      0.10139902	      0.04145633	      0.15276827
      3.40500000	      0.10011108	      0.04119221	      0.14986028
      3.41000000	      0.10024967	      0.04122071	      0.15037832
      3.41500000	      0.09951067	      0.04106850	      0.14941338
      3.42000000	      0.09886166	      0.04093436	      0.14918587
      3.42500000	      0.09930113	      0.04102524	      0.15059856
      3.43000000	      0.09940592	      0.04104688	      0.15191750
      3.43500000	      0.09872627	      0.04090632	      0.15308270
      3.44000000	      0.10038908	      0.04124936	      0.15392087
      3.44500000	      0.10012245	      0.04119455	      0.15377314
      3.45000000	      0.09976721	      0.04112140	      0.15433522
      3.45500000	      0.09938300	      0.04104214	      0.15336548
      3.46000000	      0.09907035	      0.04097754	      0.15385395
      3.46500000	      0.09922666	      0.04100985	      0.15371149
      3.47000000	      0.09830619	      0.04081919	      0.15392316
      3.47500000	      0.09801139	      0.04075794	      0.15365043
      3.48000000	      0.09791436	      0.04073776	      0.15392409
      3.48500000	      0.09627717	      0.04039575	      0.15394192
      3.49000000	      0.09651085	      0.04044474	      0.15380203
      3.49500000	      0.09487962	      0.04010149	      0.15363626
      3.50000000	      0.09457561	      0.04003719	      0.15344153
      3.50500000	      0.09338279	      0.03978391	      0.15327341
      3.51000000	      0.09172686	      0.03942959	      0.14943285
      3.51500000	      0.09177829	      0.03944064	      0.15159931
      3.52000000	      0.09186070	      0.03945835	      0.15300919
      3.52500000	      0.08980473	      0.03901428	      0.14851373
      3.53000000	      0.08925558	      0.03889481	      0.15011237
      3.53500000	      0.08938886	      0.03892384	      0.15144646
      3.54000000	      0.08890167	      0.03881762	      0.14815187
      3.54500000	      0.08814260	      0.03865155	      0.14710516
      3.55000000	      0.08688593	      0.03837503	      0.14547106
      3.55500000	      0.08617383	      0.03821745	      0.14891894
      3.56000000	      0.08511105	      0.03798105	      0.14746190
      3.56500000	      0.08307786	      0.03752465	      0.14381666
      3.57000000	      0.08218471	      0.03732239	      0.14261088
      3.57500000	      0.08082400	      0.03701214	      0.14061619
      3.58000000	      0.07906019	      0.03660605	      0.13794284
      3.58500000	      0.07796066	      0.03635061	      0.13760642
      3.59000000	      0.07602120	      0.03589561	      0.13485546
      3.59500000	      0.07432716	      0.03549341	      0.13255749
      3.60000000	      0.07255868	      0.03506862	      0.13265182
      3.60500000	      0.07108543	      0.03471077	      0.13043707
      3.61000000	      0.06962110	      0.03435140	      0.12792584
      3.61500000	      0.06819249	      0.03399713	      0.12530227
      3.62000000	      0.06684878	      0.03366051	      0.12263479
      3.62500000	      0.06518320	      0.03323853	      0.11989695
      3.63000000	      0.06459779	      0.03308894	      0.11754600
      3.63500000	      0.06346492	      0.03279751	      0.11531191
      3.64000000	      0.06290930	      0.03265363	      0.11327396
      3.64500000	      0.06191346	      0.03239415	      0.11118405
      3.65000000	      0.06136546	      0.03225047	      0.11061391
      3.65500000	      0.06107071	      0.03217292	      0.10848109
      3.66000000	      0.06045279	      0.03200974	      0.10635180
      3.66500000	      0.06020214	      0.03194331	      0.10474122
      3.67000000	      0.05955201	      0.03177037	      0.10195953
      3.67500000	      0.05906939	      0.03164137	      0.09984215
      3.68000000	      0.05819509	      0.03140633	      0.09727583
      3.68500000	      0.05690114	      0.03105521	      0.09423842
      3.69000000	      0.05557341	      0.03069075	      0.09113231
      3.69500000	      0.05445142	      0.03037936	      0.08796244
      3.70000000	      0.05352566	      0.03012000	      0.08490207
      3.70500000	      0.05200221	      0.02968827	      0.08177485
      3.71000000	      0.05039943	      0.02922717	      0.07969113
      3.71500000	      0.04941031	      0.02893895	      0.07785587
      3.72000000	      0.04870146	      0.02873062	      0.07702331
      3.72500000	      0.04804379	      0.02853597	      0.07674378
      3.73000000	      0.04751831	      0.02837948	      0.07715888
      3.73500000	      0.04699890	      0.02822395	      0.07774971
      3.74000000	      0.04660824	      0.02810641	      0.07854227
      3.74500000	      0.04626760	      0.02800351	      0.07947754
      3.75000000	      0.04655607	      0.02809067	      0.08128205
      3.75500000	      0.04699728	      0.02822347	      0.08246270
      3.76000000	      0.04730395	      0.02831540	      0.08382652
      3.76500000	      0.04795975	      0.02851100	      0.08508935
      3.77000000	      0.04808393	      0.02854789	      0.08581379
      3.77500000	      0.04835758	      0.02862901	      0.08591594
      3.78000000	      0.04778233	      0.02845822	      0.08611266
      3.78500000	      0.04718107	      0.02827860	      0.08582930
      3.79000000	      0.04626268	      0.02800202	      0.08573852
      3.79500000	      0.04564512	      0.02781450	      0.08557433
      3.80000000	      0.04509867	      0.02764750	      0.08506306
      3.80500000	      0.04452780	      0.02747196	      0.08406671
      3.81000000	      0.04408997	      0.02733656	      0.08309154
      3.81500000	      0.04370991	      0.02721849	      0.08199301
      3.82000000	      0.04347407	      0.02714496	      0.08107277
      3.82500000	      0.04336963	      0.02711233	      0.08020808
      3.83000000	      0.04326318	      0.02707904	      0.07899962
      3.83500000	      0.04317495	      0.02705141	      0.07810727
      3.84000000	      0.04313661	      0.02703940	      0.07726402
      3.84500000	      0.04333778	      0.02710237	      0.07639201
      3.85000000	      0.04326575	      0.02707984	      0.07563341
      3.85500000	      0.04342424	      0.02712940	      0.07505409
      3.86000000	      0.04349612	      0.02715184	      0.07455947
      3.86500000	      0.04355628	      0.02717061	      0.07425410
      3.87000000	      0.04366790	      0.02720540	      0.07418905
      3.87500000	      0.04371220	      0.02721920	      0.07404374
      3.88000000	      0.04398599	      0.02730431	      0.07443992
      3.88500000	      0.04393259	      0.02728773	      0.07457221
      3.89000000	      0.04390631	      0.02727957	      0.07487082
      3.89500000	      0.04390903	      0.02728041	      0.07581050
      3.90000000	      0.04376781	      0.02723651	      0.07587202
      3.90500000	      0.04347445	      0.02714507	      0.07522228
      3.91000000	      0.04334671	      0.02710517	      0.07505385
      3.91500000	      0.04297593	      0.02698899	      0.07432249
      3.92000000	      0.04280801	      0.02693621	      0.07393284
      3.92500000	      0.04250894	      0.02684196	      0.07343613
      3.93000000	      0.04233698	      0.02678761	      0.07357329
      3.93500000	      0.04238843	      0.02680388	      0.07319363
      3.94000000	      0.04243041	      0.02681715	      0.07408637
      3.94500000	      0.04221010	      0.02674744	      0.07364526
      3.95000000	      0.04205502	      0.02669826	      0.07309382
      3.95500000	      0.04194367	      0.02666289	      0.07303964
      3.96000000	      0.04180172	      0.02661773	      0.07257081
      3.96500000	      0.04174928	      0.02660103	      0.07258604
      3.97000000	      0.04185460	      0.02663456	      0.07356588
      3.97500000	      0.04139756	      0.02648874	      0.07047161
      3.98000000	      0.04172559	      0.02659348	      0.07306606
      3.98500000	      0.04176497	      0.02660603	      0.07291230
      3.99000000	      0.04171669	      0.02659065	      0.07282685
      3.99500000	      0.04178406	      0.02661211	      0.07270125
      4.00000000	      0.04186911	      0.02663918	      0.07275111
      4.00500000	      0.04182391	      0.02662480	      0.07249638
      4.01000000	      0.04195489	      0.02666646	      0.07246213
      4.01500000	      0.04194705	      0.02666396	      0.07264051
      4.02000000	      0.04195375	      0.02666609	      0.07257633
      4.02500000	      0.04209700	      0.02671158	      0.07258955
      4.03000000	      0.04206738	      0.02670218	      0.07252120
      4.03500000	      0.04212122	      0.02671926	      0.07250809
      4.04000000	      0.04201470	      0.02668546	      0.07213207
      4.04500000	      0.04195025	      0.02666498	      0.07210474
      4.05000000	      0.04206415	      0.02670115	      0.07212400
      4.05500000	      0.04194081	      0.02666198	      0.07204805
      4.06000000	      0.04192687	      0.02665755	      0.07218893
      4.06500000	      0.04192545	      0.02665710	      0.07220242
      4.07000000	      0.04185284	      0.02663400	      0.07234349
      4.07500000	      0.04194891	      0.02666455	      0.07253529
      4.08000000	      0.04181889	      0.02662320	      0.07242079
      4.08500000	      0.04179371	      0.02661518	      0.07252020
      4.09000000	      0.04181322	      0.02662139	      0.07255015
      4.09500000	      0.04165819	      0.02657200	      0.07253270
      4.10000000	      0.04165097	      0.02656969	      0.07258490
      4.10500000	      0.04158528	      0.02654873	      0.07255356
      4.11000000	      0.04163467	      0.02656449	      0.07250905
      4.11500000	      0.04152100	      0.02652821	      0.07288145
      4.12000000	      0.04146574	      0.02651055	      0.07281419
      4.12500000	      0.04152258	      0.02652871	      0.07304786
      4.13000000	      0.04148630	      0.02651712	      0.07324017
      4.13500000	      0.04146772	      0.02651118	      0.07333248
      4.14000000	      0.04129095	      0.02645461	      0.07347479
      4.14500000	      0.04143168	      0.02649966	      0.07373562
      4.15000000	      0.04135443	      0.02647494	      0.07358549
      4.15500000	      0.04136935	      0.02647972	      0.07363658
      4.16000000	      0.04135661	      0.02647564	      0.07356773
      4.16500000	      0.04125380	      0.02644271	      0.07350383
      4.17000000	      0.04145855	      0.02650825	      0.07377335
      4.17500000	      0.04178657	      0.02661291	      0.07390274
      4.18000000	      0.04141749	      0.02649512	      0.07394412
      4.18500000	      0.04186089	      0.02663656	      0.07399841
      4.19000000	      0.04133034	      0.02646723	      0.07421835
      4.19500000	      0.04144343	      0.02650342	      0.07439139
      4.20000000	      0.04136591	      0.02647862	      0.07452234
      4.20500000	      0.04127593	      0.02644980	      0.07449472
      4.21000000	      0.04156375	      0.02654186	      0.07471681
      4.21500000	      0.04134316	      0.02647133	      0.07496012
      4.22000000	      0.04141340	      0.02649381	      0.07527747
      4.22500000	      0.04118439	      0.02642046	      0.07534314
      4.23000000	      0.04121703	      0.02643092	      0.07563720
      4.23500000	      0.04130334	      0.02645858	      0.07606029
      4.24000000	      0.04119135	      0.02642269	      0.07641518
      4.24500000	      0.04120635	      0.02642750	      0.07669308
      4.25000000	      0.04123596	      0.02643699	      0.07735929
      4.25500000	      0.04121182	      0.02642925	      0.07792868
      4.26000000	      0.04132905	      0.02646682	      0.07856514
      4.26500000	      0.04166961	      0.02657564	      0.07927713
      4.27000000	      0.04159924	      0.02655319	      0.08020620
      4.27500000	      0.04213669	      0.02672417	      0.08122948
      4.28000000	      0.04185218	      0.02663379	      0.08243677
      4.28500000	      0.04176884	      0.02660726	      0.08358866
      4.29000000	      0.04210775	      0.02671499	      0.08555618
      4.29500000	      0.04206962	      0.02670289	      0.08727229
      4.30000000	      0.04209027	      0.02670944	      0.08921578
      4.30500000	      0.04175848	      0.02660396	      0.09157375
      4.31000000	      0.04166641	      0.02657462	      0.09347081
      4.31500000	      0.04217122	      0.02673512	      0.09543055
      4.32000000	      0.04277874	      0.02692700	      0.09719552
      4.32500000	      0.04364811	      0.02719924	      0.09941935
      4.33000000	      0.04354816	      0.02716808	      0.09882240
      4.33500000	      0.04389925	      0.02727737	      0.10090909
      4.34000000	      0.04413393	      0.02735019	      0.10255357
      4.34500000	      0.04473440	      0.02753562	      0.10402320
      4.35000000	      0.04544170	      0.02775245	      0.10551916
      4.35500000	      0.04587868	      0.02788556	      0.10693100
      4.36000000	      0.04649525	      0.02807232	      0.10821268
      4.36500000	      0.04731006	      0.02831723	      0.10942679
      4.37000000	      0.04801936	      0.02852871	      0.11025472
      4.37500000	      0.04882990	      0.02876848	      0.11118906
      4.38000000	      0.04933479	      0.02891683	      0.11201660
      4.38500000	      0.04965344	      0.02901006	      0.11278170
      4.39000000	      0.05022308	      0.02917599	      0.11365584
      4.39500000	      0.05057265	      0.02927736	      0.11429482
      4.40000000	      0.05079849	      0.02934265	      0.11488037
      4.40500000	      0.05116514	      0.02944836	      0.11549052
      4.41000000	      0.05161974	      0.02957889	      0.11606497
      4.41500000	      0.05220731	      0.02974676	      0.11647782
      4.42000000	      0.05280968	      0.02991788	      0.11684157
      4.42500000	      0.05344001	      0.03009590	      0.11698977
      4.43000000	      0.05382482	      0.03020406	      0.11731249
      4.43500000	      0.05426044	      0.03032604	      0.11738472
      4.44000000	      0.05472255	      0.03045490	      0.11752135
      4.44500000	      0.05515247	      0.03057430	      0.11785643
      4.45000000	      0.05537451	      0.03063578	      0.11737832
      4.45500000	      0.05557113	      0.03069012	      0.11742181
      4.46000000	      0.05561572	      0.03070243	      0.11712416
      4.46500000	      0.05630151	      0.03089115	      0.11763375
      4.47000000	      0.05617092	      0.03085530	      0.11766295
      4.47500000	      0.05677844	      0.03102171	      0.11806633
      4.48000000	      0.05709961	      0.03110932	      0.11774920
      4.48500000	      0.05731794	      0.03116874	      0.11791804
      4.49000000	      0.05742558	      0.03119800	      0.11770590
      4.49500000	      0.05760752	      0.03124738	      0.11780383
      4.50000000	      0.05810591	      0.03138225	      0.11827872
      4.50500000	      0.05827470	      0.03142780	      0.11837447
      4.51000000	      0.05860059	      0.03151556	      0.11848350
      4.51500000	      0.05886888	      0.03158762	      0.11829080
      4.52000000	      0.05902975	      0.03163075	      0.11859850
      4.52500000	      0.05921137	      0.03167937	      0.11866564
      4.53000000	      0.05923059	      0.03168451	      0.11903419
      4.53500000	      0.05941031	      0.03173255	      0.11907547
      4.54000000	      0.05948331	      0.03175204	      0.11906464
      4.54500000	      0.05979601	      0.03183538	      0.11878809
      4.55000000	      0.05977682	      0.03183028	      0.11878388
      4.55500000	      0.05979165	      0.03183422	      0.11903555
      4.56000000	      0.05985806	      0.03185190	      0.11925604
      4.56500000	      0.05990014	      0.03186309	      0.11908960
      4.57000000	      0.05971311	      0.03181331	      0.11907389
      4.57500000	      0.05976245	      0.03182645	      0.11889449
      4.58000000	      0.05968474	      0.03180575	      0.11911422
      4.58500000	      0.05920233	      0.03167695	      0.11868438
      4.59000000	      0.05902713	      0.03163005	      0.11846706
      4.59500000	      0.05873219	      0.03155093	      0.11810663
      4.60000000	      0.05841450	      0.03146548	      0.11786671
      4.60500000	      0.05840840	      0.03146383	      0.11788448
      4.61000000	      0.05891611	      0.03160029	      0.12079477
      4.61500000	      0.05761701	      0.03124995	      0.11748582
      4.62000000	      0.05766873	      0.03126398	      0.11853734
      4.62500000	      0.05791836	      0.03133157	      0.12018016
      4.63000000	      0.05717556	      0.03113001	      0.11834323
      4.63500000	      0.05714333	      0.03112123	      0.11850229
      4.64000000	      0.05747864	      0.03121240	      0.12041519
      4.64500000	      0.05683305	      0.03103662	      0.11850031
      4.65000000	      0.05653288	      0.03095455	      0.11837222
      4.65500000	      0.05687564	      0.03104825	      0.12020635
      4.66000000	      0.05688968	      0.03105208	      0.12016444
      4.66500000	      0.05632521	      0.03089765	      0.11991897
      4.67000000	      0.05550808	      0.03067271	      0.11682126
      4.67500000	      0.05598556	      0.03080435	      0.11963678
      4.68000000	      0.05602423	      0.03081498	      0.12023872
      4.68500000	      0.05514993	      0.03057359	      0.11923861
      4.69000000	      0.05518037	      0.03058203	      0.11940165
      4.69500000	      0.05513046	      0.03056820	      0.11949906
      4.70000000	      0.05483704	      0.03048674	      0.11925060
      4.70500000	      0.05444586	      0.03037781	      0.11867943
      4.71000000	      0.05414628	      0.03029412	      0.11851838
      4.71500000	      0.05382578	      0.03020433	      0.11808925
      4.72000000	      0.05338369	      0.03008003	      0.11770202
      4.72500000	      0.05308220	      0.02999497	      0.11723064
      4.73000000	      0.05272562	      0.02989406	      0.11639850
      4.73500000	      0.05227260	      0.02976535	      0.11604567
      4.74000000	      0.05180908	      0.02963309	      0.11531395
      4.74500000	      0.05110590	      0.02943130	      0.11473439
      4.75000000	      0.05045371	      0.02924291	      0.11374560
      4.75500000	      0.05022984	      0.02917796	      0.11324638
      4.76000000	      0.04971218	      0.02902722	      0.11205394
      4.76500000	      0.04926119	      0.02889525	      0.11136837
      4.77000000	      0.04876625	      0.02874972	      0.11047604
      4.77500000	      0.04820229	      0.02858300	      0.10928972
      4.78000000	      0.04773539	      0.02844423	      0.10851773
      4.78500000	      0.04713904	      0.02826600	      0.10744978
      4.79000000	      0.04659210	      0.02810154	      0.10621738
      4.79500000	      0.04604384	      0.02793571	      0.10536522
      4.80000000	      0.04539253	      0.02773743	      0.10384685
      4.80500000	      0.04494701	      0.02760097	      0.10306378
      4.81000000	      0.04449918	      0.02746313	      0.10198563
      4.81500000	      0.04416114	      0.02735862	      0.10065649
      4.82000000	      0.04378773	      0.02724270	      0.09987168
      4.82500000	      0.04344241	      0.02713507	      0.09889491
      4.83000000	      0.04333867	      0.02710265	      0.09773784
      4.83500000	      0.04277921	      0.02692715	      0.09685797
      4.84000000	      0.04267497	      0.02689432	      0.09580551
      4.84500000	      0.04260332	      0.02687173	      0.09457028
      4.85000000	      0.04244601	      0.02682208	      0.09378051
      4.85500000	      0.04259003	      0.02686754	      0.09275842
      4.86000000	      0.04255265	      0.02685575	      0.09217843
      4.86500000	      0.04246957	      0.02682952	      0.09107058
      4.87000000	      0.04271952	      0.02690836	      0.09042785
      4.87500000	      0.04288324	      0.02695987	      0.08967616
      4.88000000	      0.04300382	      0.02699775	      0.08851034
      4.88500000	      0.04348217	      0.02714749	      0.08797241
      4.89000000	      0.04368213	      0.02720983	      0.08710956
      4.89500000	      0.04398041	      0.02730258	      0.08668298
      4.90000000	      0.04401346	      0.02731283	      0.08581160
      4.90500000	      0.04428925	      0.02739827	      0.08532400
      4.91000000	      0.04439381	      0.02743059	      0.08451888
      4.91500000	      0.04462846	      0.02750299	      0.08438301
      4.92000000	      0.04469449	      0.02752333	      0.08347117
      4.92500000	      0.04477573	      0.02754833	      0.08306223
      4.93000000	      0.04466992	      0.02751577	      0.08251410
      4.93500000	      0.04473158	      0.02753475	      0.08227996
      4.94000000	      0.04472636	      0.02753314	      0.08162548
      4.94500000	      0.04456791	      0.02748433	      0.08133535
      4.95000000	      0.04446606	      0.02745291	      0.08048558
      4.95500000	      0.04424761	      0.02738539	      0.08032244
      4.96000000	      0.04388741	      0.02727369	      0.07952718
      4.96500000	      0.04370091	      0.02721568	      0.07935046
      4.97000000	      0.04332843	      0.02709945	      0.07888872
      4.97500000	      0.04299800	      0.02699592	      0.07843028
      4.98000000	      0.04259429	      0.02686889	      0.07795363
      4.98500000	      0.04220915	      0.02674714	      0.07775804
      4.99000000	      0.04188014	      0.02664269	      0.07748835
      4.99500000	      0.04148372	      0.02651629	      0.07720470
      5.00000000	      0.04100142	      0.02636170	      0.07677367
      5.00500000	      0.04056079	      0.02621967	      0.07665038
      5.01000000	      0.04028175	      0.02612932	      0.07657724
      5.01500000	      0.03993947	      0.02601807	      0.07641759
      5.02000000	      0.03951703	      0.02588011	      0.07637111
      5.02500000	      0.03921148	      0.02577986	      0.07626146
      5.03000000	      0.03899826	      0.02570968	      0.07619068
      5.03500000	      0.03873532	      0.02562286	      0.07631295
      5.04000000	      0.03842718	      0.02552074	      0.07620847
      5.04500000	      0.03823300	      0.02545618	      0.07641015
      5.05000000	      0.03785661	      0.02533056	      0.07648722
      5.05500000	      0.03779854	      0.02531113	      0.07637024
      5.06000000	      0.03760703	      0.02524693	      0.07645048
      5.06500000	      0.03743899	      0.02519046	      0.07659233
      5.07000000	      0.03710045	      0.02507631	      0.07670199
      5.07500000	      0.03714740	      0.02509217	      0.07665893
      5.08000000	      0.03684072	      0.02498838	      0.07679819
      5.08500000	      0.03697079	      0.02503245	      0.07691130
      5.09000000	      0.03669802	      0.02493993	      0.07699284
      5.09500000	      0.03669129	      0.02493765	      0.07696248
      5.10000000	      0.03671266	      0.02494491	      0.07709605
      5.10500000	      0.03682061	      0.02498156	      0.07721351
      5.11000000	      0.03674896	      0.02495724	      0.07717164
      5.11500000	      0.03691805	      0.02501459	      0.07736397
      5.12000000	      0.03698842	      0.02503842	      0.07764750
      5.12500000	      0.03705615	      0.02506133	      0.07773564
      5.13000000	      0.03706243	      0.02506346	      0.07790258
      5.13500000	      0.03706407	      0.02506401	      0.07791490
      5.14000000	      0.03706583	      0.02506460	      0.07802904
      5.14500000	      0.03721880	      0.02511627	      0.07817980
      5.15000000	      0.03734004	      0.02515715	      0.07833858
      5.15500000	      0.03733623	      0.02515586	      0.07859046
      5.16000000	      0.03731416	      0.02514843	      0.07862079
      5.16500000	      0.03729042	      0.02514043	      0.07876770
      5.17000000	      0.03725496	      0.02512847	      0.07894623
      5.17500000	      0.03725235	      0.02512759	      0.07924699
      5.18000000	      0.03714942	      0.02509285	      0.07921224
      5.18500000	      0.03694074	      0.02502227	      0.07924213
      5.19000000	      0.03687571	      0.02500024	      0.07937831
      5.19500000	      0.03678171	      0.02496836	      0.07940410
      5.20000000	      0.03667175	      0.02493101	      0.07949532
      5.20500000	      0.03650202	      0.02487324	      0.07949280
      5.21000000	      0.03633307	      0.02481562	      0.07946107
      5.21500000	      0.03615072	      0.02475326	      0.07948568
      5.22000000	      0.03607753	      0.02472819	      0.07951475
      5.22500000	      0.03596496	      0.02468959	      0.07951246
      5.23000000	      0.03583752	      0.02464580	      0.07969308
      5.23500000	      0.03576171	      0.02461972	      0.07974806
      5.24000000	      0.03569570	      0.02459699	      0.07994947
      5.24500000	      0.03555852	      0.02454968	      0.07990119
      5.25000000	      0.03543535	      0.02450712	      0.07983960
      5.25500000	      0.03541003	      0.02449837	      0.07990528
      5.26000000	      0.03533252	      0.02447154	      0.07997286
      5.26500000	      0.03529268	      0.02445774	      0.07998724
      5.27000000	      0.03521831	      0.02443196	      0.07999746
      5.27500000	      0.03521300	      0.02443012	      0.08002578
      5.28000000	      0.03511450	      0.02439592	      0.08008229
      5.28500000	      0.03502442	      0.02436461	      0.08019635
      5.29000000	      0.03493116	      0.02433215	      0.08021193
      5.29500000	      0.03490131	      0.02432175	      0.08007351
      5.30000000	      0.03486905	      0.02431051	      0.07998344
      5.30500000	      0.03483320	      0.02429801	      0.08006355
      5.31000000	      0.03484897	      0.02430351	      0.08012342
      5.31500000	      0.03487295	      0.02431187	      0.08020141
      5.32000000	      0.03491082	      0.02432507	      0.08032665
      5.32500000	      0.03467601	      0.02424312	      0.08066366
      5.33000000	      0.03486027	      0.02430745	      0.08027496
      5.33500000	      0.03483071	      0.02429714	      0.08051428
      5.34000000	      0.03490112	      0.02432169	      0.08076229
      5.34500000	      0.03492588	      0.02433031	      0.08091400
      5.35000000	      0.03492220	      0.02432903	      0.08108064
      5.35500000	      0.03486369	      0.02430864	      0.08101589
      5.36000000	      0.03487216	      0.02431159	      0.08124785
      5.36500000	      0.03483472	      0.02429854	      0.08137739
      5.37000000	      0.03483064	      0.02429711	      0.08160316
      5.37500000	      0.03484821	      0.02430324	      0.08177907
      5.38000000	      0.03480495	      0.02428815	      0.08203655
      5.38500000	      0.03513904	      0.02440445	      0.08218768
      5.39000000	      0.03512378	      0.02439915	      0.08209643
      5.39500000	      0.03489270	      0.02431875	      0.08228062
      5.40000000	      0.03487782	      0.02431357	      0.08244736
      5.40500000	      0.03477853	      0.02427893	      0.08186537
      5.41000000	      0.03494346	      0.02433643	      0.08272171
      5.41500000	      0.03494906	      0.02433838	      0.08269643
      5.42000000	      0.03499185	      0.02435328	      0.08304536
      5.42500000	      0.03495813	      0.02434154	      0.08316787
      5.43000000	      0.03504480	      0.02437170	      0.08322287
      5.43500000	      0.03510153	      0.02439142	      0.08345970
      5.44000000	      0.03511030	      0.02439446	      0.08345186
      5.44500000	      0.03513985	      0.02440473	      0.08360548
      5.45000000	      0.03540819	      0.02449773	      0.08374002
      5.45500000	      0.03545665	      0.02451449	      0.08395390
      5.46000000	      0.03519683	      0.02442451	      0.08390408
      5.46500000	      0.03524090	      0.02443979	      0.08393666
      5.47000000	      0.03525287	      0.02444394	      0.08409845
      5.47500000	      0.03528471	      0.02445498	      0.08422355
      5.48000000	      0.03555303	      0.02454778	      0.08411095
      5.48500000	      0.03562076	      0.02457115	      0.08441426
      5.49000000	      0.03564944	      0.02458104	      0.08457043
      5.49500000	      0.03561788	      0.02457016	      0.08453937
      5.50000000	      0.03563582	      0.02457635	      0.08462263
      5.50500000	      0.03574091	      0.02461256	      0.08464738
      5.51000000	      0.03578926	      0.02462920	      0.08471443
      5.51500000	      0.03589685	      0.02466619	      0.08493282
      5.52000000	      0.03595047	      0.02468461	      0.08501570
      5.52500000	      0.03597171	      0.02469190	      0.08491198
      5.53000000	      0.03588246	      0.02466125	      0.08488246
      5.53500000	      0.03590990	      0.02467068	      0.08483038
      5.54000000	      0.03586096	      0.02465386	      0.08488897
      5.54500000	      0.03585858	      0.02465304	      0.08476042
      5.55000000	      0.03583271	      0.02464415	      0.08485838
      5.55500000	      0.03579055	      0.02462965	      0.08470440
      5.56000000	      0.03583064	      0.02464344	      0.08459571
      5.56500000	      0.03579020	      0.02462952	      0.08458173
      5.57000000	      0.03578290	      0.02462701	      0.08452570
      5.57500000	      0.03554808	      0.02454608	      0.08439709
      5.58000000	      0.03554345	      0.02454448	      0.08425792
      5.58500000	      0.03558827	      0.02455995	      0.08402623
      5.59000000	      0.03551127	      0.02453336	      0.08394390
      5.59500000	      0.03547842	      0.02452201	      0.08384092
      5.60000000	      0.03545941	      0.02451544	      0.08372700
      5.60500000	      0.03578502	      0.02462774	      0.08355858
      5.61000000	      0.03575302	      0.02461673	      0.08325126
      5.61500000	      0.03567858	      0.02459109	      0.08319794
      5.62000000	      0.03535298	      0.02447862	      0.08285009
      5.62500000	      0.03530114	      0.02446067	      0.08257849
      5.63000000	      0.03548197	      0.02452324	      0.08232953
      5.63500000	      0.03544323	      0.02450985	      0.08213659
      5.64000000	      0.03548198	      0.02452325	      0.08206911
      5.64500000	      0.03549042	      0.02452616	      0.08176119
      5.65000000	      0.03505447	      0.02437506	      0.08171501
      5.65500000	      0.03510626	      0.02439306	      0.08161557
      5.66000000	      0.03492063	      0.02432848	      0.08122419
      5.66500000	      0.03486197	      0.02430804	      0.08093858
      5.67000000	      0.03486135	      0.02430782	      0.08074925
      5.67500000	      0.03515816	      0.02441108	      0.08039085
      5.68000000	      0.03489848	      0.02432077	      0.07974966
      5.68500000	      0.03498250	      0.02435002	      0.07918728
      5.69000000	      0.03487242	      0.02431168	      0.07860153
      5.69500000	      0.03488602	      0.02431642	      0.07828182
      5.70000000	      0.03499268	      0.02435357	      0.07857578
      5.70500000	      0.03470503	      0.02425326	      0.07825520
      5.71000000	      0.03497289	      0.02434668	      0.07775181
      5.71500000	      0.03469795	      0.02425079	      0.07739347
      5.72000000	      0.03474255	      0.02426637	      0.07685658
      5.72500000	      0.03501377	      0.02436091	      0.07654145
      5.73000000	      0.03472577	      0.02426051	      0.07600958
      5.73500000	      0.03468620	      0.02424668	      0.07566684
      5.74000000	      0.03456126	      0.02420298	      0.07504325
      5.74500000	      0.03466563	      0.02423950	      0.07474217
      5.75000000	      0.03460633	      0.02421875	      0.07435470
      5.75500000	      0.03484471	      0.02430202	      0.07386028
      5.76000000	      0.03461603	      0.02422215	      0.07350318
      5.76500000	      0.03467247	      0.02424188	      0.07321421
      5.77000000	      0.03459757	      0.02421569	      0.07283468
      5.77500000	      0.03478715	      0.02428194	      0.07227882
      5.78000000	      0.03467975	      0.02424443	      0.07189280
      5.78500000	      0.03460009	      0.02421657	      0.07153111
      5.79000000	      0.03429770	      0.02411052	      0.07120675
      5.79500000	      0.03420552	      0.02407809	      0.07097931
      5.80000000	      0.03409502	      0.02403917	      0.07059675
      5.80500000	      0.03394296	      0.02398551	      0.07044918
      5.81000000	      0.03390200	      0.02397103	      0.07029826
      5.81500000	      0.03382474	      0.02394370	      0.06995370
      5.82000000	      0.03377088	      0.02392463	      0.07000557
      5.82500000	      0.03382036	      0.02394215	      0.06988157
      5.83000000	      0.03410622	      0.02404312	      0.06965085
      5.83500000	      0.03373221	      0.02391093	      0.06968458
      5.84000000	      0.03363256	      0.02387558	      0.06950654
      5.84500000	      0.03354530	      0.02384459	      0.06920266
      5.85000000	      0.03365869	      0.02388485	      0.06927423
      5.85500000	      0.03337633	      0.02378446	      0.06954572
      5.86000000	      0.03344018	      0.02380720	      0.06984496
      5.86500000	      0.03339014	      0.02378938	      0.06982544
      5.87000000	      0.03368981	      0.02389589	      0.06993814
      5.87500000	      0.03358070	      0.02385717	      0.07004317
      5.88000000	      0.03363930	      0.02387798	      0.07048282
      5.88500000	      0.03412190	      0.02404865	      0.07063689
      5.89000000	      0.03416771	      0.02406478	      0.07078086
      5.89500000	      0.03449746	      0.02418063	      0.07054170
      5.90000000	      0.03447892	      0.02417413	      0.07124623
      5.90500000	      0.03467181	      0.02424165	      0.07183058
      5.91000000	      0.03483982	      0.02430032	      0.07190778
      5.91500000	      0.03527704	      0.02445232	      0.07220537
      5.92000000	      0.03481034	      0.02429003	      0.06950115
      5.92500000	      0.03500030	      0.02435622	      0.06977345
      5.93000000	      0.03502636	      0.02436528	      0.07129664
      5.93500000	      0.03509019	      0.02438748	      0.07175577
      5.94000000	      0.03523870	      0.02443903	      0.07191944
      5.94500000	      0.03543092	      0.02450559	      0.07239551
      5.95000000	      0.03551199	      0.02453361	      0.07245292
      5.95500000	      0.03566271	      0.02458562	      0.07271614
      5.96000000	      0.03560590	      0.02456603	      0.07286778
      5.96500000	      0.03576486	      0.02462081	      0.07301688
      5.97000000	      0.03581811	      0.02463913	      0.07316052
      5.97500000	      0.03596475	      0.02468951	      0.07348572
      5.98000000	      0.03595347	      0.02468564	      0.07353084
      5.98500000	      0.03605397	      0.02472012	      0.07353885
      5.99000000	      0.03600718	      0.02470407	      0.07359758
      5.99500000	      0.03620872	      0.02477311	      0.07363124
      6.00000000	      0.03623730	      0.02478289	      0.07350136
      6.00500000	      0.03624586	      0.02478582	      0.07350215
      6.01000000	      0.03621586	      0.02477556	      0.07343164
      6.01500000	      0.03620475	      0.02477175	      0.07328311
      6.02000000	      0.03624897	      0.02478688	      0.07317127
      6.02500000	      0.03630662	      0.02480658	      0.07328928
      6.03000000	      0.03606492	      0.02472387	      0.07307989
      6.03500000	      0.03633351	      0.02481577	      0.07304005
      6.04000000	      0.03647496	      0.02486402	      0.07283626
      6.04500000	      0.03660897	      0.02490966	      0.07272290
      6.05000000	      0.03638537	      0.02483347	      0.07254953
      6.05500000	      0.03643028	      0.02484879	      0.07224326
      6.06000000	      0.03676852	      0.02496388	      0.07215278
      6.06500000	      0.03681099	      0.02497829	      0.07172843
      6.07000000	      0.03668231	      0.02493460	      0.07142958
      6.07500000	      0.03738517	      0.02517235	      0.07359158
      6.08000000	      0.03764013	      0.02525804	      0.07342590
      6.08500000	      0.03768276	      0.02527233	      0.07317570
      6.09000000	      0.03769572	      0.02527668	      0.07295927
      6.09500000	      0.03789548	      0.02534357	      0.07281592
      6.10000000	      0.03779650	      0.02531045	      0.07252250
      6.10500000	      0.03832536	      0.02548690	      0.07237250
      6.11000000	      0.03818810	      0.02544123	      0.07222883
      6.11500000	      0.03828987	      0.02547510	      0.07208106
      6.12000000	      0.03841343	      0.02551617	      0.07198694
      6.12500000	      0.03848421	      0.02553967	      0.07175809
      6.13000000	      0.03862768	      0.02558723	      0.07160376
      6.13500000	      0.03863613	      0.02559003	      0.07135937
      6.14000000	      0.03880259	      0.02564510	      0.07125460
      6.14500000	      0.03883197	      0.02565480	      0.07112646
      6.15000000	      0.03892519	      0.02568558	      0.07107799
      6.15500000	      0.03898191	      0.02570429	      0.07098325
      6.16000000	      0.03912742	      0.02575222	      0.07081284
      6.16500000	      0.03914121	      0.02575675	      0.07076257
      6.17000000	      0.03922304	      0.02578366	      0.07061267
      6.17500000	      0.03932461	      0.02581703	      0.07072946
      6.18000000	      0.03943080	      0.02585186	      0.07069155
      6.18500000	      0.03944174	      0.02585545	      0.07060405
      6.19000000	      0.03943842	      0.02585436	      0.07054178
      6.19500000	      0.03950327	      0.02587560	      0.07053743
      6.20000000	      0.03957022	      0.02589752	      0.07060036
      6.20500000	      0.03968702	      0.02593572	      0.07053039
      6.21000000	      0.03981381	      0.02597711	      0.07055832
      6.21500000	      0.03981450	      0.02597734	      0.07057679
      6.22000000	      0.03974112	      0.02595339	      0.07059250
      6.22500000	      0.03982490	      0.02598073	      0.07066056
      6.23000000	      0.03991808	      0.02601111	      0.07075151
      6.23500000	      0.03992872	      0.02601457	      0.07088048
      6.24000000	      0.03984742	      0.02598808	      0.07075286
      6.24500000	      0.03951975	      0.02588100	      0.07080015
      6.25000000	      0.03950302	      0.02587552	      0.07077606
      6.25500000	      0.03967496	      0.02593178	      0.07084258
      6.26000000	      0.03965740	      0.02592603	      0.07080326
      6.26500000	      0.03961866	      0.02591337	      0.07070255
      6.27000000	      0.03949059	      0.02587145	      0.07073120
      6.27500000	      0.03944444	      0.02585633	      0.07060980
      6.28000000	      0.03935522	      0.02582707	      0.07067994
      6.28500000	      0.03923834	      0.02578869	      0.07066148
      6.29000000	      0.03911919	      0.02574951	      0.07059862
      6.29500000	      0.03904898	      0.02572639	      0.07055363
      6.30000000	      0.03896456	      0.02569857	      0.07050058
      6.30500000	      0.03855510	      0.02556318	      0.07037588
      6.31000000	      0.03873554	      0.02562293	      0.07029336
      6.31500000	      0.03828604	      0.02547383	      0.07018578
      6.32000000	      0.03837378	      0.02550300	      0.07017733
      6.32500000	      0.03835005	      0.02549511	      0.07015203
      6.33000000	      0.03823406	      0.02545653	      0.06999581
      6.33500000	      0.03813067	      0.02542209	      0.07006700
      6.34000000	      0.03801143	      0.02538231	      0.06992849
      6.34500000	      0.03786977	      0.02533497	      0.06984562
      6.35000000	      0.03769595	      0.02527676	      0.06979738
      6.35500000	      0.03763944	      0.02525780	      0.06966708
      6.36000000	      0.03748984	      0.02520756	      0.06958909
      6.36500000	      0.03745891	      0.02519716	      0.06946280
      6.37000000	      0.03711255	      0.02508039	      0.06944376
      6.37500000	      0.03693504	      0.02502035	      0.06903437
      6.38000000	      0.03690181	      0.02500909	      0.06910207
      6.38500000	      0.03670545	      0.02494246	      0.06909730
      6.39000000	      0.03666516	      0.02492877	      0.06891711
      6.39500000	      0.03654827	      0.02488900	      0.06903515
      6.40000000	      0.03643902	      0.02485177	      0.06887112
      6.40500000	      0.03628702	      0.02479988	      0.06891648
      6.41000000	      0.03610027	      0.02473598	      0.06909645
      6.41500000	      0.03603857	      0.02471484	      0.06889029
      6.42000000	      0.03595292	      0.02468545	      0.06911893
      6.42500000	      0.03566852	      0.02458762	      0.06895870
      6.43000000	      0.03558625	      0.02455925	      0.06931975
      6.43500000	      0.03565524	      0.02458304	      0.06940547
      6.44000000	      0.03519572	      0.02442412	      0.06935256
      6.44500000	      0.03509446	      0.02438896	      0.06969221
      6.45000000	      0.03525064	      0.02444317	      0.06966298
      6.45500000	      0.03498831	      0.02435205	      0.06991639
      6.46000000	      0.03492101	      0.02432862	      0.06988621
      6.46500000	      0.03472349	      0.02425971	      0.07001739
      6.47000000	      0.03465562	      0.02423599	      0.07027708
      6.47500000	      0.03421551	      0.02408161	      0.07026237
      6.48000000	      0.03416901	      0.02406524	      0.07077283
      6.48500000	      0.03390309	      0.02397141	      0.07004766
      6.49000000	      0.03391418	      0.02397533	      0.07099930
      6.49500000	      0.03371384	      0.02390442	      0.07022838
      6.50000000	      0.03366200	      0.02388603	      0.06984293
      6.50500000	      0.03327619	      0.02374875	      0.06820958
