Model Marker Errors from IK
version=1
nRows=671
nColumns=4
inDegrees=no
endheader
time	total_squared_error	marker_error_RMS	marker_error_max
      9.60000000	      0.09465124	      0.04005319	      0.11595294
      9.60500000	      0.09472786	      0.04006940	      0.11592089
      9.61000000	      0.09487732	      0.04010100	      0.11610109
      9.61500000	      0.09471057	      0.04006574	      0.11594434
      9.62000000	      0.09493163	      0.04011248	      0.11599908
      9.62500000	      0.09503988	      0.04013534	      0.11598791
      9.63000000	      0.09485467	      0.04009621	      0.11583948
      9.63500000	      0.09491790	      0.04010958	      0.11594511
      9.64000000	      0.09501197	      0.04012944	      0.11588201
      9.64500000	      0.09491143	      0.04010821	      0.11587368
      9.65000000	      0.09510383	      0.04014884	      0.11589832
      9.65500000	      0.09501521	      0.04013013	      0.11569395
      9.66000000	      0.09495561	      0.04011754	      0.11573454
      9.66500000	      0.09496055	      0.04011858	      0.11568795
      9.67000000	      0.09487600	      0.04010072	      0.11564933
      9.67500000	      0.09489662	      0.04010508	      0.11558551
      9.68000000	      0.09481585	      0.04008801	      0.11552623
      9.68500000	      0.09481211	      0.04008722	      0.11551742
      9.69000000	      0.09470209	      0.04006395	      0.11550627
      9.69500000	      0.09458972	      0.04004017	      0.11535692
      9.70000000	      0.09453443	      0.04002847	      0.11529286
      9.70500000	      0.09459516	      0.04004133	      0.11526922
      9.71000000	      0.09461492	      0.04004551	      0.11518583
      9.71500000	      0.09438634	      0.03999710	      0.11518773
      9.72000000	      0.09441841	      0.04000390	      0.11498994
      9.72500000	      0.09423099	      0.03996418	      0.11490088
      9.73000000	      0.09429887	      0.03997857	      0.11472789
      9.73500000	      0.09437203	      0.03999407	      0.11459491
      9.74000000	      0.09447981	      0.04001690	      0.11459325
      9.74500000	      0.09469229	      0.04006188	      0.11446713
      9.75000000	      0.09461460	      0.04004544	      0.11446048
      9.75500000	      0.09480738	      0.04008622	      0.11429761
      9.76000000	      0.09482297	      0.04008951	      0.11432077
      9.76500000	      0.09485228	      0.04009571	      0.11429706
      9.77000000	      0.09512534	      0.04015338	      0.11429498
      9.77500000	      0.09521754	      0.04017283	      0.11417877
      9.78000000	      0.09539916	      0.04021113	      0.11434401
      9.78500000	      0.09543563	      0.04021881	      0.11430437
      9.79000000	      0.09554969	      0.04024284	      0.11433862
      9.79500000	      0.09567833	      0.04026992	      0.11434741
      9.80000000	      0.09563140	      0.04026004	      0.11424767
      9.80500000	      0.09542958	      0.04021754	      0.11431460
      9.81000000	      0.09526541	      0.04018293	      0.11426809
      9.81500000	      0.09541405	      0.04021427	      0.11430179
      9.82000000	      0.09542241	      0.04021603	      0.11419715
      9.82500000	      0.09534438	      0.04019958	      0.11424696
      9.83000000	      0.09538429	      0.04020800	      0.11421021
      9.83500000	      0.09545077	      0.04022200	      0.11430720
      9.84000000	      0.09536567	      0.04020407	      0.11429319
      9.84500000	      0.09535941	      0.04020275	      0.11429175
      9.85000000	      0.09542985	      0.04021760	      0.11431981
      9.85500000	      0.09561770	      0.04025716	      0.11436594
      9.86000000	      0.09576125	      0.04028737	      0.11434257
      9.86500000	      0.09605085	      0.04034824	      0.11430695
      9.87000000	      0.09589780	      0.04031608	      0.11430156
      9.87500000	      0.09586185	      0.04030852	      0.11427785
      9.88000000	      0.09558281	      0.04024981	      0.11429584
      9.88500000	      0.09565007	      0.04026397	      0.11427967
      9.89000000	      0.09540710	      0.04021280	      0.11424369
      9.89500000	      0.09537257	      0.04020552	      0.11422016
      9.90000000	      0.09534841	      0.04020043	      0.11426969
      9.90500000	      0.09543692	      0.04021909	      0.11416396
      9.91000000	      0.09523423	      0.04017635	      0.11425309
      9.91500000	      0.09540298	      0.04021193	      0.11424470
      9.92000000	      0.09543961	      0.04021965	      0.11407931
      9.92500000	      0.09557959	      0.04024914	      0.11410866
      9.93000000	      0.09552357	      0.04023734	      0.11407804
      9.93500000	      0.09549307	      0.04023092	      0.11404329
      9.94000000	      0.09547843	      0.04022783	      0.11401415
      9.94500000	      0.09563661	      0.04026114	      0.11409047
      9.95000000	      0.09548293	      0.04022878	      0.11407783
      9.95500000	      0.09559007	      0.04025134	      0.11405417
      9.96000000	      0.09568989	      0.04027235	      0.11404263
      9.96500000	      0.09567738	      0.04026972	      0.11407580
      9.97000000	      0.09578122	      0.04029157	      0.11395984
      9.97500000	      0.09582175	      0.04030009	      0.11407279
      9.98000000	      0.09584051	      0.04030404	      0.11402993
      9.98500000	      0.09570478	      0.04027549	      0.11402751
      9.99000000	      0.09605844	      0.04034983	      0.11408080
      9.99500000	      0.09601808	      0.04034136	      0.11408925
     10.00000000	      0.09591165	      0.04031899	      0.11407076
     10.00500000	      0.09624877	      0.04038979	      0.11409034
     10.01000000	      0.09633254	      0.04040736	      0.11408851
     10.01500000	      0.09658148	      0.04045954	      0.11416366
     10.02000000	      0.09643504	      0.04042885	      0.11419703
     10.02500000	      0.09659833	      0.04046307	      0.11419140
     10.03000000	      0.09668434	      0.04048108	      0.11426797
     10.03500000	      0.09679808	      0.04050488	      0.11433288
     10.04000000	      0.09686537	      0.04051896	      0.11439029
     10.04500000	      0.09700270	      0.04054767	      0.11435958
     10.05000000	      0.09716695	      0.04058198	      0.11440255
     10.05500000	      0.09736931	      0.04062422	      0.11444053
     10.06000000	      0.09731867	      0.04061366	      0.11461971
     10.06500000	      0.09739173	      0.04062890	      0.11457479
     10.07000000	      0.09756062	      0.04066411	      0.11436804
     10.07500000	      0.09764014	      0.04068068	      0.11437827
     10.08000000	      0.09760841	      0.04067407	      0.11426152
     10.08500000	      0.09768680	      0.04069040	      0.11427703
     10.09000000	      0.09774624	      0.04070278	      0.11424859
     10.09500000	      0.09781983	      0.04071810	      0.11424255
     10.10000000	      0.09798777	      0.04075303	      0.11422431
     10.10500000	      0.09818651	      0.04079434	      0.11421785
     10.11000000	      0.09815489	      0.04078777	      0.11428409
     10.11500000	      0.09819842	      0.04079681	      0.11424040
     10.12000000	      0.09860566	      0.04088132	      0.11436700
     10.12500000	      0.09854653	      0.04086906	      0.11432206
     10.13000000	      0.09874126	      0.04090942	      0.11436807
     10.13500000	      0.09871649	      0.04090429	      0.11436290
     10.14000000	      0.09889873	      0.04094203	      0.11437322
     10.14500000	      0.09912569	      0.04098898	      0.11439094
     10.15000000	      0.09934470	      0.04103424	      0.11443062
     10.15500000	      0.09938993	      0.04104358	      0.11448611
     10.16000000	      0.09935553	      0.04103647	      0.11446484
     10.16500000	      0.09946425	      0.04105892	      0.11443366
     10.17000000	      0.09964158	      0.04109550	      0.11427054
     10.17500000	      0.10012509	      0.04119509	      0.11435961
     10.18000000	      0.10012154	      0.04119436	      0.11436541
     10.18500000	      0.10007323	      0.04118442	      0.11438464
     10.19000000	      0.10041542	      0.04125477	      0.11418822
     10.19500000	      0.10036442	      0.04124430	      0.11417292
     10.20000000	      0.10046382	      0.04126471	      0.11414161
     10.20500000	      0.10720074	      0.04262583	      0.12337160
     10.21000000	      0.10779299	      0.04274342	      0.12320112
     10.21500000	      0.10729300	      0.04264417	      0.12321957
     10.22000000	      0.10762969	      0.04271103	      0.12323542
     10.22500000	      0.10771376	      0.04272771	      0.12311768
     10.23000000	      0.10779039	      0.04274290	      0.12307278
     10.23500000	      0.10778688	      0.04274221	      0.12310615
     10.24000000	      0.10794654	      0.04277385	      0.12313314
     10.24500000	      0.10839307	      0.04286223	      0.12294307
     10.25000000	      0.10802934	      0.04279025	      0.12300645
     10.25500000	      0.10787469	      0.04275961	      0.12294053
     10.26000000	      0.10832600	      0.04284897	      0.12303407
     10.26500000	      0.10847098	      0.04287763	      0.12300688
     10.27000000	      0.10833635	      0.04285101	      0.12297608
     10.27500000	      0.10843505	      0.04287053	      0.12294050
     10.28000000	      0.10847554	      0.04287853	      0.12289000
     10.28500000	      0.10872640	      0.04292808	      0.12286959
     10.29000000	      0.10866379	      0.04291572	      0.12277340
     10.29500000	      0.10866592	      0.04291614	      0.12283244
     10.30000000	      0.10918010	      0.04301756	      0.12275342
     10.30500000	      0.10885401	      0.04295327	      0.12274885
     10.31000000	      0.10923483	      0.04302834	      0.12276895
     10.31500000	      0.10957494	      0.04309527	      0.12269814
     10.32000000	      0.10934294	      0.04304962	      0.12264381
     10.32500000	      0.10955430	      0.04309121	      0.12255981
     10.33000000	      0.10966656	      0.04311328	      0.12255926
     10.33500000	      0.10907165	      0.04299619	      0.12244646
     10.34000000	      0.10995980	      0.04317089	      0.12249601
     10.34500000	      0.11018989	      0.04321603	      0.12237683
     10.35000000	      0.11012927	      0.04320414	      0.12231885
     10.35500000	      0.11030555	      0.04323870	      0.12232899
     10.36000000	      0.11044851	      0.04326672	      0.12226160
     10.36500000	      0.11084791	      0.04334487	      0.12227101
     10.37000000	      0.11091500	      0.04335799	      0.12222530
     10.37500000	      0.11115648	      0.04340516	      0.12218930
     10.38000000	      0.11158363	      0.04348848	      0.12205601
     10.38500000	      0.11168268	      0.04350778	      0.12198651
     10.39000000	      0.11184161	      0.04353873	      0.12183023
     10.39500000	      0.11222002	      0.04361232	      0.12178498
     10.40000000	      0.11181704	      0.04353394	      0.12167584
     10.40500000	      0.11226443	      0.04362095	      0.12161749
     10.41000000	      0.11156385	      0.04348463	      0.12152017
     10.41500000	      0.11236301	      0.04364009	      0.12150405
     10.42000000	      0.11223934	      0.04361607	      0.12151194
     10.42500000	      0.11244929	      0.04365685	      0.12143333
     10.43000000	      0.11243657	      0.04365438	      0.12147322
     10.43500000	      0.11272957	      0.04371122	      0.12158907
     10.44000000	      0.11286874	      0.04373819	      0.12162822
     10.44500000	      0.11296100	      0.04375607	      0.12169599
     10.45000000	      0.11342959	      0.04384673	      0.12172362
     10.45500000	      0.11356637	      0.04387316	      0.12168763
     10.46000000	      0.11377172	      0.04391280	      0.12163469
     10.46500000	      0.11404276	      0.04396508	      0.12172800
     10.47000000	      0.11448750	      0.04405072	      0.12163507
     10.47500000	      0.11441791	      0.04403733	      0.12170552
     10.48000000	      0.11524103	      0.04419545	      0.12171616
     10.48500000	      0.11515826	      0.04417958	      0.12168996
     10.49000000	      0.11558189	      0.04426076	      0.12164106
     10.49500000	      0.11558276	      0.04426093	      0.12170840
     10.50000000	      0.11589821	      0.04432129	      0.12167191
     10.50500000	      0.11614681	      0.04436880	      0.12161357
     10.51000000	      0.11588113	      0.04431802	      0.12157957
     10.51500000	      0.11636343	      0.04441015	      0.12161082
     10.52000000	      0.11689478	      0.04451143	      0.12158067
     10.52500000	      0.11665003	      0.04446481	      0.12156225
     10.53000000	      0.11705720	      0.04454234	      0.12163553
     10.53500000	      0.11766103	      0.04465708	      0.12163143
     10.54000000	      0.11727745	      0.04458423	      0.12150985
     10.54500000	      0.11807163	      0.04473493	      0.12151363
     10.55000000	      0.11823589	      0.04476604	      0.12149984
     10.55500000	      0.11834529	      0.04478674	      0.12151627
     10.56000000	      0.11834289	      0.04478629	      0.12154509
     10.56500000	      0.11861373	      0.04483751	      0.12156331
     10.57000000	      0.11909411	      0.04492821	      0.12152913
     10.57500000	      0.11922873	      0.04495360	      0.12154622
     10.58000000	      0.11966530	      0.04503582	      0.12156585
     10.58500000	      0.11978741	      0.04505880	      0.12148943
     10.59000000	      0.11995359	      0.04509004	      0.12149682
     10.59500000	      0.12016575	      0.04512990	      0.12151400
     10.60000000	      0.11963407	      0.04502995	      0.12151318
     10.60500000	      0.12023277	      0.04514248	      0.12151778
     10.61000000	      0.12029000	      0.04515322	      0.12155460
     10.61500000	      0.12070309	      0.04523069	      0.12155931
     10.62000000	      0.12047389	      0.04518772	      0.12158574
     10.62500000	      0.12065856	      0.04522234	      0.12155625
     10.63000000	      0.12075611	      0.04524062	      0.12154656
     10.63500000	      0.12090309	      0.04526814	      0.12151141
     10.64000000	      0.12102934	      0.04529177	      0.12143922
     10.64500000	      0.12108838	      0.04530282	      0.12146692
     10.65000000	      0.12144712	      0.04536988	      0.12143505
     10.65500000	      0.12153631	      0.04538653	      0.12134662
     10.66000000	      0.12173569	      0.04542375	      0.12132271
     10.66500000	      0.12169424	      0.04541601	      0.12122734
     10.67000000	      0.12115665	      0.04531559	      0.12123493
     10.67500000	      0.12207957	      0.04548786	      0.12123971
     10.68000000	      0.12217571	      0.04550577	      0.12104383
     10.68500000	      0.12263586	      0.04559138	      0.12118073
     10.69000000	      0.12262291	      0.04558897	      0.12094849
     10.69500000	      0.12281573	      0.04562480	      0.12097570
     10.70000000	      0.12244730	      0.04555632	      0.12095658
     10.70500000	      0.12267925	      0.04559944	      0.12101123
     10.71000000	      0.12339528	      0.04573232	      0.12106266
     10.71500000	      0.12376645	      0.04580105	      0.12101120
     10.72000000	      0.12410726	      0.04586407	      0.12100331
     10.72500000	      0.12431324	      0.04590211	      0.12105887
     10.73000000	      0.12467529	      0.04596891	      0.12107071
     10.73500000	      0.12519397	      0.04606443	      0.12104546
     10.74000000	      0.12538198	      0.04609901	      0.12110309
     10.74500000	      0.12547673	      0.04611642	      0.12109003
     10.75000000	      0.12588124	      0.04619070	      0.12098056
     10.75500000	      0.12669929	      0.04634054	      0.12107571
     10.76000000	      0.12647919	      0.04630027	      0.12108640
     10.76500000	      0.12701933	      0.04639903	      0.12111550
     10.77000000	      0.12767429	      0.04651850	      0.12112918
     10.77500000	      0.12808601	      0.04659345	      0.12104135
     10.78000000	      0.12853245	      0.04667458	      0.12112351
     10.78500000	      0.12886256	      0.04673447	      0.12110022
     10.79000000	      0.12977862	      0.04690029	      0.12110492
     10.79500000	      0.13014795	      0.04696698	      0.12116249
     10.80000000	      0.13045621	      0.04702257	      0.12117085
     10.80500000	      0.13094004	      0.04710969	      0.12118200
     10.81000000	      0.13121633	      0.04715936	      0.12114000
     10.81500000	      0.13191135	      0.04728410	      0.12118057
     10.82000000	      0.13218930	      0.04733388	      0.12117691
     10.82500000	      0.13252775	      0.04739444	      0.12121094
     10.83000000	      0.13281159	      0.04744517	      0.12122060
     10.83500000	      0.13301591	      0.04748165	      0.12119066
     10.84000000	      0.13330775	      0.04753371	      0.12116236
     10.84500000	      0.13359910	      0.04758562	      0.12111816
     10.85000000	      0.13379274	      0.04762010	      0.12121442
     10.85500000	      0.13104826	      0.04712915	      0.12121374
     10.86000000	      0.13174157	      0.04725366	      0.12115152
     10.86500000	      0.13216756	      0.04732999	      0.12116617
     10.87000000	      0.13221213	      0.04733797	      0.12112782
     10.87500000	      0.13243657	      0.04737813	      0.12103167
     10.88000000	      0.13255683	      0.04739964	      0.12113618
     10.88500000	      0.13267446	      0.04742067	      0.12115448
     10.89000000	      0.13306039	      0.04748959	      0.12102395
     10.89500000	      0.13307542	      0.04749227	      0.12103997
     10.90000000	      0.13328965	      0.04753048	      0.12107044
     10.90500000	      0.13348988	      0.04756617	      0.12108606
     10.91000000	      0.13363743	      0.04759245	      0.12104984
     10.91500000	      0.13334340	      0.04754006	      0.12104115
     10.92000000	      0.13415760	      0.04768498	      0.12103405
     10.92500000	      0.13460159	      0.04776382	      0.12109640
     10.93000000	      0.13358044	      0.04758230	      0.12103149
     10.93500000	      0.13388206	      0.04763599	      0.12106508
     10.94000000	      0.13467859	      0.04777748	      0.12114030
     10.94500000	      0.13467899	      0.04777755	      0.12106602
     10.95000000	      0.13498973	      0.04783264	      0.12108200
     10.95500000	      0.13496561	      0.04782837	      0.12108669
     10.96000000	      0.13523056	      0.04787529	      0.12114566
     10.96500000	      0.13532582	      0.04789215	      0.12111427
     10.97000000	      0.13541695	      0.04790827	      0.12119396
     10.97500000	      0.13617127	      0.04804152	      0.12121720
     10.98000000	      0.13609265	      0.04802765	      0.12128064
     10.98500000	      0.13670301	      0.04813523	      0.12125785
     10.99000000	      0.13644640	      0.04809003	      0.12125224
     10.99500000	      0.13689630	      0.04816925	      0.12133873
     11.00000000	      0.13707460	      0.04820060	      0.12136339
     11.00500000	      0.13725391	      0.04823212	      0.12134736
     11.01000000	      0.13735492	      0.04824987	      0.12132116
     11.01500000	      0.13764083	      0.04830006	      0.12136860
     11.02000000	      0.13755086	      0.04828427	      0.12137440
     11.02500000	      0.13818852	      0.04839606	      0.12129854
     11.03000000	      0.13814731	      0.04838884	      0.12138945
     11.03500000	      0.13807092	      0.04837546	      0.12138763
     11.04000000	      0.13784555	      0.04833596	      0.12141761
     11.04500000	      0.13795927	      0.04835590	      0.12139650
     11.05000000	      0.13864188	      0.04847538	      0.12151146
     11.05500000	      0.13830094	      0.04841574	      0.12140120
     11.06000000	      0.13829412	      0.04841455	      0.12145975
     11.06500000	      0.13856315	      0.04846161	      0.12138977
     11.07000000	      0.13864689	      0.04847625	      0.12141912
     11.07500000	      0.13877720	      0.04849903	      0.12145964
     11.08000000	      0.13878770	      0.04850086	      0.12149762
     11.08500000	      0.13895147	      0.04852947	      0.12152325
     11.09000000	      0.13901872	      0.04854121	      0.12145250
     11.09500000	      0.13911994	      0.04855888	      0.12161031
     11.10000000	      0.13914995	      0.04856412	      0.12153606
     11.10500000	      0.13923127	      0.04857831	      0.12151003
     11.11000000	      0.13945550	      0.04861741	      0.12152320
     11.11500000	      0.13963405	      0.04864852	      0.12149513
     11.12000000	      0.13960970	      0.04864428	      0.12151343
     11.12500000	      0.13991566	      0.04869755	      0.12148654
     11.13000000	      0.13983933	      0.04868427	      0.12155514
     11.13500000	      0.14002737	      0.04871699	      0.12161079
     11.14000000	      0.14004025	      0.04871923	      0.12156534
     11.14500000	      0.14021063	      0.04874886	      0.12160939
     11.15000000	      0.14026310	      0.04875798	      0.12158096
     11.15500000	      0.13980644	      0.04867854	      0.12164305
     11.16000000	      0.14031016	      0.04876616	      0.12165935
     11.16500000	      0.14060133	      0.04881673	      0.12173758
     11.17000000	      0.14081180	      0.04885326	      0.12175484
     11.17500000	      0.14034038	      0.04877141	      0.12168110
     11.18000000	      0.14070092	      0.04883402	      0.12167185
     11.18500000	      0.14061297	      0.04881875	      0.12167106
     11.19000000	      0.14035972	      0.04877477	      0.12168791
     11.19500000	      0.14076041	      0.04884434	      0.12167607
     11.20000000	      0.14065527	      0.04882610	      0.12165314
     11.20500000	      0.14047425	      0.04879467	      0.12168414
     11.21000000	      0.14085405	      0.04886059	      0.12158980
     11.21500000	      0.14063489	      0.04882256	      0.12170286
     11.22000000	      0.14076481	      0.04884510	      0.12161109
     11.22500000	      0.14082538	      0.04885561	      0.12172590
     11.23000000	      0.14117411	      0.04891607	      0.12166103
     11.23500000	      0.14138749	      0.04895302	      0.12172894
     11.24000000	      0.14145140	      0.04896408	      0.12165415
     11.24500000	      0.14145825	      0.04896527	      0.12166183
     11.25000000	      0.14165579	      0.04899944	      0.12164172
     11.25500000	      0.14160642	      0.04899090	      0.12174087
     11.26000000	      0.14174231	      0.04901441	      0.12168427
     11.26500000	      0.14185370	      0.04903366	      0.12176884
     11.27000000	      0.14208862	      0.04907425	      0.12167709
     11.27500000	      0.14215932	      0.04908645	      0.12178126
     11.28000000	      0.14227135	      0.04910579	      0.12174522
     11.28500000	      0.14234362	      0.04911826	      0.12182463
     11.29000000	      0.14234808	      0.04911903	      0.12178836
     11.29500000	      0.14246853	      0.04913981	      0.12171626
     11.30000000	      0.14228301	      0.04910780	      0.12174925
     11.30500000	      0.14237374	      0.04912346	      0.12179800
     11.31000000	      0.14240987	      0.04912969	      0.12180758
     11.31500000	      0.14261991	      0.04916591	      0.12182065
     11.32000000	      0.14269340	      0.04917857	      0.12184569
     11.32500000	      0.14281637	      0.04919976	      0.12183194
     11.33000000	      0.14280203	      0.04919729	      0.12189931
     11.33500000	      0.14269311	      0.04917852	      0.12183085
     11.34000000	      0.14233489	      0.04911676	      0.12178908
     11.34500000	      0.14277957	      0.04919342	      0.12180192
     11.35000000	      0.14262445	      0.04916669	      0.12199896
     11.35500000	      0.14294141	      0.04922129	      0.12186194
     11.36000000	      0.14284275	      0.04920430	      0.12183253
     11.36500000	      0.14298702	      0.04922915	      0.12180000
     11.37000000	      0.14365472	      0.04934395	      0.12169798
     11.37500000	      0.14301322	      0.04923366	      0.12190013
     11.38000000	      0.14291383	      0.04921655	      0.12188371
     11.38500000	      0.14310124	      0.04924880	      0.12190860
     11.39000000	      0.14248869	      0.04914329	      0.12183602
     11.39500000	      0.14262892	      0.04916746	      0.12179272
     11.40000000	      0.14230163	      0.04911102	      0.12194268
     11.40500000	      0.14243666	      0.04913431	      0.12188100
     11.41000000	      0.14205342	      0.04906817	      0.12186107
     11.41500000	      0.14221940	      0.04909682	      0.12193844
     11.42000000	      0.14222343	      0.04909752	      0.12189706
     11.42500000	      0.14208482	      0.04907359	      0.12187741
     11.43000000	      0.14209639	      0.04907559	      0.12189475
     11.43500000	      0.14227511	      0.04910644	      0.12188689
     11.44000000	      0.14231012	      0.04911248	      0.12185651
     11.44500000	      0.14237970	      0.04912449	      0.12190066
     11.45000000	      0.14220393	      0.04909416	      0.12186245
     11.45500000	      0.14221828	      0.04909663	      0.12189408
     11.46000000	      0.14207438	      0.04907179	      0.12182493
     11.46500000	      0.14196603	      0.04905307	      0.12184736
     11.47000000	      0.14199774	      0.04905855	      0.12187742
     11.47500000	      0.14186842	      0.04903621	      0.12184001
     11.48000000	      0.14209067	      0.04907460	      0.12171268
     11.48500000	      0.14217836	      0.04908974	      0.12181033
     11.49000000	      0.14245173	      0.04913691	      0.12172874
     11.49500000	      0.14243222	      0.04913355	      0.12171537
     11.50000000	      0.14245743	      0.04913789	      0.12175035
     11.50500000	      0.14275565	      0.04918930	      0.12177634
     11.51000000	      0.14297960	      0.04922787	      0.12172700
     11.51500000	      0.14277657	      0.04919291	      0.12175063
     11.52000000	      0.14282442	      0.04920115	      0.12181034
     11.52500000	      0.14316265	      0.04925937	      0.12180750
     11.53000000	      0.14316348	      0.04925951	      0.12182481
     11.53500000	      0.14334618	      0.04929094	      0.12182499
     11.54000000	      0.14357306	      0.04932993	      0.12167102
     11.54500000	      0.14346751	      0.04931179	      0.12183233
     11.55000000	      0.14357574	      0.04933039	      0.12177456
     11.55500000	      0.14402974	      0.04940832	      0.12173608
     11.56000000	      0.14389395	      0.04938502	      0.12181261
     11.56500000	      0.14492510	      0.04956165	      0.12179493
     11.57000000	      0.14423008	      0.04944267	      0.12171718
     11.57500000	      0.14427063	      0.04944962	      0.12191150
     11.58000000	      0.14435628	      0.04946430	      0.12181615
     11.58500000	      0.14421514	      0.04944011	      0.12174438
     11.59000000	      0.14404160	      0.04941035	      0.12187405
     11.59500000	      0.14403512	      0.04940924	      0.12176817
     11.60000000	      0.14442349	      0.04947581	      0.12192124
     11.60500000	      0.14393656	      0.04939233	      0.12190332
     11.61000000	      0.14391271	      0.04938824	      0.12186369
     11.61500000	      0.14392585	      0.04939050	      0.12197214
     11.62000000	      0.14402705	      0.04940786	      0.12184554
     11.62500000	      0.14406875	      0.04941501	      0.12202101
     11.63000000	      0.14399084	      0.04940165	      0.12208758
     11.63500000	      0.14394620	      0.04939399	      0.12201442
     11.64000000	      0.14382442	      0.04937309	      0.12205334
     11.64500000	      0.14358202	      0.04933147	      0.12202933
     11.65000000	      0.14349996	      0.04931737	      0.12209574
     11.65500000	      0.14340447	      0.04930096	      0.12215750
     11.66000000	      0.14322909	      0.04927080	      0.12210287
     11.66500000	      0.14310914	      0.04925016	      0.12203712
     11.67000000	      0.14332848	      0.04928789	      0.12205330
     11.67500000	      0.14311914	      0.04925188	      0.12205558
     11.68000000	      0.14294219	      0.04922143	      0.12214299
     11.68500000	      0.14276463	      0.04919085	      0.12214269
     11.69000000	      0.14258029	      0.04915908	      0.12211596
     11.69500000	      0.14249549	      0.04914446	      0.12219133
     11.70000000	      0.14248896	      0.04914333	      0.12215324
     11.70500000	      0.14246719	      0.04913958	      0.12224822
     11.71000000	      0.14211557	      0.04907890	      0.12215969
     11.71500000	      0.14219269	      0.04909222	      0.12213300
     11.72000000	      0.14209042	      0.04907456	      0.12207748
     11.72500000	      0.14196535	      0.04905296	      0.12215866
     11.73000000	      0.14178908	      0.04902249	      0.12208394
     11.73500000	      0.14162497	      0.04899411	      0.12215031
     11.74000000	      0.14229223	      0.04910940	      0.12209785
     11.74500000	      0.14172941	      0.04901218	      0.12217442
     11.75000000	      0.14169079	      0.04900550	      0.12219892
     11.75500000	      0.14129378	      0.04893679	      0.12214068
     11.76000000	      0.14128844	      0.04893587	      0.12213692
     11.76500000	      0.14121091	      0.04892244	      0.12216738
     11.77000000	      0.14147237	      0.04896771	      0.12224407
     11.77500000	      0.14155908	      0.04898272	      0.12220280
     11.78000000	      0.14156128	      0.04898310	      0.12210446
     11.78500000	      0.14154854	      0.04898089	      0.12217495
     11.79000000	      0.14140609	      0.04895624	      0.12212306
     11.79500000	      0.14137634	      0.04895109	      0.12203044
     11.80000000	      0.14143661	      0.04896152	      0.12216431
     11.80500000	      0.14173955	      0.04901393	      0.12206801
     11.81000000	      0.14170231	      0.04900749	      0.12210820
     11.81500000	      0.14179099	      0.04902282	      0.12211451
     11.82000000	      0.14146663	      0.04896672	      0.12201924
     11.82500000	      0.14170773	      0.04900843	      0.12206891
     11.83000000	      0.14158556	      0.04898730	      0.12198766
     11.83500000	      0.14140618	      0.04895626	      0.12191407
     11.84000000	      0.14142617	      0.04895972	      0.12199234
     11.84500000	      0.14140796	      0.04895656	      0.12184610
     11.85000000	      0.14125547	      0.04893016	      0.12183503
     11.85500000	      0.14115940	      0.04891352	      0.12185445
     11.86000000	      0.14078582	      0.04884875	      0.12183645
     11.86500000	      0.14072400	      0.04883802	      0.12175856
     11.87000000	      0.14049971	      0.04879909	      0.12184388
     11.87500000	      0.14097751	      0.04888199	      0.12182037
     11.88000000	      0.14050439	      0.04879990	      0.12176466
     11.88500000	      0.14049784	      0.04879876	      0.12186124
     11.89000000	      0.14016744	      0.04874135	      0.12167068
     11.89500000	      0.14006521	      0.04872357	      0.12186020
     11.90000000	      0.14009347	      0.04872849	      0.12173928
     11.90500000	      0.14026245	      0.04875787	      0.12177623
     11.91000000	      0.13993054	      0.04870015	      0.12175999
     11.91500000	      0.13991929	      0.04869819	      0.12168678
     11.92000000	      0.13992317	      0.04869886	      0.12183844
     11.92500000	      0.13998277	      0.04870923	      0.12164954
     11.93000000	      0.13952847	      0.04863013	      0.12177929
     11.93500000	      0.13979928	      0.04867730	      0.12169629
     11.94000000	      0.13972217	      0.04866387	      0.12153167
     11.94500000	      0.13949955	      0.04862509	      0.12173258
     11.95000000	      0.13959641	      0.04864197	      0.12164130
     11.95500000	      0.13945221	      0.04861684	      0.12144664
     11.96000000	      0.13930953	      0.04859196	      0.12183556
     11.96500000	      0.13923421	      0.04857882	      0.12163126
     11.97000000	      0.13886088	      0.04851365	      0.12170158
     11.97500000	      0.13890146	      0.04852074	      0.12175027
     11.98000000	      0.13870620	      0.04848662	      0.12151640
     11.98500000	      0.13859258	      0.04846676	      0.12162442
     11.99000000	      0.13829789	      0.04841520	      0.12146600
     11.99500000	      0.13825451	      0.04840761	      0.12174704
     12.00000000	      0.13816897	      0.04839263	      0.12157047
     12.00500000	      0.13821942	      0.04840147	      0.12131646
     12.01000000	      0.13795552	      0.04835524	      0.12169981
     12.01500000	      0.13778470	      0.04832529	      0.12175939
     12.02000000	      0.13800003	      0.04836304	      0.12150486
     12.02500000	      0.13799775	      0.04836264	      0.12144568
     12.03000000	      0.13759153	      0.04829141	      0.12166012
     12.03500000	      0.13768136	      0.04830717	      0.12149391
     12.04000000	      0.13720594	      0.04822369	      0.12160989
     12.04500000	      0.13724451	      0.04823047	      0.12139525
     12.05000000	      0.13700438	      0.04818826	      0.12162873
     12.05500000	      0.13691178	      0.04817197	      0.12154842
     12.06000000	      0.13691345	      0.04817226	      0.12177450
     12.06500000	      0.13665777	      0.04812726	      0.12186495
     12.07000000	      0.13680583	      0.04815333	      0.12164002
     12.07500000	      0.13651997	      0.04810299	      0.12160369
     12.08000000	      0.13634506	      0.04807217	      0.12180939
     12.08500000	      0.13614155	      0.04803628	      0.12160064
     12.09000000	      0.13613388	      0.04803492	      0.12167235
     12.09500000	      0.13570149	      0.04795858	      0.12132536
     12.10000000	      0.13575707	      0.04796840	      0.12172804
     12.10500000	      0.13561280	      0.04794290	      0.12167479
     12.11000000	      0.13522309	      0.04787397	      0.12157681
     12.11500000	      0.13529016	      0.04788584	      0.12167101
     12.12000000	      0.13515311	      0.04786158	      0.12141582
     12.12500000	      0.13516963	      0.04786450	      0.12162946
     12.13000000	      0.13494319	      0.04782440	      0.12160960
     12.13500000	      0.13519971	      0.04786983	      0.12178391
     12.14000000	      0.13509310	      0.04785095	      0.12147634
     12.14500000	      0.13519600	      0.04786917	      0.12162898
     12.15000000	      0.13492831	      0.04782176	      0.12170565
     12.15500000	      0.13508332	      0.04784922	      0.12150927
     12.16000000	      0.13517740	      0.04786588	      0.12179856
     12.16500000	      0.13503094	      0.04783994	      0.12150206
     12.17000000	      0.13514118	      0.04785947	      0.12188136
     12.17500000	      0.13514835	      0.04786074	      0.12167859
     12.18000000	      0.13508103	      0.04784881	      0.12195745
     12.18500000	      0.13485965	      0.04780959	      0.12201929
     12.19000000	      0.13495967	      0.04782731	      0.12207302
     12.19500000	      0.13479984	      0.04779899	      0.12179707
     12.20000000	      0.13464473	      0.04777148	      0.12218521
     12.20500000	      0.13482594	      0.04780361	      0.12193259
     12.21000000	      0.13451174	      0.04774788	      0.12228901
     12.21500000	      0.13425513	      0.04770231	      0.12233129
     12.22000000	      0.13463448	      0.04776966	      0.12250773
     12.22500000	      0.13429117	      0.04770872	      0.12228450
     12.23000000	      0.13405284	      0.04766636	      0.12249053
     12.23500000	      0.13408424	      0.04767194	      0.12216282
     12.24000000	      0.13386648	      0.04763322	      0.12237941
     12.24500000	      0.13401064	      0.04765886	      0.12255516
     12.25000000	      0.13367841	      0.04759975	      0.12254952
     12.25500000	      0.13347098	      0.04756280	      0.12245802
     12.26000000	      0.13351021	      0.04756979	      0.12253358
     12.26500000	      0.13346491	      0.04756172	      0.12217117
     12.27000000	      0.13304380	      0.04748663	      0.12240400
     12.27500000	      0.13314113	      0.04750399	      0.12254470
     12.28000000	      0.13299681	      0.04747824	      0.12249511
     12.28500000	      0.13297968	      0.04747518	      0.12267485
     12.29000000	      0.13314897	      0.04750539	      0.12266724
     12.29500000	      0.13289355	      0.04745980	      0.12251321
     12.30000000	      0.13276463	      0.04743678	      0.12265923
     12.30500000	      0.13273607	      0.04743168	      0.12271697
     12.31000000	      0.13289684	      0.04746039	      0.12244982
     12.31500000	      0.13297132	      0.04747369	      0.12276660
     12.32000000	      0.13289514	      0.04746009	      0.12279493
     12.32500000	      0.13279666	      0.04744250	      0.12276326
     12.33000000	      0.13274019	      0.04743241	      0.12284151
     12.33500000	      0.13266164	      0.04741838	      0.12298672
     12.34000000	      0.13291558	      0.04746374	      0.12254574
     12.34500000	      0.13271169	      0.04742732	      0.12290915
     12.35000000	      0.13285719	      0.04745331	      0.12250403
     12.35500000	      0.13259796	      0.04740699	      0.12286453
     12.36000000	      0.13261567	      0.04741016	      0.12294932
     12.36500000	      0.13241370	      0.04737404	      0.12243241
     12.37000000	      0.13246504	      0.04738323	      0.12293628
     12.37500000	      0.13251079	      0.04739141	      0.12286524
     12.38000000	      0.13241654	      0.04737455	      0.12278607
     12.38500000	      0.13172839	      0.04725129	      0.12295277
     12.39000000	      0.13227174	      0.04734864	      0.12260809
     12.39500000	      0.13205421	      0.04730969	      0.12270565
     12.40000000	      0.13170870	      0.04724776	      0.12256887
     12.40500000	      0.13156123	      0.04722130	      0.12268162
     12.41000000	      0.13167312	      0.04724138	      0.12272761
     12.41500000	      0.13141913	      0.04719579	      0.12264022
     12.42000000	      0.13124063	      0.04716373	      0.12260939
     12.42500000	      0.13090969	      0.04710423	      0.12263243
     12.43000000	      0.13097213	      0.04711546	      0.12223761
     12.43500000	      0.13096642	      0.04711443	      0.12252894
     12.44000000	      0.13080734	      0.04708581	      0.12247591
     12.44500000	      0.13088668	      0.04710009	      0.12218031
     12.45000000	      0.13071231	      0.04706870	      0.12263110
     12.45500000	      0.13068663	      0.04706408	      0.12273730
     12.46000000	      0.13029588	      0.04699367	      0.12282852
     12.46500000	      0.13033529	      0.04700077	      0.12273213
     12.47000000	      0.13047925	      0.04702672	      0.12243443
     12.47500000	      0.13000234	      0.04694070	      0.12277228
     12.48000000	      0.13021099	      0.04697836	      0.12244129
     12.48500000	      0.12968190	      0.04688281	      0.12289327
     12.49000000	      0.12988195	      0.04691896	      0.12301189
     12.49500000	      0.12999030	      0.04693853	      0.12307240
     12.50000000	      0.12967881	      0.04688226	      0.12266715
     12.50500000	      0.12953436	      0.04685614	      0.12312865
     12.51000000	      0.12947050	      0.04684459	      0.12314348
     12.51500000	      0.12902336	      0.04676362	      0.12326205
     12.52000000	      0.12909151	      0.04677597	      0.12321171
     12.52500000	      0.12904740	      0.04676798	      0.12261566
     12.53000000	      0.12881386	      0.04672564	      0.12307977
     12.53500000	      0.12880802	      0.04672458	      0.12312155
     12.54000000	      0.12839510	      0.04664963	      0.12260024
     12.54500000	      0.12834140	      0.04663988	      0.12274713
     12.55000000	      0.12835250	      0.04664189	      0.12310884
     12.55500000	      0.12819813	      0.04661384	      0.12299724
     12.56000000	      0.12810632	      0.04659714	      0.12302022
     12.56500000	      0.12806021	      0.04658876	      0.12301961
     12.57000000	      0.12794621	      0.04656801	      0.12292255
     12.57500000	      0.12800728	      0.04657913	      0.12238804
     12.58000000	      0.12768806	      0.04652101	      0.12267833
     12.58500000	      0.12697028	      0.04639007	      0.12291855
     12.59000000	      0.12741825	      0.04647183	      0.12234861
     12.59500000	      0.12714400	      0.04642180	      0.12273825
     12.60000000	      0.12706418	      0.04640722	      0.12291557
     12.60500000	      0.12733590	      0.04645681	      0.12243415
     12.61000000	      0.12712901	      0.04641906	      0.12286296
     12.61500000	      0.12719934	      0.04643190	      0.12257765
     12.62000000	      0.12719702	      0.04643147	      0.12309648
     12.62500000	      0.12678348	      0.04635593	      0.12300432
     12.63000000	      0.12699972	      0.04639545	      0.12261968
     12.63500000	      0.12284217	      0.04562971	      0.11272632
     12.64000000	      0.12243118	      0.04555332	      0.11296804
     12.64500000	      0.12196295	      0.04546613	      0.11283452
     12.65000000	      0.12255446	      0.04557625	      0.11304330
     12.65500000	      0.12270484	      0.04560420	      0.11251347
     12.66000000	      0.12258533	      0.04558199	      0.11306573
     12.66500000	      0.12266064	      0.04559599	      0.11258784
     12.67000000	      0.12285087	      0.04563133	      0.11322546
     12.67500000	      0.12275246	      0.04561305	      0.11335094
     12.68000000	      0.12273293	      0.04560942	      0.11288584
     12.68500000	      0.12273557	      0.04560991	      0.11305969
     12.69000000	      0.12263491	      0.04559120	      0.11342294
     12.69500000	      0.12256128	      0.04557752	      0.11358395
     12.70000000	      0.12257370	      0.04557982	      0.11357545
     12.70500000	      0.12266846	      0.04559744	      0.11353398
     12.71000000	      0.12220976	      0.04551211	      0.11369485
     12.71500000	      0.12217030	      0.04550476	      0.11357948
     12.72000000	      0.12216016	      0.04550287	      0.11385123
     12.72500000	      0.12219736	      0.04550980	      0.11375086
     12.73000000	      0.12199168	      0.04547148	      0.11324760
     12.73500000	      0.12176520	      0.04542925	      0.11412975
     12.74000000	      0.12165352	      0.04540841	      0.11363138
     12.74500000	      0.12179972	      0.04543569	      0.11416133
     12.75000000	      0.12158137	      0.04539495	      0.11388664
     12.75500000	      0.12133401	      0.04534875	      0.11350039
     12.76000000	      0.12097119	      0.04528089	      0.11393144
     12.76500000	      0.12114287	      0.04531301	      0.11339181
     12.77000000	      0.12074486	      0.04523851	      0.11406136
     12.77500000	      0.12065660	      0.04522198	      0.11398670
     12.78000000	      0.12086741	      0.04526147	      0.11401820
     12.78500000	      0.12035409	      0.04516525	      0.11405738
     12.79000000	      0.12057733	      0.04520712	      0.11399571
     12.79500000	      0.12030176	      0.04515543	      0.11404264
     12.80000000	      0.12055270	      0.04520250	      0.11402604
     12.80500000	      0.12045016	      0.04518327	      0.11408602
     12.81000000	      0.12053791	      0.04519973	      0.11416350
     12.81500000	      0.12048777	      0.04519033	      0.11428240
     12.82000000	      0.12055081	      0.04520215	      0.11400510
     12.82500000	      0.12078752	      0.04524650	      0.11394077
     12.83000000	      0.12070079	      0.04523026	      0.11401168
     12.83500000	      0.12041777	      0.04517720	      0.11409081
     12.84000000	      0.12032392	      0.04515959	      0.11419905
     12.84500000	      0.12071388	      0.04523271	      0.11426434
     12.85000000	      0.12058185	      0.04520797	      0.11429843
     12.85500000	      0.12084713	      0.04525767	      0.11436171
     12.86000000	      0.12058631	      0.04520880	      0.11440789
     12.86500000	      0.12111328	      0.04530748	      0.11453741
     12.87000000	      0.12101533	      0.04528915	      0.11453776
     12.87500000	      0.12103158	      0.04529219	      0.11458739
     12.88000000	      0.12111087	      0.04530703	      0.11461698
     12.88500000	      0.12116020	      0.04531625	      0.11463826
     12.89000000	      0.12122463	      0.04532830	      0.11469574
     12.89500000	      0.12113863	      0.04531222	      0.11469728
     12.90000000	      0.12131906	      0.04534595	      0.11472262
     12.90500000	      0.12104504	      0.04529471	      0.11481370
     12.91000000	      0.12114714	      0.04531381	      0.11479340
     12.91500000	      0.12091054	      0.04526954	      0.11479255
     12.92000000	      0.12074453	      0.04523845	      0.11475442
     12.92500000	      0.12062690	      0.04521641	      0.11485278
     12.93000000	      0.12045561	      0.04518429	      0.11481539
     12.93500000	      0.12017068	      0.04513082	      0.11490918
     12.94000000	      0.11998005	      0.04509501	      0.11487886
     12.94500000	      0.12002244	      0.04510298	      0.11491438
     12.95000000	      0.11991037	      0.04508192	      0.11499312
