Model Marker Errors from IK
version=1
nRows=442
nColumns=4
inDegrees=no
endheader
time	total_squared_error	marker_error_RMS	marker_error_max
      1.85500000	      0.15927442	      0.05195735	      0.19510475
      1.86000000	      0.15904055	      0.05191919	      0.19497462
      1.86500000	      0.15898720	      0.05191048	      0.19489360
      1.87000000	      0.15880777	      0.05188118	      0.19466656
      1.87500000	      0.15869328	      0.05186248	      0.19435474
      1.88000000	      0.15856062	      0.05184080	      0.19408821
      1.88500000	      0.15844717	      0.05182225	      0.19413809
      1.89000000	      0.15831014	      0.05179983	      0.19408926
      1.89500000	      0.15811212	      0.05176743	      0.19367857
      1.90000000	      0.15804092	      0.05175577	      0.19358516
      1.90500000	      0.15775433	      0.05170882	      0.19339417
      1.91000000	      0.15771224	      0.05170192	      0.19322509
      1.91500000	      0.15752084	      0.05167054	      0.19301208
      1.92000000	      0.15741417	      0.05165304	      0.19270470
      1.92500000	      0.15746085	      0.05166070	      0.19273247
      1.93000000	      0.15738419	      0.05164812	      0.19262338
      1.93500000	      0.15733462	      0.05163999	      0.19256492
      1.94000000	      0.15721176	      0.05161982	      0.19238254
      1.94500000	      0.15723561	      0.05162374	      0.19251144
      1.95000000	      0.15696954	      0.05158004	      0.19236530
      1.95500000	      0.15681783	      0.05155511	      0.19213752
      1.96000000	      0.15669430	      0.05153480	      0.19213378
      1.96500000	      0.15668430	      0.05153316	      0.19222019
      1.97000000	      0.15651367	      0.05150509	      0.19208877
      1.97500000	      0.15651234	      0.05150487	      0.19195379
      1.98000000	      0.15650246	      0.05150324	      0.19182761
      1.98500000	      0.15640109	      0.05148656	      0.19153456
      1.99000000	      0.15624542	      0.05146093	      0.19141515
      1.99500000	      0.15620135	      0.05145367	      0.19139864
      2.00000000	      0.15603166	      0.05142572	      0.19151535
      2.00500000	      0.15583981	      0.05139409	      0.19142521
      2.01000000	      0.15566822	      0.05136579	      0.19105977
      2.01500000	      0.15572395	      0.05137498	      0.19130797
      2.02000000	      0.15571365	      0.05137328	      0.19121226
      2.02500000	      0.15585907	      0.05139727	      0.19147101
      2.03000000	      0.15582565	      0.05139176	      0.19137910
      2.03500000	      0.15597712	      0.05141673	      0.19133556
      2.04000000	      0.15599029	      0.05141890	      0.19159625
      2.04500000	      0.15595010	      0.05141228	      0.19135586
      2.05000000	      0.15585760	      0.05139703	      0.19147273
      2.05500000	      0.15557146	      0.05134982	      0.19116413
      2.06000000	      0.15553725	      0.05134418	      0.19130842
      2.06500000	      0.15555972	      0.05134789	      0.19120560
      2.07000000	      0.15554634	      0.05134568	      0.19122834
      2.07500000	      0.15558111	      0.05135142	      0.19125782
      2.08000000	      0.15563800	      0.05136080	      0.19138804
      2.08500000	      0.15551322	      0.05134021	      0.19132919
      2.09000000	      0.15549912	      0.05133788	      0.19117301
      2.09500000	      0.15547380	      0.05133370	      0.19113762
      2.10000000	      0.15545531	      0.05133065	      0.19118787
      2.10500000	      0.15536051	      0.05131500	      0.19091401
      2.11000000	      0.15542936	      0.05132637	      0.19083223
      2.11500000	      0.15535697	      0.05131441	      0.19094516
      2.12000000	      0.15559981	      0.05135450	      0.19110632
      2.12500000	      0.15566131	      0.05136465	      0.19134196
      2.13000000	      0.15556219	      0.05134829	      0.19134313
      2.13500000	      0.15549948	      0.05133794	      0.19134502
      2.14000000	      0.15538308	      0.05131872	      0.19117811
      2.14500000	      0.15549751	      0.05133762	      0.19141263
      2.15000000	      0.15556684	      0.05134906	      0.19136793
      2.15500000	      0.15552478	      0.05134212	      0.19139187
      2.16000000	      0.15552165	      0.05134160	      0.19129287
      2.16500000	      0.15558692	      0.05135238	      0.19137555
      2.17000000	      0.15553455	      0.05134373	      0.19130074
      2.17500000	      0.15547559	      0.05133400	      0.19121364
      2.18000000	      0.15553213	      0.05134333	      0.19127593
      2.18500000	      0.15564737	      0.05136235	      0.19140558
      2.19000000	      0.15587494	      0.05139988	      0.19157759
      2.19500000	      0.15576060	      0.05138103	      0.19119099
      2.20000000	      0.15574760	      0.05137889	      0.19141931
      2.20500000	      0.15574589	      0.05137860	      0.19146717
      2.21000000	      0.15588412	      0.05140140	      0.19163041
      2.21500000	      0.15608589	      0.05143465	      0.19188740
      2.22000000	      0.15592229	      0.05140769	      0.19176184
      2.22500000	      0.15600276	      0.05142095	      0.19189672
      2.23000000	      0.15624928	      0.05146157	      0.19194371
      2.23500000	      0.15619771	      0.05145307	      0.19215334
      2.24000000	      0.15626265	      0.05146377	      0.19224141
      2.24500000	      0.15619403	      0.05145247	      0.19217039
      2.25000000	      0.15624319	      0.05146056	      0.19220102
      2.25500000	      0.15619963	      0.05145339	      0.19204797
      2.26000000	      0.15621496	      0.05145592	      0.19205919
      2.26500000	      0.15645458	      0.05149537	      0.19241080
      2.27000000	      0.15657466	      0.05151512	      0.19239720
      2.27500000	      0.15663775	      0.05152550	      0.19268494
      2.28000000	      0.15654092	      0.05150957	      0.19247692
      2.28500000	      0.15661908	      0.05152243	      0.19251659
      2.29000000	      0.15664697	      0.05152702	      0.19272895
      2.29500000	      0.15661939	      0.05152248	      0.19270517
      2.30000000	      0.15669963	      0.05153568	      0.19263883
      2.30500000	      0.15686080	      0.05156217	      0.19289494
      2.31000000	      0.15676500	      0.05154643	      0.19283327
      2.31500000	      0.15675704	      0.05154512	      0.19273124
      2.32000000	      0.15700290	      0.05158552	      0.19253647
      2.32500000	      0.15689885	      0.05156843	      0.19252349
      2.33000000	      0.15704202	      0.05159195	      0.19272577
      2.33500000	      0.15706350	      0.05159548	      0.19283761
      2.34000000	      0.15695205	      0.05157717	      0.19277070
      2.34500000	      0.15708503	      0.05159901	      0.19299216
      2.35000000	      0.15710148	      0.05160171	      0.19297617
      2.35500000	      0.15722460	      0.05162193	      0.19306329
      2.36000000	      0.15716827	      0.05161268	      0.19314981
      2.36500000	      0.15738183	      0.05164774	      0.19330967
      2.37000000	      0.15726386	      0.05162838	      0.19327386
      2.37500000	      0.15729263	      0.05163310	      0.19332940
      2.38000000	      0.15732364	      0.05163819	      0.19321562
      2.38500000	      0.15735297	      0.05164300	      0.19341024
      2.39000000	      0.15731258	      0.05163637	      0.19297994
      2.39500000	      0.15715250	      0.05161009	      0.19317766
      2.40000000	      0.15712699	      0.05160590	      0.19313013
      2.40500000	      0.15728006	      0.05163103	      0.19333022
      2.41000000	      0.15737025	      0.05164584	      0.19337448
      2.41500000	      0.15734967	      0.05164246	      0.19335179
      2.42000000	      0.15738581	      0.05164839	      0.19298160
      2.42500000	      0.15744718	      0.05165846	      0.19323256
      2.43000000	      0.15751843	      0.05167015	      0.19340078
      2.43500000	      0.15755209	      0.05167567	      0.19330590
      2.44000000	      0.15766989	      0.05169498	      0.19349459
      2.44500000	      0.15761293	      0.05168564	      0.19353501
      2.45000000	      0.15771385	      0.05170219	      0.19335798
      2.45500000	      0.15770015	      0.05169994	      0.19368757
      2.46000000	      0.15781660	      0.05171902	      0.19356809
      2.46500000	      0.15787735	      0.05172898	      0.19367683
      2.47000000	      0.15773915	      0.05170633	      0.19368042
      2.47500000	      0.15784973	      0.05172445	      0.19377431
      2.48000000	      0.15782418	      0.05172027	      0.19395738
      2.48500000	      0.15787779	      0.05172905	      0.19391707
      2.49000000	      0.15786330	      0.05172668	      0.19391723
      2.49500000	      0.15793986	      0.05173922	      0.19411406
      2.50000000	      0.15801986	      0.05175232	      0.19422975
      2.50500000	      0.15802013	      0.05175237	      0.19395351
      2.51000000	      0.15791006	      0.05173434	      0.19395350
      2.51500000	      0.15788998	      0.05173105	      0.19366161
      2.52000000	      0.15792013	      0.05173599	      0.19371932
      2.52500000	      0.15801533	      0.05175158	      0.19385307
      2.53000000	      0.15803325	      0.05175451	      0.19391280
      2.53500000	      0.15805214	      0.05175761	      0.19385770
      2.54000000	      0.15817646	      0.05177796	      0.19384657
      2.54500000	      0.15826150	      0.05179187	      0.19410993
      2.55000000	      0.15827843	      0.05179464	      0.19403816
      2.55500000	      0.15830419	      0.05179886	      0.19406852
      2.56000000	      0.15825029	      0.05179004	      0.19393665
      2.56500000	      0.15828703	      0.05179605	      0.19397860
      2.57000000	      0.15813137	      0.05177058	      0.19379948
      2.57500000	      0.15823950	      0.05178827	      0.19390796
      2.58000000	      0.15831481	      0.05180060	      0.19382399
      2.58500000	      0.15831366	      0.05180041	      0.19380354
      2.59000000	      0.15826997	      0.05179326	      0.19373277
      2.59500000	      0.15827975	      0.05179486	      0.19380980
      2.60000000	      0.15823018	      0.05178675	      0.19369005
      2.60500000	      0.15828646	      0.05179596	      0.19368493
      2.61000000	      0.15813907	      0.05177184	      0.19334925
      2.61500000	      0.15818743	      0.05177975	      0.19340272
      2.62000000	      0.15831222	      0.05180017	      0.19347911
      2.62500000	      0.15823971	      0.05178831	      0.19347911
      2.63000000	      0.15816145	      0.05177550	      0.19347775
      2.63500000	      0.15806851	      0.05176029	      0.19339989
      2.64000000	      0.15815293	      0.05177411	      0.19355620
      2.64500000	      0.15813684	      0.05177147	      0.19332086
      2.65000000	      0.15815385	      0.05177426	      0.19359737
      2.65500000	      0.15823040	      0.05178679	      0.19364358
      2.66000000	      0.15805529	      0.05175812	      0.19334219
      2.66500000	      0.15806587	      0.05175985	      0.19328215
      2.67000000	      0.15805780	      0.05175853	      0.19332135
      2.67500000	      0.15813999	      0.05177199	      0.19344636
      2.68000000	      0.15812297	      0.05176920	      0.19322126
      2.68500000	      0.15811140	      0.05176731	      0.19328527
      2.69000000	      0.15799499	      0.05174825	      0.19330125
      2.69500000	      0.15800259	      0.05174949	      0.19325792
      2.70000000	      0.15789275	      0.05173150	      0.19302237
      2.70500000	      0.15801520	      0.05175156	      0.19310358
      2.71000000	      0.15808345	      0.05176273	      0.19337326
      2.71500000	      0.15798889	      0.05174725	      0.19315696
      2.72000000	      0.15811870	      0.05176850	      0.19320477
      2.72500000	      0.15805511	      0.05175809	      0.19317595
      2.73000000	      0.15803659	      0.05175506	      0.19324112
      2.73500000	      0.15811917	      0.05176858	      0.19329924
      2.74000000	      0.15808715	      0.05176334	      0.19323545
      2.74500000	      0.15806493	      0.05175970	      0.19322973
      2.75000000	      0.15806288	      0.05175937	      0.19334083
      2.75500000	      0.15816440	      0.05177598	      0.19335314
      2.76000000	      0.15804924	      0.05175713	      0.19314158
      2.76500000	      0.15810696	      0.05176658	      0.19322144
      2.77000000	      0.15824099	      0.05178852	      0.19336675
      2.77500000	      0.15817912	      0.05177839	      0.19342691
      2.78000000	      0.15822117	      0.05178527	      0.19329380
      2.78500000	      0.15825773	      0.05179126	      0.19329185
      2.79000000	      0.15831348	      0.05180038	      0.19354048
      2.79500000	      0.15843220	      0.05181980	      0.19353037
      2.80000000	      0.15854245	      0.05183783	      0.19380492
      2.80500000	      0.15855850	      0.05184045	      0.19368599
      2.81000000	      0.15848594	      0.05182859	      0.19365947
      2.81500000	      0.15843291	      0.05181991	      0.19358130
      2.82000000	      0.15835457	      0.05180710	      0.19351029
      2.82500000	      0.15851305	      0.05183302	      0.19392015
      2.83000000	      0.15868087	      0.05186045	      0.19410464
      2.83500000	      0.15868625	      0.05186133	      0.19413083
      2.84000000	      0.15864865	      0.05185518	      0.19395944
      2.84500000	      0.15869530	      0.05186281	      0.19398476
      2.85000000	      0.15869484	      0.05186273	      0.19394446
      2.85500000	      0.15872162	      0.05186711	      0.19410065
      2.86000000	      0.15875982	      0.05187335	      0.19394566
      2.86500000	      0.15885360	      0.05188867	      0.19419168
      2.87000000	      0.15876909	      0.05187486	      0.19397703
      2.87500000	      0.15859211	      0.05184594	      0.19364093
      2.88000000	      0.15879777	      0.05187955	      0.19390685
      2.88500000	      0.15875263	      0.05187217	      0.19385717
      2.89000000	      0.15873019	      0.05186851	      0.19384950
      2.89500000	      0.15877263	      0.05187544	      0.19404024
      2.90000000	      0.15875697	      0.05187288	      0.19410749
      2.90500000	      0.15887798	      0.05189265	      0.19417337
      2.91000000	      0.15871038	      0.05186527	      0.19423976
      2.91500000	      0.15900785	      0.05191385	      0.19430958
      2.92000000	      0.15896863	      0.05190745	      0.19436882
      2.92500000	      0.15909115	      0.05192745	      0.19430753
      2.93000000	      0.15919490	      0.05194438	      0.19444201
      2.93500000	      0.15919972	      0.05194517	      0.19444092
      2.94000000	      0.15895959	      0.05190598	      0.19437816
      2.94500000	      0.15912190	      0.05193247	      0.19435395
      2.95000000	      0.15892863	      0.05190092	      0.19407419
      2.95500000	      0.15901747	      0.05191543	      0.19434081
      2.96000000	      0.15898891	      0.05191076	      0.19434769
      2.96500000	      0.15914746	      0.05193664	      0.19447096
      2.97000000	      0.15895440	      0.05190513	      0.19423689
      2.97500000	      0.15899002	      0.05191094	      0.19400186
      2.98000000	      0.15899694	      0.05191207	      0.19447949
      2.98500000	      0.15897463	      0.05190843	      0.19432175
      2.99000000	      0.15899092	      0.05191109	      0.19437476
      2.99500000	      0.15881975	      0.05188314	      0.19418827
      3.00000000	      0.15887316	      0.05189186	      0.19438906
      3.00500000	      0.15895945	      0.05190595	      0.19455385
      3.01000000	      0.15895397	      0.05190506	      0.19456451
      3.01500000	      0.15898770	      0.05191057	      0.19450799
      3.02000000	      0.15898636	      0.05191035	      0.19443396
      3.02500000	      0.15911705	      0.05193168	      0.19452932
      3.03000000	      0.15912245	      0.05193256	      0.19466226
      3.03500000	      0.15917928	      0.05194183	      0.19477507
      3.04000000	      0.15922508	      0.05194930	      0.19471752
      3.04500000	      0.15932210	      0.05196513	      0.19486339
      3.05000000	      0.15935725	      0.05197086	      0.19491606
      3.05500000	      0.15936351	      0.05197188	      0.19477267
      3.06000000	      0.15929954	      0.05196145	      0.19485443
      3.06500000	      0.15937448	      0.05197367	      0.19487125
      3.07000000	      0.15931610	      0.05196415	      0.19478009
      3.07500000	      0.15938055	      0.05197466	      0.19504307
      3.08000000	      0.15947804	      0.05199055	      0.19506057
      3.08500000	      0.15946202	      0.05198794	      0.19463318
      3.09000000	      0.15937537	      0.05197382	      0.19489603
      3.09500000	      0.15956044	      0.05200398	      0.19504207
      3.10000000	      0.15956472	      0.05200468	      0.19492928
      3.10500000	      0.15942774	      0.05198235	      0.19500474
      3.11000000	      0.15946116	      0.05198780	      0.19498864
      3.11500000	      0.15966608	      0.05202120	      0.19500612
      3.12000000	      0.15956766	      0.05200516	      0.19521971
      3.12500000	      0.15941001	      0.05197946	      0.19527291
      3.13000000	      0.15968397	      0.05202411	      0.19504169
      3.13500000	      0.15961400	      0.05201271	      0.19520736
      3.14000000	      0.15956397	      0.05200456	      0.19518705
      3.14500000	      0.15963028	      0.05201536	      0.19510375
      3.15000000	      0.15957659	      0.05200662	      0.19517720
      3.15500000	      0.15938879	      0.05197600	      0.19507033
      3.16000000	      0.15923648	      0.05195116	      0.19488120
      3.16500000	      0.15929146	      0.05196013	      0.19480825
      3.17000000	      0.15922990	      0.05195009	      0.19490097
      3.17500000	      0.15920267	      0.05194565	      0.19478795
      3.18000000	      0.15921349	      0.05194741	      0.19482363
      3.18500000	      0.15920926	      0.05194672	      0.19492517
      3.19000000	      0.15902996	      0.05191746	      0.19457177
      3.19500000	      0.15905389	      0.05192137	      0.19448416
      3.20000000	      0.15898238	      0.05190970	      0.19432368
      3.20500000	      0.15896050	      0.05190612	      0.19434581
      3.21000000	      0.15893284	      0.05190161	      0.19435702
      3.21500000	      0.15898212	      0.05190965	      0.19431841
      3.22000000	      0.15904040	      0.05191917	      0.19436823
      3.22500000	      0.15888519	      0.05189383	      0.19418059
      3.23000000	      0.15896028	      0.05190609	      0.19431027
      3.23500000	      0.15896096	      0.05190620	      0.19436849
      3.24000000	      0.15894908	      0.05190426	      0.19425479
      3.24500000	      0.15895805	      0.05190573	      0.19414724
      3.25000000	      0.15896065	      0.05190615	      0.19425559
      3.25500000	      0.15900073	      0.05191269	      0.19422819
      3.26000000	      0.15900618	      0.05191358	      0.19438967
      3.26500000	      0.15909388	      0.05192790	      0.19450674
      3.27000000	      0.15907863	      0.05192541	      0.19441145
      3.27500000	      0.15911891	      0.05193198	      0.19453702
      3.28000000	      0.15913623	      0.05193481	      0.19451837
      3.28500000	      0.15921451	      0.05194758	      0.19463237
      3.29000000	      0.15930310	      0.05196203	      0.19483813
      3.29500000	      0.15943280	      0.05198318	      0.19479771
      3.30000000	      0.15946783	      0.05198889	      0.19492998
      3.30500000	      0.15960281	      0.05201089	      0.19508485
      3.31000000	      0.15950102	      0.05199430	      0.19478603
      3.31500000	      0.15957096	      0.05200570	      0.19510036
      3.32000000	      0.15968210	      0.05202380	      0.19518978
      3.32500000	      0.15968828	      0.05202481	      0.19511463
      3.33000000	      0.15978540	      0.05204063	      0.19530000
      3.33500000	      0.15991374	      0.05206153	      0.19550436
      3.34000000	      0.16007277	      0.05208741	      0.19559129
      3.34500000	      0.16023125	      0.05211318	      0.19580902
      3.35000000	      0.16034719	      0.05213203	      0.19582474
      3.35500000	      0.16029907	      0.05212421	      0.19583929
      3.36000000	      0.16026654	      0.05211892	      0.19580598
      3.36500000	      0.16033907	      0.05213071	      0.19586805
      3.37000000	      0.16056528	      0.05216747	      0.19578006
      3.37500000	      0.16058883	      0.05217130	      0.19589797
      3.38000000	      0.16069085	      0.05218787	      0.19603412
      3.38500000	      0.16099539	      0.05223730	      0.19630281
      3.39000000	      0.16122535	      0.05227459	      0.19671353
      3.39500000	      0.16119265	      0.05226929	      0.19618385
      3.40000000	      0.16123010	      0.05227536	      0.19635136
      3.40500000	      0.16136663	      0.05229749	      0.19624621
      3.41000000	      0.16166416	      0.05234568	      0.19641436
      3.41500000	      0.16181877	      0.05237071	      0.19639390
      3.42000000	      0.16214742	      0.05242386	      0.19649257
      3.42500000	      0.16195167	      0.05239221	      0.19650762
      3.43000000	      0.16213065	      0.05242115	      0.19643260
      3.43500000	      0.16236035	      0.05245827	      0.19659642
      3.44000000	      0.16270478	      0.05251388	      0.19632362
      3.44500000	      0.16302543	      0.05256561	      0.19665379
      3.45000000	      0.16310318	      0.05257814	      0.19674157
      3.45500000	      0.16357827	      0.05265466	      0.19685509
      3.46000000	      0.16370671	      0.05267533	      0.19650690
      3.46500000	      0.16413102	      0.05274355	      0.19679067
      3.47000000	      0.16424554	      0.05276194	      0.19665876
      3.47500000	      0.16415899	      0.05274804	      0.19639592
      3.48000000	      0.16459883	      0.05281866	      0.19655160
      3.48500000	      0.16476846	      0.05284587	      0.19599114
      3.49000000	      0.16490215	      0.05286730	      0.19560920
      3.49500000	      0.16555879	      0.05297246	      0.19558347
      3.50000000	      0.16542307	      0.05295074	      0.19498985
      3.50500000	      0.16562068	      0.05298236	      0.19488682
      3.51000000	      0.16578695	      0.05300895	      0.19434671
      3.51500000	      0.16572931	      0.05299973	      0.19405032
      3.52000000	      0.16579812	      0.05301073	      0.19338611
      3.52500000	      0.16593762	      0.05303303	      0.19288199
      3.53000000	      0.16569327	      0.05299397	      0.19283522
      3.53500000	      0.16570334	      0.05299558	      0.19232574
      3.54000000	      0.16582807	      0.05301552	      0.19175306
      3.54500000	      0.16548190	      0.05296015	      0.19111148
      3.55000000	      0.16519770	      0.05291466	      0.18998377
      3.55500000	      0.16482604	      0.05285510	      0.18916669
      3.56000000	      0.16486017	      0.05286057	      0.18903080
      3.56500000	      0.16470597	      0.05283585	      0.18814365
      3.57000000	      0.16434784	      0.05277837	      0.18726376
      3.57500000	      0.16368667	      0.05267210	      0.18584299
      3.58000000	      0.16308481	      0.05257518	      0.18471086
      3.58500000	      0.16265233	      0.05250542	      0.18390684
      3.59000000	      0.16187139	      0.05237922	      0.18231945
      3.59500000	      0.16127498	      0.05228264	      0.18136692
      3.60000000	      0.16064833	      0.05218096	      0.18039965
      3.60500000	      0.15949952	      0.05199405	      0.17846914
      3.61000000	      0.15863914	      0.05185363	      0.17716307
      3.61500000	      0.16711297	      0.05322052	      0.17576699
      3.62000000	      0.16599619	      0.05304239	      0.17401436
      3.62500000	      0.16494129	      0.05287358	      0.17244253
      3.63000000	      0.16361765	      0.05266100	      0.17003974
      3.63500000	      0.16249276	      0.05247966	      0.16790203
      3.64000000	      0.16148509	      0.05231668	      0.16657593
      3.64500000	      0.15988979	      0.05205763	      0.16451182
      3.65000000	      0.15861635	      0.05184991	      0.16192732
      3.65500000	      0.15701894	      0.05158816	      0.15964093
      3.66000000	      0.15589446	      0.05140310	      0.15822725
      3.66500000	      0.15416134	      0.05111657	      0.15560228
      3.67000000	      0.15244444	      0.05083113	      0.15330419
      3.67500000	      0.15102382	      0.05059373	      0.15131609
      3.68000000	      0.14888127	      0.05023357	      0.14895428
      3.68500000	      0.14664102	      0.04985420	      0.14590505
      3.69000000	      0.14441383	      0.04947416	      0.14354390
      3.69500000	      0.14219515	      0.04909264	      0.14123375
      3.70000000	      0.13978753	      0.04867525	      0.13860964
      3.70500000	      0.13737593	      0.04825356	      0.13623067
      3.71000000	      0.13456317	      0.04775701	      0.13341595
      3.71500000	      0.13201664	      0.04730296	      0.13133075
      3.72000000	      0.12889689	      0.04674070	      0.12835051
      3.72500000	      0.12620741	      0.04625050	      0.12617072
      3.73000000	      0.12321252	      0.04569844	      0.12371183
      3.73500000	      0.12033176	      0.04516106	      0.12124471
      3.74000000	      0.11708166	      0.04454700	      0.11816781
      3.74500000	      0.11419576	      0.04399456	      0.11552077
      3.75000000	      0.11083108	      0.04334158	      0.11538519
      3.75500000	      0.10798079	      0.04278064	      0.11561402
      3.76000000	      0.10504545	      0.04219516	      0.11586122
      3.76500000	      0.10263138	      0.04170749	      0.11584871
      3.77000000	      0.10010194	      0.04119033	      0.11608388
      3.77500000	      0.09800692	      0.04075701	      0.11620187
      3.78000000	      0.09625030	      0.04039011	      0.11634202
      3.78500000	      0.09430215	      0.03997926	      0.11657933
      3.79000000	      0.09257927	      0.03961237	      0.11659321
      3.79500000	      0.09093925	      0.03925994	      0.11675850
      3.80000000	      0.08953089	      0.03895475	      0.11660547
      3.80500000	      0.08809381	      0.03864085	      0.11675875
      3.81000000	      0.08663461	      0.03831949	      0.11653520
      3.81500000	      0.08558004	      0.03808555	      0.11636472
      3.82000000	      0.08734226	      0.03847567	      0.11591229
      3.82500000	      0.08611643	      0.03820472	      0.11534155
      3.83000000	      0.08457510	      0.03786128	      0.11418066
      3.83500000	      0.08222327	      0.03733115	      0.11294893
      3.84000000	      0.08096071	      0.03704343	      0.11163141
      3.84500000	      0.07848056	      0.03647162	      0.11097107
      3.85000000	      0.07924902	      0.03664974	      0.11085082
      3.85500000	      0.07787251	      0.03633006	      0.11026002
      3.86000000	      0.07646668	      0.03600063	      0.10996568
      3.86500000	      0.07543262	      0.03575638	      0.11028600
      3.87000000	      0.07504957	      0.03566548	      0.11048023
      3.87500000	      0.07520162	      0.03570159	      0.11001705
      3.88000000	      0.07525569	      0.03571443	      0.11015321
      3.88500000	      0.07552913	      0.03577925	      0.10951095
      3.89000000	      0.07628503	      0.03595784	      0.10879950
      3.89500000	      0.07687200	      0.03609592	      0.10803389
      3.90000000	      0.07702485	      0.03613179	      0.10752908
      3.90500000	      0.07793724	      0.03634515	      0.10686995
      3.91000000	      0.07834444	      0.03643998	      0.10665708
      3.91500000	      0.07878399	      0.03654206	      0.10619904
      3.92000000	      0.07941766	      0.03668872	      0.10562580
      3.92500000	      0.08007624	      0.03684053	      0.10525006
      3.93000000	      0.08094491	      0.03703981	      0.10492449
      3.93500000	      0.08172864	      0.03721869	      0.10471517
      3.94000000	      0.08244802	      0.03738214	      0.10460452
      3.94500000	      0.08343632	      0.03760552	      0.10498263
      3.95000000	      0.08399418	      0.03773102	      0.10488239
      3.95500000	      0.08451115	      0.03784696	      0.10496988
      3.96000000	      0.08471348	      0.03789224	      0.10519975
      3.96500000	      0.08473084	      0.03789612	      0.10544281
      3.97000000	      0.08449511	      0.03784337	      0.10550176
      3.97500000	      0.08420188	      0.03777765	      0.10592080
      3.98000000	      0.08371732	      0.03766879	      0.10631597
      3.98500000	      0.08316433	      0.03754417	      0.10690023
      3.99000000	      0.08248899	      0.03739142	      0.10726425
      3.99500000	      0.08154104	      0.03717595	      0.10767234
      4.00000000	      0.08067757	      0.03697859	      0.10814855
      4.00500000	      0.07984235	      0.03678668	      0.10833305
      4.01000000	      0.07907075	      0.03660850	      0.10914797
      4.01500000	      0.07830553	      0.03643093	      0.10951154
      4.02000000	      0.07728862	      0.03619360	      0.10998245
      4.02500000	      0.07636643	      0.03597702	      0.11024613
      4.03000000	      0.07575905	      0.03583367	      0.11048054
      4.03500000	      0.07509478	      0.03567622	      0.11077138
      4.04000000	      0.07437983	      0.03550599	      0.11102976
      4.04500000	      0.07364493	      0.03533015	      0.11124040
      4.05000000	      0.07306902	      0.03519173	      0.11150441
      4.05500000	      0.07263808	      0.03508780	      0.11153146
      4.06000000	      0.07222824	      0.03498868	      0.11137422
