Coordinates
version=1
nRows=130
nColumns=40
inDegrees=yes

Units are S.I. units (second, meters, Newtons, ...)
If the header above contains a line with 'inDegrees', this indicates whether rotational values are in degrees (yes) or radians (no).

endheader
time	pelvis_tilt	pelvis_list	pelvis_rotation	pelvis_tx	pelvis_ty	pelvis_tz	hip_flexion_r	hip_adduction_r	hip_rotation_r	knee_angle_r	knee_angle_r_beta	ankle_angle_r	subtalar_angle_r	mtp_angle_r	hip_flexion_l	hip_adduction_l	hip_rotation_l	knee_angle_l	knee_angle_l_beta	ankle_angle_l	subtalar_angle_l	mtp_angle_l	lumbar_extension	lumbar_bending	lumbar_rotation	arm_flex_r	arm_add_r	arm_rot_r	elbow_flex_r	pro_sup_r	wrist_flex_r	wrist_dev_r	arm_flex_l	arm_add_l	arm_rot_l	elbow_flex_l	pro_sup_l	wrist_flex_l	wrist_dev_l
      3.51500000	    -34.88123248	     -6.79546560	     22.63536976	     -0.45489923	      0.48010282	     -1.00481056	    119.92074177	    -49.83718718	     13.24418288	    114.66882982	      2.00134863	     41.99353881	      0.00000000	      0.00000000	    118.77330996	      9.87417456	      1.72752023	    111.67723297	      1.94913541	     33.75299173	      0.00000000	      0.00000000	    -35.63206552	     23.72688850	     -9.10905485	    -52.95993684	    -45.00136090	      5.15564768	    107.35450605	     87.99147223	      0.00000000	      0.00000000	     -8.73188488	    -50.17165405	     55.94197956	     96.62470223	     87.88151916	      0.00000000	      0.00000000
      3.52000000	    -34.90377203	     -6.77340600	     22.62226835	     -0.45359391	      0.48007356	     -1.00466713	    119.91933019	    -49.83860645	     13.30387311	    114.80280604	      2.00368696	     41.93325217	      0.00000000	      0.00000000	    118.70473357	      9.83189159	      1.76982450	    111.76643416	      1.95069227	     33.85764856	      0.00000000	      0.00000000	    -35.37287553	     23.62274424	     -9.21802533	    -52.62671360	    -44.95259447	      5.23311763	    107.01177159	     88.01210230	      0.00000000	      0.00000000	     -8.51185441	    -49.95143680	     56.18404295	     96.25048630	     87.87584857	      0.00000000	      0.00000000
      3.52500000	    -35.04231930	     -6.91454973	     22.15701845	     -0.45095007	      0.47952692	     -1.00275608	    119.91194928	    -49.82041038	     12.51701787	    115.19864965	      2.01059573	     41.66227599	      0.00000000	      0.00000000	    118.75723828	      9.20219533	      2.14159032	    112.06979762	      1.95598696	     34.10156186	      0.00000000	      0.00000000	    -34.95829532	     23.20750450	     -8.97750703	    -51.87555193	    -44.88821554	      6.05210584	    106.35671448	     88.01896782	      0.00000000	      0.00000000	     -8.15208124	    -49.76687492	     56.78397350	     95.62163363	     87.87021187	      0.00000000	      0.00000000
      3.53000000	    -35.09907624	     -6.81809442	     22.34974474	     -0.45018310	      0.47996366	     -1.00347978	    119.91342012	    -49.83173059	     12.93337328	    115.12034196	      2.00922900	     41.78785751	      0.00000000	      0.00000000	    118.65337209	      9.46226110	      2.01314051	    112.00386557	      1.95483623	     34.16651210	      0.00000000	      0.00000000	    -34.55810014	     23.20083657	     -9.28338034	    -51.85832054	    -44.98656779	      5.99742210	    106.31001516	     88.01083485	      0.00000000	      0.00000000	     -7.90033157	    -49.61346184	     56.75450380	     95.57202749	     87.87301482	      0.00000000	      0.00000000
      3.53500000	    -35.17421313	     -6.69332315	     22.60459096	     -0.44978727	      0.48078006	     -1.00458330	    119.91614641	    -49.83735854	     13.44714718	    114.96153284	      2.00645726	     41.91231909	      0.00000000	      0.00000000	    118.53944313	      9.84339347	      1.82558846	    111.85625633	      1.95225996	     34.24536859	      0.00000000	      0.00000000	    -34.14919852	     23.22918686	     -9.70958816	    -51.90088309	    -45.13215278	      6.00278633	    106.49627703	     87.97772172	      0.00000000	      0.00000000	     -7.71381181	    -49.33614987	     56.88342216	     95.42597513	     87.87683882	      0.00000000	      0.00000000
      3.54000000	    -35.63660088	     -6.84662692	     21.96108440	     -0.44983712	      0.48150524	     -1.00225547	    119.91455039	    -49.76754085	     12.02082639	    114.69387789	      2.00178580	     41.92196740	      0.00000000	      0.00000000	    118.76015651	      9.21241114	      2.23909906	    111.55556834	      1.94701197	     34.35863311	      0.00000000	      0.00000000	    -33.60437922	     22.65304633	     -9.33547698	    -51.32701588	    -45.41536619	      6.40541703	    106.38504765	     88.02292815	      0.00000000	      0.00000000	     -7.25437828	    -49.49161192	     57.34049583	     95.42076161	     87.87858288	      0.00000000	      0.00000000
      3.54500000	    -36.09353592	     -7.11880162	     21.12717843	     -0.44846616	      0.48196823	     -0.99894697	    119.90662044	    -49.54949214	     10.44643503	    114.76702657	      2.00306249	     41.38029350	      0.00000000	      0.00000000	    118.99660575	      8.26883290	      2.83628225	    111.45176652	      1.94520028	     34.46394705	      0.00000000	      0.00000000	    -33.05188430	     22.02799365	     -8.65060537	    -50.90556917	    -45.13964700	      6.96340832	    106.21789660	     87.98383497	      0.00000000	      0.00000000	     -7.05898174	    -49.53621819	     57.43556897	     95.12183799	     87.87672173	      0.00000000	      0.00000000
      3.55000000	    -36.57036043	     -6.90790798	     19.93256116	     -0.44719463	      0.48326379	     -0.99556959	    119.90047985	    -48.80070027	      9.09440628	    114.63652411	      2.00078479	     40.89515208	      0.00000000	      0.00000000	    119.01391324	      6.95055195	      3.26472594	    111.31043525	      1.94273359	     34.62446353	      0.00000000	      0.00000000	    -32.68237577	     20.83821370	     -7.97741128	    -50.09958857	    -45.05453460	      7.70740550	    105.87484662	     87.95043521	      0.00000000	      0.00000000	     -6.65591469	    -49.64127804	     57.78154308	     94.83977264	     87.87641601	      0.00000000	      0.00000000
      3.55500000	    -37.24849472	     -5.67791119	     17.17397228	     -0.44430413	      0.48445365	     -0.98953932	    119.89496799	    -45.29684598	      8.55941552	    114.40293308	      1.99670786	     40.26441277	      0.00000000	      0.00000000	    118.83425203	      3.64355932	      3.43141901	    111.56456990	      1.94716907	     34.93675115	      0.00000000	      0.00000000	    -32.61256816	     17.77361050	     -6.53224591	    -48.91868115	    -44.60766004	      8.83499378	    105.18445284	     87.93641383	      0.00000000	      0.00000000	     -6.50828905	    -49.89344548	     57.93142153	     94.46153037	     87.86419875	      0.00000000	      0.00000000
      3.56000000	    -38.11922488	     -3.90355134	     13.63460011	     -0.44043353	      0.48545353	     -0.98214026	    119.89415506	    -40.49421860	      8.36818138	    114.07478266	      1.99098055	     40.09797172	      0.00000000	      0.00000000	    118.67152669	     -0.67342280	      3.47321186	    112.02782885	      1.95525447	     35.45648727	      0.00000000	      0.00000000	    -32.90266925	     13.93951099	     -7.67133270	    -43.42155830	    -46.89303816	     14.36640496	    104.25329677	     87.88343677	      0.00000000	      0.00000000	    -15.10158944	    -48.84619795	     48.20193161	     94.32710537	     87.83555978	      0.00000000	      0.00000000
      3.56500000	    -38.69577437	     -2.73228334	     11.19118468	     -0.43836460	      0.48702214	     -0.97675687	    119.88876054	    -37.07804059	      8.17272002	    113.69008524	      1.98426631	     39.67601714	      0.00000000	      0.00000000	    118.52153984	     -3.63357474	      3.57734946	    112.13028461	      1.95704266	     35.68743950	      0.00000000	      0.00000000	    -32.44839105	     11.22290433	     -6.56981831	    -42.31771599	    -46.59936923	     15.44769712	    103.74666691	     87.89100996	      0.00000000	      0.00000000	    -15.21856390	    -49.10588433	     48.08528544	     94.05379569	     87.83825806	      0.00000000	      0.00000000
      3.57000000	    -39.48607037	     -1.16691430	      7.45228104	     -0.43635047	      0.48850528	     -0.96816682	    119.87604555	    -31.95634902	      7.64309084	    113.11793232	      1.97428036	     39.06334609	      0.00000000	      0.00000000	    118.57300795	     -8.20250592	      3.93947922	    112.36137566	      1.96107596	     36.15769008	      0.00000000	      0.00000000	    -31.81363754	      7.21775432	     -6.32757375	    -37.56915969	    -47.90937681	     20.55118435	    102.77387554	     87.86225607	      0.00000000	      0.00000000	    -20.02960394	    -48.59727332	     42.66288953	     94.18960111	     87.82900022	      0.00000000	      0.00000000
      3.57500000	    -40.14517341	     -0.28842280	      4.59584938	     -0.43458214	      0.49026207	     -0.96103534	    119.84862080	    -28.20022825	      6.82579044	    112.69704199	      1.96693444	     38.38550202	      0.00000000	      0.00000000	    118.77301021	    -11.65680785	      4.56064543	    112.41360743	      1.96198757	     36.42305091	      0.00000000	      0.00000000	    -30.88555167	      4.50628802	     -4.53019440	    -36.49934736	    -47.31766528	     21.65815385	    102.11733393	     87.85458215	      0.00000000	      0.00000000	    -20.16804455	    -48.92513343	     42.54496113	     93.93246937	     87.84887620	      0.00000000	      0.00000000
      3.58000000	    -40.73690644	      0.40960290	      2.32078277	     -0.43317077	      0.49235165	     -0.95516882	    119.81166309	    -25.09304567	      6.22078766	    112.21382063	      1.95850064	     37.89490497	      0.00000000	      0.00000000	    118.93795510	    -14.38724285	      5.08889389	    112.31102822	      1.96019723	     36.65022768	      0.00000000	      0.00000000	    -29.87710627	      2.38675429	     -3.32751525	    -35.05590124	    -47.10728107	     23.19710860	    101.50094243	     87.84261988	      0.00000000	      0.00000000	    -20.68409613	    -49.10930314	     42.28764399	     93.62660417	     87.82451973	      0.00000000	      0.00000000
      3.58500000	    -41.32844004	      1.31781477	     -0.63561050	     -0.43208466	      0.49448518	     -0.94765334	    119.75184184	    -21.11144728	      5.46334416	    111.58834366	      1.94758400	     37.35035212	      0.00000000	      0.00000000	    119.18140778	    -17.99291174	      5.91864410	    112.29234776	      1.95987119	     37.08425027	      0.00000000	      0.00000000	    -28.77723419	     -0.27065328	     -1.32935157	    -34.10236343	    -46.48403399	     24.15115595	    100.93487790	     87.83653255	      0.00000000	      0.00000000	    -21.24762686	    -49.55246345	     41.45299539	     93.75534474	     87.84758736	      0.00000000	      0.00000000
      3.59000000	    -41.78248672	      1.77193553	     -3.46722473	     -0.43065860	      0.49716585	     -0.93994760	    119.49552278	    -17.53078611	      4.28126851	    111.07517709	      1.93862756	     36.70382110	      0.00000000	      0.00000000	    119.49975849	    -21.28560967	      6.99332542	    112.09672967	      1.95645701	     37.40483296	      0.00000000	      0.00000000	    -27.62743935	     -2.36261944	      0.86370632	    -33.12065885	    -45.88651142	     25.17911616	    100.22692351	     87.84472967	      0.00000000	      0.00000000	    -21.69191757	    -49.89525335	     40.89466004	     93.70278127	     87.83933029	      0.00000000	      0.00000000
      3.59500000	    -41.97140021	      2.59352193	     -6.18586654	     -0.42961373	      0.50048485	     -0.93257787	    119.08389773	    -13.79577004	      3.69427611	    110.32225903	      1.92548666	     36.37714310	      0.00000000	      0.00000000	    119.48614364	    -24.71849842	      7.70844762	    111.91686719	      1.95331782	     37.66264845	      0.00000000	      0.00000000	    -26.59548522	     -4.85156490	     -0.64880635	    -25.10659151	    -48.08967457	     33.86782683	     99.21734964	     87.79500035	      0.00000000	      0.00000000	    -30.14091485	    -47.78316275	     31.32140207	     94.45571546	     87.83902529	      0.00000000	      0.00000000
      3.60000000	    -41.68344572	      2.53669148	     -9.23418204	     -0.42745198	      0.50469770	     -0.92400208	    117.73339340	    -10.07361583	      2.15107344	    109.64550753	      1.91367512	     36.43857318	      0.00000000	      0.00000000	    119.50791524	    -28.28192189	      9.50943530	    111.82111769	      1.95164668	     37.79944023	      0.00000000	      0.00000000	    -26.04206256	     -6.48296091	      2.01618361	    -24.19207004	    -47.39647721	     34.70808368	     98.58804102	     87.79692690	      0.00000000	      0.00000000	    -30.42081095	    -48.25744217	     31.05411819	     94.42722932	     87.83844460	      0.00000000	      0.00000000
      3.60500000	    -41.29486210	      2.07740688	    -11.77135208	     -0.42521255	      0.50928630	     -0.91647349	    116.20699300	     -6.99901176	      0.57275175	    109.00366618	      1.90247287	     36.68167391	      0.00000000	      0.00000000	    119.54072328	    -31.18364300	     11.42707712	    111.62641521	      1.94824848	     37.92502125	      0.00000000	      0.00000000	    -25.60826602	     -7.44851410	      4.55292091	    -23.41657918	    -46.92608406	     35.53591549	     98.01843784	     87.79542159	      0.00000000	      0.00000000	    -30.57627523	    -48.63858851	     30.69642908	     94.52904429	     87.82955672	      0.00000000	      0.00000000
      3.61000000	    -40.74705368	      2.31428216	    -15.02788154	     -0.42358931	      0.51453518	     -0.90742269	    114.92924424	     -2.75764793	     -0.33490231	    108.11781453	      1.88701184	     36.75343314	      0.00000000	      0.00000000	    119.45541837	    -35.26034445	     12.94060383	    111.39594193	      1.94422596	     37.89215777	      0.00000000	      0.00000000	    -25.02823921	     -9.51687477	      5.46857977	    -18.38537875	    -47.07651920	     40.66797222	     96.94934455	     87.81254691	      0.00000000	      0.00000000	    -34.84749204	    -47.58369857	     25.90722478	     94.97566126	     87.83807696	      0.00000000	      0.00000000
      3.61500000	    -40.30562622	      1.86614165	    -17.20186670	     -0.42132305	      0.52003266	     -0.90047319	    113.50311435	      0.07144471	     -1.39942588	    107.32680440	      1.87320611	     37.05032474	      0.00000000	      0.00000000	    119.40283350	    -37.90596085	     14.53605342	    110.97770194	      1.93692630	     37.85841986	      0.00000000	      0.00000000	    -24.66633669	    -10.29284187	      7.67476108	    -18.12671892	    -46.46286190	     40.87116737	     96.58544361	     87.76283827	      0.00000000	      0.00000000	    -35.08236939	    -47.88450187	     25.39579335	     95.00351274	     87.84020333	      0.00000000	      0.00000000
      3.62000000	    -39.62990186	      1.65034931	    -20.09473665	     -0.41936765	      0.52622512	     -0.89199655	    112.00673818	      3.84727536	     -2.29584258	    106.38431077	      1.85675650	     37.26663381	      0.00000000	      0.00000000	    119.35464025	    -41.53455242	     16.28897416	    110.53666169	      1.92922869	     37.86860370	      0.00000000	      0.00000000	    -24.18086759	    -11.73028870	     10.40109540	    -17.41440993	    -45.69037955	     41.44001198	     95.96056348	     87.75387129	      0.00000000	      0.00000000	    -35.39604605	    -48.47650826	     24.96992841	     95.20632982	     87.84511509	      0.00000000	      0.00000000
      3.62500000	    -39.33125954	      1.27004835	    -21.61779061	     -0.41731688	      0.53190822	     -0.88629561	    110.86069419	      6.09468452	     -2.85615407	    105.61277744	      1.84329070	     37.45709576	      0.00000000	      0.00000000	    119.21660126	    -43.50744808	     17.39276197	    109.87707102	      1.91771666	     37.74177153	      0.00000000	      0.00000000	    -23.61690907	    -12.19438245	     11.27472088	    -15.26813281	    -45.39415122	     43.68383636	     95.23126350	     87.72723445	      0.00000000	      0.00000000	    -37.18295461	    -48.07284751	     22.78653489	     95.33119784	     87.84458384	      0.00000000	      0.00000000
      3.63000000	    -38.67223794	      0.91484749	    -24.19055818	     -0.41541101	      0.53891612	     -0.87831418	    109.37179101	      9.56258996	     -3.52776595	    104.54079982	      1.82458116	     37.61954036	      0.00000000	      0.00000000	    119.14703634	    -46.81556988	     19.05683068	    109.16666583	      1.90531775	     37.61838203	      0.00000000	      0.00000000	    -23.17017625	    -13.29076273	     13.72012431	    -14.59664139	    -44.67195579	     43.93703336	     94.70288700	     87.74803518	      0.00000000	      0.00000000	    -37.56125731	    -48.56482259	     22.22459199	     95.43406859	     87.83859758	      0.00000000	      0.00000000
      3.63500000	    -38.53834506	      0.46939699	    -25.49354415	     -0.41357679	      0.54505273	     -0.87295877	    108.36445674	     11.62255394	     -3.94575616	    103.60157675	      1.80818862	     37.73201845	      0.00000000	      0.00000000	    119.08029506	    -48.42772646	     20.16981584	    108.30101350	      1.89020927	     37.50573876	      0.00000000	      0.00000000	    -22.45477601	    -13.49513470	     15.24578775	    -14.19731914	    -44.00314116	     44.21626799	     94.06389286	     87.74362539	      0.00000000	      0.00000000	    -37.77331364	    -48.90138516	     21.73159842	     95.44091570	     87.82892807	      0.00000000	      0.00000000
      3.64000000	    -38.54623467	     -0.15572924	    -26.57060356	     -0.41245731	      0.55182825	     -0.86772280	    107.39422097	     13.58113241	     -4.36123145	    102.46229935	      1.78830448	     37.81182745	      0.00000000	      0.00000000	    118.98815055	    -49.46401125	     21.57114722	    107.23535550	      1.87161003	     37.25919631	      0.00000000	      0.00000000	    -21.81501527	    -13.41227674	     16.58831238	    -13.66811043	    -43.44156600	     44.51731999	     93.59654858	     87.73777810	      0.00000000	      0.00000000	    -38.01690521	    -49.34270424	     21.20140700	     95.53123896	     87.82280688	      0.00000000	      0.00000000
      3.64500000	    -38.89218369	     -0.91601373	    -27.05192436	     -0.41094610	      0.55791967	     -0.86385250	    106.65606871	     14.59589530	     -5.09503832	    101.36429541	      1.76914070	     38.00517527	      0.00000000	      0.00000000	    119.11620542	    -49.65814924	     22.80570109	    106.08991685	      1.85161835	     37.00968519	      0.00000000	      0.00000000	    -20.91349583	    -12.68928469	     17.39284679	    -13.09205888	    -42.97163269	     44.94915653	     92.96149691	     87.73314191	      0.00000000	      0.00000000	    -38.27261756	    -49.54040720	     20.74990662	     95.52326183	     87.83338440	      0.00000000	      0.00000000
      3.65000000	    -39.34465451	     -1.68068030	    -27.55029415	     -0.41005537	      0.56460827	     -0.85972838	    106.04081794	     15.88225067	     -5.60260129	    100.08475156	      1.74680845	     37.98658098	      0.00000000	      0.00000000	    119.21598615	    -49.77241381	     24.18566828	    104.82299936	      1.82950647	     36.63675144	      0.00000000	      0.00000000	    -20.03539681	    -11.96846806	     18.17490428	    -12.46565691	    -42.61753552	     45.32419097	     92.42111871	     87.75328875	      0.00000000	      0.00000000	    -38.55409566	    -49.83836657	     20.20538616	     95.58563521	     87.83441923	      0.00000000	      0.00000000
      3.65500000	    -40.10243637	     -1.56095059	    -27.92033608	     -0.41019953	      0.56986730	     -0.85751376	    106.13052943	     16.67373030	     -5.65055151	     98.84021229	      1.72508714	     37.74835563	      0.00000000	      0.00000000	    119.25471301	    -49.81614414	     24.36253707	    103.68148176	      1.80958323	     36.28901487	      0.00000000	      0.00000000	    -18.43736612	    -11.68968491	     16.45603285	     -7.37898390	    -43.09450495	     51.23161547	     91.80247585	     87.69630987	      0.00000000	      0.00000000	    -43.02098868	    -47.68188056	     15.13921149	     95.91744629	     87.86374707	      0.00000000	      0.00000000
      3.66000000	    -40.94522639	     -1.28072879	    -28.32621934	     -0.41084159	      0.57525102	     -0.85531284	    106.36903100	     17.59976333	     -5.45979069	     97.49989242	      1.70169414	     37.43450218	      0.00000000	      0.00000000	    119.27172522	    -49.85226093	     24.41203318	    102.50585317	      1.78906464	     35.94366681	      0.00000000	      0.00000000	    -16.76345624	    -11.49563482	     17.04729381	     -7.08338004	    -42.87404504	     51.40019566	     91.55438456	     87.70666673	      0.00000000	      0.00000000	    -43.15894248	    -48.04305294	     14.81960205	     96.09272895	     87.85414936	      0.00000000	      0.00000000
      3.66500000	    -41.62776042	     -1.43836220	    -28.51948155	     -0.40989699	      0.58105263	     -0.85311204	    106.21481233	     18.28215203	     -5.49659036	     96.29058314	      1.68058771	     37.17735300	      0.00000000	      0.00000000	    119.23498074	    -49.86719452	     24.65599120	    101.39477004	      1.76967258	     35.59220626	      0.00000000	      0.00000000	    -15.58343179	    -10.95493687	     17.55269231	     -7.23869680	    -42.57052632	     51.17706536	     91.37464770	     87.66988554	      0.00000000	      0.00000000	    -43.29227313	    -48.21760312	     14.45717340	     96.10583088	     87.83896661	      0.00000000	      0.00000000
      3.67000000	    -42.36584077	     -1.32189871	    -28.82390531	     -0.41008851	      0.58686849	     -0.85082016	    106.22882833	     19.06532360	     -5.40825380	     94.92836852	      1.65681258	     36.86258642	      0.00000000	      0.00000000	    119.17621538	    -49.88562188	     24.71908929	    100.14939319	      1.74793666	     35.05661428	      0.00000000	      0.00000000	    -13.90364436	    -10.53996735	     17.93256648	     -6.85498602	    -42.20372827	     51.31434156	     91.07524629	     87.67079254	      0.00000000	      0.00000000	    -43.47613304	    -48.57892648	     14.12975151	     96.34653479	     87.83934682	      0.00000000	      0.00000000
      3.67500000	    -42.85835311	     -1.71505541	    -28.81595233	     -0.40793568	      0.59285183	     -0.85016768	    105.70587519	     19.19500462	     -5.71076963	     93.82093780	      1.63748427	     36.62278664	      0.00000000	      0.00000000	    119.01526709	    -49.88474929	     24.68033867	     99.20248072	      1.73140991	     34.58888846	      0.00000000	      0.00000000	    -13.08834996	     -9.61198759	     18.20554686	     -7.02398993	    -42.11880333	     51.06297382	     90.77182443	     87.64481037	      0.00000000	      0.00000000	    -43.39550685	    -48.32468222	     13.92472572	     96.09464127	     87.84418232	      0.00000000	      0.00000000
      3.68000000	    -43.02571114	     -2.07359996	    -28.62408511	     -0.40547086	      0.59902574	     -0.84989117	    104.87929079	     19.17916573	     -5.75979172	     92.81248268	      1.61988341	     36.38202158	      0.00000000	      0.00000000	    118.32519534	    -49.87916419	     24.15371009	     98.30162232	      1.71568697	     34.22546428	      0.00000000	      0.00000000	    -12.41121320	     -8.77036125	     18.17694859	     -7.02808602	    -42.19544974	     50.93782990	     90.69931864	     87.63889261	      0.00000000	      0.00000000	    -43.31336333	    -48.24358657	     13.84371308	     96.08468967	     87.83854190	      0.00000000	      0.00000000
      3.68500000	    -42.81448647	     -2.18136996	    -28.26403093	     -0.40250086	      0.60583790	     -0.85014545	    103.67615875	     19.00095391	     -5.42476954	     91.85028912	      1.60308996	     36.31198470	      0.00000000	      0.00000000	    116.64679397	    -49.87510047	     22.79323550	     97.35947525	      1.69924340	     33.66948159	      0.00000000	      0.00000000	    -12.03370905	     -8.30700045	     17.88688427	     -6.85697028	    -41.99433347	     50.74705611	     90.27650291	     87.58243261	      0.00000000	      0.00000000	    -42.84307957	    -47.99985667	     13.89047494	     95.60071423	     87.79392001	      0.00000000	      0.00000000
      3.69000000	    -42.60234171	     -1.93417155	    -28.01554599	     -0.39979490	      0.61254211	     -0.85040798	    102.60843370	     18.91436915	     -4.78595898	     90.88775727	      1.58629061	     35.93343309	      0.00000000	      0.00000000	    114.57041787	    -49.87991667	     21.08930217	     96.36342184	      1.68185899	     33.69217475	      0.00000000	      0.00000000	    -11.40769188	     -8.17391904	     17.58516251	     -6.51483217	    -41.99223865	     50.94855766	     90.04768654	     87.64923987	      0.00000000	      0.00000000	    -42.58011801	    -47.96949956	     14.24876155	     94.98269302	     87.79592642	      0.00000000	      0.00000000
      3.69500000	    -41.96782115	     -1.88378406	    -27.62452460	     -0.39593544	      0.61999394	     -0.85075641	    100.98493549	     18.69938121	     -4.11768606	     90.01185938	      1.57100331	     35.76234974	      0.00000000	      0.00000000	    111.85052274	    -49.88153540	     19.12076188	     95.35157725	      1.66419897	     33.62355661	      0.00000000	      0.00000000	    -11.35250039	     -8.13175854	     17.17279425	     -6.60883352	    -41.76167002	     50.45110130	     89.84396695	     87.63324938	      0.00000000	      0.00000000	    -42.43291505	    -47.69203766	     13.92994448	     94.75052142	     87.77648688	      0.00000000	      0.00000000
      3.70000000	    -42.11465456	     -2.26866442	    -27.62530018	     -0.39346513	      0.62734778	     -0.85002776	    100.04843372	     18.90520576	     -4.21753970	     88.74808709	      1.54894632	     35.39661815	      0.00000000	      0.00000000	    110.87194148	    -49.88757433	     18.75761079	     94.14076656	      1.64306634	     33.18991143	      0.00000000	      0.00000000	    -10.63027293	     -7.36657996	     17.36789479	     -6.52196413	    -41.89770039	     50.39838548	     89.78581473	     87.63264935	      0.00000000	      0.00000000	    -42.31553585	    -47.59463117	     13.82650350	     94.69433453	     87.76177851	      0.00000000	      0.00000000
      3.70500000	    -33.59710804	      1.86528919	    -20.75333287	     -0.37981204	      0.64603317	     -0.87469219	     91.08508469	      9.19693710	      2.80466108	     89.87854971	      1.56867662	     35.73935468	      0.00000000	      0.00000000	     90.45897024	    -44.27831865	     -0.66256022	     92.81618097	      1.61994796	     35.17051596	      0.00000000	      0.00000000	    -19.34608053	    -11.90228657	      8.93827669	     -4.09343521	    -42.75388475	     50.33675309	     89.17412424	     87.42044281	      0.00000000	      0.00000000	    -36.80354329	    -46.59732047	     16.81248774	     92.79322536	     87.56855405	      0.00000000	      0.00000000
      3.71000000	    -33.01199534	      1.42430546	    -20.99288045	     -0.37637364	      0.65473990	     -0.87349334	     89.28610364	      9.59161997	      2.78972102	     88.55910629	      1.54564799	     35.48396621	      0.00000000	      0.00000000	     88.45608215	    -44.63434822	     -1.49672491	     91.52556560	      1.59742247	     34.81542720	      0.00000000	      0.00000000	    -19.16802369	    -11.52029924	      9.35639976	     -3.49477096	    -42.67904342	     50.81360945	     88.95408219	     87.41099491	      0.00000000	      0.00000000	    -36.41295264	    -46.49363116	     16.88719960	     92.59244418	     87.50511061	      0.00000000	      0.00000000
      3.71500000	    -32.87598767	      1.63355692	    -20.92634615	     -0.37390569	      0.66202425	     -0.87335342	     88.30298593	      9.50049060	      3.14976999	     87.39744914	      1.52537325	     35.03984488	      0.00000000	      0.00000000	     86.79808732	    -44.42616246	     -2.80766199	     90.26468801	      1.57541600	     34.17016780	      0.00000000	      0.00000000	    -18.37185842	    -11.48787433	      9.33784618	     -3.43923963	    -42.53994241	     50.60997651	     88.75658091	     87.39205871	      0.00000000	      0.00000000	    -36.50106361	    -46.31898252	     16.51598276	     92.55099600	     87.48436811	      0.00000000	      0.00000000
      3.72000000	    -32.35690246	      1.38708155	    -20.90906492	     -0.37041821	      0.67042549	     -0.87294495	     86.67139344	      9.49566414	      3.19583802	     86.12726056	      1.50320427	     34.65772892	      0.00000000	      0.00000000	     84.79048664	    -44.36702996	     -3.88059771	     88.96603339	      1.55275021	     34.07365810	      0.00000000	      0.00000000	    -18.09011300	    -11.15083022	      9.45271407	     -3.31248617	    -42.41786774	     50.44989592	     88.53699888	     87.38708913	      0.00000000	      0.00000000	    -36.44118939	    -46.02555084	     16.17547976	     92.45164470	     87.45954343	      0.00000000	      0.00000000
      3.72500000	    -32.09163307	      1.02693049	    -20.47268403	     -0.36659309	      0.67851184	     -0.87317396	     85.22571240	      9.04743636	      2.97164072	     84.87194121	      1.48129482	     34.33082575	      0.00000000	      0.00000000	     83.25333353	    -43.82370784	     -4.45569559	     87.59895436	      1.52889017	     33.45646705	      0.00000000	      0.00000000	    -17.57247490	    -10.45869743	      9.27124561	     -3.30855612	    -42.32155131	     50.25206915	     88.40128849	     87.37016466	      0.00000000	      0.00000000	    -36.36560524	    -45.77348684	     16.01057586	     92.42515421	     87.44895167	      0.00000000	      0.00000000
      3.73000000	    -31.50948620	      1.31170478	    -20.26517748	     -0.36299799	      0.68650817	     -0.87360006	     83.78794893	      8.62748213	      3.46711512	     83.80552308	      1.46268231	     33.95300538	      0.00000000	      0.00000000	     80.85348385	    -43.36452579	     -6.24399334	     86.29317463	      1.50610002	     33.08263828	      0.00000000	      0.00000000	    -17.16397125	    -10.54537333	      9.03077092	     -3.38276971	    -42.13604621	     49.84936959	     88.15023870	     87.34688414	      0.00000000	      0.00000000	    -36.45545882	    -45.46117852	     15.62219919	     92.29066111	     87.42244814	      0.00000000	      0.00000000
      3.73500000	    -30.92651682	      0.91101063	    -20.12546811	     -0.35895682	      0.69549632	     -0.87336977	     81.96389818	      8.47750165	      3.31791662	     82.42832385	      1.43864565	     33.51466448	      0.00000000	      0.00000000	     78.85755717	    -43.03646707	     -6.66727637	     85.04478955	      1.48431159	     32.29373798	      0.00000000	      0.00000000	    -16.91276005	    -10.02058934	      9.11047328	     -3.36561324	    -42.02351217	     49.64282430	     87.99202006	     87.33168771	      0.00000000	      0.00000000	    -36.42423813	    -45.15412429	     15.40146584	     92.26819735	     87.41339330	      0.00000000	      0.00000000
      3.74000000	    -30.36079890	      0.74176615	    -19.38137065	     -0.35426383	      0.70394330	     -0.87431303	     80.29620422	      7.54494818	      3.17386473	     81.31167464	      1.41915644	     33.13339841	      0.00000000	      0.00000000	     76.85171793	    -42.07842679	     -7.64237486	     83.64103304	      1.45981142	     31.86194893	      0.00000000	      0.00000000	    -16.62274282	     -9.49200705	      8.45925885	     -3.89259002	    -41.59633525	     48.63579907	     87.69569416	     87.30309388	      0.00000000	      0.00000000	    -36.62929082	    -44.70390080	     15.03914765	     92.12916316	     87.39603120	      0.00000000	      0.00000000
      3.74500000	    -30.30245747	      0.46352977	    -19.29867568	     -0.35121310	      0.71260152	     -0.87409355	     79.06170065	      7.50373562	      2.96697368	     79.73545557	      1.39164623	     32.50750010	      0.00000000	      0.00000000	     75.58211048	    -41.82290435	     -8.16924201	     82.09305205	      1.43279405	     31.22346888	      0.00000000	      0.00000000	    -15.76992754	     -8.89554331	      8.63171016	     -4.01068672	    -41.68910949	     48.53915424	     87.78314059	     87.30188464	      0.00000000	      0.00000000	    -36.75440630	    -44.60196154	     14.97422557	     92.28623755	     87.39468600	      0.00000000	      0.00000000
      3.75000000	    -29.23304865	      0.40524510	    -19.19954628	     -0.34643530	      0.72231733	     -0.87404153	     76.84318251	      7.20639296	      3.25208871	     78.41906254	      1.36867084	     31.85115625	      0.00000000	      0.00000000	     72.55880017	    -41.67252668	    -10.32076418	     80.39381290	      1.40313673	     30.91585738	      0.00000000	      0.00000000	    -15.91055959	     -8.85648349	      8.77611995	     -5.27036495	    -40.91020674	     46.23731566	     87.49637318	     87.33409449	      0.00000000	      0.00000000	    -36.55713107	    -44.31253866	     14.67871094	     92.18112192	     87.40297868	      0.00000000	      0.00000000
      3.75500000	    -28.54770558	      0.17983892	    -19.08362598	     -0.34221085	      0.73208721	     -0.87387558	     74.91025327	      6.98702625	      3.19282387	     76.86373407	      1.34152523	     31.07661618	      0.00000000	      0.00000000	     70.28778868	    -41.38049679	    -11.43588002	     78.77603519	      1.37490119	     30.07410430	      0.00000000	      0.00000000	    -15.63854829	     -8.49491617	      8.83031443	     -5.62359382	    -40.46835034	     45.53439335	     87.23003112	     87.31321744	      0.00000000	      0.00000000	    -36.47557382	    -44.02440521	     14.63057621	     91.98699766	     87.37754964	      0.00000000	      0.00000000
      3.76000000	    -27.99129691	      0.03851363	    -18.74301796	     -0.33769221	      0.74157357	     -0.87434161	     73.13956398	      6.47896523	      3.09771908	     75.33317876	      1.31481201	     30.36255750	      0.00000000	      0.00000000	     68.28489779	    -40.66006415	    -11.99872608	     77.38477977	      1.35061920	     29.07224016	      0.00000000	      0.00000000	    -15.25424692	     -8.06938594	      9.63012928	     -8.27069751	    -39.90399425	     42.04668255	     87.43755071	     87.34403442	      0.00000000	      0.00000000	    -35.01985284	    -44.64998491	     16.29109881	     91.83837890	     87.38876574	      0.00000000	      0.00000000
      3.76500000	    -27.25693496	     -0.11307632	    -18.27802635	     -0.33261520	      0.75140196	     -0.87495718	     71.14479819	      5.78453355	      2.88352104	     73.81753379	      1.28835901	     29.66359739	      0.00000000	      0.00000000	     66.00027616	    -39.92888363	    -13.04527837	     75.69675420	      1.32115759	     28.12847705	      0.00000000	      0.00000000	    -14.97931935	     -7.66714689	      9.26026908	     -8.72686176	    -39.54763000	     41.36109570	     87.17052899	     87.32736209	      0.00000000	      0.00000000	    -35.32769296	    -44.22243580	     15.89363421	     91.74987306	     87.34882719	      0.00000000	      0.00000000
      3.77000000	    -26.51833482	     -0.12367180	    -18.70137430	     -0.32892367	      0.76205365	     -0.87408801	     69.15508076	      6.03609777	      3.23719316	     71.91669815	      1.25518317	     28.54685344	      0.00000000	      0.00000000	     63.29304332	    -40.06728448	    -15.13319416	     73.69264035	      1.28617921	     27.20449228	      0.00000000	      0.00000000	    -14.64714237	     -7.68588859	      9.66580400	     -8.96668468	    -39.20440444	     40.80498336	     86.94477239	     87.30868281	      0.00000000	      0.00000000	    -35.69473136	    -43.91428624	     15.43917336	     91.82297218	     87.34582958	      0.00000000	      0.00000000
      3.77500000	    -25.75943908	     -0.33497192	    -18.38468566	     -0.32412385	      0.77260686	     -0.87456355	     67.05849312	      5.50210952	      2.97129068	     70.15053415	      1.22435779	     27.48316655	      0.00000000	      0.00000000	     61.05736732	    -39.32418200	    -15.59561795	     72.06747140	      1.25781466	     25.70791359	      0.00000000	      0.00000000	    -14.39612690	     -7.26749704	      9.38824104	     -9.33819449	    -38.84505572	     40.22027630	     86.66328921	     87.29372279	      0.00000000	      0.00000000	    -36.02471913	    -43.49289904	     15.14609225	     91.78061837	     87.33248116	      0.00000000	      0.00000000
      3.78000000	    -25.05533317	     -0.20981215	    -17.92518826	     -0.31922826	      0.78287761	     -0.87551795	     65.15948224	      4.65393082	      2.89857358	     68.46551276	      1.19494862	     26.40610289	      0.00000000	      0.00000000	     58.79918985	    -38.29459953	    -16.72177063	     70.17397623	      1.22476693	     24.42611385	      0.00000000	      0.00000000	    -14.01355462	     -7.11096208	      8.98894312	     -9.94594013	    -38.51986563	     39.50181893	     86.50693658	     87.27983772	      0.00000000	      0.00000000	    -36.42714521	    -43.09788322	     14.64053016	     91.87739666	     87.33253341	      0.00000000	      0.00000000
      3.78500000	    -24.34413263	     -0.07080679	    -18.33768336	     -0.31543001	      0.79381868	     -0.87500221	     63.22889718	      4.74777888	      3.33027040	     66.40353346	      1.15896029	     24.97073349	      0.00000000	      0.00000000	     56.09050801	    -38.12302962	    -18.57084642	     68.20873730	      1.19046704	     23.11813586	      0.00000000	      0.00000000	    -13.60656867	     -7.23099554	      9.38858414	    -10.41775037	    -38.30186957	     38.87626528	     86.45574795	     87.28966421	      0.00000000	      0.00000000	    -36.96976789	    -42.83259093	     14.20705115	     92.18966313	     87.33893805	      0.00000000	      0.00000000
      3.79000000	    -23.44469978	     -0.20418905	    -17.68809291	     -0.30961937	      0.80486746	     -0.87622091	     60.91201644	      3.75534311	      2.81702044	     64.52250841	      1.12613021	     23.90258899	      0.00000000	      0.00000000	     53.70462236	    -37.03584751	    -19.38221567	     66.18760498	      1.15519163	     21.76673655	      0.00000000	      0.00000000	    -13.47189861	     -6.82642032	      8.89124530	    -11.20398395	    -38.13991391	     38.14124588	     86.46212787	     87.27209427	      0.00000000	      0.00000000	    -37.39176232	    -42.47015133	     13.96184403	     92.35220117	     87.33190536	      0.00000000	      0.00000000
      3.79500000	    -22.56225813	     -0.22373571	    -17.79502570	     -0.30505626	      0.81661335	     -0.87610778	     58.63482265	      3.53669105	      2.91739870	     62.32103558	      1.08770726	     22.33421247	      0.00000000	      0.00000000	     50.87848328	    -36.61165516	    -21.32822681	     63.80556902	      1.11361726	     20.31145993	      0.00000000	      0.00000000	    -13.28529665	     -6.76763302	      9.01509387	    -11.70901820	    -37.97721172	     37.54596494	     86.48305552	     87.28342971	      0.00000000	      0.00000000	    -37.83286731	    -42.21754248	     13.70594953	     92.61404793	     87.33801014	      0.00000000	      0.00000000
      3.80000000	    -21.72881553	     -0.11201534	    -17.72056047	     -0.30008344	      0.82820094	     -0.87653040	     56.43312673	      3.01839747	      2.94955556	     60.11555271	      1.04921433	     20.79549624	      0.00000000	      0.00000000	     48.23094286	    -35.75548319	    -22.67222317	     61.52241530	      1.07376871	     18.65887289	      0.00000000	      0.00000000	    -12.99353021	     -6.75760198	      8.98223914	    -12.51291554	    -37.89158356	     36.77309332	     86.78715997	     87.29563302	      0.00000000	      0.00000000	    -38.35581487	    -42.02089058	     13.44014948	     93.02172863	     87.33595501	      0.00000000	      0.00000000
      3.80500000	    -20.93458708	     -0.21689206	    -17.36409498	     -0.29496222	      0.84011072	     -0.87715583	     54.11387125	      2.38275922	      2.53594341	     57.74179282	      1.00778440	     19.02847535	      0.00000000	      0.00000000	     45.95532225	    -34.71041292	    -22.88169942	     59.34253236	      1.03572258	     16.48370214	      0.00000000	      0.00000000	    -12.79975405	     -6.43635018	      8.73054967	    -13.12517512	    -37.84152365	     36.27897189	     87.03757924	     87.28231150	      0.00000000	      0.00000000	    -38.73688076	    -41.86169069	     13.32171017	     93.35160490	     87.33130736	      0.00000000	      0.00000000
      3.81000000	    -20.02458106	     -0.06955362	    -17.35093838	     -0.28972557	      0.85243480	     -0.87733772	     51.75839723	      1.85476020	      2.55443698	     55.25446702	      0.96437238	     17.03669020	      0.00000000	      0.00000000	     43.10114381	    -33.81448419	    -24.44660192	     56.79204680	      0.99120821	     14.56591359	      0.00000000	      0.00000000	    -12.58721970	     -6.53734565	      8.69241855	    -13.99068239	    -37.71367235	     35.42291810	     87.48109713	     87.28542223	      0.00000000	      0.00000000	    -39.37771739	    -41.66926355	     12.94415471	     93.77303029	     87.32349787	      0.00000000	      0.00000000
      3.81500000	    -19.30347250	      0.00072708	    -17.20374024	     -0.28468448	      0.86477432	     -0.87770089	     49.49720312	      1.34101829	      2.45021204	     52.64084547	      0.91875607	     14.88487880	      0.00000000	      0.00000000	     40.63149107	    -32.86830312	    -25.91020331	     53.96481056	      0.94186362	     12.29648782	      0.00000000	      0.00000000	    -12.22721205	     -6.43312062	      8.61582732	    -14.53237758	    -37.86833887	     35.15921361	     87.97221139	     87.30629284	      0.00000000	      0.00000000	    -39.87690737	    -41.59018944	     12.79528218	     94.18051147	     87.31805318	      0.00000000	      0.00000000
      3.82000000	    -18.51408017	      0.06689141	    -16.91056049	     -0.27926077	      0.87744929	     -0.87828705	     47.11197496	      0.66253468	      2.14498216	     49.97180944	      0.87217261	     12.68136961	      0.00000000	      0.00000000	     38.13723722	    -31.70142565	    -26.83629194	     51.20194953	      0.89364260	      9.96433493	      0.00000000	      0.00000000	    -11.96232630	     -6.33979977	      8.25507413	    -15.47869427	    -37.73018056	     34.31123230	     88.50940249	     87.27972836	      0.00000000	      0.00000000	    -40.57713586	    -41.36771142	     12.38984420	     94.59187431	     87.29515984	      0.00000000	      0.00000000
      3.82500000	    -17.54387080	      0.02829174	    -16.79117936	     -0.27353791	      0.89082328	     -0.87850766	     44.34303292	      0.15626520	      1.84260075	     46.97564525	      0.81987968	     10.42303815	      0.00000000	      0.00000000	     35.29792073	    -30.60212376	    -27.51881289	     48.31948808	      0.84333416	      7.28962730	      0.00000000	      0.00000000	    -11.90691326	     -6.24189675	      8.25712498	    -16.29365263	    -37.79022052	     33.73960394	     89.13159688	     87.31577248	      0.00000000	      0.00000000	    -41.10255412	    -41.21388943	     12.07450464	     95.01179206	     87.31619446	      0.00000000	      0.00000000
      3.83000000	    -16.79344971	      0.06604734	    -16.53936122	     -0.26815507	      0.90399484	     -0.87890556	     41.78925529	     -0.37669436	      1.63835864	     43.81039059	      0.76463556	      7.62565204	      0.00000000	      0.00000000	     32.86203157	    -29.37467921	    -28.15259521	     45.23283847	      0.78946196	      4.31489203	      0.00000000	      0.00000000	    -11.65818360	     -6.10384548	      7.98076347	    -17.17988086	    -37.76064117	     33.07443255	     89.70455979	     87.30716412	      0.00000000	      0.00000000	    -41.82284333	    -40.98636957	     11.58504803	     95.41287765	     87.29307844	      0.00000000	      0.00000000
      3.83500000	    -16.13917257	      0.25971449	    -16.31670652	     -0.26261920	      0.91727781	     -0.87935746	     39.30277021	     -1.02175023	      1.32835621	     40.41324183	      0.70534413	      4.61324356	      0.00000000	      0.00000000	     30.44546369	    -28.00626278	    -28.97870533	     41.91160697	      0.73149554	      1.19697477	      0.00000000	      0.00000000	    -11.16730859	     -6.16228577	      7.73381943	    -18.14734499	    -37.68604582	     32.33941082	     90.32007484	     87.31489187	      0.00000000	      0.00000000	    -42.53807526	    -40.85075530	     11.08448355	     95.93338288	     87.27567965	      0.00000000	      0.00000000
      3.84000000	    -15.17893547	      0.20891031	    -15.93380795	     -0.25640939	      0.93134374	     -0.87985458	     36.25705816	     -1.63270939	      0.75237189	     36.81278958	      0.64250438	      1.43181935	      0.00000000	      0.00000000	     27.67279970	    -26.75532173	    -30.23562680	     38.32473544	      0.66889282	     -2.31080993	      0.00000000	      0.00000000	    -11.17009993	     -6.01542803	      7.38802966	    -19.30673973	    -37.48388727	     31.38186942	     90.82600462	     87.32728376	      0.00000000	      0.00000000	    -43.23345039	    -40.56304833	     10.53169024	     96.26624159	     87.28669221	      0.00000000	      0.00000000
      3.84500000	    -14.63384252	      0.35974945	    -15.61388641	     -0.25095865	      0.94507522	     -0.88038625	     33.78459505	     -2.17738231	      0.53599710	     33.22364141	      0.57986193	     -2.12966302	      0.00000000	      0.00000000	     25.47318493	    -25.20938222	    -29.90768834	     34.79960839	      0.60736774	     -6.09073568	      0.00000000	      0.00000000	    -10.69438505	     -5.97897975	      7.12268089	    -20.39412797	    -37.38837135	     30.67703886	     91.37072244	     87.33225247	      0.00000000	      0.00000000	    -43.86628185	    -40.40877781	     10.00265377	     96.71005777	     87.29025893	      0.00000000	      0.00000000
      3.85000000	    -13.88166918	      0.44988312	    -15.44614715	     -0.24519497	      0.95922765	     -0.88062637	     30.90511379	     -2.62268947	      0.37051299	     29.22400414	      0.51005509	     -6.08082257	      0.00000000	      0.00000000	     22.85259962	    -23.82715807	    -30.58995191	     30.94914540	      0.54016449	    -10.20372333	      0.00000000	      0.00000000	    -10.48824107	     -5.97936033	      6.99275861	    -21.52581559	    -37.12038902	     29.73001154	     91.77604673	     87.36167149	      0.00000000	      0.00000000	    -44.50635163	    -40.11108316	      9.39457523	     96.97855697	     87.29227603	      0.00000000	      0.00000000
      3.85500000	    -13.02267452	      0.42351170	    -14.76742009	     -0.23855757	      0.97362906	     -0.88174158	     27.73357069	     -3.28603600	     -0.45788418	     25.11610591	      0.43835874	    -10.27102930	      0.00000000	      0.00000000	     20.34400865	    -22.26012273	    -30.43851517	     26.97992262	      0.47088848	    -14.56634655	      0.00000000	      0.00000000	    -10.43064050	     -5.77350616	      6.57463414	    -22.99034591	    -36.86289338	     28.49482989	     92.20680922	     87.41717228	      0.00000000	      0.00000000	    -44.82775969	    -40.02858698	      9.20666613	     97.21181309	     87.32562877	      0.00000000	      0.00000000
      3.86000000	    -12.61997688	      0.47149340	    -14.42677777	     -0.23311926	      0.98755724	     -0.88212078	     25.28068608	     -3.62727334	     -0.81186460	     21.15935845	      0.36930047	    -15.12040872	      0.00000000	      0.00000000	     18.35724698	    -20.96593231	    -30.28359524	     23.07996464	      0.40282137	    -19.62604177	      0.00000000	      0.00000000	     -9.95010636	     -5.64287620	      6.28749557	    -24.00910915	    -36.75043858	     27.79894919	     92.64045940	     87.40297501	      0.00000000	      0.00000000	    -45.36079846	    -39.84107221	      8.74630879	     97.49067109	     87.31839506	      0.00000000	      0.00000000
      3.86500000	    -12.22477698	      0.66093603	    -14.44647741	     -0.22813212	      1.00153423	     -0.88208917	     23.06368119	     -3.92275204	     -0.69305217	     17.57338034	      0.30671335	    -19.71427518	      0.00000000	      0.00000000	     16.23958369	    -19.65775110	    -30.46853980	     19.02807080	      0.33210249	    -24.62578279	      0.00000000	      0.00000000	     -9.42601560	     -5.75403087	      6.49035298	    -25.03861193	    -36.54995713	     26.97179188	     92.85483264	     87.42426539	      0.00000000	      0.00000000	    -45.98546065	    -39.76181751	      8.27707623	     97.93656749	     87.30593792	      0.00000000	      0.00000000
      3.87000000	    -11.65213285	      0.60786952	    -14.10663339	     -0.22241156	      1.01594649	     -0.88248692	     20.44469318	     -4.18458019	     -0.86562232	     13.59970206	      0.23735958	    -24.54426664	      0.00000000	      0.00000000	     14.05143943	    -18.47761081	    -29.97624814	     14.98394918	      0.26151925	    -29.46536753	      0.00000000	      0.00000000	     -9.19571346	     -5.55961469	      6.37152567	    -26.14175706	    -36.35262448	     26.12677331	     93.16743691	     87.43474625	      0.00000000	      0.00000000	    -46.04718044	    -39.89116782	      8.51127820	     98.02270571	     87.35210863	      0.00000000	      0.00000000
      3.87500000	    -11.25541271	      0.61100322	    -13.58519198	     -0.21672210	      1.03009771	     -0.88326726	     18.28061018	     -4.53539002	     -1.28146739	     10.11643511	      0.17656510	    -29.01973147	      0.00000000	      0.00000000	     12.23343353	    -17.34120403	    -29.17439040	     11.10679601	      0.19385016	    -33.98927000	      0.00000000	      0.00000000	     -8.75443669	     -5.37475663	      6.06852877	    -27.08888572	    -36.17447264	     25.30610844	     93.30546194	     87.44915976	      0.00000000	      0.00000000	    -46.33035958	    -39.92974074	      8.61270341	     98.18980059	     87.33988688	      0.00000000	      0.00000000
      3.88000000	    -11.09421087	      0.59975476	    -13.47350676	     -0.21235623	      1.04414285	     -0.88315756	     16.73768881	     -4.59564564	     -1.07382207	      7.09630123	      0.12385382	    -33.57078850	      0.00000000	      0.00000000	     10.76201368	    -16.56178078	    -28.75874566	      7.73726663	      0.13504078	    -37.32094343	      0.00000000	      0.00000000	     -8.17507488	     -5.25248614	      6.09768137	    -27.73389784	    -36.05613319	     24.84748096	     93.42193837	     87.42899157	      0.00000000	      0.00000000	    -46.59591109	    -40.00910243	      8.60187708	     98.45634570	     87.31544048	      0.00000000	      0.00000000
      3.88500000	    -10.89567299	      0.69817235	    -13.23666015	     -0.20786411	      1.05793434	     -0.88349100	     15.33879759	     -4.85027819	     -1.03030437	      4.39645562	      0.07673263	    -36.76007919	      0.00000000	      0.00000000	      9.41842260	    -15.69045213	    -28.22436690	      4.86707540	      0.08494649	    -38.54950949	      0.00000000	      0.00000000	     -7.64447946	     -5.21015319	      6.01008333	    -28.33993962	    -35.99163075	     24.35311043	     93.51978194	     87.43354452	      0.00000000	      0.00000000	    -46.82739926	    -40.11029676	      8.66180317	     98.71798930	     87.31539064	      0.00000000	      0.00000000
      3.89000000	    -10.72423512	      0.66199027	    -12.52866685	     -0.20310571	      1.07189591	     -0.88479567	     13.99728245	     -5.08308527	     -1.55360680	      2.36346148	      0.04125018	    -37.81684869	      0.00000000	      0.00000000	      8.43950726	    -15.00756893	    -27.54117113	      2.66125641	      0.04644769	    -38.82722384	      0.00000000	      0.00000000	     -7.15621948	     -4.96067275	      5.50901871	    -28.90702684	    -35.91765219	     23.91783743	     93.46951034	     87.42742604	      0.00000000	      0.00000000	    -46.77214563	    -40.13985327	      9.11605050	     98.66340174	     87.32197532	      0.00000000	      0.00000000
      3.89500000	    -11.00096744	      0.47432562	    -12.39106952	     -0.20018382	      1.08542159	     -0.88478488	     13.80069894	     -4.86511284	     -1.80342248	      1.64852903	      0.02877226	    -37.61787250	      0.00000000	      0.00000000	      8.22357667	    -15.00770972	    -28.28111733	      1.64894595	      0.02877954	    -38.47305358	      0.00000000	      0.00000000	     -6.33239301	     -4.58860855	      5.48674775	    -29.05060179	    -35.94933517	     23.82671905	     93.35464575	     87.35212639	      0.00000000	      0.00000000	    -46.76492985	    -40.17517569	      9.21379467	     98.74861081	     87.25467211	      0.00000000	      0.00000000
      3.90000000	    -11.21466391	      0.34908692	    -12.26018663	     -0.19769054	      1.09884959	     -0.88494383	     13.45135774	     -4.65733082	     -2.27019610	      1.06439024	      0.01857711	    -37.05475664	      0.00000000	      0.00000000	      8.06011737	    -14.93695338	    -28.87632471	      1.02271063	      0.01784967	    -38.04270376	      0.00000000	      0.00000000	     -5.65445242	     -4.29664396	      5.46748928	    -29.09480597	    -35.95775582	     23.74401601	     93.21243327	     87.27972362	      0.00000000	      0.00000000	    -46.66380412	    -40.15204268	      9.31050075	     98.79327158	     87.18963415	      0.00000000	      0.00000000
      3.90500000	    -11.05865885	     -0.05001277	    -12.14919990	     -0.19527970	      1.11246702	     -0.88499680	     12.78809706	     -4.22066743	     -3.36965673	      0.79431146	      0.01386335	    -36.41010124	      0.00000000	      0.00000000	      7.66626709	    -15.17775223	    -30.15547731	      1.00629126	      0.01756310	    -37.68029097	      0.00000000	      0.00000000	     -5.51733731	     -3.81886191	      5.64745085	    -29.14297622	    -35.92330373	     23.58506008	     92.90668715	     87.37858801	      0.00000000	      0.00000000	    -46.24598145	    -40.33503876	      9.82269719	     98.63127245	     87.29365247	      0.00000000	      0.00000000
      3.91000000	    -11.15657469	     -0.33930768	    -12.40406278	     -0.19445466	      1.12553735	     -0.88447207	     12.61574539	     -3.70071803	     -4.05598814	      0.81339302	      0.01419639	    -36.11854223	      0.00000000	      0.00000000	      7.59118417	    -15.46989031	    -31.66520546	      1.33622494	      0.02332152	    -37.36631660	      0.00000000	      0.00000000	     -5.21423193	     -3.42410581	      6.80022147	    -30.06148469	    -35.36140392	     22.14541714	     92.82083415	     87.42095524	      0.00000000	      0.00000000	    -44.64802339	    -41.37210233	     11.45837770	     98.45191214	     87.32264831	      0.00000000	      0.00000000
      3.91500000	    -11.03905359	     -0.68806295	    -12.15237465	     -0.19360163	      1.13863897	     -0.88497595	     12.15603599	     -3.26902221	     -5.74907503	      1.00103820	      0.01747141	    -36.02095222	      0.00000000	      0.00000000	      7.74862762	    -15.73482853	    -33.17943366	      2.14691402	      0.03747072	    -37.66136722	      0.00000000	      0.00000000	     -5.25187938	     -2.99360186	      6.70093731	    -29.64574928	    -35.52488691	     22.27455111	     92.45725593	     87.43213173	      0.00000000	      0.00000000	    -44.13906328	    -41.40572229	     11.71516294	     98.27917250	     87.32511765	      0.00000000	      0.00000000
      3.92000000	    -10.89769935	     -0.87961735	    -12.02821611	     -0.19389029	      1.15142872	     -0.88549467	     11.89138753	     -3.06603523	     -7.42398581	      1.36438363	      0.02381299	    -37.11121453	      0.00000000	      0.00000000	      8.04826309	    -15.97653981	    -34.47989268	      3.56275513	      0.06218181	    -38.02983897	      0.00000000	      0.00000000	     -5.41822074	     -2.75628920	      6.70042689	    -28.99498040	    -35.75380944	     22.56987626	     92.07638297	     87.43147834	      0.00000000	      0.00000000	    -43.43154723	    -41.52373443	     12.03766404	     98.10226579	     87.32672855	      0.00000000	      0.00000000
      3.92500000	    -10.87880004	     -0.95646961	    -12.13351328	     -0.19550084	      1.16397618	     -0.88579459	     12.09933851	     -2.86322893	     -8.10179610	      2.23742331	      0.03905040	    -38.12249432	      0.00000000	      0.00000000	      8.59156222	    -16.19742602	    -35.52931470	      5.23685914	      0.09140043	    -38.40002940	      0.00000000	      0.00000000	     -5.58522533	     -2.65046140	      6.90239891	    -28.14464767	    -35.90764454	     22.88768759	     91.52486140	     87.41803573	      0.00000000	      0.00000000	    -42.62747582	    -41.61101653	     12.32746877	     97.80220640	     87.34088852	      0.00000000	      0.00000000
      3.93000000	    -11.02059534	     -0.83166727	    -12.39030863	     -0.19802432	      1.17584964	     -0.88592866	     12.77843321	     -2.80160161	     -8.19211707	      3.60304299	      0.06288496	    -38.48862053	      0.00000000	      0.00000000	      9.38872937	    -16.25397886	    -35.97727952	      6.97278335	      0.12169803	    -38.57972692	      0.00000000	      0.00000000	     -5.60130519	     -2.75875003	      7.20688928	    -27.11104851	    -36.12784511	     23.23565667	     90.98240192	     87.41306792	      0.00000000	      0.00000000	    -41.84836547	    -41.80208498	     12.57093225	     97.54261574	     87.33771140	      0.00000000	      0.00000000
      3.93500000	    -10.84437574	     -0.64028679	    -12.22644925	     -0.19960263	      1.18757067	     -0.88699232	     12.96067914	     -3.05580971	     -8.23320128	      4.74386766	      0.08279611	    -38.84104360	      0.00000000	      0.00000000	      9.86108093	    -15.91839198	    -35.39609556	      8.32973723	      0.14538134	    -38.74286462	      0.00000000	      0.00000000	     -5.97796073	     -2.93559754	      7.10971910	    -26.33368831	    -36.19500368	     23.32444823	     90.45968749	     87.40337351	      0.00000000	      0.00000000	    -41.21526851	    -41.84142824	     12.66421366	     97.22529332	     87.33725834	      0.00000000	      0.00000000
      3.94000000	    -11.09154652	     -0.28837051	    -12.20628238	     -0.20195903	      1.19821949	     -0.88783371	     13.93680888	     -3.29263429	     -7.50158450	      6.28490482	      0.10969228	    -39.08513426	      0.00000000	      0.00000000	     10.95856582	    -15.62243821	    -34.87375050	      9.97512315	      0.17409874	    -38.77679330	      0.00000000	      0.00000000	     -5.87965318	     -3.20002306	      7.07121142	    -25.30400499	    -36.40558287	     23.91152613	     89.82077632	     87.40944210	      0.00000000	      0.00000000	    -40.52730723	    -42.01205741	     12.95420501	     96.93710995	     87.37286751	      0.00000000	      0.00000000
      3.94500000	    -11.03523135	     -0.01245538	    -12.29254648	     -0.20421459	      1.20925824	     -0.88828441	     14.36420415	     -3.48409390	     -6.15698129	      7.19276998	      0.12553752	    -39.06908641	      0.00000000	      0.00000000	     11.54217426	    -15.22221699	    -33.92830564	     11.10319234	      0.19378726	    -38.81738087	      0.00000000	      0.00000000	     -6.21149087	     -3.52874020	      7.10770248	    -24.24083574	    -36.44164465	     24.22555276	     89.27898678	     87.42243621	      0.00000000	      0.00000000	    -39.92004869	    -42.09707935	     13.04419953	     96.66369413	     87.36818204	      0.00000000	      0.00000000
      3.95000000	    -10.99555403	      0.29945546	    -11.90800313	     -0.20570242	      1.21960086	     -0.88946279	     14.66264297	     -3.86312195	     -5.19302422	      7.82541039	      0.13657918	    -39.21892231	      0.00000000	      0.00000000	     12.29121307	    -14.68783535	    -32.59080137	     12.22279942	      0.21332809	    -38.85572498	      0.00000000	      0.00000000	     -6.47833136	     -3.81603910	      6.67840495	    -23.32902712	    -36.58373145	     24.82012225	     88.73186297	     87.42052076	      0.00000000	      0.00000000	    -39.40317396	    -42.20322873	     13.19679554	     96.40849539	     87.36526557	      0.00000000	      0.00000000
      3.95500000	    -10.68660861	      0.53150124	    -11.70823088	     -0.20728108	      1.23018530	     -0.89017828	     14.65086393	     -4.14420063	     -4.06117152	      8.23628777	      0.14375034	    -39.26134286	      0.00000000	      0.00000000	     12.63406207	    -14.21989492	    -31.44815465	     13.15208612	      0.22954721	    -38.97768133	      0.00000000	      0.00000000	     -7.13197078	     -4.14265760	      6.52404034	    -22.71254741	    -36.57562630	     24.86039530	     88.51806725	     87.41145359	      0.00000000	      0.00000000	    -38.87499313	    -42.24793642	     13.16938541	     96.30167974	     87.36375543	      0.00000000	      0.00000000
      3.96000000	    -10.72966938	      0.68697016	    -11.23532209	     -0.20829879	      1.24011208	     -0.89115147	     14.72402990	     -4.34238505	     -2.52968475	      8.09606077	      0.14130292	    -39.22735877	      0.00000000	      0.00000000	     13.32354522	    -13.79558454	    -29.86191831	     13.83529175	      0.24147139	    -38.79438421	      0.00000000	      0.00000000	     -7.31026077	     -4.26480054	      5.94246570	    -21.57792242	    -36.76101367	     25.84511598	     87.88693743	     87.41432520	      0.00000000	      0.00000000	    -38.36591979	    -42.48545521	     13.74924294	     95.94728171	     87.37296499	      0.00000000	      0.00000000
      3.96500000	    -10.63455450	      0.95456155	    -10.98607560	     -0.20957047	      1.24997793	     -0.89186396	     14.77734086	     -4.65683421	     -1.01755799	      8.01761009	      0.13993369	    -39.14217203	      0.00000000	      0.00000000	     13.79129380	    -13.29648387	    -28.61030086	     14.38555191	      0.25107525	    -38.66625946	      0.00000000	      0.00000000	     -7.66271100	     -4.57309395	      5.62525438	    -20.64344269	    -36.90556200	     26.62677469	     87.52555003	     87.40564698	      0.00000000	      0.00000000	    -37.87450634	    -42.62222971	     14.12770844	     95.76956137	     87.36592588	      0.00000000	      0.00000000
      3.97000000	    -10.49378050	      1.24722440	    -10.84243099	     -0.21093280	      1.25968459	     -0.89220026	     14.79608210	     -4.99859348	      0.23628771	      7.76496026	      0.13552412	    -39.04523618	      0.00000000	      0.00000000	     14.17201337	    -12.84827026	    -27.71864464	     14.89457994	      0.25995946	    -38.43220713	      0.00000000	      0.00000000	     -8.10433666	     -4.95252318	      5.40532378	    -19.81227222	    -36.99862416	     27.29761432	     87.40647815	     87.40326229	      0.00000000	      0.00000000	    -37.45415670	    -42.82864952	     14.50039432	     95.68997836	     87.36162714	      0.00000000	      0.00000000
      3.97500000	    -10.24503183	      1.37789128	    -10.50125250	     -0.21160580	      1.26950925	     -0.89294656	     14.42623633	     -5.28507986	      1.16610819	      7.07950915	      0.12356074	    -38.84365806	      0.00000000	      0.00000000	     14.36791668	    -12.45458577	    -26.50517669	     15.19323781	      0.26517202	    -38.22436686	      0.00000000	      0.00000000	     -8.58546183	     -5.11016123	      4.87851226	    -18.60143347	    -37.37290991	     28.69893033	     87.21969837	     87.36484558	      0.00000000	      0.00000000	    -36.97764645	    -42.87822147	     15.05227044	     95.45642652	     87.32046431	      0.00000000	      0.00000000
      3.98000000	     -9.98735880	      1.34600502	    -10.07859643	     -0.21185265	      1.27913647	     -0.89356259	     14.04448139	     -5.44032652	      1.41125947	      6.62864194	      0.11569163	    -38.76374432	      0.00000000	      0.00000000	     14.52335999	    -12.27580672	    -25.33659791	     15.53753792	      0.27118119	    -37.74864168	      0.00000000	      0.00000000	     -9.07741581	     -5.07014227	      4.53968772	    -18.07761901	    -37.48591495	     29.49263682	     87.25988590	     87.28350003	      0.00000000	      0.00000000	    -36.35113961	    -43.02731426	     15.75009617	     95.25969872	     87.32772274	      0.00000000	      0.00000000
      3.98500000	     -9.76625444	      1.29044119	     -9.62182961	     -0.21204418	      1.28855541	     -0.89436071	     13.66268317	     -5.50631854	      1.48665614	      5.92669663	      0.10344037	    -38.49637701	      0.00000000	      0.00000000	     14.73109636	    -12.14163151	    -24.24831800	     15.87645540	      0.27709642	    -37.26657107	      0.00000000	      0.00000000	     -9.56036986	     -4.98939536	      4.13977035	    -17.59790382	    -37.64886322	     29.88573125	     87.43685098	     87.31975922	      0.00000000	      0.00000000	    -35.84924352	    -43.02010593	     16.36054766	     95.09304605	     87.33278809	      0.00000000	      0.00000000
      3.99000000	     -9.44455715	      1.12317545	     -9.37011038	     -0.21213663	      1.29821877	     -0.89487393	     13.18275200	     -5.59364153	      0.96249112	      5.51755941	      0.09629958	    -38.00671520	      0.00000000	      0.00000000	     14.66561534	    -12.15085577	    -23.39502760	     15.99502231	      0.27916580	    -36.64844013	      0.00000000	      0.00000000	    -10.16299700	     -4.84709719	      3.97347347	    -17.17667292	    -37.78558948	     30.54367055	     87.58571516	     87.29821967	      0.00000000	      0.00000000	    -35.25578081	    -42.92838690	     16.93688846	     94.85561737	     87.32850890	      0.00000000	      0.00000000
      3.99500000	     -9.19068392	      1.00591459	     -8.81056564	     -0.21185387	      1.30738314	     -0.89616825	     12.73244300	     -5.73579739	     -0.19053634	      5.01938842	      0.08760485	    -37.56340217	      0.00000000	      0.00000000	     14.64651871	    -11.96160386	    -22.13377831	     15.87008518	      0.27698524	    -35.89048895	      0.00000000	      0.00000000	    -10.58175696	     -4.61510749	      3.56163433	    -16.77356260	    -38.03637516	     31.22557221	     87.74081405	     87.25961457	      0.00000000	      0.00000000	    -34.58913976	    -42.89763111	     17.81613031	     94.59775008	     87.31321221	      0.00000000	      0.00000000
      4.00000000	     -9.22798404	      1.05904390	     -9.65475320	     -0.21366438	      1.31624264	     -0.89479203	     13.14518183	     -5.57475067	      0.57535225	      4.90722101	      0.08564716	    -36.97661613	      0.00000000	      0.00000000	     14.61878802	    -12.13080780	    -22.38816548	     15.61342468	      0.27250567	    -35.39233208	      0.00000000	      0.00000000	    -10.74830868	     -4.84393097	      4.45993442	    -16.16681816	    -38.13398040	     31.90004998	     87.92366627	     87.24757668	      0.00000000	      0.00000000	    -33.93309849	    -42.93203836	     18.31542029	     94.52070250	     87.28543478	      0.00000000	      0.00000000
      4.00500000	     -9.09197638	      1.03091617	     -9.27052157	     -0.21317232	      1.32476978	     -0.89612010	     12.91854048	     -5.76563472	     -0.82768962	      4.65003034	      0.08115834	    -36.11057297	      0.00000000	      0.00000000	     14.54189075	    -11.88128272	    -21.35270019	     15.17388781	      0.26483430	    -34.61351059	      0.00000000	      0.00000000	    -10.93590813	     -4.64816597	      4.35542127	    -16.19010050	    -38.32825352	     32.19216947	     88.16531524	     87.22125728	      0.00000000	      0.00000000	    -33.17706930	    -42.89300878	     19.20879413	     94.19515607	     87.26377944	      0.00000000	      0.00000000
      4.01000000	     -9.10833057	      0.97935353	     -9.36106513	     -0.21338842	      1.33298200	     -0.89637884	     12.92905605	     -5.73469951	     -1.41705796	      4.38731790	      0.07657314	    -35.43466654	      0.00000000	      0.00000000	     14.56828051	    -11.92757388	    -21.30697116	     14.81095318	      0.25849990	    -34.05891487	      0.00000000	      0.00000000	    -11.02485449	     -4.56014564	      4.61076715	    -16.15739886	    -38.37383005	     32.32087894	     88.34508439	     87.23191622	      0.00000000	      0.00000000	    -32.88433748	    -42.64283862	     19.34394507	     94.08805249	     87.25799217	      0.00000000	      0.00000000
      4.01500000	     -8.84983238	      0.88156747	     -8.77634886	     -0.21265852	      1.34113115	     -0.89793665	     12.50804767	     -5.92762103	     -3.12143324	      4.23511334	      0.07391667	    -34.23152981	      0.00000000	      0.00000000	     14.30289071	    -11.63632041	    -19.95411858	     14.15916060	      0.24712397	    -33.11060582	      0.00000000	      0.00000000	    -11.43072307	     -4.31232124	      4.19501510	    -16.30676428	    -38.51126316	     32.33362844	     88.66650691	     87.23450103	      0.00000000	      0.00000000	    -32.47935856	    -42.47482671	     19.75417877	     93.79373261	     87.24813164	      0.00000000	      0.00000000
      4.02000000	     -9.10966494	      0.95464080	     -9.28430609	     -0.21369808	      1.34832783	     -0.89742458	     13.14087108	     -5.89443193	     -3.22632337	      4.49790029	      0.07850317	    -33.31075553	      0.00000000	      0.00000000	     14.40149743	    -11.64531829	    -20.44458067	     13.32918991	      0.23263825	    -32.66889597	      0.00000000	      0.00000000	    -11.23123683	     -4.40218313	      4.84635339	    -16.32818169	    -38.51362951	     32.36020857	     88.87363360	     87.23744037	      0.00000000	      0.00000000	    -32.20553361	    -42.46083413	     19.90887310	     93.76749621	     87.23718522	      0.00000000	      0.00000000
      4.02500000	     -9.13358915	      0.89185399	     -9.18202092	     -0.21364521	      1.35561935	     -0.89807533	     13.15729703	     -5.92066636	     -4.29885611	      4.47245053	      0.07805899	    -32.32532963	      0.00000000	      0.00000000	     14.29062258	    -11.56191156	    -19.94562308	     12.57073121	      0.21940065	    -31.89363682	      0.00000000	      0.00000000	    -11.29118919	     -4.24172742	      5.29690301	    -17.27602774	    -38.31287588	     31.27370194	     89.20647073	     87.25178645	      0.00000000	      0.00000000	    -31.35275805	    -42.65122968	     20.68250524	     93.61948468	     87.23009801	      0.00000000	      0.00000000
      4.03000000	     -9.34760260	      0.86060190	     -9.31987185	     -0.21409676	      1.36232789	     -0.89808591	     13.39943235	     -5.86873201	     -4.71062718	      4.32280925	      0.07544725	    -31.83267067	      0.00000000	      0.00000000	     14.41663911	    -11.65537562	    -20.09230087	     12.06165466	      0.21051559	    -31.19823195	      0.00000000	      0.00000000	    -11.11657861	     -4.16235834	      5.51676612	    -17.29214780	    -38.27455720	     31.28025806	     89.29617317	     87.25590075	      0.00000000	      0.00000000	    -31.34863297	    -42.60074632	     20.57345204	     93.63231294	     87.22074433	      0.00000000	      0.00000000
      4.03500000	     -9.52470136	      0.85626265	     -9.30289802	     -0.21445942	      1.36885576	     -0.89842932	     13.73264721	     -5.92220006	     -5.31519865	      4.56921228	      0.07974780	    -30.97477600	      0.00000000	      0.00000000	     14.33511362	    -11.56655639	    -18.79372089	     11.33951305	      0.19791184	    -29.66337039	      0.00000000	      0.00000000	    -10.99742903	     -4.09190885	      5.58135359	    -17.45681066	    -38.22327284	     31.04051927	     89.41975918	     87.25462547	      0.00000000	      0.00000000	    -31.44200867	    -42.47301805	     20.25711815	     93.65121444	     87.21975644	      0.00000000	      0.00000000
      4.04000000	     -9.68709799	      0.73906559	     -9.27356019	     -0.21466216	      1.37500084	     -0.89869245	     13.85019001	     -5.84407491	     -5.69874332	      4.43886623	      0.07747283	    -30.62478563	      0.00000000	      0.00000000	     14.46705624	    -11.68462055	    -19.36230493	     10.74098634	      0.18746558	    -29.16111880	      0.00000000	      0.00000000	    -10.86247246	     -3.91137342	      5.59860129	    -17.54574186	    -38.21358848	     30.95035594	     89.43562275	     87.25458453	      0.00000000	      0.00000000	    -31.52441901	    -42.45407461	     20.13708653	     93.74499173	     87.22234312	      0.00000000	      0.00000000
      4.04500000	     -9.87916673	      0.83466042	     -9.14300351	     -0.21469657	      1.38078646	     -0.89936347	     14.02878201	     -6.04424059	     -6.23900706	      4.37842374	      0.07641791	    -30.22004916	      0.00000000	      0.00000000	     14.58155724	    -11.54329175	    -19.46605338	     10.18859945	      0.17782461	    -28.33837991	      0.00000000	      0.00000000	    -10.64283863	     -3.91554659	      5.50109527	    -17.71490197	    -38.16497236	     30.71874772	     89.47883795	     87.24748699	      0.00000000	      0.00000000	    -31.71116182	    -42.41008535	     19.91732847	     93.84328273	     87.22681832	      0.00000000	      0.00000000
      4.05000000	     -9.98687349	      0.82582796	     -9.24080818	     -0.21508303	      1.38643401	     -0.89939853	     14.25470166	     -6.07704766	     -6.38876691	      4.51731064	      0.07884194	    -29.99786678	      0.00000000	      0.00000000	     14.53395954	    -11.57376604	    -19.42620623	      9.64329801	      0.16830730	    -27.37316651	      0.00000000	      0.00000000	    -10.57321807	     -3.90359961	      5.60217673	    -17.89242226	    -38.07224070	     30.33315689	     89.57152200	     87.25733675	      0.00000000	      0.00000000	    -32.00506154	    -42.35311386	     19.39214845	     94.08147365	     87.23356616	      0.00000000	      0.00000000
      4.05500000	    -10.25548721	      1.01999345	     -9.03721737	     -0.21518459	      1.39156780	     -0.90012678	     14.54812935	     -6.39519960	     -6.61888739	      4.52172631	      0.07891901	    -29.69560975	      0.00000000	      0.00000000	     14.68592063	    -11.33865735	    -18.61545838	      9.23640720	      0.16120572	    -26.34452858	      0.00000000	      0.00000000	    -10.30163960	     -4.01725314	      5.36549257	    -18.19033487	    -37.85851394	     29.77042407	     89.57423826	     87.26109177	      0.00000000	      0.00000000	    -32.38200208	    -42.29951504	     18.93791928	     94.28835195	     87.26619121	      0.00000000	      0.00000000
      4.06000000	    -10.32947558	      0.97047509	     -8.87251988	     -0.21490456	      1.39677183	     -0.90053121	     14.52569102	     -6.45977036	     -6.84959884	      4.43148615	      0.07734402	    -29.63570503	      0.00000000	      0.00000000	     14.68381221	    -11.38775726	    -18.93782537	      8.86717794	      0.15476145	    -25.79694222	      0.00000000	      0.00000000	    -10.19567813	     -3.91076368	      5.11698511	    -18.26982700	    -37.81199131	     29.59453066	     89.55485899	     87.25770479	      0.00000000	      0.00000000	    -32.60008174	    -42.32226276	     18.85693953	     94.34142695	     87.27406528	      0.00000000	      0.00000000
      4.06500000	    -10.41620048	      1.00385643	     -8.85665938	     -0.21526809	      1.40172279	     -0.90053016	     14.64143129	     -6.55713131	     -6.78160187	      4.42627076	      0.07725300	    -29.67933207	      0.00000000	      0.00000000	     14.71461730	    -11.42221350	    -19.22058672	      8.62356523	      0.15050961	    -25.39736439	      0.00000000	      0.00000000	    -10.09777122	     -3.94796934	      5.05431771	    -18.28440393	    -37.74374930	     29.47347941	     89.53220246	     87.25650792	      0.00000000	      0.00000000	    -32.67804836	    -42.47234698	     18.67854588	     94.44726787	     87.27400042	      0.00000000	      0.00000000
      4.07000000	    -10.45023166	      1.11714625	     -8.69219135	     -0.21483426	      1.40636373	     -0.90098275	     14.63090624	     -6.81123442	     -6.76397695	      4.42735314	      0.07727189	    -29.75637586	      0.00000000	      0.00000000	     14.69524109	    -11.28951004	    -19.52721304	      8.41166475	      0.14681125	    -24.71827263	      0.00000000	      0.00000000	     -9.98786483	     -4.04452630	      4.79409640	    -18.48332168	    -37.60109542	     29.16846759	     89.42291895	     87.26436674	      0.00000000	      0.00000000	    -33.06253441	    -42.45933814	     18.42638061	     94.66439704	     87.28520735	      0.00000000	      0.00000000
      4.07500000	    -10.47001923	      1.09649697	     -8.53878934	     -0.21467099	      1.41091538	     -0.90113261	     14.60532886	     -6.90445162	     -6.68775374	      4.46777306	      0.07797735	    -29.82456029	      0.00000000	      0.00000000	     14.69688169	    -11.35480054	    -19.77195690	      8.30773338	      0.14499730	    -24.55831641	      0.00000000	      0.00000000	     -9.93778405	     -4.00989532	      4.58761248	    -18.55920693	    -37.55619163	     29.09458852	     89.38203684	     87.26424988	      0.00000000	      0.00000000	    -33.15019307	    -42.54163095	     18.35471465	     94.69914347	     87.28713478	      0.00000000	      0.00000000
      4.08000000	    -10.40188696	      1.19979766	     -8.54389249	     -0.21448807	      1.41518019	     -0.90106876	     14.56563237	     -7.09314575	     -6.42067365	      4.54020295	      0.07924149	    -30.00100389	      0.00000000	      0.00000000	     14.60936886	    -11.32908907	    -20.48245086	      8.35742056	      0.14586451	    -24.31293880	      0.00000000	      0.00000000	     -9.94902708	     -4.16686439	      4.45052929	    -18.62913968	    -37.40272200	     28.81982901	     89.29109289	     87.27447451	      0.00000000	      0.00000000	    -33.54037115	    -42.56566640	     17.97794070	     95.00790245	     87.29805261	      0.00000000	      0.00000000
      4.08500000	    -10.34959654	      1.22896112	     -8.28257578	     -0.21398252	      1.41907222	     -0.90149313	     14.44142000	     -7.29065465	     -6.52237104	      4.62815704	      0.08077658	    -30.07962634	      0.00000000	      0.00000000	     14.70036561	    -11.30315051	    -21.51885946	      8.46932742	      0.14781765	    -24.50180018	      0.00000000	      0.00000000	     -9.93095008	     -4.15617741	      4.05475429	    -18.70429645	    -37.35464461	     28.70330312	     89.28628933	     87.28519281	      0.00000000	      0.00000000	    -33.73007904	    -42.56108596	     17.84761437	     95.06126961	     87.30459672	      0.00000000	      0.00000000
      4.09000000	    -10.25064507	      1.15541716	     -8.18467425	     -0.21356623	      1.42317156	     -0.90151622	     14.29529417	     -7.32166292	     -6.34696258	      4.75666666	      0.08301949	    -30.14443235	      0.00000000	      0.00000000	     14.50155346	    -11.44161987	    -21.27742227	      8.57984255	      0.14974650	    -24.56106733	      0.00000000	      0.00000000	     -9.98111237	     -4.09444615	      3.84621327	    -18.74558537	    -37.29005644	     28.70635599	     89.21501873	     87.28666593	      0.00000000	      0.00000000	    -33.79569763	    -42.56602172	     17.90181780	     95.03102324	     87.31010662	      0.00000000	      0.00000000
      4.09500000	    -10.11355918	      1.11093539	     -8.10495583	     -0.21322662	      1.42675050	     -0.90152450	     14.12976784	     -7.37403912	     -6.22956416	      4.90480131	      0.08560493	    -30.16207152	      0.00000000	      0.00000000	     14.42054914	    -11.52068160	    -22.10397562	      8.68096819	      0.15151148	    -24.98645867	      0.00000000	      0.00000000	    -10.04855837	     -4.03260755	      3.61253982	    -18.67229214	    -37.31278975	     28.79488333	     89.19696280	     87.30094517	      0.00000000	      0.00000000	    -33.83707201	    -42.58528162	     17.91693230	     95.02592687	     87.30795946	      0.00000000	      0.00000000
      4.10000000	    -10.05714620	      1.15955163	     -7.90288121	     -0.21276779	      1.43012217	     -0.90192787	     14.02196138	     -7.55974486	     -6.05327249	      5.04171097	      0.08799446	    -30.20576971	      0.00000000	      0.00000000	     14.31414563	    -11.48960099	    -21.76924370	      8.88589709	      0.15508816	    -25.11997900	      0.00000000	      0.00000000	    -10.02140985	     -4.05737763	      3.34836390	    -18.79585768	    -37.31404314	     28.84121237	     89.13234851	     87.30332467	      0.00000000	      0.00000000	    -33.82527666	    -42.56351835	     17.97511136	     95.02932940	     87.31250705	      0.00000000	      0.00000000
      4.10500000	     -9.96654734	      1.13894887	     -7.85648835	     -0.21260074	      1.43338831	     -0.90189959	     13.94807235	     -7.61650680	     -5.81980250	      5.27438514	      0.09205539	    -30.19032510	      0.00000000	      0.00000000	     14.22192254	    -11.56933192	    -21.52768387	      9.13887017	      0.15950337	    -25.41652217	      0.00000000	      0.00000000	    -10.07238086	     -4.04186069	      3.18253324	    -18.71472037	    -37.28443697	     28.84841768	     89.11157302	     87.30079219	      0.00000000	      0.00000000	    -33.75867256	    -42.58815785	     18.04746736	     94.95927413	     87.31413555	      0.00000000	      0.00000000
      4.11000000	     -9.81241926	      1.00496492	     -7.79854103	     -0.21216739	      1.43648760	     -0.90189560	     13.76038028	     -7.55729769	     -5.56233447	      5.51597648	      0.09627195	    -30.14463352	      0.00000000	      0.00000000	     14.04717380	    -11.74727153	    -21.44089033	      9.40516181	      0.16415104	    -25.73840143	      0.00000000	      0.00000000	    -10.15219689	     -3.90488823	      3.05585790	    -18.74778060	    -37.29470178	     28.98540307	     89.01814502	     87.30818429	      0.00000000	      0.00000000	    -33.64792813	    -42.53099168	     18.14247482	     94.87139664	     87.31340335	      0.00000000	      0.00000000
      4.11500000	     -9.75798395	      0.97033229	     -7.81995098	     -0.21210399	      1.43910973	     -0.90171251	     13.75622602	     -7.54444429	     -5.11272650	      5.86019463	      0.10227969	    -29.87677138	      0.00000000	      0.00000000	     14.03889450	    -11.88658669	    -21.58379422	      9.77756943	      0.17065078	    -26.14790101	      0.00000000	      0.00000000	    -10.14085931	     -3.87627786	      2.97231573	    -18.60080126	    -37.36975968	     29.18961063	     88.96401276	     87.31128564	      0.00000000	      0.00000000	    -33.44183387	    -42.57976961	     18.30264339	     94.71112319	     87.29852075	      0.00000000	      0.00000000
      4.12000000	     -9.65355774	      0.93764449	     -7.85960032	     -0.21178143	      1.44161470	     -0.90177551	     13.64348175	     -7.55851339	     -4.91218312	      6.04068514	      0.10542984	    -29.84566863	      0.00000000	      0.00000000	     13.88807868	    -11.96694592	    -21.39523281	     10.08300597	      0.17598165	    -26.35926456	      0.00000000	      0.00000000	    -10.17944611	     -3.83933389	      2.92554511	    -18.61890239	    -37.35686607	     29.27414620	     88.91608425	     87.31057605	      0.00000000	      0.00000000	    -33.36109293	    -42.39430690	     18.41981757	     94.69816075	     87.30023102	      0.00000000	      0.00000000
      4.12500000	     -9.55123782	      0.94758166	     -7.92392849	     -0.21186128	      1.44378189	     -0.90165550	     13.62086853	     -7.59460792	     -4.42557341	      6.34765968	      0.11078756	    -29.76696757	      0.00000000	      0.00000000	     13.83016368	    -12.04268985	    -21.16584166	     10.57029867	      0.18448651	    -26.63344181	      0.00000000	      0.00000000	    -10.22235723	     -3.88936681	      2.93437571	    -18.54815763	    -37.39715073	     29.38518677	     88.83840047	     87.30799196	      0.00000000	      0.00000000	    -33.15161689	    -42.44602908	     18.45589281	     94.53066814	     87.28919220	      0.00000000	      0.00000000
      4.13000000	     -9.59854632	      0.87092643	     -7.82606221	     -0.21149688	      1.44548975	     -0.90198461	     13.70210101	     -7.57194036	     -3.99977633	      6.76660740	      0.11809958	    -29.28133155	      0.00000000	      0.00000000	     14.05150647	    -12.22965256	    -21.09988704	     11.36834912	      0.19841512	    -26.49366273	      0.00000000	      0.00000000	    -10.04674089	     -3.71762727	      2.77811421	    -18.46225671	    -37.51630865	     29.68289562	     88.75479564	     87.29190765	      0.00000000	      0.00000000	    -32.80648136	    -42.38351820	     18.87635671	     94.29327006	     87.27395792	      0.00000000	      0.00000000
      4.13500000	     -9.49636466	      0.87737939	     -7.75530305	     -0.21117262	      1.44710703	     -0.90230963	     13.57506639	     -7.64628850	     -3.76912129	      6.93797289	      0.12109047	    -29.37072824	      0.00000000	      0.00000000	     13.95633245	    -12.21931757	    -20.78923558	     11.74004579	      0.20490245	    -26.65839045	      0.00000000	      0.00000000	    -10.06573498	     -3.70989614	      2.65821237	    -18.53446171	    -37.60108490	     29.70264982	     88.67769278	     87.29006998	      0.00000000	      0.00000000	    -32.67123291	    -42.26204229	     18.91473277	     94.25863886	     87.27168798	      0.00000000	      0.00000000
      4.14000000	     -9.45925919	      0.75357705	     -7.51908982	     -0.21054950	      1.44852515	     -0.90279103	     13.41749578	     -7.59901579	     -3.66982701	      7.12464885	      0.12434858	    -29.24974016	      0.00000000	      0.00000000	     14.05124056	    -12.35134991	    -20.21975489	     12.41360046	      0.21665820	    -26.54072513	      0.00000000	      0.00000000	    -10.01479775	     -3.52207947	      2.40118803	    -18.56325412	    -37.62325838	     29.70289594	     88.59753495	     87.28048940	      0.00000000	      0.00000000	    -32.45939914	    -42.15117149	     19.09108543	     93.98480881	     87.26750718	      0.00000000	      0.00000000
      4.14500000	     -9.48930934	      0.77140866	     -7.45666161	     -0.21044976	      1.44936513	     -0.90304077	     13.44426815	     -7.65050715	     -3.43200429	      7.28008183	      0.12706140	    -29.30868008	      0.00000000	      0.00000000	     14.22668105	    -12.39844253	    -19.79620666	     13.15180995	      0.22954239	    -26.29661604	      0.00000000	      0.00000000	     -9.88296849	     -3.49482185	      2.40924557	    -18.82071418	    -37.60903454	     29.45451966	     88.60406702	     87.27382326	      0.00000000	      0.00000000	    -32.06064845	    -42.22272979	     19.48142202	     93.86532200	     87.24622323	      0.00000000	      0.00000000
      4.15000000	     -9.44727882	      0.68766744	     -7.65421376	     -0.21040706	      1.45028149	     -0.90265594	     13.38963032	     -7.50570007	     -2.73651578	      7.35901928	      0.12843912	    -29.34469220	      0.00000000	      0.00000000	     14.20421245	    -12.62223697	    -19.71830116	     13.78800189	      0.24064603	    -26.28929226	      0.00000000	      0.00000000	     -9.84204658	     -3.44699492	      2.58624646	    -18.88609467	    -37.60075888	     29.39792011	     88.51961125	     87.26920555	      0.00000000	      0.00000000	    -31.79546220	    -42.18429552	     19.64477412	     93.75687019	     87.22683307	      0.00000000	      0.00000000
      4.15500000	     -9.44409987	      0.67218853	     -7.35403920	     -0.20988808	      1.45074912	     -0.90329915	     13.27064417	     -7.57970895	     -2.95509168	      7.48242013	      0.13059287	    -29.34060776	      0.00000000	      0.00000000	     14.33212958	    -12.58539850	    -19.00072858	     14.35514250	      0.25054450	    -26.19982512	      0.00000000	      0.00000000	     -9.72544209	     -3.38512513	      2.32331308	    -19.11178251	    -37.57655311	     29.16880466	     88.39942553	     87.25741376	      0.00000000	      0.00000000	    -31.54912536	    -42.15081659	     19.87297247	     93.64762559	     87.22963335	      0.00000000	      0.00000000
      4.16000000	     -9.45008051	      0.68892893	     -7.36536134	     -0.20961189	      1.45100370	     -0.90334784	     13.22670453	     -7.58906668	     -2.53043951	      7.49918422	      0.13088546	    -29.50214118	      0.00000000	      0.00000000	     14.39557545	    -12.62318740	    -18.74271098	     14.92425912	      0.26047746	    -26.23307953	      0.00000000	      0.00000000	     -9.58879778	     -3.38307482	      2.29816887	    -19.17768747	    -37.57625893	     29.06982339	     88.35207268	     87.26234246	      0.00000000	      0.00000000	    -31.32248364	    -42.15558233	     20.12401731	     93.48931308	     87.23717022	      0.00000000	      0.00000000
