Model Marker Errors from IK
version=1
nRows=405
nColumns=4
inDegrees=no
endheader
time	total_squared_error	marker_error_RMS	marker_error_max
      2.31000000	      0.09479019	      0.03942001	      0.12944322
      2.31500000	      0.09488490	      0.03943970	      0.13052306
      2.32000000	      0.09474902	      0.03941145	      0.13004998
      2.32500000	      0.09471034	      0.03940341	      0.12994057
      2.33000000	      0.09473474	      0.03940848	      0.13031377
      2.33500000	      0.09463902	      0.03938857	      0.12983473
      2.34000000	      0.09464478	      0.03938977	      0.12980447
      2.34500000	      0.09454867	      0.03936976	      0.12964737
      2.35000000	      0.09452370	      0.03936456	      0.13005425
      2.35500000	      0.09452584	      0.03936501	      0.12994619
      2.36000000	      0.09449378	      0.03935833	      0.12953531
      2.36500000	      0.09449324	      0.03935822	      0.13001770
      2.37000000	      0.09448394	      0.03935628	      0.12972904
      2.37500000	      0.09444188	      0.03934752	      0.12937637
      2.38000000	      0.09441878	      0.03934271	      0.12980842
      2.38500000	      0.09445487	      0.03935023	      0.12952032
      2.39000000	      0.09442414	      0.03934383	      0.12940324
      2.39500000	      0.09444289	      0.03934773	      0.12966417
      2.40000000	      0.09447520	      0.03935446	      0.12982989
      2.40500000	      0.09452041	      0.03936388	      0.12985336
      2.41000000	      0.09464410	      0.03938963	      0.13003315
      2.41500000	      0.09480229	      0.03942253	      0.13169130
      2.42000000	      0.09476465	      0.03941470	      0.13012247
      2.42500000	      0.09472628	      0.03940672	      0.13057734
      2.43000000	      0.09478464	      0.03941886	      0.13058028
      2.43500000	      0.09477467	      0.03941679	      0.13060351
      2.44000000	      0.09468586	      0.03939832	      0.12991920
      2.44500000	      0.09470495	      0.03940229	      0.13020470
      2.45000000	      0.09475974	      0.03941368	      0.13017641
      2.45500000	      0.09486161	      0.03943486	      0.13056581
      2.46000000	      0.09486969	      0.03943654	      0.13090623
      2.46500000	      0.09494640	      0.03945248	      0.13116989
      2.47000000	      0.09495961	      0.03945523	      0.13059747
      2.47500000	      0.09494180	      0.03945153	      0.13054091
      2.48000000	      0.09497565	      0.03945856	      0.13083145
      2.48500000	      0.09505926	      0.03947592	      0.13074330
      2.49000000	      0.09509061	      0.03948243	      0.13107602
      2.49500000	      0.09529203	      0.03952423	      0.13143864
      2.50000000	      0.09517050	      0.03949901	      0.13104862
      2.50500000	      0.09516428	      0.03949772	      0.13104237
      2.51000000	      0.09520879	      0.03950696	      0.13126172
      2.51500000	      0.09519293	      0.03950367	      0.13148716
      2.52000000	      0.09525949	      0.03951748	      0.13187137
      2.52500000	      0.09529673	      0.03952520	      0.13167391
      2.53000000	      0.09533039	      0.03953218	      0.13204044
      2.53500000	      0.09535604	      0.03953750	      0.13148635
      2.54000000	      0.09544753	      0.03955646	      0.13165525
      2.54500000	      0.09533928	      0.03953402	      0.13132125
      2.55000000	      0.09536720	      0.03953981	      0.13168709
      2.55500000	      0.09542724	      0.03955226	      0.13151913
      2.56000000	      0.09539561	      0.03954570	      0.13177341
      2.56500000	      0.09538545	      0.03954359	      0.13158441
      2.57000000	      0.09546629	      0.03956035	      0.13192695
      2.57500000	      0.09551535	      0.03957051	      0.13214072
      2.58000000	      0.09546556	      0.03956020	      0.13230255
      2.58500000	      0.09533423	      0.03953298	      0.13166020
      2.59000000	      0.09541957	      0.03955067	      0.13213911
      2.59500000	      0.09534670	      0.03953556	      0.13164410
      2.60000000	      0.09535078	      0.03953641	      0.13196214
      2.60500000	      0.09542513	      0.03955182	      0.13184082
      2.61000000	      0.09543991	      0.03955488	      0.13205830
      2.61500000	      0.09553320	      0.03957421	      0.13236703
      2.62000000	      0.09546108	      0.03955927	      0.13176606
      2.62500000	      0.09559462	      0.03958693	      0.13249419
      2.63000000	      0.09556737	      0.03958129	      0.13213703
      2.63500000	      0.09560850	      0.03958980	      0.13194694
      2.64000000	      0.09561170	      0.03959046	      0.13208703
      2.64500000	      0.09565050	      0.03959850	      0.13210470
      2.65000000	      0.09568748	      0.03960615	      0.13245707
      2.65500000	      0.09570963	      0.03961074	      0.13243133
      2.66000000	      0.09591097	      0.03965238	      0.13270257
      2.66500000	      0.09580075	      0.03962959	      0.13231385
      2.67000000	      0.09593440	      0.03965722	      0.13277032
      2.67500000	      0.09595269	      0.03966100	      0.13269321
      2.68000000	      0.09599638	      0.03967003	      0.13298010
      2.68500000	      0.09619195	      0.03971042	      0.13310334
      2.69000000	      0.09611468	      0.03969447	      0.13277526
      2.69500000	      0.09616920	      0.03970572	      0.13299040
      2.70000000	      0.09628825	      0.03973029	      0.13318848
      2.70500000	      0.09629614	      0.03973192	      0.13299144
      2.71000000	      0.09629014	      0.03973068	      0.13299004
      2.71500000	      0.09640533	      0.03975444	      0.13303922
      2.72000000	      0.09639197	      0.03975168	      0.13335667
      2.72500000	      0.09640244	      0.03975384	      0.13404807
      2.73000000	      0.09637050	      0.03974725	      0.13318427
      2.73500000	      0.09642824	      0.03975916	      0.13424028
      2.74000000	      0.09649198	      0.03977230	      0.13355913
      2.74500000	      0.09653488	      0.03978114	      0.13385749
      2.75000000	      0.09640461	      0.03975429	      0.13306980
      2.75500000	      0.09643849	      0.03976127	      0.13332976
      2.76000000	      0.09647028	      0.03976783	      0.13345282
      2.76500000	      0.09645539	      0.03976476	      0.13298152
      2.77000000	      0.09646669	      0.03976709	      0.13329955
      2.77500000	      0.09646335	      0.03976640	      0.13320777
      2.78000000	      0.09650320	      0.03977461	      0.13334138
      2.78500000	      0.09653860	      0.03978191	      0.13350539
      2.79000000	      0.09654061	      0.03978232	      0.13355389
      2.79500000	      0.09645983	      0.03976567	      0.13310409
      2.80000000	      0.09652467	      0.03977903	      0.13313107
      2.80500000	      0.09653119	      0.03978038	      0.13336764
      2.81000000	      0.09652153	      0.03977839	      0.13321679
      2.81500000	      0.09654415	      0.03978305	      0.13332765
      2.82000000	      0.09660696	      0.03979599	      0.13350267
      2.82500000	      0.09664409	      0.03980363	      0.13347783
      2.83000000	      0.09669765	      0.03981466	      0.13346199
      2.83500000	      0.09662106	      0.03979889	      0.13327814
      2.84000000	      0.09665379	      0.03980563	      0.13354139
      2.84500000	      0.09666195	      0.03980731	      0.13355198
      2.85000000	      0.09660476	      0.03979553	      0.13319534
      2.85500000	      0.09667832	      0.03981068	      0.13321979
      2.86000000	      0.09671981	      0.03981923	      0.13390358
      2.86500000	      0.09669443	      0.03981400	      0.13328947
      2.87000000	      0.09675725	      0.03982693	      0.13362890
      2.87500000	      0.09664719	      0.03980427	      0.13310055
      2.88000000	      0.09666545	      0.03980803	      0.13321109
      2.88500000	      0.09670266	      0.03981570	      0.13325489
      2.89000000	      0.09669787	      0.03981471	      0.13328616
      2.89500000	      0.09671146	      0.03981751	      0.13321209
      2.90000000	      0.09680547	      0.03983685	      0.13353182
      2.90500000	      0.09674597	      0.03982461	      0.13331841
      2.91000000	      0.09675286	      0.03982603	      0.13331708
      2.91500000	      0.09675111	      0.03982567	      0.13357200
      2.92000000	      0.09677749	      0.03983110	      0.13344612
      2.92500000	      0.09681907	      0.03983965	      0.13354274
      2.93000000	      0.09675035	      0.03982551	      0.13348661
      2.93500000	      0.09674053	      0.03982349	      0.13358929
      2.94000000	      0.09679159	      0.03983400	      0.13365215
      2.94500000	      0.09670105	      0.03981536	      0.13340858
      2.95000000	      0.09676920	      0.03982939	      0.13361858
      2.95500000	      0.09683812	      0.03984357	      0.13380561
      2.96000000	      0.09676129	      0.03982776	      0.13347764
      2.96500000	      0.09685690	      0.03984743	      0.13414355
      2.97000000	      0.09677201	      0.03982997	      0.13351465
      2.97500000	      0.09685651	      0.03984735	      0.13398996
      2.98000000	      0.09693320	      0.03986313	      0.13396016
      2.98500000	      0.09677428	      0.03983044	      0.13353074
      2.99000000	      0.09683204	      0.03984232	      0.13376997
      2.99500000	      0.09692317	      0.03986106	      0.13455817
      3.00000000	      0.09680519	      0.03983680	      0.13344736
      3.00500000	      0.09686348	      0.03984879	      0.13405037
      3.01000000	      0.09689655	      0.03985559	      0.13407385
      3.01500000	      0.09685798	      0.03984766	      0.13362130
      3.02000000	      0.09693418	      0.03986333	      0.13397618
      3.02500000	      0.09690633	      0.03985760	      0.13367495
      3.03000000	      0.09694417	      0.03986538	      0.13406808
      3.03500000	      0.09700381	      0.03987764	      0.13441867
      3.04000000	      0.09696933	      0.03987056	      0.13385396
      3.04500000	      0.09702058	      0.03988109	      0.13401398
      3.05000000	      0.09705852	      0.03988889	      0.13405979
      3.05500000	      0.09698478	      0.03987373	      0.13379452
      3.06000000	      0.09705810	      0.03988880	      0.13401835
      3.06500000	      0.09708166	      0.03989364	      0.13422710
      3.07000000	      0.09708870	      0.03989509	      0.13417263
      3.07500000	      0.09712283	      0.03990210	      0.13435413
      3.08000000	      0.09714575	      0.03990681	      0.13386040
      3.08500000	      0.09714737	      0.03990714	      0.13439474
      3.09000000	      0.09718654	      0.03991519	      0.13429830
      3.09500000	      0.09718384	      0.03991463	      0.13455299
      3.10000000	      0.09722176	      0.03992242	      0.13422274
      3.10500000	      0.09722098	      0.03992226	      0.13467011
      3.11000000	      0.09711462	      0.03990041	      0.13392593
      3.11500000	      0.09717960	      0.03991376	      0.13419675
      3.12000000	      0.09721648	      0.03992133	      0.13437150
      3.12500000	      0.09723570	      0.03992528	      0.13422066
      3.13000000	      0.09729540	      0.03993753	      0.13489187
      3.13500000	      0.09722179	      0.03992242	      0.13414632
      3.14000000	      0.09727806	      0.03993397	      0.13442411
      3.14500000	      0.09727690	      0.03993374	      0.13412409
      3.15000000	      0.09733355	      0.03994536	      0.13439344
      3.15500000	      0.09728821	      0.03993606	      0.13410870
      3.16000000	      0.09729327	      0.03993710	      0.13425421
      3.16500000	      0.09729644	      0.03993775	      0.13433342
      3.17000000	      0.09730249	      0.03993899	      0.13382886
      3.17500000	      0.09734875	      0.03994848	      0.13424123
      3.18000000	      0.09754695	      0.03998913	      0.13656045
      3.18500000	      0.09735175	      0.03994910	      0.13418307
      3.19000000	      0.09734138	      0.03994697	      0.13422726
      3.19500000	      0.09739397	      0.03995776	      0.13416216
      3.20000000	      0.09746675	      0.03997268	      0.13457892
      3.20500000	      0.09749624	      0.03997873	      0.13440206
      3.21000000	      0.09755057	      0.03998987	      0.13474421
      3.21500000	      0.09758318	      0.03999655	      0.13494771
      3.22000000	      0.09774754	      0.04003022	      0.13646595
      3.22500000	      0.09762671	      0.04000547	      0.13460749
      3.23000000	      0.09760940	      0.04000193	      0.13476287
      3.23500000	      0.09768841	      0.04001811	      0.13447705
      3.24000000	      0.09771730	      0.04002403	      0.13500042
      3.24500000	      0.09778046	      0.04003696	      0.13527089
      3.25000000	      0.09776019	      0.04003281	      0.13446586
      3.25500000	      0.09780699	      0.04004239	      0.13486849
      3.26000000	      0.09777424	      0.04003569	      0.13460114
      3.26500000	      0.09783442	      0.04004801	      0.13491353
      3.27000000	      0.09790070	      0.04006157	      0.13494124
      3.27500000	      0.09797498	      0.04007677	      0.13540213
      3.28000000	      0.09791783	      0.04006508	      0.13475125
      3.28500000	      0.09794168	      0.04006995	      0.13519170
      3.29000000	      0.09800464	      0.04008283	      0.13497566
      3.29500000	      0.09802295	      0.04008658	      0.13498455
      3.30000000	      0.09802229	      0.04008644	      0.13529433
      3.30500000	      0.09805341	      0.04009280	      0.13534839
      3.31000000	      0.09805011	      0.04009213	      0.13497899
      3.31500000	      0.09805072	      0.04009225	      0.13519052
      3.32000000	      0.09806172	      0.04009450	      0.13556455
      3.32500000	      0.09817226	      0.04011709	      0.13533218
      3.33000000	      0.09812564	      0.04010757	      0.13497164
      3.33500000	      0.09816179	      0.04011496	      0.13504717
      3.34000000	      0.09819548	      0.04012184	      0.13502725
      3.34500000	      0.09823886	      0.04013070	      0.13523018
      3.35000000	      0.09824305	      0.04013156	      0.13560108
      3.35500000	      0.09828039	      0.04013918	      0.13564121
      3.36000000	      0.09829191	      0.04014153	      0.13524872
      3.36500000	      0.09840433	      0.04016448	      0.13575614
      3.37000000	      0.09835718	      0.04015486	      0.13485876
      3.37500000	      0.09835357	      0.04015412	      0.13515472
      3.38000000	      0.09841308	      0.04016627	      0.13554373
      3.38500000	      0.09849182	      0.04018234	      0.13532287
      3.39000000	      0.09854264	      0.04019270	      0.13529566
      3.39500000	      0.09834592	      0.04015256	      0.13494763
      3.40000000	      0.09848010	      0.04017994	      0.13529150
      3.40500000	      0.09843694	      0.04017114	      0.13527939
      3.41000000	      0.09846567	      0.04017700	      0.13513737
      3.41500000	      0.09852468	      0.04018904	      0.13552901
      3.42000000	      0.09856844	      0.04019796	      0.13557975
      3.42500000	      0.09857394	      0.04019908	      0.13521054
      3.43000000	      0.09869407	      0.04022357	      0.13571958
      3.43500000	      0.09876496	      0.04023801	      0.13603008
      3.44000000	      0.09878134	      0.04024135	      0.13555565
      3.44500000	      0.09879258	      0.04024364	      0.13586749
      3.45000000	      0.09888952	      0.04026338	      0.13581322
      3.45500000	      0.09892190	      0.04026997	      0.13611598
      3.46000000	      0.09900130	      0.04028613	      0.13642954
      3.46500000	      0.09893616	      0.04027287	      0.13562238
      3.47000000	      0.09911954	      0.04031018	      0.13755652
      3.47500000	      0.09913897	      0.04031413	      0.13628050
      3.48000000	      0.09924635	      0.04033596	      0.13641369
      3.48500000	      0.09917513	      0.04032148	      0.13589404
      3.49000000	      0.09929615	      0.04034607	      0.13625409
      3.49500000	      0.09933575	      0.04035412	      0.13612896
      3.50000000	      0.09945024	      0.04037737	      0.13666732
      3.50500000	      0.09950785	      0.04038906	      0.13700082
      3.51000000	      0.09959504	      0.04040675	      0.13664503
      3.51500000	      0.09981142	      0.04045062	      0.13864260
      3.52000000	      0.09979206	      0.04044670	      0.13685202
      3.52500000	      0.09975660	      0.04043951	      0.13673427
      3.53000000	      0.09983812	      0.04045603	      0.13704490
      3.53500000	      0.09992283	      0.04047319	      0.13714375
      3.54000000	      0.10003058	      0.04049501	      0.13768299
      3.54500000	      0.10002980	      0.04049485	      0.13731287
      3.55000000	      0.10018476	      0.04052620	      0.13771025
      3.55500000	      0.10032601	      0.04055476	      0.13837383
      3.56000000	      0.10036511	      0.04056266	      0.13786672
      3.56500000	      0.10051117	      0.04059217	      0.13797322
      3.57000000	      0.10071609	      0.04063353	      0.13868172
      3.57500000	      0.10099586	      0.04068992	      0.13929376
      3.58000000	      0.10125556	      0.04074220	      0.14142514
      3.58500000	      0.10140914	      0.04077309	      0.13952115
      3.59000000	      0.10121486	      0.04073402	      0.13907749
      3.59500000	      0.10126735	      0.04074458	      0.13975093
      3.60000000	      0.10138197	      0.04076763	      0.14015683
      3.60500000	      0.10153351	      0.04079809	      0.13958639
      3.61000000	      0.10163851	      0.04081918	      0.13984765
      3.61500000	      0.10175377	      0.04084231	      0.14050335
      3.62000000	      0.10194911	      0.04088150	      0.14170146
      3.62500000	      0.10211974	      0.04091570	      0.14070583
      3.63000000	      0.10208064	      0.04090786	      0.14055959
      3.63500000	      0.10225514	      0.04094281	      0.14231187
      3.64000000	      0.10242567	      0.04097694	      0.14132145
      3.64500000	      0.10262663	      0.04101712	      0.14142348
      3.65000000	      0.10266819	      0.04102542	      0.14145113
      3.65500000	      0.10282377	      0.04105649	      0.14287871
      3.66000000	      0.10297519	      0.04108671	      0.14373497
      3.66500000	      0.10306205	      0.04110404	      0.14191433
      3.67000000	      0.10316562	      0.04112468	      0.14226663
      3.67500000	      0.10329130	      0.04114973	      0.14260880
      3.68000000	      0.10351134	      0.04119353	      0.14354610
      3.68500000	      0.10366534	      0.04122416	      0.14400179
      3.69000000	      0.10341616	      0.04117459	      0.14306342
      3.69500000	      0.10343594	      0.04117853	      0.14336462
      3.70000000	      0.10347798	      0.04118689	      0.14486777
      3.70500000	      0.10354075	      0.04119939	      0.14346071
      3.71000000	      0.10334342	      0.04116011	      0.14372915
      3.71500000	      0.10318606	      0.04112876	      0.14384606
      3.72000000	      0.10462376	      0.04141429	      0.14397290
      3.72500000	      0.10555770	      0.04159873	      0.14403998
      3.73000000	      0.10614305	      0.04171391	      0.14428360
      3.73500000	      0.10594740	      0.04167544	      0.14334056
      3.74000000	      0.10453229	      0.04139618	      0.14350706
      3.74500000	      0.10247365	      0.04098653	      0.14349863
      3.75000000	      0.10222056	      0.04093589	      0.14357274
      3.75500000	      0.09967833	      0.04042364	      0.14451982
      3.76000000	      0.09938686	      0.04036450	      0.14433760
      3.76500000	      0.09907386	      0.04030089	      0.14450221
      3.77000000	      0.09917936	      0.04032234	      0.14496970
      3.77500000	      0.09872067	      0.04022899	      0.14471797
      3.78000000	      0.09851556	      0.04018718	      0.14506268
      3.78500000	      0.09842182	      0.04016805	      0.14509772
      3.79000000	      0.09821961	      0.04012677	      0.14371544
      3.79500000	      0.09799519	      0.04008090	      0.14388621
      3.80000000	      0.09787707	      0.04005674	      0.14427587
      3.80500000	      0.09783751	      0.04004864	      0.14449123
      3.81000000	      0.09788848	      0.04005907	      0.14537515
      3.81500000	      0.09769703	      0.04001988	      0.14552784
      3.82000000	      0.09751139	      0.03998184	      0.14558841
      3.82500000	      0.09748326	      0.03997607	      0.14519958
      3.83000000	      0.09748144	      0.03997570	      0.14566515
      3.83500000	      0.09743322	      0.03996581	      0.14581260
      3.84000000	      0.09974988	      0.04043815	      0.14501213
      3.84500000	      0.09964892	      0.04041768	      0.14524536
      3.85000000	      0.09973921	      0.04043599	      0.14550565
      3.85500000	      0.09957872	      0.04040344	      0.14599340
      3.86000000	      0.09961857	      0.04041152	      0.14615001
      3.86500000	      0.09955142	      0.04039790	      0.14648875
      3.87000000	      0.09953095	      0.04039375	      0.14672300
      3.87500000	      0.09949382	      0.04038621	      0.14682335
      3.88000000	      0.09906068	      0.04029821	      0.14741106
      3.88500000	      0.09885430	      0.04025621	      0.14770727
      3.89000000	      0.09912323	      0.04031093	      0.14755672
      3.89500000	      0.09889505	      0.04026450	      0.14779650
      3.90000000	      0.09854775	      0.04019374	      0.14809942
      3.90500000	      0.09877778	      0.04024063	      0.14795028
      3.91000000	      0.09877576	      0.04024021	      0.14787136
      3.91500000	      0.09818605	      0.04011991	      0.14816215
      3.92000000	      0.09806174	      0.04009451	      0.14804565
      3.92500000	      0.09795297	      0.04007226	      0.14847725
      3.93000000	      0.09786786	      0.04005485	      0.14794381
      3.93500000	      0.09744002	      0.03996720	      0.14828686
      3.94000000	      0.09701961	      0.03988089	      0.14805384
      3.94500000	      0.09676303	      0.03982812	      0.14718889
      3.95000000	      0.09640504	      0.03975438	      0.14776937
      3.95500000	      0.09610582	      0.03969263	      0.14715717
      3.96000000	      0.09597507	      0.03966563	      0.14735207
      3.96500000	      0.09561948	      0.03959208	      0.14711241
      3.97000000	      0.09557332	      0.03958252	      0.14645138
      3.97500000	      0.09502201	      0.03946819	      0.14675094
      3.98000000	      0.09458293	      0.03937690	      0.14544713
      3.98500000	      0.09382277	      0.03921834	      0.14513165
      3.99000000	      0.09362869	      0.03917776	      0.14611598
      3.99500000	      0.09314735	      0.03907692	      0.14549722
      4.00000000	      0.09242133	      0.03892433	      0.14480666
      4.00500000	      0.09167269	      0.03876636	      0.14394368
      4.01000000	      0.09098381	      0.03862043	      0.14238451
      4.01500000	      0.09032325	      0.03847998	      0.14216517
      4.02000000	      0.08950345	      0.03830496	      0.14139861
      4.02500000	      0.08899115	      0.03819517	      0.13928673
      4.03000000	      0.08850294	      0.03809026	      0.13816690
      4.03500000	      0.08765620	      0.03790761	      0.13920661
      4.04000000	      0.08724033	      0.03781758	      0.13807300
      4.04500000	      0.08657859	      0.03767388	      0.13705674
      4.05000000	      0.08598406	      0.03754430	      0.13562573
      4.05500000	      0.08530150	      0.03739499	      0.13357302
      4.06000000	      0.08503409	      0.03733633	      0.13230945
      4.06500000	      0.08494192	      0.03731609	      0.13051222
      4.07000000	      0.08488880	      0.03730442	      0.12853588
      4.07500000	      0.08481157	      0.03728745	      0.12788025
      4.08000000	      0.08466074	      0.03725427	      0.12510731
      4.08500000	      0.08469140	      0.03726102	      0.12269212
      4.09000000	      0.08501571	      0.03733229	      0.11927480
      4.09500000	      0.08647361	      0.03765103	      0.11529974
      4.10000000	      0.08878676	      0.03815129	      0.11148801
      4.10500000	      0.09010830	      0.03843417	      0.10823054
      4.11000000	      0.08896902	      0.03819042	      0.10341923
      4.11500000	      0.08764843	      0.03790593	      0.10226515
      4.12000000	      0.08506312	      0.03734270	      0.09997986
      4.12500000	      0.08209015	      0.03668433	      0.09806004
      4.13000000	      0.07963154	      0.03613081	      0.09647115
      4.13500000	      0.07812216	      0.03578674	      0.09495239
      4.14000000	      0.07755019	      0.03565550	      0.09370679
      4.14500000	      0.07680490	      0.03548375	      0.09024684
      4.15000000	      0.07691543	      0.03550928	      0.08989789
      4.15500000	      0.07649899	      0.03541302	      0.08835753
      4.16000000	      0.07585212	      0.03526297	      0.08680183
      4.16500000	      0.07541859	      0.03516206	      0.08535668
      4.17000000	      0.07486710	      0.03503326	      0.08435597
      4.17500000	      0.07437394	      0.03491769	      0.08332876
      4.18000000	      0.07367596	      0.03475345	      0.08306996
      4.18500000	      0.07285421	      0.03455910	      0.08239308
      4.19000000	      0.07157886	      0.03425528	      0.08210296
      4.19500000	      0.07045232	      0.03398464	      0.08183459
      4.20000000	      0.06914322	      0.03366742	      0.08178313
      4.20500000	      0.06800655	      0.03338954	      0.08194820
      4.21000000	      0.06657746	      0.03303685	      0.08030536
      4.21500000	      0.06611949	      0.03292303	      0.08221098
      4.22000000	      0.06513545	      0.03267712	      0.08154077
      4.22500000	      0.06459316	      0.03254081	      0.08126792
      4.23000000	      0.06420847	      0.03244377	      0.08095139
      4.23500000	      0.06410470	      0.03241754	      0.08086465
      4.24000000	      0.06407034	      0.03240885	      0.08080516
      4.24500000	      0.06404895	      0.03240344	      0.08048409
      4.25000000	      0.06428479	      0.03246304	      0.08035893
      4.25500000	      0.06424522	      0.03245305	      0.07897082
      4.26000000	      0.06487425	      0.03261154	      0.08036743
      4.26500000	      0.06517769	      0.03268772	      0.08026164
      4.27000000	      0.06547793	      0.03276292	      0.07990462
      4.27500000	      0.06578891	      0.03284063	      0.08026318
      4.28000000	      0.06599331	      0.03289160	      0.08004787
      4.28500000	      0.06618438	      0.03293918	      0.07985191
      4.29000000	      0.06635382	      0.03298132	      0.08010161
      4.29500000	      0.06652725	      0.03302439	      0.08052905
      4.30000000	      0.06654040	      0.03302766	      0.08057813
      4.30500000	      0.06652523	      0.03302389	      0.08001871
      4.31000000	      0.06651295	      0.03302084	      0.07990600
      4.31500000	      0.06635244	      0.03298098	      0.07916692
      4.32000000	      0.06628659	      0.03296461	      0.07892039
      4.32500000	      0.06620360	      0.03294397	      0.07861712
      4.33000000	      0.06588416	      0.03286439	      0.07711945
