Inverse Dynamics Generalized Forces
version=1
nRows=21
nColumns=40
inDegrees=no
endheader
time	pelvis_tilt_moment	pelvis_list_moment	pelvis_rotation_moment	pelvis_tx_force	pelvis_ty_force	pelvis_tz_force	hip_flexion_r_moment	hip_adduction_r_moment	hip_rotation_r_moment	hip_flexion_l_moment	hip_adduction_l_moment	hip_rotation_l_moment	lumbar_extension_moment	lumbar_bending_moment	lumbar_rotation_moment	knee_angle_r_moment	knee_angle_r_beta_force	knee_angle_l_moment	knee_angle_l_beta_force	arm_flex_r_moment	arm_add_r_moment	arm_rot_r_moment	arm_flex_l_moment	arm_add_l_moment	arm_rot_l_moment	ankle_angle_r_moment	ankle_angle_l_moment	elbow_flex_r_moment	elbow_flex_l_moment	subtalar_angle_r_moment	subtalar_angle_l_moment	pro_sup_r_moment	pro_sup_l_moment	mtp_angle_r_moment	mtp_angle_l_moment	wrist_flex_r_moment	wrist_dev_r_moment	wrist_flex_l_moment	wrist_dev_l_moment
      2.75000000	    153.43742728	     31.51961460	      2.91911946	    105.83656793	    935.61619825	     64.67906943	     28.41967994	     -1.78690056	      1.61005580	     22.59555418	      1.69372766	      0.23875754	    147.41751806	     33.30408870	      2.41523087	      4.20184218	     -0.01639974	      5.28933573	     -0.01263740	     -9.45118497	     -1.06789965	      1.87949199	     -8.64774443	      2.13578017	      0.72188217	      0.78315073	      0.65109348	      0.17933685	     -0.96806246	     -0.25553086	     -0.14673144	      0.07126317	      0.03132061	     -0.02409781	     -0.02521797	      0.14818122	      0.12512704	     -0.01029777	      0.09783553
      2.75500000	    117.80281151	     30.29100629	     -0.47026916	    130.66931612	    866.23671566	     72.78600088	     28.46677220	     -1.34324235	      1.91451822	     22.27559592	      0.84444658	     -0.06130799	    113.40264489	     33.18954031	      1.23654503	      4.25833522	     -0.01660289	      5.36127622	     -0.01227265	     -9.14743917	     -1.38532631	      1.90486915	     -8.40356045	      1.42469634	      0.71670613	      0.76669299	      0.63901753	      0.05905577	     -1.02317026	     -0.26405031	     -0.12957868	      0.06632966	      0.03173577	     -0.02203512	     -0.02519223	      0.13298643	      0.14988064	     -0.02115394	      0.12399610
      2.76000000	     84.01935672	     27.55199470	     -3.02513352	    144.21012200	    788.78625590	     75.03023073	     28.44082399	     -0.94973679	      2.12962086	     22.03957167	     -0.17168589	     -0.30593861	     80.20865089	     31.49902906	      0.25501110	      4.33183564	     -0.01685918	      5.44602326	     -0.01214011	     -8.68314977	     -1.60366069	      1.90187910	     -8.03024894	      0.84156903	      0.73595042	      0.75901561	      0.63916645	     -0.06427398	     -1.08976926	     -0.26877160	     -0.11672840	      0.06093400	      0.03238836	     -0.02091376	     -0.02579045	      0.11559285	      0.17129592	     -0.03176580	      0.15070691
      2.76500000	     52.76520980	     23.60594703	     -4.90125302	    146.88912480	    705.35193831	     72.35730929	     28.32234518	     -0.65625965	      2.26873047	     21.88513686	     -1.28786255	     -0.50192195	     48.53873440	     28.51896992	     -0.52797657	      4.41875559	     -0.01713711	      5.53531628	     -0.01222855	     -8.08731777	     -1.72362131	      1.87541025	     -7.54985683	      0.39359932	      0.77825251	      0.75908976	      0.65026116	     -0.19124430	     -1.16704847	     -0.27060464	     -0.10764456	      0.05529224	      0.03327851	     -0.02064911	     -0.02693396	      0.09645349	      0.18952178	     -0.04207877	      0.17750799
      2.77000000	     24.58221306	     18.83412291	     -6.26372665	    139.57494223	    618.16587909	     65.90491624	     28.09820982	     -0.49799576	      2.34562925	     21.80448010	     -2.44110706	     -0.65628154	     19.00650910	     24.60698957	     -1.12464537	      4.51387791	     -0.01740676	      5.61955647	     -0.01251497	     -7.39362439	     -1.74982667	      1.83129173	     -6.98643430	      0.07899693	      0.84001264	      0.76552042	      0.67050927	     -0.32246716	     -1.25269907	     -0.27039085	     -0.10172942	      0.04961853	      0.03436589	     -0.02111935	     -0.02851492	      0.07607884	      0.20484841	     -0.05203215	      0.20377631
      2.77500000	     -0.11025636	     13.64970108	     -7.26096766	    123.55118141	    529.65159615	     56.86872592	     27.76501405	     -0.49207384	      2.37290188	     21.78657679	     -3.57587251	     -0.77513501	     -7.85023388	     20.14861850	     -1.55726459	      4.61115682	     -0.01764348	      5.68886097	     -0.01296717	     -6.63884747	     -1.69059804	      1.77569724	     -6.36545131	     -0.11166692	      0.91586763	      0.77672394	      0.69778856	     -0.45782279	     -1.34306247	     -0.26882134	     -0.09840893	      0.04411733	      0.03557751	     -0.02217867	     -0.03040683	      0.05505270	      0.21761588	     -0.06152761	      0.22875255
      2.78000000	    -20.99363803	      8.45731940	     -8.00519762	    100.47797205	    442.48579834	     46.39133509	     27.33123303	     -0.63628732	      2.36086632	     21.81906404	     -4.64584045	     -0.86294202	    -31.55082537	     15.51961016	     -1.85210090	      4.70470004	     -0.01783017	      5.73450096	     -0.01354620	     -5.86131557	     -1.55771462	      1.71459698	     -5.71402677	     -0.19354210	      0.99933744	      0.79108549	      0.72979965	     -0.59578212	     -1.43351676	     -0.26639104	     -0.09719008	      0.03897867	      0.03681862	     -0.02366949	     -0.03247412	      0.03404959	      0.22812875	     -0.07041350	      0.25159555
      2.78500000	    -37.83255457	      3.62079142	     -8.56023696	     72.33111117	    359.62199890	     35.48275850	     26.81777065	     -0.90968388	      2.31716338	     21.88970553	     -5.61442776	     -0.92226394	    -51.66071617	     11.05589270	     -2.03174063	      4.78955461	     -0.01795839	      5.75040254	     -0.01420872	     -5.09914821	     -1.36625037	      1.65321148	     -5.06161207	     -0.18508669	      1.08368838	      0.80708266	      0.76419258	     -0.73297903	     -1.51908602	     -0.26338886	     -0.09768606	      0.03437257	      0.03798899	     -0.02543334	     -0.03458061	      0.01383481	      0.23658709	     -0.07848468	      0.27147549
      2.79000000	    -50.45293658	     -0.56294555	     -8.93662790	     41.33329414	    284.30112258	     24.97297256	     26.25722447	     -1.27539980	      2.24719451	     21.98806667	     -6.45397679	     -0.95395205	    -67.77819152	      7.02972967	     -2.10903110	      4.86183354	     -0.01802810	      5.73415638	     -0.01490944	     -4.38897909	     -1.13447815	      1.59555542	     -4.44061724	     -0.10554249	      1.16281038	      0.82336990	      0.79868115	     -0.86400955	     -1.59501512	     -0.25993675	     -0.09961830	      0.03044459	      0.03900099	     -0.02731908	     -0.03659670	     -0.00474853	      0.24303454	     -0.08548149	      0.28766678
      2.79500000	    -58.71659930	     -3.88258055	     -9.09623954	      9.87893007	    220.04094795	     15.49043220	     25.69206657	     -1.68550452	      2.15514495	     22.10735983	     -7.14402671	     -0.95758855	    -79.51869868	      3.63421764	     -2.08597619	      4.91836283	     -0.01804640	      5.68724484	     -0.01560384	     -3.76554172	     -0.88337026	      1.54428550	     -3.88611740	      0.02685233	      1.23172800	      0.83882616	      0.83114999	     -0.98152418	     -1.65703856	     -0.25606583	     -0.10280449	      0.02731581	      0.03979063	     -0.02918808	     -0.03840578	     -0.02080169	      0.24734080	     -0.09108363	      0.29958825
      2.80000000	    -62.49436167	     -6.22015832	     -8.96429994	    -19.54954832	    170.59642657	      7.46084646	     25.17202969	     -2.08670716	      2.04498592	     22.24622453	     -7.66903614	     -0.93200510	    -86.49869333	      0.97839604	     -1.95661412	      4.95638298	     -0.01802566	      5.61444880	     -0.01625082	     -3.26186185	     -0.63553825	      1.50086488	     -3.43468666	      0.19582398	      1.28670346	      0.85257252	      0.85974934	     -1.07661722	     -1.70135619	     -0.25179448	     -0.10714053	      0.02508738	      0.04031981	     -0.03091698	     -0.03990911	     -0.03340066	      0.24922011	     -0.09490344	      0.30678838
      2.80500000	    -61.64971807	     -7.54716807	     -8.44470932	    -44.46648072	    139.86669522	      1.12351263	     24.75111924	     -2.42587912	      1.92112227	     22.41043171	     -8.01599347	     -0.87586289	    -88.33086663	     -0.90822583	     -1.71057868	      4.97339913	     -0.01798155	      5.52248480	     -0.01681542	     -2.90933702	     -0.41394494	      1.46586174	     -3.12292666	      0.38764873	      1.32521551	      0.86396635	      0.88297817	     -1.13947298	     -1.72454996	     -0.24718352	     -0.11257824	      0.02384472	      0.04057597	     -0.03239881	     -0.04102920	     -0.04164028	      0.24827731	     -0.09648625	      0.30892295
      2.81000000	    -56.03633117	     -7.91397145	     -7.43484201	    -62.46463279	    131.74834460	     -3.44289789	     24.48469166	     -2.65471934	      1.78869794	     22.61451481	     -8.17232263	     -0.78833752	    -84.63374578	     -2.06646018	     -1.33597322	      4.96689380	     -0.01793127	      5.41810849	     -0.01727142	     -2.73741092	     -0.24063610	      1.43924844	     -2.98595221	      0.59167370	      1.34598820	      0.87257909	      0.89975767	     -1.16016880	     -1.72355686	     -0.24236565	     -0.11909635	      0.02365898	      0.04057326	     -0.03354295	     -0.04171196	     -0.04469202	      0.24406886	     -0.09531768	      0.30574985
      2.81500000	    -45.50462925	     -7.43692874	     -5.83844260	    -71.30590921	    149.94491420	     -6.29350700	     24.42667823	     -2.73322981	      1.65360961	     22.88281478	     -8.12461443	     -0.66980674	    -75.05096170	     -2.59653604	     -0.82241295	      4.93386095	     -0.01789216	      5.30610814	     -0.01760351	     -2.77291429	     -0.13543950	      1.42067838	     -3.05559272	      0.80073888	      1.34902025	      0.87816373	      0.90948991	     -1.12957747	     -1.69562423	     -0.23755069	     -0.12666862	      0.02458590	      0.04035410	     -0.03427434	     -0.04192811	     -0.04187211	      0.23617072	     -0.09083197	      0.29712844
      2.82000000	    -29.92028316	     -6.28324047	     -3.57736511	    -69.02904396	    197.72672478	     -7.59009619	     24.62668819	     -2.63202449	      1.52225563	     23.24912785	     -7.85872536	     -0.52230257	    -59.28227620	     -2.64464148	     -0.16472854	      4.87039293	     -0.01788067	      5.18765755	     -0.01780860	     -3.03897082	     -0.11460132	      1.40972212	     -3.35805926	      1.01130667	      1.33553369	      0.88061330	      0.91209400	     -1.04036538	     -1.63817104	     -0.23300724	     -0.13524257	      0.02666083	      0.03998919	     -0.03453293	     -0.04167391	     -0.03272110	      0.22425115	     -0.08241970	      0.28301227
      2.82500000	     -9.20108839	     -4.65294170	     -0.60219710	    -54.07929590	    277.62231601	     -7.57140737	     25.12654509	     -2.33383060	      1.40111708	     23.75415311	     -7.36165588	     -0.34964128	    -37.13233321	     -2.38606612	      0.63365288	      4.77167203	     -0.01791131	      5.05959280	     -0.01789564	     -3.55300401	     -0.18941276	      1.40596579	     -3.91094746	      1.22322610	      1.30781441	      0.87992256	      0.90801155	     -0.88805472	     -1.54854129	     -0.22903020	     -0.14473189	      0.02988713	      0.03957420	     -0.03427409	     -0.04097169	     -0.01709650	      0.20814081	     -0.06943755	      0.26343333
      2.83000000	     16.62952102	     -2.75873910	      3.09952821	    -25.45730464	    391.05995760	     -6.52104481	     25.95625511	     -1.83445848	      1.29633201	     24.44024340	     -6.62516701	     -0.15730916	     -8.57406122	     -2.00548316	      1.55908575	      4.63269003	     -0.01799564	      4.91521026	     -0.01788365	     -4.32372152	     -0.36498896	      1.40890126	     -4.71987273	      1.43910980	      1.26891886	      0.87617538	      0.89816270	     -0.67198395	     -1.42370707	     -0.22591190	     -0.15501144	      0.03421811	      0.03922145	     -0.03347176	     -0.03986992	      0.00473612	      0.18788534	     -0.05122659	      0.23847764
      2.83500000	     47.36272442	     -0.80426247	      7.49615247	     17.10208892	    537.93385229	     -4.73599529	     27.12910747	     -1.14362111	      1.21340503	     25.34278912	     -5.65129025	      0.04783377	     26.16406078	     -1.67423661	      2.58859946	      4.44998755	     -0.01814119	      4.74702367	     -0.01779749	     -5.34731849	     -0.63950585	      1.41772573	     -5.77554449	      1.66295714	      1.22226932	      0.86956988	      0.88382338	     -0.39591292	     -1.26047853	     -0.22392735	     -0.16590134	      0.03953971	      0.03904482	     -0.03212526	     -0.03844183	      0.03205699	      0.16377948	     -0.02719759	      0.20830236
      2.84000000	     82.51259193	      1.03827788	     12.50745464	     72.95159448	    716.18770554	     -2.49807379	     28.63665882	     -0.28550846	      1.15715253	     26.47920226	     -4.45884026	      0.25807492	     66.50391624	     -1.52620993	      3.69445430	      4.22438492	     -0.01835039	      4.55115003	     -0.01766194	     -6.60427126	     -1.00452394	      1.43123832	     -7.05327049	      1.89800379	      1.17127056	      0.86046866	      0.86640320	     -0.06781194	     -1.05681768	     -0.22333740	     -0.17713914	      0.04566736	      0.03914080	     -0.03026827	     -0.03677992	      0.06375861	      0.13636991	      0.00297091	      0.17324882
      2.84500000	    121.19553094	      2.64651275	     17.99812961	    140.27926374	    921.25052542	     -0.05065673	     30.44178982	      0.69947536	      1.13191003	     27.83527471	     -3.09148215	      0.46535246	    111.39173948	     -1.63568397	      4.84935070	      3.96487331	     -0.01861910	      4.33300550	     -0.01749467	     -8.05525503	     -1.44556664	      1.44768479	     -8.51239764	      2.14408828	      1.11896123	      0.84948284	      0.84718554	      0.30057564	     -0.81387492	     -0.22441095	     -0.18833746	      0.05234427	      0.03956676	     -0.02798174	     -0.03499022	      0.09844908	      0.10644837	      0.03905083	      0.13402729
      2.85000000	    162.06275333	      3.95597105	     23.77581660	    215.95911433	   1145.75599538	      2.41950964	     32.47438606	      1.75367029	      1.14215434	     29.35440228	     -1.62281476	      0.66169434	    159.23388336	     -2.00522845	      6.02915965	      3.69230181	     -0.01893556	      4.11274930	     -0.01729976	     -9.63854682	     -1.94295900	      1.46437842	    -10.09565046	      2.39554824	      1.06750537	      0.83755647	      0.82710101	      0.69436899	     -0.53679293	     -0.22747649	     -0.19895187	      0.05923432	      0.04032133	     -0.02540372	     -0.03318835	      0.13453444	      0.07499959	      0.08012209	      0.09176975
