Coordinates
version=1
nRows=140
nColumns=40
inDegrees=yes

Units are S.I. units (second, meters, Newtons, ...)
If the header above contains a line with 'inDegrees', this indicates whether rotational values are in degrees (yes) or radians (no).

endheader
time	pelvis_tilt	pelvis_list	pelvis_rotation	pelvis_tx	pelvis_ty	pelvis_tz	hip_flexion_r	hip_adduction_r	hip_rotation_r	knee_angle_r	knee_angle_r_beta	ankle_angle_r	subtalar_angle_r	mtp_angle_r	hip_flexion_l	hip_adduction_l	hip_rotation_l	knee_angle_l	knee_angle_l_beta	ankle_angle_l	subtalar_angle_l	mtp_angle_l	lumbar_extension	lumbar_bending	lumbar_rotation	arm_flex_r	arm_add_r	arm_rot_r	elbow_flex_r	pro_sup_r	wrist_flex_r	wrist_dev_r	arm_flex_l	arm_add_l	arm_rot_l	elbow_flex_l	pro_sup_l	wrist_flex_l	wrist_dev_l
      2.66000000	    -41.05837759	     -1.16249457	     -3.26688984	     -0.44466809	      0.50476561	     -0.92672094	    117.30593801	    -21.50342664	      0.10604147	    109.68527680	      1.91436922	     34.77066816	      0.00000000	      0.00000000	    119.37784001	    -24.40648033	      7.10289035	    112.29378452	      1.95989627	     36.30086909	      0.00000000	      0.00000000	    -26.02913850	     -0.21458050	     -6.22114583	      0.35876445	    -51.44760917	     65.92853720	     96.68474934	     87.57305552	      0.00000000	      0.00000000	    -33.15953085	    -42.05709898	     30.38888327	     94.37236502	     87.57275009	      0.00000000	      0.00000000
      2.66500000	    -41.08597588	     -1.28149510	     -3.22694055	     -0.44437263	      0.50477718	     -0.92666317	    117.27349672	    -21.61654202	     -0.02601627	    109.76106813	      1.91569203	     34.74715955	      0.00000000	      0.00000000	    119.41715628	    -24.32378281	      7.23315183	    112.27744740	      1.95961113	     36.29695940	      0.00000000	      0.00000000	    -26.00668469	     -0.08590847	     -5.57494794	     -1.14425173	    -51.44380437	     64.36332348	     96.72131525	     87.33393785	      0.00000000	      0.00000000	    -31.80266627	    -42.66549674	     32.05631894	     94.16657070	     87.31376130	      0.00000000	      0.00000000
      2.67000000	    -41.14442379	     -1.16436062	     -3.19298453	     -0.44432347	      0.50462170	     -0.92679783	    117.42462592	    -21.58672407	      0.17044021	    109.79232049	      1.91623749	     34.71277015	      0.00000000	      0.00000000	    119.40071519	    -24.32909733	      7.08006228	    112.29351481	      1.95989156	     36.38822706	      0.00000000	      0.00000000	    -25.98728287	     -0.20105721	     -5.32084881	     -2.22639548	    -51.40939961	     63.10459876	     96.89932448	     87.59039897	      0.00000000	      0.00000000	    -31.36119896	    -42.90945812	     32.48099765	     94.22294733	     87.55791839	      0.00000000	      0.00000000
      2.67500000	    -41.08547147	     -1.16480260	     -3.32386844	     -0.44375283	      0.50472366	     -0.92641523	    117.28732110	    -21.42566143	      0.12145141	    109.84255794	      1.91711429	     34.80245389	      0.00000000	      0.00000000	    119.35813189	    -24.51293249	      7.17711600	    112.36505969	      1.96114026	     36.37258794	      0.00000000	      0.00000000	    -26.01867194	     -0.31733306	     -5.77309307	     -0.60641081	    -51.32829470	     64.93163829	     96.64565950	     87.58012304	      0.00000000	      0.00000000	    -32.41597826	    -42.52993031	     31.31437962	     94.28728682	     87.59328535	      0.00000000	      0.00000000
      2.68000000	    -41.15879168	     -1.16680101	     -3.37608106	     -0.44346430	      0.50476354	     -0.92616134	    117.30340033	    -21.37160888	      0.06346034	    109.84437703	      1.91714604	     34.92478042	      0.00000000	      0.00000000	    119.38508000	    -24.59234539	      7.18620456	    112.34714593	      1.96082760	     36.46941659	      0.00000000	      0.00000000	    -25.89125092	     -0.37575987	     -5.09954257	     -1.98745343	    -51.29032958	     63.46037451	     96.72017377	     87.32276045	      0.00000000	      0.00000000	    -31.02612530	    -43.27818195	     33.11039527	     94.12783595	     87.32934902	      0.00000000	      0.00000000
      2.68500000	    -41.06783274	     -1.10217198	     -3.69655392	     -0.44294948	      0.50497717	     -0.92550069	    117.13658837	    -20.98804247	     -0.02402917	    109.83864439	      1.91704599	     34.87576003	      0.00000000	      0.00000000	    119.34362980	    -25.00634879	      7.31677596	    112.45113767	      1.96264260	     36.42459370	      0.00000000	      0.00000000	    -25.97507296	     -0.62850696	     -4.48175975	     -3.01624502	    -51.18571787	     62.28521938	     96.79852564	     87.56890565	      0.00000000	      0.00000000	    -30.49479463	    -43.55525998	     33.60147581	     94.16550861	     87.54437452	      0.00000000	      0.00000000
      2.69000000	    -41.10501985	     -1.13940979	     -3.36957069	     -0.44240180	      0.50518505	     -0.92613864	    117.14217839	    -21.36151013	      0.08611540	    109.87714743	      1.91771800	     34.98030215	      0.00000000	      0.00000000	    119.24399521	    -24.68006500	      7.11547743	    112.44127974	      1.96247055	     36.47319401	      0.00000000	      0.00000000	    -25.90949347	     -0.45497948	     -4.49829635	     -3.66286372	    -51.09941788	     61.57921365	     96.70408223	     87.56042583	      0.00000000	      0.00000000	    -29.84930151	    -43.68769734	     34.27145833	     93.88510296	     87.52470304	      0.00000000	      0.00000000
      2.69500000	    -41.21212149	     -1.10489417	     -3.19274344	     -0.44232817	      0.50521368	     -0.92639578	    117.27047087	    -21.47902346	      0.25912436	    109.88991446	      1.91794082	     35.02943845	      0.00000000	      0.00000000	    119.23815884	    -24.45017953	      7.02831461	    112.35969248	      1.96104658	     36.45589574	      0.00000000	      0.00000000	    -25.71960146	     -0.42924516	     -5.64977287	     -0.96440795	    -51.21640976	     64.56066684	     96.61185140	     87.60202161	      0.00000000	      0.00000000	    -31.70055403	    -42.86152978	     32.13260540	     93.99847032	     87.59637721	      0.00000000	      0.00000000
      2.70000000	    -41.15462988	     -1.10071197	     -3.37039644	     -0.44157917	      0.50566199	     -0.92588447	    117.06481374	    -21.23739091	      0.17656179	    109.87924970	      1.91775469	     35.16062199	      0.00000000	      0.00000000	    119.15396944	    -24.69490152	      7.11083904	    112.39318269	      1.96163109	     36.52297839	      0.00000000	      0.00000000	    -25.73467322	     -0.54366024	     -5.05396889	     -2.07268610	    -51.07731106	     63.36465067	     96.55745153	     87.58940918	      0.00000000	      0.00000000	    -30.72367404	    -43.31847919	     33.26273476	     93.83076264	     87.58706822	      0.00000000	      0.00000000
      2.70500000	    -41.07848681	     -1.04684124	     -3.84091829	     -0.44084181	      0.50620360	     -0.92465426	    116.81575615	    -20.64105367	      0.00865468	    109.82588384	      1.91682328	     35.14437985	      0.00000000	      0.00000000	    119.11416151	    -25.27866187	      7.36551132	    112.47061115	      1.96298248	     36.39373222	      0.00000000	      0.00000000	    -25.74245137	     -0.86917057	     -4.67136760	     -2.04939206	    -50.89564059	     63.35840308	     96.39443525	     87.54734577	      0.00000000	      0.00000000	    -30.64618034	    -43.33582832	     33.32932075	     93.72017034	     87.56200443	      0.00000000	      0.00000000
      2.71000000	    -41.03452776	     -1.05894833	     -4.12910600	     -0.44009163	      0.50678756	     -0.92382338	    116.55357412	    -20.24470769	     -0.13663939	    109.74543722	      1.91541922	     35.45079080	      0.00000000	      0.00000000	    119.01848342	    -25.61857699	      7.53645461	    112.46941000	      1.96296151	     36.76873315	      0.00000000	      0.00000000	    -25.66547770	     -1.03056923	     -4.32156073	     -2.06145198	    -50.70516201	     63.38637697	     96.18279243	     87.42278582	      0.00000000	      0.00000000	    -30.16124066	    -43.53697668	     34.01307799	     93.56044003	     87.43823704	      0.00000000	      0.00000000
      2.71500000	    -40.77260740	     -0.97283807	     -4.63823883	     -0.43879168	      0.50771166	     -0.92258269	    116.10321536	    -19.61297431	     -0.27404786	    109.71315832	      1.91485585	     35.32881353	      0.00000000	      0.00000000	    118.77640194	    -26.33209177	      7.70698670	    112.59959447	      1.96523366	     36.57323521	      0.00000000	      0.00000000	    -25.83060446	     -1.42557649	     -3.96640391	     -1.94117559	    -50.53433000	     63.49858560	     96.01648302	     87.52645581	      0.00000000	      0.00000000	    -30.27902549	    -43.50003697	     33.74824716	     93.49144476	     87.53724344	      0.00000000	      0.00000000
      2.72000000	    -41.41966922	     -1.07074422	     -3.11357985	     -0.43998183	      0.50731976	     -0.92575782	    116.99636370	    -21.18581019	      0.45520666	    109.69372818	      1.91451673	     35.30563347	      0.00000000	      0.00000000	    118.96355348	    -24.35312340	      7.03729962	    112.14082948	      1.95722670	     36.54394972	      0.00000000	      0.00000000	    -25.10069159	     -0.51803443	     -5.37194017	     -1.92129135	    -50.85447233	     63.43766667	     96.39162643	     87.62793546	      0.00000000	      0.00000000	    -30.27379725	    -43.46891347	     33.87430425	     93.63604926	     87.65097308	      0.00000000	      0.00000000
      2.72500000	    -41.00566257	     -1.12269399	     -3.54997126	     -0.43805654	      0.50871126	     -0.92461826	    116.24879740	    -20.70775973	      0.17032263	    109.70460241	      1.91470652	     35.38948091	      0.00000000	      0.00000000	    118.51333097	    -24.96614041	      7.27401876	    112.27706330	      1.95960443	     36.56746560	      0.00000000	      0.00000000	    -25.37192880	     -0.75309611	     -5.00565259	     -1.70405716	    -50.60205504	     63.61654429	     95.97948204	     87.60944383	      0.00000000	      0.00000000	    -30.27949591	    -43.25528231	     33.72639348	     93.36480193	     87.62237860	      0.00000000	      0.00000000
      2.73000000	    -40.95803301	     -1.08872149	     -3.26337663	     -0.43713409	      0.50960462	     -0.92521298	    116.09755574	    -20.88941367	      0.44069959	    109.65597608	      1.91385783	     35.46192564	      0.00000000	      0.00000000	    118.21520244	    -24.67153648	      7.04415944	    112.19701400	      1.95820731	     36.47941634	      0.00000000	      0.00000000	    -25.21927321	     -0.64454796	     -4.81371537	     -2.71662597	    -50.55308881	     62.55397474	     96.07882636	     87.52891093	      0.00000000	      0.00000000	    -28.87051256	    -43.76311506	     35.62709588	     93.19778321	     87.53254801	      0.00000000	      0.00000000
      2.73500000	    -40.79593975	     -1.17672060	     -3.76981509	     -0.43618636	      0.51088413	     -0.92369640	    115.55252308	    -20.28756339	      0.04382862	    109.53616155	      1.91176667	     35.76668878	      0.00000000	      0.00000000	    118.03271528	    -25.27250624	      7.38201904	    112.13694517	      1.95715891	     36.66959886	      0.00000000	      0.00000000	    -25.20743978	     -0.86194740	     -4.20969052	     -2.94084813	    -50.42025955	     62.23220742	     95.92581724	     87.61260873	      0.00000000	      0.00000000	    -29.16791518	    -43.69060149	     35.02626303	     93.33936535	     87.58477094	      0.00000000	      0.00000000
      2.74000000	    -41.00190248	     -1.22049378	     -3.26086293	     -0.43602525	      0.51157027	     -0.92464858	    115.70015909	    -20.67279557	      0.35527063	    109.43238122	      1.90995536	     35.73698492	      0.00000000	      0.00000000	    117.95003449	    -24.60297876	      7.15531777	    111.88920499	      1.95283502	     36.63593854	      0.00000000	      0.00000000	    -24.77052025	     -0.56647168	     -5.69146408	     -0.28373221	    -50.58577052	     65.14055801	     95.88531152	     87.60454313	      0.00000000	      0.00000000	    -31.03050578	    -42.81545584	     32.92916244	     93.41939758	     87.61569992	      0.00000000	      0.00000000
      2.74500000	    -40.66754942	     -1.20582655	     -3.24638093	     -0.43433359	      0.51346087	     -0.92448114	    115.08653379	    -20.64028983	      0.34506196	    109.34177806	      1.90837404	     35.78594226	      0.00000000	      0.00000000	    117.29953203	    -24.67737639	      7.04307577	    111.77850611	      1.95090296	     36.64895490	      0.00000000	      0.00000000	    -24.93067335	     -0.60442369	     -5.75089162	     -0.18213212	    -50.44037276	     65.08709349	     95.67940499	     87.58975633	      0.00000000	      0.00000000	    -30.89419887	    -42.79186541	     32.91871123	     93.29129837	     87.60869894	      0.00000000	      0.00000000
      2.75000000	    -40.61541272	     -1.24883980	     -3.30667650	     -0.43337343	      0.51478329	     -0.92404424	    114.78159327	    -20.45426014	      0.31125940	    109.23963870	      1.90659137	     35.82755228	      0.00000000	      0.00000000	    117.04293030	    -24.73843833	      7.10121585	    111.63797547	      1.94845024	     36.68773872	      0.00000000	      0.00000000	    -24.73064233	     -0.61579362	     -5.72250863	     -0.19423584	    -50.36490970	     65.09469714	     95.64525009	     87.58857709	      0.00000000	      0.00000000	    -30.94493075	    -42.81581976	     32.95392965	     93.31530036	     87.61066990	      0.00000000	      0.00000000
      2.75500000	    -40.69988808	     -1.38867402	     -3.14510490	     -0.43280851	      0.51620438	     -0.92406252	    114.54181905	    -20.57626491	      0.17869371	    109.05391080	      1.90334981	     36.09649698	      0.00000000	      0.00000000	    116.88762724	    -24.45845542	      7.14873657	    111.37782481	      1.94390976	     36.79300463	      0.00000000	      0.00000000	    -24.42527082	     -0.41695128	     -5.76589391	     -0.31371124	    -50.33645014	     64.88683393	     95.60525297	     87.59765189	      0.00000000	      0.00000000	    -30.79121074	    -42.92735934	     33.13979800	     93.43916235	     87.61293352	      0.00000000	      0.00000000
      2.76000000	    -40.32400406	     -1.43472064	     -2.84238703	     -0.43100646	      0.51837006	     -0.92453376	    113.88936816	    -20.90802984	      0.22043234	    108.95305410	      1.90158952	     36.15295781	      0.00000000	      0.00000000	    116.09940611	    -24.18585447	      6.95433248	    111.21226512	      1.94102019	     36.85004782	      0.00000000	      0.00000000	    -24.55694529	     -0.24314921	     -6.04730168	     -0.25423089	    -50.25406581	     64.84005450	     95.44593998	     87.58539478	      0.00000000	      0.00000000	    -30.66175449	    -42.87731485	     33.20055256	     93.31926726	     87.60789065	      0.00000000	      0.00000000
      2.76500000	    -40.32389687	     -1.39624873	     -2.78603587	     -0.43014288	      0.52025051	     -0.92459670	    113.59145870	    -20.76134551	      0.31580513	    108.71057017	      1.89735738	     36.18179324	      0.00000000	      0.00000000	    115.75133941	    -24.01766355	      6.87666035	    110.96462507	      1.93669806	     36.85021539	      0.00000000	      0.00000000	    -24.26552549	     -0.25968854	     -6.12939167	     -0.22552717	    -50.25270900	     64.82083520	     95.44283743	     87.58321031	      0.00000000	      0.00000000	    -30.60548076	    -42.94345905	     33.17563591	     93.35957851	     87.60322808	      0.00000000	      0.00000000
      2.77000000	    -40.11021343	     -1.35987037	     -2.95374469	     -0.42836253	      0.52278085	     -0.92379917	    112.97482592	    -20.48765512	      0.19830778	    108.46251299	      1.89302797	     36.17502293	      0.00000000	      0.00000000	    115.11890834	    -24.22114886	      6.87897922	    110.67215310	      1.93159346	     36.87173664	      0.00000000	      0.00000000	    -24.15121698	     -0.41452675	     -6.04533562	     -0.16924923	    -50.01517166	     64.80614108	     95.33281945	     87.57773831	      0.00000000	      0.00000000	    -30.58022058	    -43.02520617	     33.17287505	     93.33042335	     87.59673998	      0.00000000	      0.00000000
      2.77500000	    -39.65734342	     -1.36802424	     -3.10147893	     -0.42644924	      0.52540394	     -0.92318796	    112.08159215	    -20.24598553	      0.10551949	    108.29683873	      1.89013641	     36.46697636	      0.00000000	      0.00000000	    114.28772251	    -24.49387503	      6.82243041	    110.56194308	      1.92966993	     37.19661206	      0.00000000	      0.00000000	    -24.29456566	     -0.54074409	     -5.82099069	      0.10221973	    -49.97123553	     65.05157856	     95.08274727	     87.58096142	      0.00000000	      0.00000000	    -30.29904886	    -43.18701383	     33.37126956	     93.34305571	     87.59339617	      0.00000000	      0.00000000
      2.78000000	    -39.68473980	     -1.35040768	     -2.14825821	     -0.42555614	      0.52770953	     -0.92517947	    111.92358388	    -21.26569097	      0.44666548	    108.08515881	      1.88644189	     36.54507890	      0.00000000	      0.00000000	    113.66290129	    -23.25135055	      6.30668317	    110.06344888	      1.92096957	     37.17943119	      0.00000000	      0.00000000	    -23.91221811	     -0.08390743	     -6.74861361	      0.09419251	    -49.94913947	     64.89849336	     95.06929913	     87.56796348	      0.00000000	      0.00000000	    -30.11056452	    -43.18496760	     33.57161508	     93.30068062	     87.59709675	      0.00000000	      0.00000000
      2.78500000	    -39.46924502	     -1.29898425	     -2.27246124	     -0.42377642	      0.53082772	     -0.92460051	    111.25392082	    -20.98777324	      0.37268667	    107.82031735	      1.88181954	     36.47590819	      0.00000000	      0.00000000	    112.93711458	    -23.34616207	      6.29085388	    109.69775365	      1.91458698	     37.16735154	      0.00000000	      0.00000000	    -23.77041626	     -0.22820876	     -6.67023609	      0.20743374	    -49.77142525	     64.85418884	     94.91317496	     87.56284346	      0.00000000	      0.00000000	    -29.99385804	    -43.26009435	     33.54719080	     93.19732560	     87.58968315	      0.00000000	      0.00000000
      2.79000000	    -39.22272213	     -1.22345711	     -2.29007215	     -0.42215808	      0.53374212	     -0.92435487	    110.59954037	    -20.89923033	      0.33659078	    107.54079842	      1.87694101	     36.67421057	      0.00000000	      0.00000000	    112.17060528	    -23.37383076	      6.10285172	    109.41268445	      1.90961159	     37.42238101	      0.00000000	      0.00000000	    -23.63529122	     -0.34823015	     -6.64765067	      0.31739623	    -49.60622267	     64.88258269	     94.62079998	     87.56641327	      0.00000000	      0.00000000	    -29.76580626	    -43.39334783	     33.75115159	     93.19904937	     87.58983213	      0.00000000	      0.00000000
      2.79500000	    -38.89440082	     -1.25183163	     -2.06279406	     -0.42014292	      0.53718545	     -0.92455189	    109.79458341	    -21.02832186	      0.35226045	    107.22223102	      1.87138096	     36.68198079	      0.00000000	      0.00000000	    111.24946058	    -23.08702340	      5.93626385	    109.02400885	      1.90282792	     37.53317896	      0.00000000	      0.00000000	    -23.54541231	     -0.24924516	     -6.83004201	      0.42844921	    -49.46757879	     64.89927689	     94.38523794	     87.56514096	      0.00000000	      0.00000000	    -29.45060257	    -43.40885259	     33.95029852	     92.96139513	     87.59120078	      0.00000000	      0.00000000
      2.80000000	    -38.89338683	     -1.20470951	     -2.25999984	     -0.41903050	      0.54035917	     -0.92382785	    109.29549732	    -20.66036932	      0.21762179	    106.73154081	      1.86281680	     36.65064521	      0.00000000	      0.00000000	    110.75323413	    -23.21334669	      5.91243852	    108.52298727	      1.89408344	     37.47961885	      0.00000000	      0.00000000	    -23.08433509	     -0.40282009	     -6.66491687	      0.58494474	    -49.37838828	     64.87417398	     94.36189684	     87.56307344	      0.00000000	      0.00000000	    -29.31393815	    -43.51775207	     33.95762893	     92.93529658	     87.58558671	      0.00000000	      0.00000000
      2.80500000	    -38.46086058	     -1.19410584	     -1.88944767	     -0.41652180	      0.54426097	     -0.92449352	    108.33113069	    -21.06602781	      0.19612730	    106.42454174	      1.85745866	     36.78005279	      0.00000000	      0.00000000	    109.60091001	    -22.75259435	      5.62390655	    108.09796654	      1.88666543	     37.65390042	      0.00000000	      0.00000000	    -23.05705617	     -0.28726524	     -6.93090046	      0.77031857	    -49.26954650	     64.99867070	     94.01581581	     87.56052317	      0.00000000	      0.00000000	    -28.83553462	    -43.50926994	     34.31160527	     92.56484348	     87.59251217	      0.00000000	      0.00000000
      2.81000000	    -38.33791668	     -1.23560054	     -1.92105171	     -0.41453399	      0.54794692	     -0.92405407	    107.58215560	    -20.93063468	     -0.00667092	    105.96085714	      1.84936584	     36.80431495	      0.00000000	      0.00000000	    108.89640959	    -22.73187532	      5.59361572	    107.60704199	      1.87809718	     37.63673538	      0.00000000	      0.00000000	    -22.57435981	     -0.28656840	     -6.74596519	      0.83545070	    -49.17714675	     65.04061179	     93.86092225	     87.55283935	      0.00000000	      0.00000000	    -28.57393508	    -43.66913833	     34.14331193	     92.53151888	     87.58734146	      0.00000000	      0.00000000
      2.81500000	    -38.06385637	     -1.18180232	     -1.76323940	     -0.41270582	      0.55193972	     -0.92434245	    106.75981408	    -21.03040589	     -0.03939666	    105.49950578	      1.84131374	     36.97253700	      0.00000000	      0.00000000	    107.92574986	    -22.44084067	      5.36992735	    107.08074984	      1.86891165	     37.82482257	      0.00000000	      0.00000000	    -22.40305825	     -0.30703265	     -6.76931796	      1.00746285	    -49.21550220	     65.16300857	     93.68774254	     87.55180222	      0.00000000	      0.00000000	    -28.24583555	    -43.64902832	     34.25652620	     92.25306635	     87.59743220	      0.00000000	      0.00000000
      2.82000000	    -37.41309579	     -1.28743055	     -1.92432928	     -0.40945421	      0.55685080	     -0.92358955	    105.28157256	    -20.81750243	     -0.42142484	    105.05122516	      1.83348976	     37.08150838	      0.00000000	      0.00000000	    106.59290994	    -22.67002054	      5.36136576	    106.64194395	      1.86125304	     37.99682289	      0.00000000	      0.00000000	    -22.51737504	     -0.33004032	     -6.52837833	      1.22668411	    -48.98669553	     65.31491800	     93.24486669	     87.55131349	      0.00000000	      0.00000000	    -27.94948684	    -43.52139877	     34.34848136	     91.73862093	     87.59136904	      0.00000000	      0.00000000
      2.82500000	    -37.40349001	     -1.19922212	     -1.74676413	     -0.40799973	      0.56095965	     -0.92403824	    104.74281523	    -20.88136937	     -0.39255454	    104.42608573	      1.82257902	     36.99618165	      0.00000000	      0.00000000	    105.86360005	    -22.29476184	      5.12170601	    105.99752410	      1.85000579	     37.90049158	      0.00000000	      0.00000000	    -21.96446759	     -0.31968668	     -6.64044685	      1.32694742	    -49.05508171	     65.26629214	     93.23934937	     87.54326140	      0.00000000	      0.00000000	    -27.76778649	    -43.51030873	     34.26648543	     91.65769681	     87.58056919	      0.00000000	      0.00000000
      2.83000000	    -37.15078071	     -1.24070064	     -1.59929932	     -0.40538629	      0.56568412	     -0.92406031	    103.76454927	    -20.96520176	     -0.55942439	    103.88373956	      1.81311329	     36.95225161	      0.00000000	      0.00000000	    104.85110354	    -22.07610428	      4.95802550	    105.34742504	      1.83865943	     37.87034572	      0.00000000	      0.00000000	    -21.56139751	     -0.29424843	     -6.70374742	      1.45883071	    -48.93834347	     65.20321748	     92.99331949	     87.53335050	      0.00000000	      0.00000000	    -27.63576097	    -43.42372551	     34.30002130	     91.29706428	     87.57687488	      0.00000000	      0.00000000
      2.83500000	    -36.69650960	     -1.27917472	     -1.56898380	     -0.40275645	      0.57077251	     -0.92377436	    102.54569779	    -20.96470462	     -0.87907996	    103.32127956	      1.80329652	     37.14302135	      0.00000000	      0.00000000	    103.62289231	    -21.99042989	      4.82735051	    104.72885191	      1.82786329	     38.16578144	      0.00000000	      0.00000000	    -21.37509373	     -0.26842802	     -6.68879772	      1.67734324	    -48.69745214	     65.29145937	     92.41326742	     87.53358346	      0.00000000	      0.00000000	    -27.23549424	    -43.26528950	     34.41209412	     90.69865967	     87.57474793	      0.00000000	      0.00000000
      2.84000000	    -36.16834085	     -1.36087256	     -0.98637039	     -0.39985299	      0.57633257	     -0.92493315	    101.23848250	    -21.65624565	     -1.10090150	    102.75723104	      1.79345201	     37.17703140	      0.00000000	      0.00000000	    102.21601502	    -21.24296328	      4.55195063	    103.99934706	      1.81513103	     38.26835631	      0.00000000	      0.00000000	    -21.27318635	      0.03406264	     -7.08036075	      1.83024047	    -48.61980736	     65.26790630	     92.00041610	     87.52793787	      0.00000000	      0.00000000	    -26.87076689	    -43.06425471	     34.47745109	     90.28460128	     87.57313063	      0.00000000	      0.00000000
      2.84500000	    -36.16125479	     -1.27671833	     -1.03637677	     -0.39813021	      0.58104506	     -0.92463501	    100.59060437	    -21.45996990	     -1.18414876	    102.01863813	      1.78056113	     37.05681749	      0.00000000	      0.00000000	    101.46208074	    -21.16399616	      4.40124072	    103.25038760	      1.80205922	     38.15586385	      0.00000000	      0.00000000	    -20.56798986	     -0.08723241	     -7.01504695	      1.88477788	    -48.55173888	     65.19850823	     91.87638743	     87.52055133	      0.00000000	      0.00000000	    -26.82984150	    -43.07793863	     34.40863857	     90.21439957	     87.56349766	      0.00000000	      0.00000000
      2.85000000	    -35.63766264	     -1.22730005	     -0.46917272	     -0.39477381	      0.58682942	     -0.92585073	     99.28085472	    -22.17012831	     -1.37516393	    101.42491247	      1.77019867	     37.09193548	      0.00000000	      0.00000000	     99.95511811	    -20.44072221	      3.97176535	    102.47929350	      1.78860109	     38.28946231	      0.00000000	      0.00000000	    -20.56636996	      0.10859022	     -7.37410321	      1.56322481	    -48.35110410	     64.67410467	     91.23208539	     87.49533376	      0.00000000	      0.00000000	    -26.60965215	    -42.75126795	     34.30641394	     89.67731954	     87.54439128	      0.00000000	      0.00000000
      2.85500000	    -35.50919542	     -1.19777273	     -0.56249858	     -0.39255063	      0.59211622	     -0.92542805	     98.40143398	    -21.95327313	     -1.60301386	    100.64429622	      1.75657434	     36.92810803	      0.00000000	      0.00000000	     99.03583502	    -20.45225981	      3.80015126	    101.67311562	      1.77453063	     38.16590908	      0.00000000	      0.00000000	    -19.81789999	      0.00239417	     -7.35902293	      1.61128705	    -48.22453938	     64.52044906	     91.00924554	     87.48910251	      0.00000000	      0.00000000	    -26.66515329	    -42.76873221	     34.24861490	     89.60261268	     87.53925642	      0.00000000	      0.00000000
      2.86000000	    -35.44276977	     -1.11987928	     -0.48162152	     -0.39051879	      0.59745086	     -0.92558830	     97.61151801	    -21.92271132	     -1.71400314	     99.81055177	      1.74202276	     36.75741892	      0.00000000	      0.00000000	     98.13833682	    -20.20877819	      3.54347956	    100.82443223	      1.75971831	     38.04581074	      0.00000000	      0.00000000	    -19.20372861	     -0.02731958	     -7.37945207	      1.48322854	    -48.16403978	     64.35305961	     90.70959508	     87.47981598	      0.00000000	      0.00000000	    -26.67732072	    -42.70107734	     34.12862856	     89.53452286	     87.52876831	      0.00000000	      0.00000000
      2.86500000	    -35.03441491	     -1.05418447	      0.38270951	     -0.38752903	      0.60344129	     -0.92740000	     96.43275087	    -23.00092847	     -1.91278789	     99.14621831	      1.73042795	     36.75865305	      0.00000000	      0.00000000	     96.72765753	    -19.09245476	      3.12533168	     99.88152549	      1.74326148	     38.17864683	      0.00000000	      0.00000000	    -18.83135680	      0.21304334	     -8.23673338	      1.24342244	    -47.80029392	     63.68862944	     89.83535870	     87.46617938	      0.00000000	      0.00000000	    -26.66205742	    -42.38082159	     33.91357382	     89.11539962	     87.51479673	      0.00000000	      0.00000000
      2.87000000	    -34.97047043	     -0.84151555	      0.13834336	     -0.38507060	      0.60894587	     -0.92661205	     95.65619447	    -22.58519543	     -1.97737895	     98.30186923	      1.71569128	     36.68230049	      0.00000000	      0.00000000	     95.73438767	    -19.31433253	      2.71480693	     99.01223060	      1.72808942	     38.18986658	      0.00000000	      0.00000000	    -18.06217925	     -0.15255206	     -8.07987210	      0.83394079	    -47.43707684	     63.02314817	     89.30092528	     87.47374296	      0.00000000	      0.00000000	    -26.98984296	    -42.31300064	     33.46419099	     89.06111848	     87.49565471	      0.00000000	      0.00000000
      2.87500000	    -34.74282637	     -0.80647453	      0.16609517	     -0.38228328	      0.61492789	     -0.92649055	     94.58538751	    -22.57471704	     -2.29628966	     97.44019293	      1.70065219	     36.46917738	      0.00000000	      0.00000000	     94.60925150	    -19.20482906	      2.45707206	     98.10041611	      1.71217526	     38.08783794	      0.00000000	      0.00000000	    -17.43584068	     -0.23389460	     -8.13758361	      0.57514643	    -47.16882298	     62.59411588	     88.76525113	     87.47475561	      0.00000000	      0.00000000	    -27.15461256	    -42.23412503	     33.22957722	     88.92975309	     87.48634935	      0.00000000	      0.00000000
      2.88000000	    -34.60756913	     -0.74145969	      0.15331686	     -0.37978839	      0.62092613	     -0.92646535	     93.64580712	    -22.49808554	     -2.55061648	     96.53172980	      1.68479652	     36.22887740	      0.00000000	      0.00000000	     93.58894054	    -19.10003975	      2.17834769	     97.14988887	      1.69558543	     37.87349638	      0.00000000	      0.00000000	    -16.66953298	     -0.31336405	     -8.14283153	      0.45648398	    -47.05434625	     62.36546188	     88.57929311	     87.46027700	      0.00000000	      0.00000000	    -27.23903459	    -42.24208333	     33.05125424	     89.01473498	     87.47730770	      0.00000000	      0.00000000
      2.88500000	    -34.24179442	     -0.57640011	      0.12749091	     -0.37625770	      0.62721744	     -0.92626805	     92.41848210	    -22.48727144	     -2.79499562	     95.68207723	      1.66996728	     36.18993141	      0.00000000	      0.00000000	     92.19069202	    -19.10406035	      1.70414800	     96.23939466	      1.67969431	     37.92747538	      0.00000000	      0.00000000	    -16.12713272	     -0.55662364	     -8.20414224	     -0.06652339	    -46.54263210	     61.57092095	     87.69065505	     87.42862030	      0.00000000	      0.00000000	    -27.60985598	    -42.02552624	     32.56368084	     88.73118740	     87.45851231	      0.00000000	      0.00000000
      2.89000000	    -33.90792476	     -0.36169881	      0.08224645	     -0.37319104	      0.63368594	     -0.92612845	     91.28999322	    -22.42295687	     -2.93803663	     94.74523185	      1.65361625	     36.02885525	      0.00000000	      0.00000000	     90.82525798	    -19.07844401	      1.14925130	     95.20653267	      1.66166746	     37.79212173	      0.00000000	      0.00000000	    -15.59705183	     -0.82008419	     -8.15497623	     -1.01315321	    -46.24025213	     60.11536373	     87.52517529	     87.45259128	      0.00000000	      0.00000000	    -28.05886267	    -41.89466616	     31.66354140	     88.89597415	     87.46788358	      0.00000000	      0.00000000
      2.89500000	    -33.25147996	     -0.61696648	     -0.38835584	     -0.37019583	      0.64165736	     -0.92578415	     89.41922568	    -21.80645113	     -3.63035647	     93.46228708	      1.63122464	     35.68485417	      0.00000000	      0.00000000	     89.22887167	    -19.51250539	      1.06824858	     94.09286638	      1.64223032	     37.67591266	      0.00000000	      0.00000000	    -15.45817101	     -0.63558383	     -7.65747572	     -1.16218287	    -46.23625230	     59.71003766	     87.42401529	     87.40361517	      0.00000000	      0.00000000	    -27.93525379	    -41.65581716	     31.53225709	     88.55712850	     87.45656790	      0.00000000	      0.00000000
      2.90000000	    -33.18523023	     -0.13407729	      0.04026134	     -0.36666333	      0.64753116	     -0.92631152	     88.73602527	    -22.35915444	     -3.47978585	     92.68399669	      1.61764091	     35.49612634	      0.00000000	      0.00000000	     87.97516853	    -18.92205281	      0.27751829	     93.04734702	      1.62398257	     37.59844374	      0.00000000	      0.00000000	    -14.44778097	     -1.09200581	     -8.06708587	     -2.31223965	    -45.71178865	     58.16005995	     86.99397324	     87.41976390	      0.00000000	      0.00000000	    -28.33870812	    -41.67815673	     31.10180719	     88.64579446	     87.45175890	      0.00000000	      0.00000000
      2.90500000	    -32.94739355	     -0.06488580	      0.01257751	     -0.36359939	      0.65454656	     -0.92640855	     87.53719942	    -22.28461359	     -3.79766883	     91.53918011	      1.59766009	     35.15412501	      0.00000000	      0.00000000	     86.72634206	    -18.82766697	     -0.09698920	     91.89798029	      1.60392233	     37.26752217	      0.00000000	      0.00000000	    -13.65215083	     -1.19391113	     -8.14501627	     -2.50335811	    -45.70712407	     57.96721161	     87.12432424	     87.39778086	      0.00000000	      0.00000000	    -28.51401136	    -41.66919477	     31.01671522	     88.56750090	     87.43917026	      0.00000000	      0.00000000
      2.91000000	    -32.20235836	      0.07932899	      0.02204954	     -0.35973952	      0.66241826	     -0.92676961	     85.79180933	    -22.37813714	     -4.13128393	     90.45735945	      1.57877876	     34.88564982	      0.00000000	      0.00000000	     84.81497649	    -18.72074521	     -0.65198608	     90.75873538	      1.58403876	     37.12024695	      0.00000000	      0.00000000	    -13.44511265	     -1.33510696	     -8.34143848	     -2.91037308	    -45.45472533	     57.12678683	     86.87333401	     87.35107327	      0.00000000	      0.00000000	    -28.80255992	    -41.22392963	     30.76227981	     88.22824368	     87.39826738	      0.00000000	      0.00000000
      2.91500000	    -31.70738488	      0.09358130	      0.01411788	     -0.35600742	      0.67023766	     -0.92691392	     84.19958866	    -22.35630218	     -4.59623293	     89.24880047	      1.55768542	     34.63542791	      0.00000000	      0.00000000	     83.17031085	    -18.76845082	     -1.43584570	     89.28572972	      1.55832996	     37.39100107	      0.00000000	      0.00000000	    -12.90500214	     -1.33139008	     -8.41322070	     -3.47588121	    -45.26257007	     56.18698235	     86.85867629	     87.33409230	      0.00000000	      0.00000000	    -29.16254164	    -40.96813906	     30.03407732	     87.96096785	     87.36509073	      0.00000000	      0.00000000
      2.92000000	    -31.21912326	      0.11514933	      0.02043457	     -0.35214332	      0.67808273	     -0.92714598	     82.60501311	    -22.36365664	     -5.06944600	     88.02252415	      1.53628286	     34.30966404	      0.00000000	      0.00000000	     81.56773818	    -18.66466437	     -1.83665360	     88.02979470	      1.53640976	     37.03062839	      0.00000000	      0.00000000	    -12.36910980	     -1.34896861	     -8.47427092	     -4.28404301	    -45.10133064	     55.00646491	     86.99934935	     87.32973910	      0.00000000	      0.00000000	    -29.60479597	    -40.60970080	     29.57712084	     87.98617719	     87.37189009	      0.00000000	      0.00000000
      2.92500000	    -30.51748680	      0.12962738	     -0.00385680	     -0.34811782	      0.68675243	     -0.92741695	     80.73414915	    -22.33940701	     -5.59415512	     86.66561694	      1.51260036	     33.81670267	      0.00000000	      0.00000000	     79.67791079	    -18.60602348	     -2.31661712	     86.69332312	      1.51308393	     36.77659920	      0.00000000	      0.00000000	    -12.09122833	     -1.34928429	     -8.45844365	     -5.10225692	    -44.94341705	     53.68912441	     87.27751732	     87.32588398	      0.00000000	      0.00000000	    -29.88339821	    -40.35366479	     29.14238536	     87.86280729	     87.36840144	      0.00000000	      0.00000000
      2.93000000	    -29.56815656	     -0.10446545	     -0.15723495	     -0.34384213	      0.69645854	     -0.92750152	     78.37295054	    -22.06907886	     -6.39403191	     85.13641885	      1.48591082	     33.21820032	      0.00000000	      0.00000000	     77.55616842	    -18.79502317	     -2.61880493	     85.25335208	      1.48795169	     36.18718188	      0.00000000	      0.00000000	    -12.07055083	     -1.10493111	     -8.33764426	     -5.41837153	    -44.86258414	     53.00454340	     87.40131391	     87.31316062	      0.00000000	      0.00000000	    -29.93117410	    -39.97180807	     28.91165897	     87.52328783	     87.35136203	      0.00000000	      0.00000000
      2.93500000	    -28.91286611	     -0.01136921	     -0.14943491	     -0.33980354	      0.70540752	     -0.92794134	     76.54899944	    -22.09618968	     -6.85045442	     83.71046622	      1.46102325	     32.70596273	      0.00000000	      0.00000000	     75.68062400	    -18.50177189	     -2.74527944	     84.00814824	      1.46621879	     35.30873290	      0.00000000	      0.00000000	    -11.74891972	     -1.13347590	     -8.52716392	     -5.92995941	    -44.85728078	     52.19595466	     87.86120572	     87.28951518	      0.00000000	      0.00000000	    -30.33436383	    -39.66431717	     28.50034068	     87.44619553	     87.32506942	      0.00000000	      0.00000000
      2.94000000	    -28.08085232	      0.07165568	     -0.13893051	     -0.33544135	      0.71489763	     -0.92829103	     74.45939650	    -22.13173492	     -7.40014452	     82.18483422	      1.43439595	     32.15097786	      0.00000000	      0.00000000	     73.54044327	    -18.38970902	     -3.34023812	     82.50164007	      1.43992526	     34.76826412	      0.00000000	      0.00000000	    -11.53476081	     -1.24427615	     -8.64317947	     -6.60267149	    -44.76837529	     51.16436133	     88.22836010	     87.27264481	      0.00000000	      0.00000000	    -30.80281945	    -39.36162091	     27.97718157	     87.46931809	     87.31085943	      0.00000000	      0.00000000
      2.94500000	    -27.65512874	      0.13832348	     -0.18251797	     -0.33153505	      0.72415276	     -0.92857357	     72.81149643	    -22.02794753	     -7.86425748	     80.54175882	      1.40571888	     31.48765185	      0.00000000	      0.00000000	     71.86822573	    -18.29032858	     -3.87136308	     80.92334801	      1.41237886	     34.05591963	      0.00000000	      0.00000000	    -10.88333673	     -1.28186759	     -8.73018000	     -7.05402248	    -44.75304567	     50.74575766	     88.55321372	     87.26625268	      0.00000000	      0.00000000	    -31.20843800	    -39.20017193	     27.69241717	     87.66870486	     87.29973739	      0.00000000	      0.00000000
      2.95000000	    -26.46659409	      0.17823343	     -0.23095390	     -0.32648197	      0.73462491	     -0.92878049	     70.24083211	    -21.99880771	     -8.48915419	     78.90863132	      1.37721542	     30.66023386	      0.00000000	      0.00000000	     69.22727854	    -18.35055797	     -4.90205112	     79.05214106	      1.37972014	     33.69616977	      0.00000000	      0.00000000	    -11.04600893	     -1.37280058	     -8.73627025	     -7.74033870	    -44.68983011	     49.81380521	     88.88160493	     87.24971127	      0.00000000	      0.00000000	    -31.73732442	    -38.88431947	     26.99779854	     87.77669647	     87.28220530	      0.00000000	      0.00000000
      2.95500000	    -25.52351692	      0.26444478	     -0.30079680	     -0.32172152	      0.74495410	     -0.92897221	     67.93462610	    -21.94327796	     -9.08987047	     77.21441135	      1.34764571	     29.99304698	      0.00000000	      0.00000000	     66.87829697	    -18.29283512	     -5.59439061	     77.37923661	      1.35052245	     33.01377998	      0.00000000	      0.00000000	    -10.96872373	     -1.48339993	     -8.80342140	     -8.55431115	    -44.62332986	     48.69269683	     89.45859311	     87.24147651	      0.00000000	      0.00000000	    -32.43380493	    -38.59789812	     26.27425367	     88.17016713	     87.26589083	      0.00000000	      0.00000000
      2.96000000	    -24.62361170	      0.34652405	     -0.34492131	     -0.31714410	      0.75572096	     -0.92922384	     65.64263202	    -21.88938313	     -9.71540196	     75.33633888	      1.31486716	     29.06098789	      0.00000000	      0.00000000	     64.60213581	    -18.05568879	     -5.81502545	     75.76873636	      1.32241392	     31.66728793	      0.00000000	      0.00000000	    -10.85974315	     -1.59977444	     -8.82199483	     -9.23322216	    -44.71554337	     47.78809143	     89.93608798	     87.25211812	      0.00000000	      0.00000000	    -33.04734347	    -38.53107191	     25.65302298	     88.61318381	     87.26521198	      0.00000000	      0.00000000
      2.96500000	    -23.64464737	      0.33869036	     -0.43110950	     -0.31240340	      0.76679600	     -0.92929900	     63.17714036	    -21.67515443	    -10.36467395	     73.33504124	      1.27993793	     28.00102522	      0.00000000	      0.00000000	     62.17516339	    -18.00456216	     -6.36670625	     73.84868760	      1.28890275	     30.69259898	      0.00000000	      0.00000000	    -10.86379572	     -1.64617270	     -8.75320301	    -10.00603816	    -44.77953010	     46.93968765	     90.50870426	     87.25651361	      0.00000000	      0.00000000	    -33.64598595	    -38.39647374	     24.93602483	     89.21784595	     87.26058580	      0.00000000	      0.00000000
      2.97000000	    -22.50349418	      0.30817239	     -0.47743990	     -0.30722522	      0.77856660	     -0.92942054	     60.41863015	    -21.51710327	    -11.17594326	     71.22932315	      1.24318621	     26.93691593	      0.00000000	      0.00000000	     59.46227809	    -18.06781225	     -7.45977603	     71.59525270	      1.24957289	     29.89597048	      0.00000000	      0.00000000	    -11.01382575	     -1.61234762	     -8.69134633	    -10.92835917	    -44.81607415	     45.74305266	     91.14771220	     87.24917961	      0.00000000	      0.00000000	    -34.32025584	    -38.30417179	     23.95614056	     89.81989609	     87.25004012	      0.00000000	      0.00000000
      2.97500000	    -21.39964486	      0.34051922	     -0.54428397	     -0.30224466	      0.79047264	     -0.92957641	     57.73594515	    -21.35891175	    -11.90015637	     69.08190830	      1.20570675	     25.77879520	      0.00000000	      0.00000000	     56.84276590	    -17.82988986	     -7.66142143	     69.67481526	      1.21605493	     28.18151823	      0.00000000	      0.00000000	    -11.19676268	     -1.67956548	     -8.64793593	    -11.90474157	    -44.78288969	     44.67620190	     91.75811022	     87.20531976	      0.00000000	      0.00000000	    -35.06857112	    -38.23512983	     23.15944581	     90.59912214	     87.24866341	      0.00000000	      0.00000000
      2.98000000	    -20.22332140	      0.24259502	     -0.63556401	     -0.29709527	      0.80291957	     -0.92965003	     54.83017732	    -21.04302684	    -12.75805802	     66.68080969	      1.16379968	     24.45958513	      0.00000000	      0.00000000	     54.05599130	    -17.78809330	     -8.22552670	     67.38182645	      1.17603473	     26.82704082	      0.00000000	      0.00000000	    -11.41411428	     -1.57435772	     -8.57464512	    -12.81715314	    -44.83930848	     43.63961986	     92.38669900	     87.19904629	      0.00000000	      0.00000000	    -35.78570647	    -38.12302985	     22.37551455	     91.30911771	     87.25046770	      0.00000000	      0.00000000
      2.98500000	    -19.08889035	      0.15465169	     -0.71420027	     -0.29196004	      0.81562756	     -0.92975981	     51.95354323	    -20.69457792	    -13.60328689	     64.14092369	      1.11947030	     22.84655749	      0.00000000	      0.00000000	     51.31330023	    -17.71510013	     -8.78218714	     65.05196228	      1.13537093	     25.26038165	      0.00000000	      0.00000000	    -11.58242718	     -1.50059776	     -8.48100824	    -13.70676212	    -44.92163563	     42.69173560	     92.96150229	     87.20287821	      0.00000000	      0.00000000	    -36.49622597	    -38.06238428	     21.61382749	     91.99638369	     87.25600866	      0.00000000	      0.00000000
      2.99000000	    -17.96508867	      0.05095308	     -0.72434581	     -0.28667048	      0.82854968	     -0.93002440	     48.99582532	    -20.35948077	    -14.51224356	     61.47809095	      1.07299510	     21.31266574	      0.00000000	      0.00000000	     48.51075756	    -17.57145642	     -9.34511501	     62.52144775	      1.09120512	     23.75594089	      0.00000000	      0.00000000	    -11.81494587	     -1.37263532	     -7.79705456	    -16.56574090	    -44.51914009	     39.24515281	     93.86833517	     87.29327263	      0.00000000	      0.00000000	    -36.51719954	    -38.43064509	     21.42343113	     92.80232707	     87.32002102	      0.00000000	      0.00000000
      2.99500000	    -16.85228496	      0.01462980	     -0.78775475	     -0.28141514	      0.84186080	     -0.93036979	     46.05570591	    -20.01366542	    -15.32205752	     58.66228107	      1.02384995	     19.39830304	      0.00000000	      0.00000000	     45.63838106	    -17.35242545	     -9.97420712	     59.82519893	      1.04414670	     21.92606892	      0.00000000	      0.00000000	    -11.94871307	     -1.33225454	     -7.76816080	    -17.27648878	    -44.65469011	     38.66718679	     94.37659751	     87.27548686	      0.00000000	      0.00000000	    -37.12730093	    -38.43539760	     20.93384966	     93.43771443	     87.27997950	      0.00000000	      0.00000000
      3.00000000	    -15.75272457	     -0.04923431	     -0.76670495	     -0.27609953	      0.85534340	     -0.93087064	     43.03363755	    -19.64657994	    -16.19277992	     55.67527415	      0.97171685	     17.52026881	      0.00000000	      0.00000000	     42.75903240	    -17.04171843	    -10.48092652	     57.00760220	      0.99497036	     20.10029402	      0.00000000	      0.00000000	    -12.12840106	     -1.23375801	     -7.74970371	    -18.47914291	    -44.73722792	     37.29292841	     95.16368248	     87.30344753	      0.00000000	      0.00000000	    -37.86984966	    -38.32736720	     20.20835587	     94.06539187	     87.30079715	      0.00000000	      0.00000000
      3.00500000	    -14.77059899	     -0.07794679	     -0.76053646	     -0.27077875	      0.86906294	     -0.93128090	     40.11648701	    -19.24452051	    -17.00106091	     52.55026896	      0.91717522	     15.18941889	      0.00000000	      0.00000000	     39.93245451	    -16.68585581	    -11.08106657	     53.97845379	      0.94210174	     17.83454719	      0.00000000	      0.00000000	    -12.18068890	     -1.16918105	     -6.99858691	    -21.18447474	    -44.22883386	     34.35499771	     95.86955143	     87.35241785	      0.00000000	      0.00000000	    -37.40788328	    -39.00403794	     20.82728309	     94.54167275	     87.30030434	      0.00000000	      0.00000000
      3.01000000	    -13.73508480	     -0.18978803	     -0.74510936	     -0.26545345	      0.88316233	     -0.93174468	     37.06158226	    -18.71452053	    -17.84150167	     49.19244672	      0.85857016	     12.49819092	      0.00000000	      0.00000000	     36.99483149	    -16.45023418	    -12.08995847	     50.64216546	      0.88387253	     15.33109239	      0.00000000	      0.00000000	    -12.29859013	     -0.99143840	     -7.17246559	    -21.84170959	    -44.34561634	     33.82376894	     96.31273441	     87.32753503	      0.00000000	      0.00000000	    -38.16173102	    -38.79686940	     20.18819793	     94.88319148	     87.27582117	      0.00000000	      0.00000000
      3.01500000	    -12.86040871	     -0.30928778	     -0.71274950	     -0.26001899	      0.89724219	     -0.93218562	     34.11040177	    -18.08479614	    -18.58472112	     45.62059955	      0.79622967	      9.60327614	      0.00000000	      0.00000000	     34.22600390	    -15.98633940	    -11.94719983	     47.45139339	      0.82818305	     12.57581260	      0.00000000	      0.00000000	    -12.25608222	     -0.83665557	     -7.30203084	    -22.67523780	    -44.39831386	     33.22884490	     96.68106330	     87.31645761	      0.00000000	      0.00000000	    -38.93764041	    -38.57799278	     19.50428347	     95.24322521	     87.25361766	      0.00000000	      0.00000000
      3.02000000	    -11.89802189	     -0.57156091	     -0.62704183	     -0.25484094	      0.91185931	     -0.93246442	     30.92986758	    -17.26531539	    -19.52478587	     41.76492984	      0.72893554	      6.47800439	      0.00000000	      0.00000000	     31.35934839	    -15.85049733	    -12.89224814	     43.86131847	      0.76552442	      9.65630742	      0.00000000	      0.00000000	    -12.36439610	     -0.53335383	     -7.40474714	    -23.48075045	    -44.38358673	     32.60041626	     96.97162656	     87.31955166	      0.00000000	      0.00000000	    -39.57843919	    -38.38153157	     18.87505342	     95.49741761	     87.26631187	      0.00000000	      0.00000000
      3.02500000	    -11.19681307	     -0.69093449	     -0.61952156	     -0.24974612	      0.92630735	     -0.93279629	     28.12148270	    -16.44579017	    -19.95144471	     37.81400862	      0.65997895	      2.84494775	      0.00000000	      0.00000000	     28.71801448	    -15.36371695	    -12.64219196	     40.37776691	      0.70472498	      6.09229525	      0.00000000	      0.00000000	    -12.19434472	     -0.37167775	     -7.47936953	    -24.25206636	    -44.40651357	     32.09978064	     97.24799895	     87.31534077	      0.00000000	      0.00000000	    -40.20801455	    -38.19481686	     18.34418570	     95.64237373	     87.22195957	      0.00000000	      0.00000000
      3.03000000	    -10.29839754	     -0.97653193	     -0.52065120	     -0.24444426	      0.94123059	     -0.93310954	     24.87865395	    -15.46499607	    -20.83784555	     33.46577537	      0.58408797	     -1.01715524	      0.00000000	      0.00000000	     25.80593899	    -15.10739529	    -13.01272305	     36.55398873	      0.63798746	      2.55350268	      0.00000000	      0.00000000	    -12.27479091	     -0.02930815	     -7.55230900	    -25.04883226	    -44.37091158	     31.56420804	     97.42199362	     87.33178058	      0.00000000	      0.00000000	    -40.69360440	    -38.00082422	     18.00932422	     95.71225467	     87.29240083	      0.00000000	      0.00000000
      3.03500000	     -9.54518651	     -1.09341911	     -0.50434764	     -0.23937290	      0.95612291	     -0.93338339	     21.87877871	    -14.55144992	    -21.25352571	     29.00520610	      0.50623635	     -5.53231316	      0.00000000	      0.00000000	     23.01091813	    -14.66450339	    -13.42985811	     32.55400232	      0.56817453	     -1.64300814	      0.00000000	      0.00000000	    -12.23076815	      0.13840557	     -7.58138817	    -25.71233980	    -44.29665240	     31.17914818	     97.48917919	     87.33463876	      0.00000000	      0.00000000	    -41.13829193	    -37.81510703	     17.70299878	     95.71345800	     87.30391848	      0.00000000	      0.00000000
      3.04000000	     -8.90197208	     -1.18852280	     -0.46394925	     -0.23446331	      0.97094477	     -0.93359500	     19.02024245	    -13.63376732	    -21.48088957	     24.45292895	      0.42678412	    -10.45455073	      0.00000000	      0.00000000	     20.32846477	    -14.19431080	    -13.62607572	     28.51894096	      0.49774942	     -6.14527656	      0.00000000	      0.00000000	    -12.10657645	      0.24806287	     -7.63690396	    -26.27992411	    -44.22944462	     30.87629456	     97.49563629	     87.34438668	      0.00000000	      0.00000000	    -41.66743197	    -37.67599850	     17.41963567	     95.63059743	     87.31099291	      0.00000000	      0.00000000
      3.04500000	     -8.36939271	     -1.08800610	     -0.50207324	     -0.22981950	      0.98567191	     -0.93381353	     16.42163543	    -12.92052657	    -21.40133299	     19.96210634	      0.34840448	    -15.78031775	      0.00000000	      0.00000000	     17.74665576	    -13.52512602	    -13.90692234	     24.37214131	      0.42537411	    -11.02715801	      0.00000000	      0.00000000	    -11.90433428	      0.14248536	     -7.65592480	    -26.72000983	    -44.07611701	     30.49289692	     97.47448269	     87.34735984	      0.00000000	      0.00000000	    -42.17469491	    -37.43493113	     16.83832329	     95.72224683	     87.29592594	      0.00000000	      0.00000000
      3.05000000	     -7.85251937	     -1.03004922	     -0.55197420	     -0.22502061	      1.00031228	     -0.93394241	     13.87036929	    -12.17344293	    -21.06509411	     15.43595291	      0.26940820	    -21.40680718	      0.00000000	      0.00000000	     15.26662097	    -12.92902361	    -14.14009359	     20.26240224	      0.35364563	    -16.28097880	      0.00000000	      0.00000000	    -11.68945637	      0.06815267	     -7.65118690	    -27.17897294	    -43.94333981	     30.20015570	     97.42808663	     87.35200700	      0.00000000	      0.00000000	    -42.76654540	    -37.20210951	     16.30456765	     95.77917784	     87.30229499	      0.00000000	      0.00000000
      3.05500000	     -7.56160588	     -0.86457854	     -0.57884389	     -0.22080840	      1.01473422	     -0.93409706	     11.93002410	    -11.79403091	    -21.26935739	     11.67569213	      0.20377927	    -26.78848351	      0.00000000	      0.00000000	     13.20264266	    -12.25181802	    -14.25498289	     16.29780065	      0.28445028	    -21.68012234	      0.00000000	      0.00000000	    -11.29217056	     -0.11858187	     -7.68137536	    -27.52856141	    -43.70669279	     29.87409456	     97.28606807	     87.34672496	      0.00000000	      0.00000000	    -43.31188474	    -36.96605804	     15.73750351	     95.81985942	     87.30163982	      0.00000000	      0.00000000
      3.06000000	     -7.21696193	     -0.77895041	     -0.45676047	     -0.21691525	      1.02930266	     -0.93418057	     10.00659317	    -11.34787480	    -21.10627065	      8.05901093	      0.14065628	    -31.70933751	      0.00000000	      0.00000000	     11.30105262	    -11.70610408	    -14.36867917	     12.57514973	      0.21947777	    -26.77854480	      0.00000000	      0.00000000	    -11.00685431	     -0.23736106	     -7.82990804	    -27.80369096	    -43.42977559	     29.58512847	     97.08199441	     87.33913081	      0.00000000	      0.00000000	    -43.78322958	    -36.81153087	     15.18148884	     95.92340769	     87.30900012	      0.00000000	      0.00000000
      3.06500000	     -7.39545780	     -0.61086196	     -0.46032469	     -0.21388615	      1.04337108	     -0.93437007	      9.24518799	    -11.16346271	    -21.21658179	      5.52318107	      0.09639769	    -36.36820871	      0.00000000	      0.00000000	     10.29534422	    -11.18647399	    -14.74026937	      9.42334751	      0.16446844	    -31.52495776	      0.00000000	      0.00000000	    -10.25155165	     -0.41744767	     -7.80321397	    -28.11158825	    -43.04705503	     29.27187317	     96.82950316	     87.29930443	      0.00000000	      0.00000000	    -44.06781755	    -36.56304316	     14.54708398	     96.03999605	     87.25604063	      0.00000000	      0.00000000
      3.07000000	     -7.08259164	     -0.48676927	     -0.36913598	     -0.21059216	      1.05796040	     -0.93454729	      7.83364237	    -10.89976315	    -20.93569699	      2.98616797	      0.05211846	    -38.28117868	      0.00000000	      0.00000000	      8.61985749	    -10.63053097	    -14.64232326	      5.97172805	      0.10422632	    -35.12714556	      0.00000000	      0.00000000	    -10.03198366	     -0.55872075	     -7.99993031	    -28.14937114	    -42.64246540	     28.86114863	     96.49766059	     87.30852523	      0.00000000	      0.00000000	    -44.38644334	    -36.46454773	     14.28497277	     96.02839247	     87.29697641	      0.00000000	      0.00000000
      3.07500000	     -7.35369927	     -0.42323836	     -0.33799577	     -0.20822967	      1.07180898	     -0.93463729	      7.63133114	    -10.73280044	    -21.88420396	      1.77445986	      0.03097017	    -38.87577728	      0.00000000	      0.00000000	      8.12629764	    -10.30207381	    -15.25250012	      3.82524081	      0.06676305	    -37.26401821	      0.00000000	      0.00000000	     -9.25701663	     -0.66897429	     -7.99021131	    -28.22575564	    -42.15761738	     28.47629767	     96.08263979	     87.28639512	      0.00000000	      0.00000000	    -44.45617038	    -36.35786704	     14.01743776	     95.97902903	     87.26930282	      0.00000000	      0.00000000
      3.08000000	     -7.62256739	     -0.28730079	     -0.31544155	     -0.20605890	      1.08547706	     -0.93497290	      7.48160728	    -10.68644223	    -21.41933100	      0.96778683	      0.01689107	    -38.69430315	      0.00000000	      0.00000000	      7.78998373	     -9.91680165	    -15.74325637	      2.31898813	      0.04047398	    -37.58169818	      0.00000000	      0.00000000	     -8.52394732	     -0.83538059	     -8.01172423	    -28.22467388	    -41.73217168	     28.23224716	     95.61541529	     87.21883864	      0.00000000	      0.00000000	    -44.45992737	    -36.33294179	     14.01786202	     95.90803278	     87.20605887	      0.00000000	      0.00000000
      3.08500000	     -7.94132871	     -0.18290016	     -0.24011484	     -0.20442336	      1.09868953	     -0.93504038	      7.54056477	    -10.59717288	    -21.68394469	      0.67194591	      0.01172767	    -38.44274622	      0.00000000	      0.00000000	      7.77594542	     -9.65891632	    -16.12591699	      1.65430184	      0.02887301	    -37.34032100	      0.00000000	      0.00000000	     -7.81200039	     -0.99932533	     -8.10920760	    -28.05965094	    -41.30771892	     28.05582098	     95.40536572	     87.22652900	      0.00000000	      0.00000000	    -44.46926051	    -36.38598675	     14.04635667	     95.89681419	     87.23676459	      0.00000000	      0.00000000
      3.09000000	     -8.47747364	     -0.04628555	     -0.14702080	     -0.20399373	      1.11180568	     -0.93540256	      7.97408178	    -10.56228179	    -22.59600501	      0.67482355	      0.01177789	    -37.53839029	      0.00000000	      0.00000000	      8.16603304	     -9.34647773	    -15.82680364	      1.29829883	      0.02265959	    -36.98055970	      0.00000000	      0.00000000	     -7.01826007	     -1.12764748	     -7.53470782	    -28.95877082	    -40.18978853	     26.33283715	     94.62015743	     87.32344354	      0.00000000	      0.00000000	    -43.24074504	    -37.16434271	     15.28569902	     95.57822994	     87.28999747	      0.00000000	      0.00000000
      3.09500000	     -8.82180446	      0.02652644	     -0.11811819	     -0.20389383	      1.12445069	     -0.93565667	      8.20554040	    -10.48618576	    -23.42794938	      0.76850120	      0.01341288	    -37.02798774	      0.00000000	      0.00000000	      8.54298008	     -9.15217154	    -15.75868176	      1.45894418	      0.02546338	    -36.52439149	      0.00000000	      0.00000000	     -6.49417829	     -1.25144878	     -7.51428561	    -28.54003111	    -39.84716707	     26.23841206	     93.93111379	     87.31720642	      0.00000000	      0.00000000	    -42.93264031	    -37.28236160	     15.48258559	     95.37881727	     87.30894144	      0.00000000	      0.00000000
      3.10000000	     -9.01839692	      0.07375120	     -0.16023005	     -0.20461248	      1.13681041	     -0.93577077	      8.47023340	    -10.25157859	    -24.13589401	      1.01617925	      0.01773567	    -37.92054608	      0.00000000	      0.00000000	      8.93736040	     -9.07718986	    -15.66250320	      2.10001577	      0.03665219	    -36.86416924	      0.00000000	      0.00000000	     -6.27270777	     -1.35047937	     -7.42094394	    -28.01602494	    -39.55678467	     26.30741006	     93.34610064	     87.31774994	      0.00000000	      0.00000000	    -42.44978901	    -37.51050656	     15.75569336	     95.28944705	     87.31374538	      0.00000000	      0.00000000
      3.10500000	     -9.17967831	      0.08814431	     -0.13036542	     -0.20587199	      1.14919781	     -0.93603898	      8.76849636	    -10.11568689	    -25.24500224	      1.58861142	      0.02772650	    -38.32841853	      0.00000000	      0.00000000	      9.58833571	     -9.00200189	    -15.88343337	      3.16604456	      0.05525790	    -36.89018836	      0.00000000	      0.00000000	     -6.14026448	     -1.41392099	     -7.35718629	    -27.23598384	    -39.32244542	     26.69276117	     92.66297084	     87.32951300	      0.00000000	      0.00000000	    -41.63617794	    -37.97148455	     16.64107838	     94.94515218	     87.34956417	      0.00000000	      0.00000000
      3.11000000	     -9.25577595	      0.18986593	     -0.19840476	     -0.20773250	      1.16134260	     -0.93628293	      9.29757112	    -10.18878185	    -25.87282431	      3.00735837	      0.05248831	    -38.87646811	      0.00000000	      0.00000000	     10.28446330	     -8.92905719	    -16.03376951	      4.69137367	      0.08187992	    -37.51842896	      0.00000000	      0.00000000	     -6.21659766	     -1.57206341	     -7.18687116	    -26.39078391	    -39.18854910	     27.06549360	     92.01318771	     87.32345989	      0.00000000	      0.00000000	    -40.73400742	    -38.43525701	     17.39254899	     94.61921158	     87.34867424	      0.00000000	      0.00000000
      3.11500000	     -9.35079191	      0.30876483	     -0.29814265	     -0.20990167	      1.17326962	     -0.93652470	     10.00117828	    -10.33923651	    -26.26201039	      4.78550443	      0.08352281	    -39.01216273	      0.00000000	      0.00000000	     11.01500832	     -8.81993154	    -15.77079543	      6.27370903	      0.10949688	    -37.83414616	      0.00000000	      0.00000000	     -6.35282269	     -1.74999956	     -7.01794012	    -25.42249266	    -39.07749346	     27.58895123	     91.31072702	     87.32687894	      0.00000000	      0.00000000	    -39.78996034	    -38.87960913	     18.18016791	     94.23332526	     87.32916378	      0.00000000	      0.00000000
      3.12000000	     -9.39703525	      0.46342298	     -0.44474894	     -0.21228255	      1.18479491	     -0.93671415	     10.69090406	    -10.51394404	    -26.04192051	      6.48396678	      0.11316657	    -39.14268881	      0.00000000	      0.00000000	     11.74982514	     -8.72778306	    -15.52065839	      8.02489926	      0.14006091	    -38.09029497	      0.00000000	      0.00000000	     -6.57433899	     -1.95583571	     -6.81009818	    -24.40330105	    -39.19308688	     28.39533209	     90.77831388	     87.32015571	      0.00000000	      0.00000000	    -38.85210137	    -39.36370929	     19.01158769	     93.82719677	     87.33595763	      0.00000000	      0.00000000
      3.12500000	     -9.49929798	      0.62133286	     -0.57226444	     -0.21498556	      1.19599464	     -0.93677141	     11.45746844	    -10.66751535	    -25.29526192	      8.14499653	      0.14215701	    -39.21328614	      0.00000000	      0.00000000	     12.50908374	     -8.57811528	    -14.73531532	      9.54501569	      0.16659195	    -38.20840747	      0.00000000	      0.00000000	     -6.82127597	     -2.23158634	     -6.67159179	    -23.23523208	    -39.19662453	     29.27626424	     90.11891633	     87.31689511	      0.00000000	      0.00000000	    -38.00610103	    -39.88804659	     19.82052932	     93.51226233	     87.34389415	      0.00000000	      0.00000000
      3.13000000	     -9.56605589	      0.81808035	     -0.71047728	     -0.21740501	      1.20686337	     -0.93684169	     12.11686359	    -10.80417119	    -24.11156538	      9.62345567	      0.16796099	    -39.22850046	      0.00000000	      0.00000000	     13.12988197	     -8.31499270	    -13.89755738	     10.69921702	      0.18673656	    -38.09739738	      0.00000000	      0.00000000	     -7.12139033	     -2.56038459	     -6.53438961	    -22.22350943	    -39.25865345	     30.13842395	     89.56570317	     87.31152383	      0.00000000	      0.00000000	    -37.26573307	    -40.36237418	     20.48954839	     93.20944614	     87.35626184	      0.00000000	      0.00000000
      3.13500000	     -9.69938423	      0.88843199	     -0.82536620	     -0.21988674	      1.21726287	     -0.93683225	     12.84838740	    -10.75811298	    -22.74695563	     10.96662760	      0.19140376	    -39.29376429	      0.00000000	      0.00000000	     13.86229949	     -8.33498061	    -12.91871800	     12.12046020	      0.21154194	    -38.32481005	      0.00000000	      0.00000000	     -7.32394842	     -2.74944508	     -6.43736594	    -21.06294839	    -39.57645865	     31.43980197	     89.14142802	     87.30020143	      0.00000000	      0.00000000	    -36.46075273	    -40.90710420	     21.35619730	     92.93245060	     87.35467629	      0.00000000	      0.00000000
      3.14000000	     -9.71095558	      0.93587393	     -0.97512624	     -0.22212073	      1.22755036	     -0.93683423	     13.39604801	    -10.70795504	    -21.37163013	     12.20452065	      0.21300907	    -39.27991786	      0.00000000	      0.00000000	     14.34010374	     -8.32327846	    -12.02108804	     13.17527790	      0.22995198	    -38.35889759	      0.00000000	      0.00000000	     -7.63215764	     -2.89546831	     -6.38177962	    -19.86819880	    -39.97844322	     32.91291465	     88.84249452	     87.29677682	      0.00000000	      0.00000000	    -35.74311569	    -41.33435801	     22.13964165	     92.62783721	     87.34316701	      0.00000000	      0.00000000
      3.14500000	     -9.63841466	      0.90208829	     -1.03614022	     -0.22405376	      1.23782666	     -0.93683382	     13.76779488	    -10.58229814	    -20.19223987	     13.25525768	      0.23134789	    -39.26530967	      0.00000000	      0.00000000	     14.67055551	     -8.41276588	    -11.02019908	     14.08327396	      0.24579950	    -38.24027107	      0.00000000	      0.00000000	     -8.06776426	     -2.98502189	     -6.41931643	    -18.83757915	    -40.14634937	     34.04119803	     88.46276546	     87.27841436	      0.00000000	      0.00000000	    -35.11228452	    -41.69023680	     22.76829014	     92.38945045	     87.33027451	      0.00000000	      0.00000000
      3.15000000	     -9.56177606	      0.90986373	     -1.09213621	     -0.22580735	      1.24786276	     -0.93695405	     14.09911764	    -10.55090527	    -19.25672293	     14.21612823	      0.24811824	    -39.25107440	      0.00000000	      0.00000000	     15.01533583	     -8.45530717	    -10.45780199	     14.88246098	      0.25974794	    -37.91072097	      0.00000000	      0.00000000	     -8.42251906	     -3.06799541	     -6.65803101	    -17.34307230	    -40.60163716	     35.95604185	     88.12523819	     87.22422408	      0.00000000	      0.00000000	    -34.62270964	    -41.94783516	     23.44180513	     92.03493466	     87.27602639	      0.00000000	      0.00000000
      3.15500000	     -9.42476189	      0.68616498	     -1.14299778	     -0.22725315	      1.25788868	     -0.93686560	     14.33676137	    -10.28918387	    -18.38501280	     15.20399011	      0.26535969	    -39.16058744	      0.00000000	      0.00000000	     15.22485340	     -8.85247473	     -9.86657131	     15.69055297	      0.27385181	    -37.61475293	      0.00000000	      0.00000000	     -8.82828573	     -2.93136966	     -6.82547282	    -16.07465356	    -40.90357011	     37.51737745	     87.76418999	     87.17115816	      0.00000000	      0.00000000	    -34.26833470	    -42.02423625	     23.73826309	     91.80342855	     87.26276315	      0.00000000	      0.00000000
      3.16000000	     -9.18148612	      0.63624976	     -1.21401195	     -0.22830578	      1.26768991	     -0.93691128	     14.29265718	    -10.21187250	    -17.69592877	     15.73251521	      0.27458419	    -39.22347778	      0.00000000	      0.00000000	     15.17396969	     -9.10428130	     -9.17712843	     16.30892369	      0.28464442	    -37.83220756	      0.00000000	      0.00000000	     -9.36847659	     -2.97288835	     -6.77917044	    -15.78157432	    -40.85296522	     37.67698020	     87.76573311	     87.17411650	      0.00000000	      0.00000000	    -33.97693545	    -42.12498858	     23.75758081	     91.63659758	     87.26289713	      0.00000000	      0.00000000
      3.16500000	     -9.27025566	      0.29132773	     -1.22758285	     -0.22950916	      1.27686067	     -0.93707786	     14.79026037	     -9.90653280	    -16.92583421	     16.76562876	      0.29261542	    -38.96718254	      0.00000000	      0.00000000	     15.71558444	     -9.74946999	     -8.86641735	     17.41621697	      0.30397033	    -37.49239401	      0.00000000	      0.00000000	     -9.43163595	     -2.63690992	     -6.86397314	    -14.93538073	    -41.27636833	     39.01625145	     87.66098790	     87.18148341	      0.00000000	      0.00000000	    -33.21063390	    -42.31627921	     24.87286178	     91.23447544	     87.29038246	      0.00000000	      0.00000000
      3.17000000	     -9.02557608	      0.20049909	     -1.23546061	     -0.23022432	      1.28644065	     -0.93737898	     14.73261944	     -9.85444138	    -16.28122660	     17.27906079	      0.30157650	    -38.93174669	      0.00000000	      0.00000000	     15.65779596	     -9.99588599	     -8.34000866	     17.79754145	      0.31062570	    -37.00173912	      0.00000000	      0.00000000	     -9.86596396	     -2.55189027	     -6.90181612	    -14.72155770	    -41.26705341	     39.19939586	     87.55064293	     87.16867612	      0.00000000	      0.00000000	    -32.84130436	    -42.27196180	     25.01530603	     91.00208348	     87.27844601	      0.00000000	      0.00000000
      3.17500000	     -9.08893732	     -0.01640070	     -1.31785562	     -0.23089249	      1.29529107	     -0.93755409	     15.00060045	     -9.66233832	    -15.74341598	     17.76597598	      0.31007478	    -38.74032481	      0.00000000	      0.00000000	     15.92192939	    -10.44413834	     -7.76620750	     18.33920581	      0.32007952	    -35.97446581	      0.00000000	      0.00000000	     -9.90371356	     -2.39491523	     -6.94699419	    -14.33492997	    -41.50205980	     39.81931504	     87.57740754	     87.15570363	      0.00000000	      0.00000000	    -32.36848446	    -42.22787243	     25.59373165	     90.59998370	     87.25202900	      0.00000000	      0.00000000
      3.18000000	     -8.98078483	     -0.12147476	     -1.35906216	     -0.23125068	      1.30426632	     -0.93788441	     15.01063841	     -9.59851103	    -15.18452179	     18.04172685	      0.31488754	    -38.72941001	      0.00000000	      0.00000000	     15.89823877	    -10.74310674	     -7.27986176	     18.56623963	      0.32404201	    -35.77768461	      0.00000000	      0.00000000	    -10.11237837	     -2.30673835	     -7.04487774	    -14.23354643	    -41.50492992	     39.86085756	     87.55115304	     87.14870089	      0.00000000	      0.00000000	    -32.16945763	    -42.09152617	     25.68509592	     90.43483645	     87.24599847	      0.00000000	      0.00000000
      3.18500000	     -9.03190926	     -0.25916173	     -1.40644566	     -0.23158003	      1.31273089	     -0.93823681	     15.09752458	     -9.34080743	    -13.66737844	     18.01293560	      0.31438503	    -38.46018512	      0.00000000	      0.00000000	     15.96457543	    -11.00849743	     -6.41540633	     18.61748374	      0.32493639	    -34.82279013	      0.00000000	      0.00000000	    -10.11194230	     -2.16305098	     -7.10543941	    -14.25834450	    -41.56081500	     39.84246792	     87.63471724	     87.13515894	      0.00000000	      0.00000000	    -31.93403376	    -41.88100701	     25.82175726	     90.04032623	     87.22807772	      0.00000000	      0.00000000
      3.19000000	     -9.17376750	     -0.35133072	     -1.51095392	     -0.23189872	      1.32081993	     -0.93860780	     15.17738094	     -9.16614077	    -12.67263952	     17.60329863	      0.30723552	    -38.47794093	      0.00000000	      0.00000000	     15.99519217	    -11.20368441	     -5.70378124	     18.39788213	      0.32110362	    -33.81465977	      0.00000000	      0.00000000	     -9.94650086	     -2.04838325	     -7.17547179	    -14.39151904	    -41.62239893	     39.68245201	     87.75614353	     87.11929150	      0.00000000	      0.00000000	    -31.79876154	    -41.64421933	     25.84618265	     89.76130430	     87.21614092	      0.00000000	      0.00000000
      3.19500000	     -9.18595828	     -0.66076812	     -1.56073303	     -0.23197203	      1.32896500	     -0.93891720	     14.93097976	     -8.72431565	    -11.71247389	     16.96144156	      0.29603300	    -38.35755779	      0.00000000	      0.00000000	     15.90061086	    -11.63358423	     -4.90578667	     18.18292985	      0.31735199	    -32.99380835	      0.00000000	      0.00000000	     -9.92492359	     -1.67549631	     -6.86992180	    -15.37551703	    -41.43498613	     38.44575099	     87.93568940	     87.10552875	      0.00000000	      0.00000000	    -31.22077235	    -41.56851717	     26.22043728	     89.50218075	     87.22540356	      0.00000000	      0.00000000
      3.20000000	     -9.30672596	     -0.73080471	     -1.64560146	     -0.23206612	      1.33657512	     -0.93927274	     14.93244085	     -8.59185774	    -10.84167860	     16.46903328	      0.28743886	    -38.07772052	      0.00000000	      0.00000000	     15.78535679	    -11.77763781	     -4.22662399	     17.68487837	      0.30865936	    -31.78831540	      0.00000000	      0.00000000	     -9.79301757	     -1.59921285	     -6.91414271	    -15.78580930	    -41.38836772	     37.95009201	     88.11048892	     87.11045177	      0.00000000	      0.00000000	    -31.24156535	    -41.28070409	     25.97456063	     89.26933121	     87.19393071	      0.00000000	      0.00000000
      3.20500000	     -9.44034295	     -0.88121021	     -1.75130584	     -0.23201628	      1.34395564	     -0.93959969	     14.77793886	     -8.34135942	     -9.97335193	     15.57204916	      0.27178353	    -37.83497870	      0.00000000	      0.00000000	     15.61437674	    -12.00642273	     -3.67113336	     17.05242322	      0.29762093	    -30.49028364	      0.00000000	      0.00000000	     -9.61183649	     -1.41486706	     -6.91278585	    -16.33152016	    -41.31308316	     37.25653525	     88.29315799	     87.11320002	      0.00000000	      0.00000000	    -31.33370574	    -40.98428748	     25.62696135	     89.13722045	     87.18191940	      0.00000000	      0.00000000
      3.21000000	     -9.55807355	     -1.03439292	     -1.86091819	     -0.23188964	      1.35107949	     -0.93985753	     14.46993915	     -8.07966655	     -8.96433671	     14.33386133	      0.25017307	    -37.63299039	      0.00000000	      0.00000000	     15.42733717	    -12.27645792	     -3.50755296	     16.39486146	      0.28614431	    -29.33964255	      0.00000000	      0.00000000	     -9.45924114	     -1.19810757	     -6.24729058	    -18.37472243	    -40.75624724	     34.58614939	     88.75058056	     87.19192443	      0.00000000	      0.00000000	    -30.49985128	    -41.21987117	     26.39021248	     88.99631125	     87.21835466	      0.00000000	      0.00000000
      3.21500000	     -9.64681756	     -1.16154982	     -1.98932879	     -0.23167896	      1.35790853	     -0.94019960	     14.23886869	     -7.89784473	     -8.29434748	     13.36550088	      0.23327200	    -37.03740164	      0.00000000	      0.00000000	     15.12659747	    -12.50752732	     -3.40551480	     15.63956243	      0.27296186	    -27.85342477	      0.00000000	      0.00000000	     -9.28227218	     -1.03710473	     -6.25119187	    -18.81245856	    -40.77382867	     34.14702816	     88.97141532	     87.17656109	      0.00000000	      0.00000000	    -30.71653373	    -40.90964521	     25.91286612	     88.91301169	     87.18917515	      0.00000000	      0.00000000
      3.22000000	     -9.77127631	     -1.29278701	     -2.13986251	     -0.23153504	      1.36448056	     -0.94046973	     13.94938378	     -7.70145866	     -7.49545192	     12.03451309	      0.21004188	    -36.73279354	      0.00000000	      0.00000000	     14.86503947	    -12.76559983	     -3.59706188	     14.86744363	      0.25948584	    -26.58719167	      0.00000000	      0.00000000	     -9.10030530	     -0.88507521	     -6.18211456	    -19.41877989	    -40.65948970	     33.40517484	     89.20594434	     87.16781528	      0.00000000	      0.00000000	    -31.01989278	    -40.60966165	     25.28752307	     88.97347303	     87.18337519	      0.00000000	      0.00000000
      3.22500000	     -9.86905610	     -1.37728954	     -2.28664174	     -0.23124071	      1.37079228	     -0.94078265	     13.64099904	     -7.58255364	     -7.01048785	     10.83931648	      0.18918176	    -36.17090334	      0.00000000	      0.00000000	     14.60014283	    -12.99429250	     -4.29626546	     14.13561345	      0.24671300	    -25.60486546	      0.00000000	      0.00000000	     -8.93683917	     -0.77250176	     -6.03155751	    -20.12992917	    -40.55116961	     32.50810018	     89.43113514	     87.24203823	      0.00000000	      0.00000000	    -31.25476786	    -40.38145753	     24.77440151	     89.09417359	     87.23056612	      0.00000000	      0.00000000
      3.23000000	     -9.97021724	     -1.41685089	     -2.42621726	     -0.23094250	      1.37673528	     -0.94115788	     13.41751425	     -7.54560259	     -6.61795732	      9.86558766	      0.17218699	    -35.23332096	      0.00000000	      0.00000000	     14.33967799	    -13.15421794	     -4.96316431	     13.43939912	      0.23456176	    -24.59936215	      0.00000000	      0.00000000	     -8.75169898	     -0.70684620	     -5.92375578	    -20.66133772	    -40.57348872	     32.14356855	     89.73336033	     87.20718005	      0.00000000	      0.00000000	    -31.40594826	    -40.24535367	     24.48272662	     89.14506349	     87.22755509	      0.00000000	      0.00000000
      3.23500000	    -10.02485749	     -1.45137544	     -2.56903097	     -0.23076986	      1.38262448	     -0.94158305	     13.18837488	     -7.53365151	     -6.43151289	      8.96767613	      0.15651547	    -34.34098207	      0.00000000	      0.00000000	     14.05975060	    -13.30774678	     -5.99322999	     12.78678035	      0.22317142	    -23.69008324	      0.00000000	      0.00000000	     -8.66260835	     -0.63571428	     -5.81754198	    -21.18213715	    -40.52887521	     31.60227278	     89.97035481	     87.18358117	      0.00000000	      0.00000000	    -31.58694818	    -40.06458122	     24.08206603	     89.25516464	     87.23014761	      0.00000000	      0.00000000
      3.24000000	    -10.14888522	     -1.43609248	     -2.69753362	     -0.23071088	      1.38813140	     -0.94207766	     13.09589361	     -7.59163876	     -6.38402620	      8.18501004	      0.14285537	    -33.34510642	      0.00000000	      0.00000000	     13.91263588	    -13.41360888	     -7.11659984	     12.24998873	      0.21380264	    -23.16547364	      0.00000000	      0.00000000	     -8.47018968	     -0.61315139	     -5.70549004	    -21.52348654	    -40.57076497	     31.27069204	     90.17894963	     87.20259483	      0.00000000	      0.00000000	    -31.66481609	    -39.96281687	     23.83876475	     89.37968383	     87.23748726	      0.00000000	      0.00000000
      3.24500000	    -10.19093910	     -1.40391121	     -2.80712850	     -0.23057461	      1.39346049	     -0.94258857	     12.95768395	     -7.69106252	     -6.56827622	      7.53181989	      0.13145506	    -32.51379095	      0.00000000	      0.00000000	     13.69140362	    -13.47771823	     -8.34271615	     11.74645430	      0.20501430	    -22.72410613	      0.00000000	      0.00000000	     -8.39755115	     -0.62226272	     -5.58152871	    -21.92891628	    -40.61662409	     31.00555640	     90.39069083	     87.23638145	      0.00000000	      0.00000000	    -31.76074654	    -39.90903318	     23.61916514	     89.52499407	     87.24551924	      0.00000000	      0.00000000
      3.25000000	    -10.28601430	     -1.40233715	     -2.85540481	     -0.23040005	      1.39844648	     -0.94318506	     12.90526920	     -7.77817367	     -7.03538527	      6.99762655	      0.12213162	    -31.95288081	      0.00000000	      0.00000000	     13.65475298	    -13.56126831	    -10.29619365	     11.28848625	      0.19702125	    -22.82532746	      0.00000000	      0.00000000	     -8.25845626	     -0.57020947	     -5.51516469	    -22.27935546	    -40.64398664	     30.89383893	     90.56959430	     87.21519556	      0.00000000	      0.00000000	    -31.79306388	    -39.85516072	     23.50222303	     89.64243630	     87.24748701	      0.00000000	      0.00000000
      3.25500000	    -10.49410496	     -1.37200249	     -2.89185039	     -0.23054553	      1.40317335	     -0.94388230	     13.02673346	     -7.90297157	     -7.55525417	      6.55231363	      0.11435945	    -31.43703618	      0.00000000	      0.00000000	     13.69950163	    -13.57367197	    -11.11930932	     10.93886544	      0.19091922	    -22.61515260	      0.00000000	      0.00000000	     -8.00553957	     -0.53547052	     -5.46667970	    -22.44079234	    -40.71752411	     30.91576675	     90.65515920	     87.21457721	      0.00000000	      0.00000000	    -31.74925108	    -39.82007584	     23.45603459	     89.74443724	     87.25221791	      0.00000000	      0.00000000
      3.26000000	    -10.49419958	     -1.26530384	     -2.98174741	     -0.23077556	      1.40784335	     -0.94453774	     12.99604747	     -8.11928348	     -8.17951760	      6.22168312	      0.10858886	    -30.92109198	      0.00000000	      0.00000000	     13.52173290	    -13.56009471	    -11.86209296	     10.82678781	      0.18896309	    -22.54877474	      0.00000000	      0.00000000	     -8.01325066	     -0.57455241	     -5.38514986	    -22.52212719	    -40.80212183	     30.83360982	     90.80826716	     87.23067880	      0.00000000	      0.00000000	    -31.66702121	    -39.81723532	     23.40164597	     89.83106208	     87.25760602	      0.00000000	      0.00000000
      3.26500000	    -10.65956064	     -1.24245947	     -2.96925928	     -0.23113203	      1.41211590	     -0.94535941	     13.13322852	     -8.26253331	     -8.72349973	      5.96485336	      0.10410633	    -30.71174212	      0.00000000	      0.00000000	     13.58548901	    -13.55052903	    -12.49605216	     10.60527816	      0.18509702	    -22.52136861	      0.00000000	      0.00000000	     -7.84142226	     -0.51290614	     -5.38299002	    -22.53799185	    -40.86202190	     30.85464825	     90.83679685	     87.23318591	      0.00000000	      0.00000000	    -31.50961415	    -39.77610121	     23.34434596	     89.92482432	     87.25484575	      0.00000000	      0.00000000
      3.27000000	    -10.67504103	     -1.13966218	     -2.98850168	     -0.23123396	      1.41635319	     -0.94612478	     13.18377801	     -8.51277056	     -9.88576207	      5.87460305	      0.10253117	    -30.76088295	      0.00000000	      0.00000000	     13.56389181	    -13.50054300	    -13.75787519	     10.57161333	      0.18450946	    -23.07792606	      0.00000000	      0.00000000	     -7.82086087	     -0.55773833	     -5.36707285	    -22.60801394	    -40.86956725	     30.98586448	     90.86807199	     87.20113646	      0.00000000	      0.00000000	    -31.42300482	    -39.82235018	     23.47684395	     89.90712253	     87.26422342	      0.00000000	      0.00000000
      3.27500000	    -10.76093340	     -1.08094380	     -2.98249349	     -0.23158901	      1.42026074	     -0.94700856	     13.33067145	     -8.70882409	    -10.85823982	      5.80491263	      0.10131484	    -30.56142690	      0.00000000	      0.00000000	     13.61966572	    -13.46324948	    -14.59074181	     10.53919479	      0.18394365	    -23.40424220	      0.00000000	      0.00000000	     -7.73722545	     -0.52672357	     -5.36113045	    -22.53050591	    -40.93296209	     31.06991580	     90.82164920	     87.22511947	      0.00000000	      0.00000000	    -31.20205822	    -39.83379417	     23.64773839	     89.88548572	     87.26925039	      0.00000000	      0.00000000
      3.28000000	    -10.87251285	     -0.98878345	     -2.99978038	     -0.23184501	      1.42378470	     -0.94780254	     13.47685522	     -8.92787159	    -11.78081917	      5.73966617	      0.10017607	    -30.60766519	      0.00000000	      0.00000000	     13.69928654	    -13.38646367	    -15.29950642	     10.54869707	      0.18410950	    -23.70815726	      0.00000000	      0.00000000	     -7.61084293	     -0.54724551	     -5.36200879	    -22.46473855	    -40.99161911	     31.21090942	     90.77291840	     87.22811255	      0.00000000	      0.00000000	    -31.01626637	    -39.87386232	     23.83358833	     89.86030098	     87.26510050	      0.00000000	      0.00000000
      3.28500000	    -10.98899629	     -0.91915731	     -3.01131412	     -0.23228038	      1.42722690	     -0.94867461	     13.66776340	     -9.12371251	    -12.50807522	      5.77719057	      0.10083100	    -30.71926220	      0.00000000	      0.00000000	     13.82008858	    -13.31768910	    -15.84559768	     10.61935084	      0.18534264	    -24.03663901	      0.00000000	      0.00000000	     -7.52644610	     -0.52524840	     -5.32869612	    -22.39561124	    -41.00844206	     31.32939312	     90.67397290	     87.23098614	      0.00000000	      0.00000000	    -30.79562074	    -39.89352108	     23.99257066	     89.79918548	     87.26326724	      0.00000000	      0.00000000
      3.29000000	    -11.02534373	     -0.92076386	     -3.03672647	     -0.23280168	      1.43036722	     -0.94936685	     13.72462696	     -9.20892714	    -12.55523930	      5.76733960	      0.10065907	    -30.72834188	      0.00000000	      0.00000000	     13.80878870	    -13.29906848	    -15.87189501	     10.64306460	      0.18575652	    -24.07028018	      0.00000000	      0.00000000	     -7.55917289	     -0.43838130	     -5.33963389	    -22.36789289	    -41.00647272	     31.33103319	     90.66726760	     87.23029153	      0.00000000	      0.00000000	    -30.75019837	    -39.90772429	     23.99103233	     89.80799410	     87.26255238	      0.00000000	      0.00000000
      3.29500000	    -11.07134795	     -0.85759002	     -2.95942721	     -0.23348839	      1.43337453	     -0.95035085	     13.97215241	     -9.45248632	    -13.85059416	      6.04905463	      0.10557592	    -31.35223559	      0.00000000	      0.00000000	     14.16694194	    -13.27612318	    -17.33320144	     11.07879944	      0.19336153	    -24.90550088	      0.00000000	      0.00000000	     -7.54614151	     -0.41970705	     -5.40328696	    -22.01946284	    -41.07294307	     31.71018271	     90.46154973	     87.24330954	      0.00000000	      0.00000000	    -30.17032164	    -40.09371834	     24.64095569	     89.69430654	     87.27358985	      0.00000000	      0.00000000
      3.30000000	    -11.12754774	     -0.76574065	     -3.05630862	     -0.23406411	      1.43607206	     -0.95102694	     14.06187367	     -9.60907370	    -13.93751009	      6.05631043	      0.10570256	    -31.40814902	      0.00000000	      0.00000000	     14.15810287	    -13.20175080	    -16.98545709	     11.29881967	      0.19720160	    -24.97796440	      0.00000000	      0.00000000	     -7.54055871	     -0.45112914	     -5.28824166	    -21.90215810	    -41.11882006	     31.75220831	     90.39978130	     87.24127596	      0.00000000	      0.00000000	    -30.00202975	    -40.12441782	     24.69378408	     89.66386968	     87.26798064	      0.00000000	      0.00000000
      3.30500000	    -11.23031024	     -0.66687231	     -2.93378772	     -0.23447122	      1.43842123	     -0.95203087	     14.22929197	     -9.85535492	    -14.25294607	      6.23449808	      0.10881252	    -31.82232407	      0.00000000	      0.00000000	     14.41017039	    -13.04976818	    -16.79428858	     11.65940237	      0.20349496	    -25.09818949	      0.00000000	      0.00000000	     -7.43528562	     -0.46623816	     -5.39080057	    -21.75675572	    -41.11867483	     31.96232428	     90.20149611	     87.24497681	      0.00000000	      0.00000000	    -29.66377841	    -40.22529373	     25.07569284	     89.53226741	     87.27175330	      0.00000000	      0.00000000
      3.31000000	    -11.30237966	     -0.73596398	     -2.83040455	     -0.23514320	      1.44058096	     -0.95283785	     14.31871327	     -9.88823498	    -14.69308158	      6.31680396	      0.11024903	    -31.94453514	      0.00000000	      0.00000000	     14.72879765	    -13.12019737	    -17.48944385	     12.03864155	      0.21011393	    -25.44468311	      0.00000000	      0.00000000	     -7.42383971	     -0.29822959	     -5.48084269	    -21.49371607	    -41.20976559	     32.28415230	     90.09817278	     87.24929792	      0.00000000	      0.00000000	    -29.24122792	    -40.45445800	     25.67251989	     89.41068587	     87.26614698	      0.00000000	      0.00000000
      3.31500000	    -11.40738406	     -0.62564411	     -2.78911432	     -0.23584843	      1.44247999	     -0.95362498	     14.49707413	    -10.09311832	    -14.53501149	      6.47427177	      0.11299736	    -32.28215199	      0.00000000	      0.00000000	     14.86916176	    -12.93559580	    -16.33309534	     12.37051033	      0.21590614	    -24.87340086	      0.00000000	      0.00000000	     -7.35045002	     -0.34013152	     -5.51432176	    -21.22221528	    -41.28942811	     32.63874644	     89.94905439	     87.24814719	      0.00000000	      0.00000000	    -28.78819807	    -40.66803898	     26.23166326	     89.28363482	     87.25802949	      0.00000000	      0.00000000
      3.32000000	    -11.49276940	     -0.63150545	     -2.78006589	     -0.23632427	      1.44414298	     -0.95430638	     14.59941030	    -10.14596442	    -14.56985077	      6.57261363	      0.11471375	    -32.54236007	      0.00000000	      0.00000000	     15.08718491	    -12.94058551	    -16.23495299	     12.79005697	      0.22322861	    -25.09327853	      0.00000000	      0.00000000	     -7.26163465	     -0.26156416	     -5.46911607	    -21.00645563	    -41.39323502	     32.97954542	     89.83077253	     87.24853087	      0.00000000	      0.00000000	    -28.36785815	    -40.83359440	     26.72354297	     89.18058426	     87.23231376	      0.00000000	      0.00000000
      3.32500000	    -11.51659023	     -0.61260310	     -2.91657235	     -0.23694614	      1.44567186	     -0.95468138	     14.64105621	    -10.18651294	    -14.79056309	      6.61378981	      0.11543241	    -32.65565123	      0.00000000	      0.00000000	     15.10983540	    -12.91305814	    -16.03643357	     12.96645775	      0.22630738	    -25.17019808	      0.00000000	      0.00000000	     -7.33138719	     -0.24046691	     -5.31912602	    -20.84752786	    -41.42264045	     32.99704778	     89.80704484	     87.24507799	      0.00000000	      0.00000000	    -28.22899466	    -40.90202478	     26.72519438	     89.15747161	     87.22714772	      0.00000000	      0.00000000
      3.33000000	    -11.50643941	     -0.64623649	     -2.67587608	     -0.23729859	      1.44687873	     -0.95571198	     14.47887693	    -10.22312940	    -13.94415487	      6.49670068	      0.11338882	    -33.16007988	      0.00000000	      0.00000000	     15.41653918	    -12.86568976	    -16.07923711	     13.48445871	      0.23534820	    -25.22363360	      0.00000000	      0.00000000	     -7.33033483	     -0.10432813	     -5.41726974	    -20.73577875	    -41.50364594	     33.30641717	     89.69728300	     87.15529134	      0.00000000	      0.00000000	    -27.54206586	    -41.20352206	     27.70543059	     88.99245617	     87.11992336	      0.00000000	      0.00000000
      3.33500000	    -11.60966698	     -0.54988676	     -2.58679039	     -0.23793401	      1.44778426	     -0.95649754	     14.64059730	    -10.40562326	    -13.76758220	      6.74167717	      0.11766446	    -33.22382167	      0.00000000	      0.00000000	     15.59542255	    -12.66339024	    -14.71386127	     13.86078579	      0.24191635	    -24.79577459	      0.00000000	      0.00000000	     -7.26103238	     -0.14203861	     -5.49788449	    -20.48721888	    -41.57839378	     33.55683019	     89.59760670	     87.20627272	      0.00000000	      0.00000000	    -27.27143793	    -41.33461448	     28.00513490	     88.91930242	     87.18564853	      0.00000000	      0.00000000
      3.34000000	    -11.72379648	     -0.57452860	     -2.50447872	     -0.23838197	      1.44845490	     -0.95714221	     14.68450132	    -10.41472103	    -13.45368060	      6.77104973	      0.11817711	    -33.39208254	      0.00000000	      0.00000000	     15.87128579	    -12.61671834	    -14.03284537	     14.27937637	      0.24922213	    -24.58402760	      0.00000000	      0.00000000	     -7.14871801	     -0.05756772	     -5.46325659	    -20.38070397	    -41.64365173	     33.78049837	     89.52831210	     87.22114024	      0.00000000	      0.00000000	    -26.80478881	    -41.54664867	     28.59902983	     88.81725602	     87.15534150	      0.00000000	      0.00000000
      3.34500000	    -11.77635621	     -0.55774891	     -2.47467116	     -0.23864197	      1.44893644	     -0.95778043	     14.68805318	    -10.46495001	    -13.04643980	      6.88495992	      0.12016522	    -33.42940716	      0.00000000	      0.00000000	     15.99715725	    -12.51346165	    -13.42820268	     14.58664155	      0.25458492	    -24.36620920	      0.00000000	      0.00000000	     -7.07725005	     -0.04058932	     -5.36815111	    -20.33239810	    -41.65702448	     33.89333990	     89.42384014	     87.18917594	      0.00000000	      0.00000000	    -26.36458865	    -41.71962277	     29.17603642	     88.69703568	     87.10472899	      0.00000000	      0.00000000
      3.35000000	    -11.82779165	     -0.51897162	     -2.44989384	     -0.23897486	      1.44914552	     -0.95842190	     14.70856424	    -10.52909546	    -12.54293071	      7.00376984	      0.12223884	    -33.45145502	      0.00000000	      0.00000000	     16.13491206	    -12.39812936	    -12.85818967	     14.90326488	      0.26011104	    -24.35577565	      0.00000000	      0.00000000	     -7.02458000	     -0.00534615	     -5.39225236	    -20.15150277	    -41.72429898	     34.08283554	     89.39670870	     87.17446067	      0.00000000	      0.00000000	    -26.14224776	    -41.84570796	     29.48222029	     88.64206799	     87.06451310	      0.00000000	      0.00000000
      3.35500000	    -11.89884377	     -0.47709434	     -2.44385302	     -0.23936386	      1.44912991	     -0.95909396	     14.89570232	    -10.63008969	    -12.31037298	      7.43123725	      0.12969956	    -33.34624736	      0.00000000	      0.00000000	     16.35665733	    -12.30889260	    -12.59850190	     15.33482484	      0.26764318	    -24.21325223	      0.00000000	      0.00000000	     -6.95086226	      0.00868955	     -5.20924164	    -20.32492387	    -41.68865595	     33.85501781	     89.37726375	     87.35505293	      0.00000000	      0.00000000	    -25.71021426	    -41.95191964	     29.90126717	     88.57352469	     87.06704408	      0.00000000	      0.00000000
