Model Marker Errors from IK
version=1
nRows=761
nColumns=4
inDegrees=no
endheader
time	total_squared_error	marker_error_RMS	marker_error_max
      3.60000000	      0.08369077	      0.03704025	      0.09512343
      3.60500000	      0.08412344	      0.03713587	      0.09457600
      3.61000000	      0.08455514	      0.03723103	      0.09541718
      3.61500000	      0.08491753	      0.03731073	      0.09506317
      3.62000000	      0.08547936	      0.03743396	      0.09595591
      3.62500000	      0.08596053	      0.03753917	      0.09647072
      3.63000000	      0.08650130	      0.03765706	      0.09659234
      3.63500000	      0.08694073	      0.03775259	      0.09603839
      3.64000000	      0.08739266	      0.03785058	      0.09644649
      3.64500000	      0.08779914	      0.03793850	      0.09733256
      3.65000000	      0.08818610	      0.03802202	      0.09682024
      3.65500000	      0.08876508	      0.03814663	      0.09765811
      3.66000000	      0.08901926	      0.03820121	      0.09779605
      3.66500000	      0.08938102	      0.03827875	      0.09716005
      3.67000000	      0.08979069	      0.03836637	      0.09835435
      3.67500000	      0.09007925	      0.03842797	      0.09764513
      3.68000000	      0.09050042	      0.03851770	      0.09794606
      3.68500000	      0.09075911	      0.03857271	      0.09863598
      3.69000000	      0.09113226	      0.03865193	      0.09907092
      3.69500000	      0.09130226	      0.03868796	      0.09815677
      3.70000000	      0.09162265	      0.03875578	      0.09877710
      3.70500000	      0.09187418	      0.03880894	      0.09934356
      3.71000000	      0.09210003	      0.03885662	      0.09861597
      3.71500000	      0.09237135	      0.03891381	      0.09952965
      3.72000000	      0.09261826	      0.03896578	      0.09984531
      3.72500000	      0.09273530	      0.03899039	      0.09873813
      3.73000000	      0.09299069	      0.03904405	      0.09981900
      3.73500000	      0.09306341	      0.03905931	      0.09950085
      3.74000000	      0.09322575	      0.03909336	      0.09885498
      3.74500000	      0.09345743	      0.03914191	      0.09984543
      3.75000000	      0.09404434	      0.03926462	      0.10117584
      3.75500000	      0.09399652	      0.03925464	      0.10064124
      3.76000000	      0.09404464	      0.03926468	      0.09948447
      3.76500000	      0.09431154	      0.03932036	      0.10011785
      3.77000000	      0.09471584	      0.03940455	      0.10034772
      3.77500000	      0.09486853	      0.03943630	      0.10007219
      3.78000000	      0.09516993	      0.03949890	      0.10074258
      3.78500000	      0.09560346	      0.03958876	      0.10130061
      3.79000000	      0.09578833	      0.03962702	      0.10157732
      3.79500000	      0.09604828	      0.03968075	      0.10137461
      3.80000000	      0.09635280	      0.03974360	      0.10208645
      3.80500000	      0.09687826	      0.03985183	      0.10286063
      3.81000000	      0.09733415	      0.03994549	      0.10391722
      3.81500000	      0.09712977	      0.03990352	      0.10128245
      3.82000000	      0.09742453	      0.03996403	      0.10197509
      3.82500000	      0.09793839	      0.04006928	      0.10232667
      3.83000000	      0.09850995	      0.04018603	      0.10239688
      3.83500000	      0.09909098	      0.04030437	      0.10309117
      3.84000000	      0.09927433	      0.04034164	      0.10321817
      3.84500000	      0.09984611	      0.04045765	      0.10397948
      3.85000000	      0.09996034	      0.04048079	      0.10269381
      3.85500000	      0.10058407	      0.04060688	      0.10335821
      3.86000000	      0.10132788	      0.04075675	      0.10409731
      3.86500000	      0.10217671	      0.04092711	      0.10509806
      3.87000000	      0.10242240	      0.04097628	      0.10473149
      3.87500000	      0.10297684	      0.04108704	      0.10394816
      3.88000000	      0.10359850	      0.04121087	      0.10466835
      3.88500000	      0.10416037	      0.04132248	      0.10512001
      3.89000000	      0.10505883	      0.04150031	      0.10609794
      3.89500000	      0.10583444	      0.04165322	      0.10667402
      3.90000000	      0.10605458	      0.04169652	      0.10546081
      3.90500000	      0.10690898	      0.04186414	      0.10632636
      3.91000000	      0.10789843	      0.04205742	      0.10729396
      3.91500000	      0.10819111	      0.04211442	      0.10720532
      3.92000000	      0.10897175	      0.04226609	      0.10728765
      3.92500000	      0.10963998	      0.04239548	      0.10768971
      3.93000000	      0.11026630	      0.04251640	      0.10790661
      3.93500000	      0.11093960	      0.04264601	      0.10715615
      3.94000000	      0.11178368	      0.04280794	      0.10808759
      3.94500000	      0.11247216	      0.04293956	      0.10848013
      3.95000000	      0.11339486	      0.04311533	      0.10898053
      3.95500000	      0.11428589	      0.04328440	      0.11042690
      3.96000000	      0.11484582	      0.04339030	      0.10990884
      3.96500000	      0.11569167	      0.04354980	      0.11001286
      3.97000000	      0.11680456	      0.04375876	      0.11122300
      3.97500000	      0.11783639	      0.04395161	      0.11170909
      3.98000000	      0.11818674	      0.04401690	      0.11006295
      3.98500000	      0.11907084	      0.04418123	      0.11090210
      3.99000000	      0.12002199	      0.04435734	      0.11178024
      3.99500000	      0.12067274	      0.04447743	      0.11198057
      4.00000000	      0.12191739	      0.04470622	      0.11323069
      4.00500000	      0.12284685	      0.04487630	      0.11369407
      4.01000000	      0.12326617	      0.04495283	      0.11347738
      4.01500000	      0.12397985	      0.04508277	      0.11246174
      4.02000000	      0.12480646	      0.04523282	      0.11316598
      4.02500000	      0.12569560	      0.04539365	      0.11389571
      4.03000000	      0.12680371	      0.04559330	      0.11482462
      4.03500000	      0.12757970	      0.04573260	      0.11495264
      4.04000000	      0.12845581	      0.04588936	      0.11533421
      4.04500000	      0.12919502	      0.04602120	      0.11449437
      4.05000000	      0.12992338	      0.04615075	      0.11519230
      4.05500000	      0.13099095	      0.04633997	      0.11627818
      4.06000000	      0.13214014	      0.04654280	      0.11731835
      4.06500000	      0.13333063	      0.04675198	      0.11784435
      4.07000000	      0.13360767	      0.04680053	      0.11721741
      4.07500000	      0.13425768	      0.04691424	      0.11639156
      4.08000000	      0.13534941	      0.04710459	      0.11717455
      4.08500000	      0.13641361	      0.04728941	      0.11810164
      4.09000000	      0.13700604	      0.04739199	      0.11810064
      4.09500000	      0.13794628	      0.04755433	      0.11885549
      4.10000000	      0.13865523	      0.04767637	      0.11893436
      4.10500000	      0.13974714	      0.04786373	      0.11957319
      4.11000000	      0.14050569	      0.04799346	      0.11953749
      4.11500000	      0.14145723	      0.04815569	      0.11966357
      4.12000000	      0.14243204	      0.04832134	      0.12067083
      4.12500000	      0.14343286	      0.04849081	      0.12171795
      4.13000000	      0.14421070	      0.04862211	      0.12204419
      4.13500000	      0.14530384	      0.04880605	      0.12132470
      4.14000000	      0.14583702	      0.04889551	      0.12182754
      4.14500000	      0.14702757	      0.04909468	      0.12237166
      4.15000000	      0.14768306	      0.04920400	      0.12242565
      4.15500000	      0.14898617	      0.04942061	      0.12313801
      4.16000000	      0.14992135	      0.04957547	      0.12374144
      4.16500000	      0.15081472	      0.04972296	      0.12427042
      4.17000000	      0.15121275	      0.04978853	      0.12355984
      4.17500000	      0.15245622	      0.04999282	      0.12432655
      4.18000000	      0.15313729	      0.05010436	      0.12404309
      4.18500000	      0.15412582	      0.05026582	      0.12492552
      4.19000000	      0.15498723	      0.05040609	      0.12556897
      4.19500000	      0.15533950	      0.05046334	      0.12467185
      4.20000000	      0.15636090	      0.05062898	      0.12517028
      4.20500000	      0.15700042	      0.05073241	      0.12518959
      4.21000000	      0.15794769	      0.05088523	      0.12562099
      4.21500000	      0.15855661	      0.05098322	      0.12582680
      4.22000000	      0.15905471	      0.05106324	      0.12560255
      4.22500000	      0.15974761	      0.05117434	      0.12502564
      4.23000000	      0.16091464	      0.05136093	      0.12580271
      4.23500000	      0.16177915	      0.05149871	      0.12653370
      4.24000000	      0.16222676	      0.05156990	      0.12654823
      4.24500000	      0.16272868	      0.05164962	      0.12671489
      4.25000000	      0.16366987	      0.05179877	      0.12714661
      4.25500000	      0.16423737	      0.05188849	      0.12724805
      4.26000000	      0.16505011	      0.05201672	      0.12773999
      4.26500000	      0.16546013	      0.05208129	      0.12694852
      4.27000000	      0.16638319	      0.05222637	      0.12802505
      4.27500000	      0.16710684	      0.05233982	      0.12838870
      4.28000000	      0.16756324	      0.05241124	      0.12808109
      4.28500000	      0.16810105	      0.05249528	      0.12848480
      4.29000000	      0.16868119	      0.05258579	      0.12866210
      4.29500000	      0.16972465	      0.05274819	      0.12905291
      4.30000000	      0.17042397	      0.05285675	      0.12909055
      4.30500000	      0.17114644	      0.05296866	      0.12972284
      4.31000000	      0.17186462	      0.05307968	      0.12996090
      4.31500000	      0.17240293	      0.05316275	      0.12971282
      4.32000000	      0.17334593	      0.05330794	      0.13022943
      4.32500000	      0.17402639	      0.05341247	      0.13029079
      4.33000000	      0.17460906	      0.05350181	      0.13067935
      4.33500000	      0.17533715	      0.05361324	      0.13108280
      4.34000000	      0.17616081	      0.05373902	      0.13111454
      4.34500000	      0.17662981	      0.05381051	      0.13148225
      4.35000000	      0.17730157	      0.05391274	      0.13113840
      4.35500000	      0.17797608	      0.05401519	      0.13133927
      4.36000000	      0.17880833	      0.05414133	      0.13205644
      4.36500000	      0.17975647	      0.05428469	      0.13229904
      4.37000000	      0.18035480	      0.05437496	      0.13251904
      4.37500000	      0.18058665	      0.05440990	      0.13241767
      4.38000000	      0.18160926	      0.05456373	      0.13296084
      4.38500000	      0.18237599	      0.05467879	      0.13338706
      4.39000000	      0.18314577	      0.05479407	      0.13373311
      4.39500000	      0.18381947	      0.05489475	      0.13418948
      4.40000000	      0.18427102	      0.05496214	      0.13367458
      4.40500000	      0.18509379	      0.05508470	      0.13408515
      4.41000000	      0.18586300	      0.05519904	      0.13438617
      4.41500000	      0.18654828	      0.05530071	      0.13452309
      4.42000000	      0.18734943	      0.05541933	      0.13470721
      4.42500000	      0.18812631	      0.05553411	      0.13484160
      4.43000000	      0.18916813	      0.05568767	      0.13562745
      4.43500000	      0.19008584	      0.05582259	      0.13593184
      4.44000000	      0.19021538	      0.05584161	      0.13560238
      4.44500000	      0.19092963	      0.05594635	      0.13598103
      4.45000000	      0.19175165	      0.05606665	      0.13604606
      4.45500000	      0.19265960	      0.05619924	      0.13632759
      4.46000000	      0.19356928	      0.05633176	      0.13657914
      4.46500000	      0.19432387	      0.05644145	      0.13682361
      4.47000000	      0.19544731	      0.05660437	      0.13712009
      4.47500000	      0.19666584	      0.05678054	      0.13765015
      4.48000000	      0.19681967	      0.05680275	      0.13753230
      4.48500000	      0.19757160	      0.05691115	      0.13765307
      4.49000000	      0.19876238	      0.05708239	      0.13803421
      4.49500000	      0.19970282	      0.05721728	      0.13835166
      4.50000000	      0.20011066	      0.05727567	      0.13843163
      4.50500000	      0.20095268	      0.05739605	      0.13859133
      4.51000000	      0.20174633	      0.05750928	      0.13878616
      4.51500000	      0.20259034	      0.05762945	      0.13904066
      4.52000000	      0.20339380	      0.05774361	      0.13941848
      4.52500000	      0.20399902	      0.05782946	      0.13958364
      4.53000000	      0.20497331	      0.05796739	      0.13950988
      4.53500000	      0.20581704	      0.05808657	      0.13986310
      4.54000000	      0.20650168	      0.05818310	      0.14021564
      4.54500000	      0.20647887	      0.05817989	      0.13994698
      4.55000000	      0.20718130	      0.05827877	      0.14011940
      4.55500000	      0.20799948	      0.05839373	      0.14049146
      4.56000000	      0.20880441	      0.05850661	      0.14041239
      4.56500000	      0.20906022	      0.05854244	      0.14049387
      4.57000000	      0.20957633	      0.05861465	      0.14063232
      4.57500000	      0.21061949	      0.05876035	      0.14094108
      4.58000000	      0.21122527	      0.05884479	      0.14110499
      4.58500000	      0.21171957	      0.05891360	      0.14112090
      4.59000000	      0.21183451	      0.05892959	      0.14139915
      4.59500000	      0.21270433	      0.05905045	      0.14160889
      4.60000000	      0.21295333	      0.05908501	      0.14166140
      4.60500000	      0.21345478	      0.05915453	      0.14166881
      4.61000000	      0.21420828	      0.05925885	      0.14190410
      4.61500000	      0.21475806	      0.05933485	      0.14198541
      4.62000000	      0.21506116	      0.05937670	      0.14198516
      4.62500000	      0.21564267	      0.05945692	      0.14211550
      4.63000000	      0.21645121	      0.05956828	      0.14250005
      4.63500000	      0.21651803	      0.05957748	      0.14236849
      4.64000000	      0.21720051	      0.05967130	      0.14252847
      4.64500000	      0.21816425	      0.05980354	      0.14288777
      4.65000000	      0.21888775	      0.05990262	      0.14305788
      4.65500000	      0.21946709	      0.05998184	      0.14291672
      4.66000000	      0.22014517	      0.06007443	      0.14333865
      4.66500000	      0.22097882	      0.06018807	      0.14333290
      4.67000000	      0.22166103	      0.06028090	      0.14332873
      4.67500000	      0.22218850	      0.06035258	      0.14353204
      4.68000000	      0.22295042	      0.06045598	      0.14366649
      4.68500000	      0.22362596	      0.06054750	      0.14411843
      4.69000000	      0.22409699	      0.06061123	      0.14424610
      4.69500000	      0.22486953	      0.06071561	      0.14438179
      4.70000000	      0.22527055	      0.06076973	      0.14439509
      4.70500000	      0.22592456	      0.06085788	      0.14450757
      4.71000000	      0.22696122	      0.06099734	      0.14464272
      4.71500000	      0.22758898	      0.06108164	      0.14490611
      4.72000000	      0.22818115	      0.06116105	      0.14482888
      4.72500000	      0.22909964	      0.06128403	      0.14501934
      4.73000000	      0.22958128	      0.06134841	      0.14525426
      4.73500000	      0.23025989	      0.06143901	      0.14551772
      4.74000000	      0.23094601	      0.06153048	      0.14539305
      4.74500000	      0.23145655	      0.06159846	      0.14543975
      4.75000000	      0.23142111	      0.06159374	      0.14620087
      4.75500000	      0.23255405	      0.06174432	      0.14642226
      4.76000000	      0.23280924	      0.06177819	      0.14618082
      4.76500000	      0.23317290	      0.06182642	      0.14645945
      4.77000000	      0.23330355	      0.06184374	      0.14642770
      4.77500000	      0.23416766	      0.06195816	      0.14656850
      4.78000000	      0.23481893	      0.06204426	      0.14662690
      4.78500000	      0.23579876	      0.06217358	      0.14667712
      4.79000000	      0.23627917	      0.06223688	      0.14679041
      4.79500000	      0.23663354	      0.06228353	      0.14708178
      4.80000000	      0.23704557	      0.06233773	      0.14709889
      4.80500000	      0.23768705	      0.06242202	      0.14711581
      4.81000000	      0.23783982	      0.06244208	      0.14694549
      4.81500000	      0.23843113	      0.06251965	      0.14752630
      4.82000000	      0.23950784	      0.06266066	      0.14765365
      4.82500000	      0.23973875	      0.06269086	      0.14775381
      4.83000000	      0.24064281	      0.06280895	      0.14773264
      4.83500000	      0.24132616	      0.06289807	      0.14779498
      4.84000000	      0.24201199	      0.06298738	      0.14760564
      4.84500000	      0.24247918	      0.06304814	      0.14817278
      4.85000000	      0.24290487	      0.06310346	      0.14809977
      4.85500000	      0.24363905	      0.06319876	      0.14813188
      4.86000000	      0.24456480	      0.06331871	      0.14823904
      4.86500000	      0.24539449	      0.06342602	      0.14800834
      4.87000000	      0.24579330	      0.06347754	      0.14823263
      4.87500000	      0.24633959	      0.06354804	      0.14890428
      4.88000000	      0.24690998	      0.06362157	      0.14883103
      4.88500000	      0.24753316	      0.06370181	      0.14887354
      4.89000000	      0.24886986	      0.06387358	      0.14894422
      4.89500000	      0.24941398	      0.06394336	      0.14894858
      4.90000000	      0.24994748	      0.06401172	      0.14887893
      4.90500000	      0.25059801	      0.06409496	      0.14902538
      4.91000000	      0.25148055	      0.06420772	      0.14906556
      4.91500000	      0.25225097	      0.06430600	      0.14906708
      4.92000000	      0.25282566	      0.06437921	      0.14903568
      4.92500000	      0.25382351	      0.06450613	      0.14908320
      4.93000000	      0.25403862	      0.06453346	      0.15028712
      4.93500000	      0.25479064	      0.06462891	      0.15022559
      4.94000000	      0.25562043	      0.06473406	      0.15020979
      4.94500000	      0.25624517	      0.06481312	      0.15037009
      4.95000000	      0.25680509	      0.06488389	      0.14990776
      4.95500000	      0.25805105	      0.06504110	      0.15036963
      4.96000000	      0.25881823	      0.06513771	      0.15045801
      4.96500000	      0.25965420	      0.06524282	      0.15058926
      4.97000000	      0.26054256	      0.06535434	      0.15057050
      4.97500000	      0.26144845	      0.06546786	      0.15055073
      4.98000000	      0.26260970	      0.06561309	      0.15057380
      4.98500000	      0.26308452	      0.06567238	      0.15068173
      4.99000000	      0.26432710	      0.06582728	      0.15086973
      4.99500000	      0.26505363	      0.06591769	      0.15083526
      5.00000000	      0.26552276	      0.06597600	      0.15251173
      5.00500000	      0.26660313	      0.06611008	      0.15229379
      5.01000000	      0.26775153	      0.06625232	      0.15240952
      5.01500000	      0.26880031	      0.06638194	      0.15318167
      5.02000000	      0.26959656	      0.06648019	      0.15299596
      5.02500000	      0.27041754	      0.06658134	      0.15293255
      5.03000000	      0.27148896	      0.06671311	      0.15292663
      5.03500000	      0.27241097	      0.06682629	      0.15287681
      5.04000000	      0.27363175	      0.06697586	      0.15290151
      5.04500000	      0.27424016	      0.06705028	      0.15411408
      5.05000000	      0.27515551	      0.06716209	      0.15404340
      5.05500000	      0.27625421	      0.06729604	      0.15378979
      5.06000000	      0.27713671	      0.06740345	      0.15370598
      5.06500000	      0.27830253	      0.06754507	      0.15383693
      5.07000000	      0.27933052	      0.06766970	      0.15381463
      5.07500000	      0.28031385	      0.06778871	      0.15525084
      5.08000000	      0.28089850	      0.06785937	      0.15510856
      5.08500000	      0.28247701	      0.06804977	      0.15527077
      5.09000000	      0.28345779	      0.06816780	      0.15536823
      5.09500000	      0.28419069	      0.06825587	      0.15536392
      5.10000000	      0.28473422	      0.06832111	      0.15549508
      5.10500000	      0.28578533	      0.06844710	      0.15550846
      5.11000000	      0.28720496	      0.06861689	      0.15567629
      5.11500000	      0.28833932	      0.06875227	      0.15569839
      5.12000000	      0.28905104	      0.06883707	      0.15572730
      5.12500000	      0.29052831	      0.06901275	      0.15594145
      5.13000000	      0.29168272	      0.06914972	      0.15607398
      5.13500000	      0.29215204	      0.06920533	      0.15620631
      5.14000000	      0.29333160	      0.06934490	      0.15627134
      5.14500000	      0.29386554	      0.06940798	      0.15641420
      5.15000000	      0.29520940	      0.06956650	      0.15861249
      5.15500000	      0.29601549	      0.06966142	      0.15839594
      5.16000000	      0.29751056	      0.06983711	      0.15833641
      5.16500000	      0.29850437	      0.06995366	      0.15846602
      5.17000000	      0.29977304	      0.07010216	      0.15844754
      5.17500000	      0.30100894	      0.07024651	      0.15848226
      5.18000000	      0.30166065	      0.07032252	      0.15864736
      5.18500000	      0.30289180	      0.07046587	      0.15864265
      5.19000000	      0.30353963	      0.07054119	      0.15854225
      5.19500000	      0.30485919	      0.07069435	      0.15859447
      5.20000000	      0.30556832	      0.07077653	      0.15873048
      5.20500000	      0.30641203	      0.07087417	      0.15890257
      5.21000000	      0.30733176	      0.07098046	      0.15892627
      5.21500000	      0.30817126	      0.07107734	      0.15897621
      5.22000000	      0.30971526	      0.07125517	      0.15920609
      5.22500000	      0.31012345	      0.07130211	      0.15931694
      5.23000000	      0.31097651	      0.07140011	      0.16105709
      5.23500000	      0.31156891	      0.07146808	      0.16108539
      5.24000000	      0.31224802	      0.07154593	      0.16108450
      5.24500000	      0.31322757	      0.07165806	      0.16091760
      5.25000000	      0.31464002	      0.07181945	      0.16092278
      5.25500000	      0.31531143	      0.07189603	      0.16080663
      5.26000000	      0.31643123	      0.07202359	      0.16131318
      5.26500000	      0.31708564	      0.07209802	      0.16106940
      5.27000000	      0.31818698	      0.07222313	      0.16103682
      5.27500000	      0.31888608	      0.07230243	      0.16109617
      5.28000000	      0.31924645	      0.07234327	      0.16111604
      5.28500000	      0.32051527	      0.07248689	      0.16108845
      5.29000000	      0.32173211	      0.07262435	      0.16132298
      5.29500000	      0.32295453	      0.07276219	      0.16152576
      5.30000000	      0.32337454	      0.07280949	      0.16160070
      5.30500000	      0.32472485	      0.07296135	      0.16173648
      5.31000000	      0.32559897	      0.07305948	      0.16203915
      5.31500000	      0.32670480	      0.07318344	      0.16229148
      5.32000000	      0.32705034	      0.07322213	      0.16397796
      5.32500000	      0.32861799	      0.07339741	      0.16401588
      5.33000000	      0.32923342	      0.07346611	      0.16406137
      5.33500000	      0.33020511	      0.07357444	      0.16392976
      5.34000000	      0.33112391	      0.07367673	      0.16374738
      5.34500000	      0.33188258	      0.07376109	      0.16395917
      5.35000000	      0.33229772	      0.07380721	      0.16396037
      5.35500000	      0.33333719	      0.07392255	      0.16398911
      5.36000000	      0.33456175	      0.07405821	      0.16398172
      5.36500000	      0.33491209	      0.07409698	      0.16419831
      5.37000000	      0.33570184	      0.07418429	      0.16403113
      5.37500000	      0.33596994	      0.07421391	      0.16535646
      5.38000000	      0.33697605	      0.07432495	      0.16549598
      5.38500000	      0.33753575	      0.07438665	      0.16539218
      5.39000000	      0.33873086	      0.07451822	      0.16546413
      5.39500000	      0.33924021	      0.07457422	      0.16535407
      5.40000000	      0.33963988	      0.07461814	      0.16536349
      5.40500000	      0.34065746	      0.07472984	      0.16540330
      5.41000000	      0.34170990	      0.07484518	      0.16530024
      5.41500000	      0.34250721	      0.07493245	      0.16531410
      5.42000000	      0.34292758	      0.07497842	      0.16532757
      5.42500000	      0.34373647	      0.07506680	      0.16556195
      5.43000000	      0.34485598	      0.07518894	      0.16660462
      5.43500000	      0.34530010	      0.07523734	      0.16664554
      5.44000000	      0.34599446	      0.07531295	      0.16669473
      5.44500000	      0.34659417	      0.07537819	      0.16674201
      5.45000000	      0.34719873	      0.07544390	      0.16661092
      5.45500000	      0.34811967	      0.07554389	      0.16672122
      5.46000000	      0.34881324	      0.07561911	      0.16667941
      5.46500000	      0.34928695	      0.07567044	      0.16651261
      5.47000000	      0.34982618	      0.07572883	      0.16672245
      5.47500000	      0.35028238	      0.07577819	      0.16658091
      5.48000000	      0.35099384	      0.07585511	      0.16665029
      5.48500000	      0.35151214	      0.07591109	      0.16686567
      5.49000000	      0.35219384	      0.07598467	      0.16683935
      5.49500000	      0.35251558	      0.07601937	      0.16700525
      5.50000000	      0.35305811	      0.07607784	      0.16700903
      5.50500000	      0.35359740	      0.07613592	      0.16691699
      5.51000000	      0.35434109	      0.07621595	      0.16840572
      5.51500000	      0.35485613	      0.07627132	      0.16843864
      5.52000000	      0.35537705	      0.07632728	      0.16832650
      5.52500000	      0.35587962	      0.07638123	      0.16849177
      5.53000000	      0.35614756	      0.07640998	      0.16838378
      5.53500000	      0.35677414	      0.07647716	      0.16844538
      5.54000000	      0.35720657	      0.07652350	      0.16908407
      5.54500000	      0.35790468	      0.07659824	      0.16914978
      5.55000000	      0.35854356	      0.07666657	      0.16925073
      5.55500000	      0.35889564	      0.07670421	      0.16920275
      5.56000000	      0.35954022	      0.07677306	      0.16928830
      5.56500000	      0.35977056	      0.07679764	      0.16943622
      5.57000000	      0.36037207	      0.07686182	      0.16966626
      5.57500000	      0.36115222	      0.07694497	      0.16957799
      5.58000000	      0.36161753	      0.07699452	      0.16949666
      5.58500000	      0.36196868	      0.07703189	      0.16964661
      5.59000000	      0.36234746	      0.07707219	      0.16958379
      5.59500000	      0.36234254	      0.07707167	      0.16977066
      5.60000000	      0.36292569	      0.07713366	      0.16993033
      5.60500000	      0.36330589	      0.07717405	      0.17001325
      5.61000000	      0.36348832	      0.07719343	      0.17013770
      5.61500000	      0.36368473	      0.07721428	      0.17002872
      5.62000000	      0.36396590	      0.07724412	      0.17028413
      5.62500000	      0.36461754	      0.07731324	      0.17041081
      5.63000000	      0.36442434	      0.07729275	      0.17052732
      5.63500000	      0.36468574	      0.07732047	      0.17088589
      5.64000000	      0.36502780	      0.07735672	      0.17080120
      5.64500000	      0.36536943	      0.07739291	      0.17074070
      5.65000000	      0.36587417	      0.07744635	      0.17064296
      5.65500000	      0.36601264	      0.07746100	      0.17078155
      5.66000000	      0.36614125	      0.07747461	      0.17068322
      5.66500000	      0.36684263	      0.07754878	      0.17103962
      5.67000000	      0.36659184	      0.07752227	      0.17108608
      5.67500000	      0.36700644	      0.07756609	      0.17129340
      5.68000000	      0.36768442	      0.07763771	      0.17109583
      5.68500000	      0.36807096	      0.07767851	      0.17103399
      5.69000000	      0.36847849	      0.07772150	      0.17117325
      5.69500000	      0.36914135	      0.07779137	      0.17130655
      5.70000000	      0.36944753	      0.07782363	      0.17125658
      5.70500000	      0.36994375	      0.07787587	      0.17137712
      5.71000000	      0.37008113	      0.07789033	      0.17144693
      5.71500000	      0.37062804	      0.07794786	      0.17138299
      5.72000000	      0.37084804	      0.07797099	      0.17144494
      5.72500000	      0.37134301	      0.07802301	      0.17155134
      5.73000000	      0.37178918	      0.07806987	      0.17158918
      5.73500000	      0.37233821	      0.07812749	      0.17170694
      5.74000000	      0.37272089	      0.07816763	      0.17168977
      5.74500000	      0.37320987	      0.07821889	      0.17184127
      5.75000000	      0.37358604	      0.07825830	      0.17194518
      5.75500000	      0.37383221	      0.07828408	      0.17163677
      5.76000000	      0.37418453	      0.07832096	      0.17171950
      5.76500000	      0.37467146	      0.07837190	      0.17219201
      5.77000000	      0.37467288	      0.07837205	      0.17196991
      5.77500000	      0.37491510	      0.07839738	      0.17192466
      5.78000000	      0.37475181	      0.07838031	      0.17190897
      5.78500000	      0.37470959	      0.07837589	      0.17219595
      5.79000000	      0.37485337	      0.07839093	      0.17212429
      5.79500000	      0.37471591	      0.07837655	      0.17233301
      5.80000000	      0.37511626	      0.07841841	      0.17222493
      5.80500000	      0.37483718	      0.07838923	      0.17234159
      5.81000000	      0.37511360	      0.07841813	      0.17238695
      5.81500000	      0.37512138	      0.07841894	      0.17222796
      5.82000000	      0.37535061	      0.07844290	      0.17249227
      5.82500000	      0.37558402	      0.07846729	      0.17260030
      5.83000000	      0.37570047	      0.07847945	      0.17261459
      5.83500000	      0.37563995	      0.07847313	      0.17247675
      5.84000000	      0.37563602	      0.07847272	      0.17276144
      5.84500000	      0.37590291	      0.07850059	      0.17292728
      5.85000000	      0.37626244	      0.07853812	      0.17289495
      5.85500000	      0.37652688	      0.07856572	      0.17255101
      5.86000000	      0.37678369	      0.07859250	      0.17291719
      5.86500000	      0.37674658	      0.07858863	      0.17293086
      5.87000000	      0.37684314	      0.07859871	      0.17290705
      5.87500000	      0.37689516	      0.07860413	      0.17278278
      5.88000000	      0.37656737	      0.07856994	      0.17284881
      5.88500000	      0.37660601	      0.07857397	      0.17295114
      5.89000000	      0.37650582	      0.07856352	      0.17272781
      5.89500000	      0.37626237	      0.07853812	      0.17301305
      5.90000000	      0.37613868	      0.07852521	      0.17282970
      5.90500000	      0.37599519	      0.07851023	      0.17278531
      5.91000000	      0.37564624	      0.07847379	      0.17274372
      5.91500000	      0.37519320	      0.07842645	      0.17252633
      5.92000000	      0.37491475	      0.07839734	      0.17275576
      5.92500000	      0.37454286	      0.07835845	      0.17240435
      5.93000000	      0.37419960	      0.07832254	      0.17242356
      5.93500000	      0.37399668	      0.07830130	      0.17242004
      5.94000000	      0.37373145	      0.07827353	      0.17273446
      5.94500000	      0.37361025	      0.07826083	      0.17242431
      5.95000000	      0.37364676	      0.07826466	      0.17253983
      5.95500000	      0.37331998	      0.07823043	      0.17270388
      5.96000000	      0.37317024	      0.07821474	      0.17256104
      5.96500000	      0.37298897	      0.07819574	      0.17272240
      5.97000000	      0.37281351	      0.07817734	      0.17285430
      5.97500000	      0.37284638	      0.07818079	      0.17296215
      5.98000000	      0.37282391	      0.07817843	      0.17297910
      5.98500000	      0.37247647	      0.07814200	      0.17275386
      5.99000000	      0.37248897	      0.07814331	      0.17287568
      5.99500000	      0.37230995	      0.07812453	      0.17289888
      6.00000000	      0.37203110	      0.07809527	      0.17290026
      6.00500000	      0.37216683	      0.07810951	      0.17283494
      6.01000000	      0.37198401	      0.07809032	      0.17288957
      6.01500000	      0.37180962	      0.07807202	      0.17273171
      6.02000000	      0.37167081	      0.07805744	      0.17308466
      6.02500000	      0.37136421	      0.07802524	      0.17312319
      6.03000000	      0.37153881	      0.07804358	      0.17291353
      6.03500000	      0.37135295	      0.07802406	      0.17298253
      6.04000000	      0.37114931	      0.07800266	      0.17293850
      6.04500000	      0.37116356	      0.07800416	      0.17293910
      6.05000000	      0.37098586	      0.07798548	      0.17295821
      6.05500000	      0.37086633	      0.07797292	      0.17297306
      6.06000000	      0.37066497	      0.07795175	      0.17334513
      6.06500000	      0.37083246	      0.07796936	      0.17350571
      6.07000000	      0.37099469	      0.07798641	      0.17334419
      6.07500000	      0.37080547	      0.07796652	      0.17345640
      6.08000000	      0.37109845	      0.07799731	      0.17353249
      6.08500000	      0.37117248	      0.07800509	      0.17333875
      6.09000000	      0.37132020	      0.07802062	      0.17340134
      6.09500000	      0.37129066	      0.07801751	      0.17326915
      6.10000000	      0.37147484	      0.07803686	      0.17327692
      6.10500000	      0.37157731	      0.07804762	      0.17346763
      6.11000000	      0.37155008	      0.07804476	      0.17375770
      6.11500000	      0.37164793	      0.07805504	      0.17371329
      6.12000000	      0.37179668	      0.07807066	      0.17366505
      6.12500000	      0.37168785	      0.07805923	      0.17367587
      6.13000000	      0.37149623	      0.07803911	      0.17368386
      6.13500000	      0.37130590	      0.07801911	      0.17384714
      6.14000000	      0.37141990	      0.07803109	      0.17397143
      6.14500000	      0.37129160	      0.07801761	      0.17389891
      6.15000000	      0.37119053	      0.07800699	      0.17382469
      6.15500000	      0.37132777	      0.07802141	      0.17383117
      6.16000000	      0.37104681	      0.07799189	      0.17386689
      6.16500000	      0.37078152	      0.07796400	      0.17392218
      6.17000000	      0.37084822	      0.07797101	      0.17397513
      6.17500000	      0.37060148	      0.07794507	      0.17394450
      6.18000000	      0.37036033	      0.07791971	      0.17389346
      6.18500000	      0.37042203	      0.07792620	      0.17386581
      6.19000000	      0.37002195	      0.07788410	      0.17386383
      6.19500000	      0.36994948	      0.07787648	      0.17395084
      6.20000000	      0.36968445	      0.07784858	      0.17401648
      6.20500000	      0.36960781	      0.07784051	      0.17382832
      6.21000000	      0.36958253	      0.07783784	      0.17370625
      6.21500000	      0.36880925	      0.07775637	      0.17375812
      6.22000000	      0.36883051	      0.07775861	      0.17394604
      6.22500000	      0.36855025	      0.07772906	      0.17389439
      6.23000000	      0.36833616	      0.07770648	      0.17371408
      6.23500000	      0.36772752	      0.07764226	      0.17387670
      6.24000000	      0.36763503	      0.07763249	      0.17391656
      6.24500000	      0.36729883	      0.07759699	      0.17371108
      6.25000000	      0.36683237	      0.07754770	      0.17367965
      6.25500000	      0.36677793	      0.07754194	      0.17369345
      6.26000000	      0.36670733	      0.07753448	      0.17373035
      6.26500000	      0.36708484	      0.07757438	      0.17387258
      6.27000000	      0.36628061	      0.07748936	      0.17370740
      6.27500000	      0.36634476	      0.07749614	      0.17378202
      6.28000000	      0.36636809	      0.07749861	      0.17403880
      6.28500000	      0.36642742	      0.07750488	      0.17396496
      6.29000000	      0.36634564	      0.07749623	      0.17393582
      6.29500000	      0.36624472	      0.07748556	      0.17403142
      6.30000000	      0.36616954	      0.07747761	      0.17384645
      6.30500000	      0.36596894	      0.07745638	      0.17400740
      6.31000000	      0.36570470	      0.07742841	      0.17382211
      6.31500000	      0.36605151	      0.07746512	      0.17392102
      6.32000000	      0.36561358	      0.07741877	      0.17383518
      6.32500000	      0.36548592	      0.07740525	      0.17380448
      6.33000000	      0.36515903	      0.07737062	      0.17383995
      6.33500000	      0.36526156	      0.07738149	      0.17386909
      6.34000000	      0.36497944	      0.07735160	      0.17369413
      6.34500000	      0.36461333	      0.07731279	      0.17355014
      6.35000000	      0.36368405	      0.07721421	      0.17350599
      6.35500000	      0.36386236	      0.07723313	      0.17347139
      6.36000000	      0.36372002	      0.07721802	      0.17344580
      6.36500000	      0.36311234	      0.07715349	      0.17320475
      6.37000000	      0.36272782	      0.07711263	      0.17326498
      6.37500000	      0.36220666	      0.07705721	      0.17304108
      6.38000000	      0.36194803	      0.07702970	      0.17305646
      6.38500000	      0.36107885	      0.07693715	      0.17291553
      6.39000000	      0.36067936	      0.07689458	      0.17272798
      6.39500000	      0.35989692	      0.07681113	      0.17250952
      6.40000000	      0.35955499	      0.07677463	      0.17247118
      6.40500000	      0.35861027	      0.07667370	      0.17221825
      6.41000000	      0.35796114	      0.07660428	      0.17213710
      6.41500000	      0.35731163	      0.07653475	      0.17211760
      6.42000000	      0.35640695	      0.07643780	      0.17187420
      6.42500000	      0.35612841	      0.07640792	      0.17181140
      6.43000000	      0.35503092	      0.07629010	      0.17157146
      6.43500000	      0.35426368	      0.07620762	      0.17139685
      6.44000000	      0.35332732	      0.07610684	      0.17152998
      6.44500000	      0.35275289	      0.07604495	      0.17120076
      6.45000000	      0.35190860	      0.07595389	      0.17114151
      6.45500000	      0.35108943	      0.07586544	      0.17088232
      6.46000000	      0.35100092	      0.07585587	      0.17090904
      6.46500000	      0.34972076	      0.07571742	      0.17056427
      6.47000000	      0.34942654	      0.07568556	      0.17058291
      6.47500000	      0.34838515	      0.07557269	      0.17033119
      6.48000000	      0.34734903	      0.07546023	      0.17004962
      6.48500000	      0.34674132	      0.07539419	      0.17002524
      6.49000000	      0.34647782	      0.07536554	      0.16999847
      6.49500000	      0.34550830	      0.07526002	      0.16970223
      6.50000000	      0.34472143	      0.07517427	      0.16960445
      6.50500000	      0.34422154	      0.07511975	      0.16948605
      6.51000000	      0.34316526	      0.07500440	      0.16926793
      6.51500000	      0.34166573	      0.07484035	      0.16893173
      6.52000000	      0.34066139	      0.07473027	      0.16886554
      6.52500000	      0.34018047	      0.07467750	      0.16866894
      6.53000000	      0.35045216	      0.07579655	      0.16796364
      6.53500000	      0.34988096	      0.07573476	      0.16786802
      6.54000000	      0.34865035	      0.07560145	      0.16754201
      6.54500000	      0.34842477	      0.07557699	      0.16772269
      6.55000000	      0.34694336	      0.07541615	      0.16750300
      6.55500000	      0.34651966	      0.07537009	      0.16726314
      6.56000000	      0.34566450	      0.07527703	      0.16711619
      6.56500000	      0.34524497	      0.07523133	      0.16693518
      6.57000000	      0.34386837	      0.07508120	      0.16683551
      6.57500000	      0.34322359	      0.07501077	      0.16676254
      6.58000000	      0.34220730	      0.07489964	      0.16638013
      6.58500000	      0.34056613	      0.07471982	      0.16624963
      6.59000000	      0.34038894	      0.07470038	      0.16603786
      6.59500000	      0.33932467	      0.07458351	      0.16592374
      6.60000000	      0.33877885	      0.07452350	      0.16567963
      6.60500000	      0.33753651	      0.07438673	      0.16542527
      6.61000000	      0.33695721	      0.07432287	      0.16518117
      6.61500000	      0.33598789	      0.07421589	      0.16491742
      6.62000000	      0.33488752	      0.07409426	      0.16482138
      6.62500000	      0.33395763	      0.07399132	      0.16447673
      6.63000000	      0.33339710	      0.07392920	      0.16436761
      6.63500000	      0.33214660	      0.07379042	      0.16423417
      6.64000000	      0.33131977	      0.07369852	      0.16376129
      6.64500000	      0.33024221	      0.07357858	      0.16359859
      6.65000000	      0.32922864	      0.07346558	      0.16335185
      6.65500000	      0.32787067	      0.07331391	      0.16316282
      6.66000000	      0.32642604	      0.07315222	      0.16274137
      6.66500000	      0.32515775	      0.07300996	      0.16264356
      6.67000000	      0.32452893	      0.07293933	      0.16248125
      6.67500000	      0.32298859	      0.07276603	      0.16203622
      6.68000000	      0.32136138	      0.07258250	      0.16178846
      6.68500000	      0.32047515	      0.07248235	      0.16163908
      6.69000000	      0.31946686	      0.07236824	      0.16114995
      6.69500000	      0.31810127	      0.07221340	      0.16096778
      6.70000000	      0.31722207	      0.07211353	      0.16081967
      6.70500000	      0.31571128	      0.07194161	      0.16062448
      6.71000000	      0.31445978	      0.07179887	      0.16038219
      6.71500000	      0.31327395	      0.07166337	      0.15990037
      6.72000000	      0.31200706	      0.07151832	      0.15971370
      6.72500000	      0.31065680	      0.07136340	      0.15948060
      6.73000000	      0.30980954	      0.07126602	      0.15911858
      6.73500000	      0.30806404	      0.07106497	      0.15867109
      6.74000000	      0.30682684	      0.07092213	      0.15865365
      6.74500000	      0.30555582	      0.07077508	      0.15840242
      6.75000000	      0.30424032	      0.07062256	      0.15794761
      6.75500000	      0.30274826	      0.07044918	      0.15776792
      6.76000000	      0.30148903	      0.07030251	      0.15748256
      6.76500000	      0.30004658	      0.07013413	      0.15717377
      6.77000000	      0.29802048	      0.06989694	      0.15687869
      6.77500000	      0.29690094	      0.06976553	      0.15658883
      6.78000000	      0.29606691	      0.06966747	      0.15626807
      6.78500000	      0.29402790	      0.06942715	      0.15569377
      6.79000000	      0.29228438	      0.06922100	      0.15538516
      6.79500000	      0.29073302	      0.06903706	      0.15512833
      6.80000000	      0.28908614	      0.06884125	      0.15491888
      6.80500000	      0.28734422	      0.06863353	      0.15458181
      6.81000000	      0.28591553	      0.06846269	      0.15396060
      6.81500000	      0.28424816	      0.06826277	      0.15388120
      6.82000000	      0.28263236	      0.06806848	      0.15349486
      6.82500000	      0.28081143	      0.06784885	      0.15296751
      6.83000000	      0.27899777	      0.06762939	      0.15275396
      6.83500000	      0.27728896	      0.06742196	      0.15238150
      6.84000000	      0.27563150	      0.06722015	      0.15219627
      6.84500000	      0.27417710	      0.06704257	      0.15179010
      6.85000000	      0.27213499	      0.06679243	      0.15151538
      6.85500000	      0.27038414	      0.06657722	      0.15106638
      6.86000000	      0.26878473	      0.06638002	      0.15051050
      6.86500000	      0.26662501	      0.06611280	      0.15012594
      6.87000000	      0.26516079	      0.06593101	      0.14968272
      6.87500000	      0.26337556	      0.06570869	      0.14935220
      6.88000000	      0.26158381	      0.06548480	      0.14894501
      6.88500000	      0.25994686	      0.06527958	      0.14869351
      6.89000000	      0.25796752	      0.06503058	      0.14832956
      6.89500000	      0.25619722	      0.06480706	      0.14821377
      6.90000000	      0.25408440	      0.06453927	      0.14772200
      6.90500000	      0.25231644	      0.06431435	      0.14704999
      6.91000000	      0.25034362	      0.06406242	      0.14696881
      6.91500000	      0.24807802	      0.06377188	      0.14650633
      6.92000000	      0.24611906	      0.06351959	      0.14609106
      6.92500000	      0.24422945	      0.06327528	      0.14554007
      6.93000000	      0.24282919	      0.06309363	      0.14550115
      6.93500000	      0.24063554	      0.06280800	      0.14464819
      6.94000000	      0.23866611	      0.06255045	      0.14429872
      6.94500000	      0.23694659	      0.06232472	      0.14386233
      6.95000000	      0.23485096	      0.06204849	      0.14372934
      6.95500000	      0.23306051	      0.06181152	      0.14345771
      6.96000000	      0.23105642	      0.06154519	      0.14309788
      6.96500000	      0.22884232	      0.06124960	      0.14213492
      6.97000000	      0.22633542	      0.06091319	      0.14191396
      6.97500000	      0.22442169	      0.06065512	      0.14149491
      6.98000000	      0.22168996	      0.06028484	      0.14057059
      6.98500000	      0.21907037	      0.05992760	      0.14036091
      6.99000000	      0.21685228	      0.05962345	      0.13972673
      6.99500000	      0.21418274	      0.05925532	      0.13913608
      7.00000000	      0.21129474	      0.05885447	      0.13879826
      7.00500000	      0.20875896	      0.05850024	      0.13823951
      7.01000000	      0.20565679	      0.05806395	      0.13746949
      7.01500000	      0.20308180	      0.05769931	      0.13700505
      7.02000000	      0.19974067	      0.05722270	      0.13637609
      7.02500000	      0.19689173	      0.05681314	      0.13585127
      7.03000000	      0.19359009	      0.05633478	      0.13485412
      7.03500000	      0.19053186	      0.05588804	      0.13431697
      7.04000000	      0.18745620	      0.05543512	      0.13332161
      7.04500000	      0.18407874	      0.05493345	      0.13254186
      7.05000000	      0.18072616	      0.05443091	      0.13187388
      7.05500000	      0.17778631	      0.05398638	      0.13043187
      7.06000000	      0.17374275	      0.05336892	      0.12681322
      7.06500000	      0.17088272	      0.05292784	      0.12631912
      7.07000000	      0.16790445	      0.05246458	      0.12524771
      7.07500000	      0.16443994	      0.05192049	      0.12457539
      7.08000000	      0.16154733	      0.05146180	      0.12385506
      7.08500000	      0.15923388	      0.05109199	      0.12307045
      7.09000000	      0.15611141	      0.05058857	      0.12248404
      7.09500000	      0.15379906	      0.05021251	      0.12124882
      7.10000000	      0.15100902	      0.04975498	      0.12086774
      7.10500000	      0.14903960	      0.04942947	      0.12024596
      7.11000000	      0.14699896	      0.04908991	      0.11911640
      7.11500000	      0.14449940	      0.04867076	      0.11908797
      7.12000000	      0.14252477	      0.04833706	      0.11795229
      7.12500000	      0.14075248	      0.04803559	      0.11792565
      7.13000000	      0.13879819	      0.04770095	      0.11691895
      7.13500000	      0.13706164	      0.04740160	      0.11675777
      7.14000000	      0.13575155	      0.04717452	      0.11586889
      7.14500000	      0.13395562	      0.04686143	      0.11573715
      7.15000000	      0.13264633	      0.04663186	      0.11492075
      7.15500000	      0.13115178	      0.04636841	      0.11370371
      7.16000000	      0.12975613	      0.04612103	      0.11051298
      7.16500000	      0.12889341	      0.04596745	      0.11048103
      7.17000000	      0.12782950	      0.04577735	      0.11043106
      7.17500000	      0.12687401	      0.04560594	      0.11060727
      7.18000000	      0.12576817	      0.04540675	      0.11020091
      7.18500000	      0.12477845	      0.04522774	      0.10917888
      7.19000000	      0.12425373	      0.04513254	      0.10937512
      7.19500000	      0.12321576	      0.04494364	      0.10800640
      7.20000000	      0.12260579	      0.04483225	      0.10796162
      7.20500000	      0.12187797	      0.04469899	      0.10795051
      7.21000000	      0.12133901	      0.04460005	      0.10816350
      7.21500000	      0.12060696	      0.04446530	      0.10783057
      7.22000000	      0.12017611	      0.04438581	      0.10815576
      7.22500000	      0.11975360	      0.04430772	      0.10812405
      7.23000000	      0.11948975	      0.04425888	      0.10863008
      7.23500000	      0.11826464	      0.04403141	      0.10700174
      7.24000000	      0.11756756	      0.04390145	      0.10469544
      7.24500000	      0.11712923	      0.04381953	      0.10519375
      7.25000000	      0.11652802	      0.04370693	      0.10504625
      7.25500000	      0.11577147	      0.04356481	      0.10477251
      7.26000000	      0.11549272	      0.04351234	      0.10516549
      7.26500000	      0.11476128	      0.04337433	      0.10349717
      7.27000000	      0.11432410	      0.04329163	      0.10366130
      7.27500000	      0.11388209	      0.04320786	      0.10391015
      7.28000000	      0.11334305	      0.04310548	      0.10381562
      7.28500000	      0.11280031	      0.04300216	      0.10352809
      7.29000000	      0.11243391	      0.04293226	      0.10314745
      7.29500000	      0.11215198	      0.04287840	      0.10366456
      7.30000000	      0.11157244	      0.04276747	      0.10205683
      7.30500000	      0.11127091	      0.04270964	      0.10245753
      7.31000000	      0.11082947	      0.04262483	      0.10237799
      7.31500000	      0.11068360	      0.04259677	      0.10247577
      7.32000000	      0.11032648	      0.04252800	      0.10285753
      7.32500000	      0.11002815	      0.04247046	      0.10258803
      7.33000000	      0.10979338	      0.04242513	      0.10289810
      7.33500000	      0.10991631	      0.04244887	      0.10343498
      7.34000000	      0.10930284	      0.04233025	      0.10211669
      7.34500000	      0.10892041	      0.04225613	      0.10211414
      7.35000000	      0.10853344	      0.04218100	      0.10090265
      7.35500000	      0.10827042	      0.04212986	      0.10092228
      7.36000000	      0.10814899	      0.04210623	      0.10116084
      7.36500000	      0.10750525	      0.04198072	      0.10013637
      7.37000000	      0.10698793	      0.04187960	      0.10039839
      7.37500000	      0.10662971	      0.04180943	      0.10050247
      7.38000000	      0.10596479	      0.04167886	      0.09940038
      7.38500000	      0.10559825	      0.04160672	      0.09966737
      7.39000000	      0.10500506	      0.04148969	      0.09971726
      7.39500000	      0.10447284	      0.04138441	      0.10000638
      7.40000000	      0.10365740	      0.04122259	      0.09839093
