_ik_marker_errors_all.sto
version=1
nRows=109
nColumns=62
in_degrees=yes
endheader
time	FHD	LBHD	RBHD	C7	T10	CLAV	LSHO	LUUPA	LMUPA	LDUPA	LLEP	LMEP	LRAD	LUL	LRFIN	RSHO	RUPA1	RMUPA	RDUPA	RLEP	RMEP	RRAD	RUL	RUFIN	LASI	RASI	USACR	LSACR	RSACR	LTHI1	LTHI2	LTHI3	LTHI4	LLFC	LMFC	LTIB1	LTIB2	LTIB3	LTIB4	LLMAL	LMMAL	LHEE	LMT1	LMT2	LMT5	RTHI	RTHI2	RTHI3	RTHI4	RLFC	RMFC	RTIB1	RTIB2	RTIB3	RTIB4	RLMAL	RMMAL	RHEE	RMT1	RMT2	RMT5
4.995000	0.129517	0.060369	0.065939	0.029488	0.014186	0.064581	0.049423	0.028623	0.044615	0.029530	0.044816	0.036336	0.048122	0.037573		0.068559	0.026201	0.036087	0.029875	0.057241	0.043635	0.048455	0.073238	0.084918	0.026596	0.026012	0.009742	0.009573	0.011592	0.031063	0.028284	0.019015	0.033262	0.037639	0.029758	0.008535	0.019591	0.012140	0.004270	0.018153	0.015849	0.012533	0.016881	0.015632	0.027638	0.031284	0.028596	0.025405	0.021365	0.026775	0.023915	0.021744	0.021397	0.016999	0.009031	0.010553	0.024519	0.012502	0.029866	0.016586	0.027552
5.000000	0.130534	0.062270	0.066909	0.028928	0.013566	0.063531	0.049555	0.028677	0.044963	0.029614	0.044778	0.036390	0.048955	0.036814		0.068329	0.026739	0.036409	0.030305	0.057800	0.043897	0.049221	0.072749	0.084945	0.025244	0.025561	0.009635	0.009694	0.011651	0.030084	0.027789	0.018243	0.033030	0.038611	0.030682	0.007988	0.019222	0.011686	0.004492	0.018340	0.015765	0.012321	0.016871	0.015782	0.027613	0.031472	0.028562	0.025239	0.021304	0.027076	0.023942	0.021543	0.021213	0.016833	0.009087	0.010562	0.024407	0.012518	0.029658	0.016598	0.027700
5.005000	0.131030	0.062022	0.066945	0.028616	0.014086	0.063921	0.048980	0.028673	0.044605	0.029644	0.045951	0.036754	0.047915	0.037464		0.068200	0.026162	0.036224	0.029956	0.057620	0.044193	0.050517	0.072999	0.085264	0.026558	0.025983	0.010102	0.009643	0.011906	0.030616	0.027984	0.018884	0.033309	0.037524	0.029819	0.008614	0.019901	0.012306	0.004173	0.018244	0.015752	0.012462	0.016754	0.015540	0.026972	0.031693	0.028767	0.025790	0.021436	0.026753	0.024841	0.021667	0.021270	0.017112	0.009182	0.010489	0.024176	0.012231	0.029553	0.016364	0.027632
5.010000	0.132057	0.063190	0.067987	0.028009	0.013514	0.063535	0.048556	0.028756	0.044871	0.029753	0.045223	0.036759	0.048737	0.037108		0.068084	0.026590	0.036455	0.030214	0.057682	0.044430	0.050520	0.073143	0.085135	0.026335	0.025576	0.009978	0.009654	0.011804	0.029655	0.027640	0.018464	0.032620	0.038005	0.030414	0.008190	0.019464	0.011978	0.004477	0.018389	0.015810	0.012422	0.016814	0.015613	0.027527	0.031661	0.028800	0.025645	0.021340	0.026997	0.024450	0.021522	0.020953	0.016850	0.009023	0.010544	0.024261	0.012082	0.029431	0.016442	0.027571
5.015000	0.132725	0.063489	0.068589	0.027559	0.013342	0.063125	0.048647	0.028986	0.045165	0.029598	0.045595	0.037406	0.048118	0.037627		0.067417	0.026595	0.036196	0.030062	0.057797	0.044210	0.048492	0.073026	0.084995	0.025620	0.025310	0.010537	0.009742	0.012271	0.029729	0.027605	0.018627	0.032403	0.038099	0.030676	0.008149	0.019537	0.011966	0.004479	0.018261	0.015851	0.012552	0.016685	0.015427	0.027707	0.031731	0.028867	0.025771	0.021455	0.027146	0.024829	0.021308	0.020884	0.016761	0.009098	0.010440	0.023647	0.011865	0.029139	0.016261	0.027694
5.020000	0.133341	0.063447	0.068911	0.027201	0.013721	0.062908	0.048307	0.029170	0.045076	0.029514	0.045718	0.037607	0.048160	0.037638		0.067307	0.026441	0.035893	0.029884	0.057818	0.044127	0.048582	0.073282	0.084913	0.026384	0.025049	0.010500	0.009602	0.012435	0.030117	0.027991	0.018873	0.032308	0.037185	0.029737	0.008625	0.019926	0.012494	0.004252	0.018379	0.015844	0.012590	0.016781	0.015393	0.027572	0.031602	0.028939	0.025883	0.021478	0.026829	0.024403	0.021363	0.020655	0.016718	0.009148	0.010491	0.023383	0.011606	0.028922	0.016060	0.027398
5.025000	0.134382	0.063697	0.069513	0.026621	0.013705	0.062630	0.047870	0.028505	0.044716	0.029282	0.045435	0.037568	0.048517	0.037599		0.067071	0.026553	0.036090	0.030051	0.058038	0.044337	0.048591	0.073358	0.084672	0.026468	0.026165	0.010882	0.010128	0.012278	0.030175	0.027856	0.019043	0.032090	0.037066	0.029899	0.008349	0.020078	0.012544	0.004297	0.018386	0.015892	0.012611	0.016860	0.015487	0.027603	0.031184	0.028892	0.025857	0.021420	0.026870	0.024196	0.021251	0.020378	0.016557	0.009164	0.010595	0.023390	0.011356	0.028698	0.015871	0.027180
5.030000	0.135461	0.064496	0.070526	0.026155	0.013191	0.062375	0.047658	0.028592	0.044681	0.028639	0.045569	0.037882	0.048943	0.036655		0.066798	0.026616	0.036017	0.030132	0.058085	0.044221	0.048952	0.073304	0.084678	0.026118	0.025159	0.011034	0.009900	0.012659	0.028735	0.027163	0.018324	0.031956	0.037893	0.030545	0.007844	0.019526	0.012095	0.004462	0.018451	0.015850	0.012565	0.016710	0.015419	0.027521	0.031790	0.029073	0.026076	0.021840	0.026971	0.025405	0.021078	0.020258	0.016340	0.009097	0.010535	0.023260	0.011326	0.028699	0.015937	0.027305
5.035000	0.136212	0.064424	0.070892	0.025725	0.013513	0.062121	0.046987	0.028231	0.044330	0.028309	0.045443	0.037974	0.048653	0.037025		0.066501	0.026535	0.035869	0.030190	0.057723	0.044599	0.049288	0.072799	0.084213	0.023014	0.027020	0.011373	0.009807	0.012829	0.028744	0.027083	0.018856	0.031502	0.037034	0.030213	0.008243	0.020478	0.012503	0.004350	0.018440	0.015809	0.012548	0.016480	0.015314	0.027800	0.031749	0.029214	0.026255	0.021722	0.026842	0.024463	0.021268	0.020367	0.016523	0.009447	0.010651	0.023071	0.010952	0.028473	0.015863	0.027284
5.040000	0.136625	0.064622	0.071095	0.025557	0.014224	0.062234	0.047099	0.027525	0.044334	0.028648	0.044916	0.037678	0.048509	0.037320		0.066274	0.026035	0.035504	0.029659	0.057262	0.043824	0.049179	0.073172	0.084626	0.028051	0.024307	0.011627	0.010564	0.012831	0.029123	0.027356	0.019898	0.032021	0.035715	0.027756	0.009827	0.021181	0.013171	0.003740	0.018685	0.015582	0.012645	0.016448	0.014795	0.027157	0.031748	0.029302	0.026492	0.021855	0.026639	0.024205	0.021343	0.020093	0.016479	0.009501	0.010580	0.023092	0.010920	0.028173	0.015456	0.027148
5.045000	0.137467	0.065134	0.072010	0.024796	0.013559	0.062005	0.047033	0.027749	0.044165	0.029207	0.045511	0.038169	0.048971	0.036668		0.065680	0.026031	0.035257	0.029574	0.057538	0.044039	0.048876	0.073191	0.084502	0.025407	0.025744	0.011396	0.010270	0.012990	0.028153	0.026803	0.018971	0.030768	0.036544	0.029215	0.008695	0.020334	0.012700	0.004110	0.018583	0.015598	0.012497	0.016534	0.015039	0.027357	0.031722	0.029472	0.026350	0.022179	0.026527	0.024168	0.021127	0.019836	0.016260	0.009356	0.010521	0.022877	0.010900	0.028058	0.015496	0.027015
5.050000	0.138319	0.065546	0.072798	0.024398	0.013794	0.062111	0.046787	0.027766	0.043799	0.028565	0.045484	0.038078	0.048672	0.036862		0.065360	0.025689	0.035315	0.029391	0.057243	0.043774	0.049222	0.072708	0.084504	0.026253	0.025607	0.011894	0.010571	0.013226	0.027771	0.026608	0.018974	0.030616	0.036187	0.028678	0.008877	0.020311	0.012916	0.004008	0.018747	0.015447	0.012399	0.016423	0.014873	0.027134	0.031844	0.029516	0.026863	0.022090	0.026612	0.024766	0.021171	0.019819	0.016314	0.009589	0.010558	0.022500	0.010511	0.027792	0.015567	0.026982
5.055000	0.139023	0.064592	0.073690	0.024078	0.013650	0.062234	0.046580	0.027313	0.043774	0.028934	0.045176	0.038545	0.048498	0.037233		0.065327	0.025776	0.035314	0.029259	0.057476	0.043753	0.049051	0.073228	0.084410	0.026314	0.025956	0.011984	0.010493	0.013227	0.027125	0.026397	0.018935	0.030193	0.035815	0.029047	0.008670	0.019994	0.012802	0.003997	0.018707	0.015373	0.012364	0.016288	0.014762	0.027315	0.031500	0.029512	0.026594	0.022019	0.026408	0.024138	0.020874	0.019479	0.016007	0.009442	0.010592	0.022261	0.010604	0.027164	0.015384	0.026991
5.060000	0.139657	0.065988	0.074555	0.023844	0.013501	0.062021	0.046181	0.027362	0.043435	0.028724	0.046122	0.038399	0.048559	0.037490		0.065057	0.025649	0.035313	0.029252	0.057099	0.043715	0.049098	0.073075	0.084069	0.023394	0.026964	0.012153	0.010135	0.013277	0.026755	0.026124	0.018497	0.030664	0.036195	0.029428	0.008470	0.020118	0.012459	0.003998	0.018544	0.015275	0.012250	0.016169	0.014724	0.027578	0.031128	0.028917	0.026324	0.021807	0.026717	0.024763	0.020269	0.018862	0.015509	0.009389	0.010742	0.022231	0.010314	0.027053	0.015334	0.026879
5.065000	0.140221	0.065621	0.074913	0.023620	0.013821	0.062235	0.046182	0.027181	0.042788	0.028305	0.045683	0.038364	0.048168	0.037447		0.064684	0.025151	0.034661	0.028862	0.056569	0.043335	0.049024	0.073035	0.083776	0.028745	0.024477	0.012618	0.010940	0.013381	0.026560	0.026197	0.019098	0.029796	0.034564	0.027329	0.009737	0.020728	0.013317	0.003647	0.018685	0.015106	0.012316	0.015997	0.014276	0.026286	0.031306	0.029418	0.026624	0.021878	0.026403	0.024370	0.020326	0.018791	0.015591	0.009542	0.010854	0.021971	0.010314	0.026811	0.015106	0.026860
5.070000	0.140951	0.066251	0.076017	0.023385	0.013155	0.061792	0.046172	0.027179	0.042881	0.028396	0.045734	0.038154	0.048692	0.037324		0.064614	0.025313	0.034887	0.028929	0.056642	0.043644	0.048730	0.073237	0.083701	0.026067	0.026206	0.012733	0.010749	0.013475	0.025754	0.025609	0.018215	0.029396	0.036170	0.029031	0.008453	0.019940	0.012684	0.004029	0.018392	0.014918	0.011984	0.015860	0.014570	0.027459	0.030777	0.028882	0.026229	0.021620	0.026380	0.024564	0.019976	0.018244	0.015217	0.009263	0.010881	0.021711	0.010050	0.026649	0.015162	0.026581
5.075000	0.141601	0.066594	0.077066	0.023105	0.012988	0.061694	0.045999	0.027048	0.042595	0.028428	0.046277	0.038420	0.047399	0.038196	0.118305	0.064355	0.025035	0.034555	0.028833	0.056532	0.043717	0.048617	0.072448	0.083699	0.022477	0.027968	0.012575	0.010337	0.013575	0.024764	0.025069	0.017991	0.028551	0.035805	0.028608	0.008627	0.020035	0.012650	0.004156	0.018739	0.015021	0.012085	0.015949	0.014319	0.026819	0.030565	0.028994	0.026255	0.021700	0.026118	0.025328	0.020018	0.018160	0.015284	0.009438	0.010992	0.021749	0.009814	0.026438	0.015133	0.026513
5.080000	0.142109	0.066121	0.076891	0.023371	0.013915	0.062371	0.045597	0.025358	0.039323	0.027517	0.048702	0.044539	0.052109	0.044922	0.089838	0.064488	0.024738	0.034338	0.028513	0.055743	0.042744	0.049058	0.072462	0.083231	0.028766	0.025434	0.013273	0.010988	0.013627	0.025039	0.025505	0.018994	0.028906	0.034395	0.026159	0.010136	0.020704	0.013577	0.003539	0.018887	0.014683	0.012357	0.015453	0.013559	0.026480	0.030764	0.029100	0.026655	0.021801	0.025780	0.024242	0.020030	0.017969	0.015027	0.009360	0.010933	0.021504	0.009808	0.026051	0.014844	0.026498
5.085000	0.142591	0.066638	0.078169	0.023149	0.012943	0.062519	0.045533	0.025324	0.039007	0.026098	0.048761	0.044734	0.051559	0.045242	0.087693	0.064600	0.024483	0.034295	0.028274	0.055728	0.042620	0.048667	0.072840	0.083074	0.025455	0.026600	0.013294	0.011172	0.013803	0.023167	0.024183	0.017627	0.027821	0.035175	0.028099	0.008746	0.018731	0.012709	0.003980	0.018664	0.014624	0.011948	0.015316	0.013782	0.026814	0.030150	0.028855	0.026072	0.021274	0.026096	0.025232	0.019332	0.017495	0.014645	0.009346	0.010900	0.021420	0.009541	0.025861	0.014921	0.026607
5.090000	0.142744	0.065653	0.078824	0.023140	0.012796	0.062808	0.045647	0.024847	0.038705	0.026659	0.048568	0.044541	0.052209	0.045296	0.086930	0.064241	0.023876	0.033476	0.027661	0.054925	0.042187	0.048039	0.072327	0.083149	0.027705	0.026628	0.013392	0.011271	0.013798	0.022158	0.023486	0.017390	0.027100	0.034614	0.027227	0.009268	0.018929	0.013162	0.003871	0.018714	0.014393	0.012231	0.015026	0.013447	0.026579	0.030397	0.028909	0.026491	0.021501	0.025637	0.024720	0.019481	0.017456	0.014763	0.009379	0.010986	0.022423	0.009554	0.025716	0.014783	0.026328
5.095000	0.143052	0.065986	0.079763	0.023349	0.012112	0.062963	0.045539	0.024712	0.038081	0.025966	0.047988	0.044256	0.051966	0.045196	0.087601	0.064214	0.023113	0.033066	0.026902	0.053397	0.040896	0.048170	0.072480	0.084061	0.022029	0.029267	0.013441	0.011216	0.013877	0.020925	0.022707	0.016550	0.026072	0.034987	0.028306	0.008385	0.018106	0.012653	0.004105	0.018446	0.014210	0.012125	0.014720	0.013463	0.026862	0.029705	0.028444	0.025923	0.021450	0.025932	0.025531	0.018929	0.017069	0.014421	0.009340	0.010878	0.020834	0.009235	0.025981	0.014858	0.026594
5.100000	0.143124	0.066678	0.079789	0.023584	0.012471	0.063185	0.045625	0.023856	0.037783	0.025758	0.047159	0.043640	0.051441	0.044974	0.087248	0.064243	0.021735	0.031822	0.025813	0.052111	0.039945	0.047861	0.072712	0.084080	0.032530	0.021646	0.013629	0.011717	0.013902	0.019719	0.022148	0.016725	0.025511	0.033407	0.025831	0.009835	0.018828	0.013416	0.003810	0.018964	0.013816	0.012277	0.014286	0.012663	0.026324	0.030310	0.028756	0.026364	0.021691	0.025815	0.026437	0.018997	0.017031	0.014466	0.009308	0.010993	0.020971	0.009258	0.025317	0.014704	0.026633
5.105000	0.142438	0.065555	0.080484	0.023984	0.011683	0.063339	0.045508	0.023162	0.037261	0.024978	0.046452	0.043317	0.051077	0.045247	0.086885	0.064610	0.020402	0.030733	0.024551	0.050481	0.039117	0.047647	0.072756	0.084652	0.026184	0.026100	0.013476	0.011536	0.014141	0.019812	0.022064	0.015830	0.025405	0.035001	0.029012	0.007962	0.017877	0.012400	0.004400	0.018345	0.013990	0.011825	0.014358	0.013182	0.027055	0.028785	0.028016	0.025487	0.021263	0.025654	0.024949	0.018864	0.016613	0.014371	0.009528	0.011053	0.020424	0.009036	0.024474	0.014408	0.026328
5.110000	0.142196	0.066568	0.080590	0.024144	0.011518	0.063356	0.045080	0.021926	0.036351	0.023883	0.045371	0.042531	0.050813	0.045163	0.086434	0.064910	0.018758	0.028833	0.022232	0.048465	0.037816	0.047153	0.073302	0.085092	0.023854	0.027276	0.013416	0.011154	0.014177	0.019274	0.021770	0.015371	0.025163	0.034484	0.028497	0.008025	0.017728	0.012625	0.004334	0.018496	0.013944	0.011952	0.014277	0.012714	0.026863	0.028458	0.027698	0.025485	0.021317	0.025528	0.024641	0.018843	0.016455	0.014356	0.009737	0.011140	0.020036	0.008885	0.024040	0.014299	0.026158
5.115000	0.141210	0.064509	0.079960	0.024905	0.011646	0.064105	0.045037	0.021012	0.035138	0.021904	0.043949	0.041796	0.051240	0.045193	0.085364	0.065391	0.016556	0.027242	0.020382	0.046094	0.036365	0.046409	0.073683	0.085242	0.026156	0.026334	0.013407	0.011022	0.014416	0.018747	0.021558	0.015905	0.024638	0.033188	0.026682	0.008974	0.018263	0.013294	0.004031	0.018544	0.013628	0.012033	0.014021	0.012240	0.026423	0.028589	0.028004	0.025868	0.021487	0.025202	0.023877	0.018981	0.016440	0.014314	0.009551	0.011355	0.019899	0.009216	0.023776	0.014024	0.025744
5.120000	0.140968	0.064600	0.080225	0.024880	0.011684	0.063933	0.043631	0.019180	0.033937	0.020243	0.042014	0.040348	0.050920	0.044879	0.085022	0.065859	0.014291	0.025388	0.017768	0.043415	0.034082	0.046585	0.073914	0.085829	0.029202	0.025175	0.013044	0.011394	0.014165	0.018655	0.021265	0.015801	0.024328	0.033233	0.026740	0.009100	0.018257	0.013215	0.004010	0.018381	0.013431	0.011718	0.013928	0.012035	0.026420	0.027334	0.026973	0.024902	0.020840	0.025364	0.025303	0.018458	0.015935	0.013856	0.009708	0.011277	0.019515	0.008981	0.023254	0.013998	0.025730
5.125000	0.139557	0.064602	0.080054	0.025606	0.010681	0.064567	0.043468	0.017824	0.032920	0.018675	0.041518	0.039613	0.050806	0.044767	0.084354	0.066522	0.012400	0.023654	0.016146	0.041599	0.032855	0.046483	0.074353	0.086380	0.024390	0.026408	0.012451	0.010637	0.014192	0.016853	0.020087	0.014662	0.023306	0.033638	0.027165	0.008410	0.017441	0.012829	0.004438	0.018540	0.013615	0.012291	0.014288	0.011972	0.025852	0.026664	0.026704	0.024496	0.020763	0.025045	0.024151	0.018569	0.015768	0.013770	0.009719	0.011456	0.019409	0.009391	0.023230	0.013915	0.025231
5.130000	0.138329	0.063012	0.078957	0.026148	0.010410	0.065181	0.042699	0.015887	0.030982	0.016401	0.038879	0.038485	0.050306	0.044576	0.083434	0.067320	0.010075	0.021873	0.013632	0.038321	0.030785	0.045966	0.075302	0.087416	0.027524	0.024385	0.012945	0.011148	0.014577	0.016866	0.020133	0.014860	0.023683	0.032614	0.025999	0.009300	0.017758	0.013592	0.004141	0.018179	0.013019	0.012001	0.013611	0.011620	0.026012	0.025862	0.026193	0.024364	0.020330	0.025116	0.024123	0.018682	0.015952	0.014048	0.009870	0.011324	0.018783	0.008898	0.022664	0.013844	0.025473
5.135000	0.136841	0.063261	0.078315	0.026686	0.010072	0.065564	0.041563	0.014539	0.029507	0.013978	0.036592	0.037876	0.049650	0.044539	0.082416	0.068015	0.008511	0.020493	0.011335	0.035939	0.029461	0.045462	0.076085	0.088244	0.024447	0.026949	0.012603	0.010871	0.014605	0.016705	0.019793	0.014401	0.022870	0.032517	0.026495	0.008927	0.017456	0.013378	0.004150	0.017690	0.013041	0.011875	0.014049	0.011630	0.026207	0.025164	0.025792	0.023820	0.020145	0.025151	0.023487	0.018738	0.015934	0.014111	0.009913	0.011309	0.019668	0.008941	0.022412	0.013688	0.025213
5.140000	0.134536	0.060457	0.076931	0.027629	0.010078	0.066531	0.042223	0.013214	0.028126	0.011850	0.035088	0.037133	0.048694	0.044978	0.080627	0.069157	0.007520	0.019678	0.009438	0.033511	0.029083	0.044510	0.077322	0.089211	0.025859	0.026665	0.012202	0.010505	0.014570	0.016068	0.019387	0.014402	0.022785	0.031069	0.025042	0.009866	0.017993	0.013924	0.004120	0.017501	0.012941	0.012054	0.013708	0.011463	0.025783	0.024763	0.025448	0.024063	0.020148	0.024900	0.022844	0.018807	0.016156	0.014304	0.009762	0.011309	0.018191	0.009390	0.022161	0.013504	0.024979
5.145000	0.133501	0.060796	0.076559	0.027661	0.009705	0.066806	0.041673	0.012647	0.026843	0.009854	0.032728	0.036177	0.048731	0.044181	0.079394	0.069524	0.007277	0.019062	0.008409	0.030884	0.028197	0.044929	0.077703	0.090524	0.025845	0.022931	0.011953	0.010631	0.014873	0.015022	0.018591	0.013551	0.021636	0.031724	0.025492	0.009707	0.017552	0.013604	0.003996	0.017642	0.012776	0.011920	0.013757	0.011180	0.025823	0.023530	0.024600	0.023014	0.019525	0.025344	0.025033	0.018239	0.016006	0.014058	0.009844	0.011029	0.018501	0.008956	0.022194	0.013706	0.025182
5.150000	0.132010	0.057526	0.075142	0.028118	0.010298	0.067356	0.041600	0.012246	0.026210	0.007106	0.029473	0.034352	0.048125	0.044182	0.078716	0.070189	0.008344	0.019114	0.008761	0.028057	0.026928	0.045089	0.077760	0.091704	0.025617	0.025930	0.012315	0.010725	0.014668	0.016277	0.019356	0.014671	0.022314	0.031396	0.024070	0.010540	0.017867	0.014172	0.003966	0.017525	0.012679	0.011889	0.013848	0.011076	0.025453	0.023329	0.024766	0.023602	0.019597	0.024414	0.021810	0.019351	0.016733	0.014802	0.010240	0.011283	0.018062	0.009077	0.021770	0.013438	0.024916
5.155000	0.130312	0.057788	0.074534	0.028252	0.010040	0.067332	0.041752	0.012319	0.025540	0.005688	0.027612	0.033163	0.048372	0.042902	0.077264	0.070536	0.009589	0.019452	0.009617	0.026119	0.026335	0.045114	0.078862	0.092544	0.025486	0.025263	0.011763	0.010592	0.014856	0.015718	0.019297	0.014267	0.021757	0.031250	0.024079	0.010441	0.017613	0.013892	0.003986	0.017506	0.012577	0.011968	0.013800	0.010963	0.025488	0.022115	0.024132	0.023039	0.019357	0.024728	0.022328	0.018936	0.016387	0.014644	0.010074	0.011011	0.017994	0.009248	0.021718	0.013289	0.024963
5.160000	0.128453	0.055158	0.073251	0.028824	0.010210	0.068280	0.042528	0.013041	0.025524	0.005233	0.025981	0.032810	0.047179	0.042649	0.075806	0.071237	0.011060	0.019784	0.010451	0.024317	0.026322	0.045046	0.079604	0.093720	0.026088	0.023149	0.011424	0.010524	0.015364	0.015651	0.019236	0.014441	0.021946	0.031082	0.023739	0.010447	0.017515	0.013907	0.003889	0.017314	0.012684	0.011717	0.013933	0.011061	0.025452	0.021235	0.023486	0.022347	0.018811	0.024929	0.022170	0.018479	0.016397	0.014521	0.010132	0.010867	0.017807	0.009164	0.022299	0.013289	0.024770
5.165000	0.126411	0.053158	0.071334	0.029581	0.010011	0.068884	0.044222	0.014578	0.025612	0.005957	0.024606	0.032505	0.045298	0.041717	0.074246	0.072117	0.012886	0.020517	0.011606	0.022590	0.026294	0.044782	0.080939	0.094963	0.025063	0.025647	0.011754	0.010831	0.015149	0.016323	0.019864	0.015202	0.022328	0.030968	0.022671	0.011138	0.017407	0.013796	0.003926	0.017214	0.012940	0.012462	0.014290	0.010701	0.024937	0.020581	0.023113	0.022628	0.019208	0.024563	0.021498	0.019250	0.016719	0.014842	0.010210	0.011038	0.018550	0.009572	0.021393	0.012985	0.024609
5.170000	0.125122	0.052029	0.070588	0.029549	0.009877	0.069183	0.045047	0.015413	0.026057	0.006377	0.024267	0.032203	0.045189	0.040700	0.072160	0.072383	0.014757	0.021679	0.013317	0.020545	0.026014	0.043636	0.040373	0.081023	0.025394	0.024305	0.011680	0.010555	0.015276	0.015666	0.019278	0.014737	0.021307	0.030866	0.022541	0.011073	0.017302	0.013760	0.003629	0.016830	0.012601	0.011861	0.014344	0.010861	0.025100	0.020094	0.022726	0.022226	0.018170	0.024767	0.020876	0.018872	0.016708	0.014883	0.010123	0.010700	0.017624	0.009015	0.021446	0.013136	0.024656
5.175000	0.122766	0.050855	0.067477	0.030056	0.010485	0.070120	0.044540	0.017074	0.027201	0.007067	0.021549	0.030238	0.045354	0.039989	0.071401	0.075252	0.016563	0.022078	0.014498	0.020877	0.030428	0.041082	0.041880	0.072974	0.025720	0.024848	0.011611	0.010983	0.015321	0.015652	0.019284	0.014957	0.021378	0.030740	0.021711	0.011352	0.017196	0.013649	0.003598	0.016975	0.012558	0.012034	0.014596	0.010712	0.024946	0.019771	0.022732	0.022487	0.018902	0.024707	0.020287	0.018929	0.016882	0.014965	0.010097	0.010638	0.017755	0.009238	0.021534	0.012809	0.024458
5.180000	0.120838	0.049402	0.066141	0.030485	0.010341	0.070345	0.046239	0.018920	0.028040	0.008782	0.021913	0.030969	0.043995	0.039486	0.069837	0.075822	0.017968	0.022945	0.015540	0.020002	0.031393	0.040976	0.041350	0.070611	0.023001	0.025601	0.011536	0.011170	0.015428	0.014596	0.018433	0.014560	0.020415	0.031104	0.021268	0.011407	0.016724	0.013560	0.003496	0.016743	0.012492	0.011770	0.014724	0.010792	0.024590	0.019427	0.022586	0.022313	0.018610	0.024600	0.019762	0.018896	0.016927	0.015048	0.010096	0.010684	0.018012	0.009183	0.021778	0.012792	0.024307
5.185000	0.118418	0.046747	0.063733	0.031463	0.011011	0.071086	0.048515	0.021245	0.029996	0.010777	0.020797	0.031697	0.043612	0.038487	0.069068	0.076571	0.020039	0.024613	0.017483	0.019322	0.032328	0.039413	0.041575	0.069956	0.026550	0.024847	0.011583	0.011016	0.015878	0.014283	0.018550	0.014948	0.020376	0.029951	0.019229	0.012321	0.016999	0.013995	0.003668	0.016714	0.012430	0.012354	0.014842	0.010199	0.024158	0.020185	0.023223	0.023344	0.019342	0.024280	0.018332	0.019306	0.017221	0.015289	0.010018	0.010731	0.018024	0.009704	0.021920	0.012115	0.024218
5.190000	0.117532	0.046356	0.062925	0.031200	0.010673	0.071151	0.049834	0.023035	0.031039	0.012334	0.021380	0.032665	0.043764	0.037402	0.066610	0.076859	0.021394	0.025883	0.018474	0.018014	0.032580	0.039810	0.041707	0.067385	0.025515	0.024431	0.011748	0.011226	0.015767	0.013743	0.018009	0.014291	0.019234	0.030642	0.019371	0.011962	0.016346	0.013461	0.003560	0.016388	0.012338	0.011457	0.015200	0.010859	0.024193	0.018855	0.022106	0.022336	0.018401	0.024877	0.018290	0.018730	0.017072	0.014988	0.010213	0.010589	0.018168	0.008872	0.022604	0.012650	0.024172
5.195000	0.115888	0.044251	0.061352	0.031417	0.010746	0.071480	0.051776	0.025387	0.033079	0.013905	0.019532	0.032952	0.042717	0.036778	0.065394	0.077431	0.023057	0.027226	0.019955	0.017039	0.033266	0.039228	0.041654	0.065562	0.023463	0.025780	0.011658	0.011205	0.015848	0.013926	0.018015	0.014301	0.018926	0.030875	0.018576	0.012294	0.016258	0.013313	0.003755	0.016381	0.012578	0.011959	0.015692	0.010812	0.023862	0.018447	0.021736	0.022131	0.018216	0.024802	0.017336	0.018661	0.017021	0.015076	0.009938	0.010516	0.018066	0.008851	0.022630	0.012630	0.024097
5.200000	0.114828	0.042179	0.059362	0.031542	0.011963	0.071334	0.052758	0.027553	0.035718	0.015465	0.018415	0.032321	0.043108	0.036103	0.064151	0.079149	0.024300	0.029104	0.021325	0.015508	0.033588	0.038755	0.041418	0.064307	0.024392	0.024696	0.012367	0.011221	0.016167	0.012778	0.017429	0.014613	0.018114	0.030634	0.017005	0.012875	0.016433	0.013470	0.003928	0.016548	0.012295	0.011888	0.016047	0.010538	0.023710	0.018296	0.021622	0.022476	0.018085	0.024968	0.016380	0.018431	0.017113	0.015081	0.009675	0.010630	0.018238	0.008905	0.022856	0.012357	0.024171
5.205000	0.112587	0.039763	0.057380	0.032240	0.012585	0.071478	0.054911	0.029661	0.037296	0.017329	0.018582	0.034272	0.042705	0.035199	0.063105	0.079847	0.025765	0.030267	0.022606	0.015400	0.035203	0.037912	0.041560	0.062300	0.025532	0.023595	0.012717	0.011334	0.016354	0.012751	0.017302	0.014900	0.017875	0.030830	0.015902	0.013275	0.016511	0.013552	0.004283	0.016554	0.012180	0.011645	0.016133	0.010935	0.023604	0.017724	0.021368	0.022432	0.017997	0.025221	0.015868	0.018358	0.016943	0.015047	0.009688	0.010821	0.017994	0.008921	0.022740	0.012095	0.024236
5.210000	0.111360	0.038015	0.056105	0.032278	0.013029	0.071489	0.056917	0.031707	0.039478	0.018720	0.018359	0.034975	0.042556	0.034645	0.062127	0.080113	0.027362	0.031967	0.024247	0.013615	0.035174	0.037691	0.041159	0.060884	0.023720	0.024265	0.013339	0.011603	0.016530	0.012615	0.017063	0.015046	0.017222	0.030730	0.015442	0.013049	0.016222	0.013407	0.004357	0.016435	0.012529	0.011888	0.016840	0.010592	0.023481	0.017107	0.021083	0.022307	0.017680	0.025040	0.014003	0.018099	0.016921	0.014989	0.009560	0.010741	0.017908	0.008865	0.022099	0.012008	0.024157
5.215000	0.109366	0.036191	0.054200	0.032821	0.013468	0.071642	0.058519	0.033336	0.041080	0.020320	0.018918	0.036340	0.042035	0.034649	0.061074	0.080741	0.028840	0.033117	0.025569	0.013975	0.036618	0.037266	0.040526	0.059715	0.023686	0.023494	0.013375	0.011683	0.016559	0.012322	0.016441	0.015258	0.016500	0.030098	0.014302	0.013716	0.016380	0.013542	0.004500	0.016292	0.012598	0.011976	0.017187	0.011227	0.023398	0.016472	0.020514	0.022335	0.017320	0.025013	0.013302	0.018331	0.016730	0.014910	0.009567	0.011095	0.018571	0.008975	0.022356	0.011913	0.023898
5.220000	0.107527	0.034354	0.052362	0.033416	0.014104	0.071866	0.060279	0.034927	0.042576	0.021575	0.019365	0.037572	0.041930	0.034281	0.060394	0.081321	0.030470	0.034489	0.027219	0.013532	0.037685	0.037054	0.040020	0.058448	0.022073	0.023182	0.013312	0.011694	0.016682	0.012053	0.016421	0.015335	0.015719	0.030183	0.013471	0.013866	0.017093	0.013380	0.004588	0.016678	0.012645	0.012094	0.017453	0.011250	0.023291	0.015956	0.020267	0.022299	0.016975	0.025042	0.012798	0.018149	0.016587	0.014843	0.009232	0.011151	0.019811	0.009104	0.022339	0.011823	0.023853
5.225000	0.105536	0.031070	0.050479	0.034223	0.014804	0.071802	0.062227	0.036299	0.044377	0.022903	0.019923	0.038422	0.042324	0.034614	0.059678	0.081815	0.031694	0.035852	0.028456	0.013304	0.038665	0.036591	0.039807	0.057032	0.022945	0.021953	0.013489	0.011490	0.016698	0.011640	0.015936	0.015818	0.015069	0.030205	0.012382	0.014497	0.016459	0.013566	0.004825	0.016790	0.012690	0.012290	0.017824	0.011325	0.023134	0.015522	0.019892	0.022264	0.016927	0.025264	0.011467	0.018093	0.016524	0.014860	0.009118	0.011337	0.018461	0.009227	0.022295	0.011664	0.023871
5.230000	0.103880	0.029596	0.049010	0.034732	0.015367	0.071819	0.063407	0.037757	0.045852	0.024066	0.020396	0.039245	0.042258	0.034574	0.059151	0.082257	0.033101	0.036939	0.029650	0.012989	0.039447	0.036266	0.039271	0.055851	0.022785	0.021296	0.013913	0.011790	0.016349	0.011123	0.015579	0.016144	0.014404	0.029730	0.011797	0.014507	0.016305	0.013539	0.005136	0.017081	0.012785	0.012048	0.018023	0.011355	0.023097	0.015075	0.019348	0.022224	0.016574	0.025377	0.011189	0.017750	0.016129	0.014508	0.008668	0.011796	0.019225	0.009299	0.022456	0.011425	0.023856
5.235000	0.101700	0.028241	0.047454	0.035034	0.015815	0.071475	0.064062	0.038611	0.046538	0.025150	0.020234	0.039139	0.042925	0.034513	0.058690	0.082092	0.034056	0.037745	0.030377	0.013199	0.040466	0.035831	0.038853	0.054475	0.021688	0.021343	0.014229	0.011425	0.016861	0.010439	0.014915	0.015847	0.012907	0.030119	0.011619	0.014804	0.015999	0.013529	0.005450	0.017625	0.013005	0.012247	0.018268	0.011545	0.022809	0.015075	0.019307	0.022447	0.016609	0.026128	0.010507	0.017246	0.016023	0.014261	0.008341	0.012106	0.019229	0.009493	0.023515	0.011509	0.024028
5.240000	0.099723	0.025546	0.045627	0.035888	0.016571	0.071477	0.065083	0.039721	0.047401	0.026281	0.020561	0.039009	0.042439	0.034887	0.058060	0.082035	0.034846	0.038701	0.030964	0.012878	0.041002	0.035498	0.038163	0.052849	0.020434	0.020868	0.014708	0.011620	0.016920	0.010007	0.014337	0.015796	0.012179	0.029695	0.011418	0.014757	0.016099	0.013552	0.005598	0.018270	0.013316	0.012930	0.018585	0.011475	0.023313	0.014962	0.019106	0.022382	0.016585	0.026644	0.010578	0.016627	0.015559	0.013860	0.007977	0.012156	0.019251	0.009678	0.022695	0.011484	0.024199
5.245000	0.097630	0.024151	0.044130	0.036581	0.017373	0.071331	0.065785	0.040516	0.048441	0.027171	0.020997	0.038827	0.043726	0.035071	0.057048	0.081930	0.035647	0.039362	0.031447	0.013134	0.041472	0.035578	0.037897	0.051516	0.019410	0.020814	0.014532	0.011556	0.016798	0.010058	0.014166	0.016560	0.011819	0.029236	0.011533	0.014908	0.015976	0.013520	0.005786	0.018844	0.013389	0.012749	0.018578	0.011849	0.023439	0.015046	0.018466	0.022428	0.016622	0.027367	0.010654	0.016131	0.014964	0.013383	0.007363	0.012776	0.020222	0.010116	0.022426	0.011090	0.024685
5.250000	0.095853	0.022224	0.042745	0.037422	0.018599	0.071530	0.066065	0.041274	0.048977	0.028187	0.021282	0.038525	0.042538	0.035768	0.056798	0.082012	0.036287	0.040049	0.031765	0.012805	0.041764	0.034868	0.037150	0.051075	0.018872	0.020022	0.015204	0.011722	0.017021	0.010893	0.014232	0.017159	0.011641	0.030099	0.012028	0.014536	0.015413	0.013030	0.005817	0.019562	0.013512	0.012955	0.018461	0.012046	0.023817	0.014876	0.017983	0.021761	0.016706	0.027915	0.011201	0.015098	0.014122	0.012673	0.006714	0.013279	0.019596	0.010600	0.022132	0.011566	0.024914
5.255000	0.093737	0.021133	0.041613	0.037831	0.019628	0.071304	0.066587	0.041630	0.049389	0.028610	0.021103	0.037699	0.042608	0.035997	0.056446	0.081532	0.036456	0.040409	0.031864	0.012554	0.041749	0.034971	0.036614	0.050267	0.018734	0.019909	0.015042	0.011635	0.016903	0.010875	0.014230	0.017542	0.011326	0.030287	0.012665	0.014038	0.014929	0.012760	0.006204	0.019869	0.013884	0.013502	0.018333	0.012389	0.024255	0.014874	0.017457	0.021188	0.016686	0.028369	0.011833	0.013941	0.013222	0.011827	0.006023	0.013986	0.019660	0.011663	0.022774	0.011513	0.025367
5.260000	0.091742	0.020053	0.040601	0.038477	0.020802	0.070917	0.066574	0.042031	0.048882	0.029050	0.021420	0.037164	0.042519	0.036694	0.055924	0.081303	0.036807	0.040726	0.031842	0.012242	0.041487	0.034919	0.035880	0.049753	0.018282	0.019853	0.015398	0.011826	0.017146	0.010696	0.014308	0.017772	0.011507	0.030752	0.013620	0.013577	0.014865	0.012184	0.006481	0.020442	0.013862	0.014055	0.017859	0.012438	0.024937	0.015119	0.017341	0.021434	0.017270	0.029203	0.013428	0.013211	0.012080	0.010940	0.005042	0.014271	0.019573	0.012264	0.022040	0.012006	0.026087
5.265000	0.089466	0.019105	0.039671	0.039326	0.021756	0.071059	0.066423	0.042066	0.049547	0.029270	0.021198	0.036078	0.041802	0.037262	0.056068	0.080861	0.036690	0.040590	0.031455	0.012000	0.040991	0.035049	0.035325	0.049518	0.015163	0.020438	0.015515	0.011976	0.017240	0.011162	0.014290	0.018109	0.011411	0.030678	0.014674	0.013099	0.014101	0.011727	0.006840	0.020939	0.013986	0.014631	0.017210	0.013063	0.025045	0.015302	0.017099	0.021036	0.017993	0.029735	0.014603	0.011955	0.010758	0.009903	0.004278	0.014928	0.019824	0.013366	0.021564	0.012542	0.027086
5.270000	0.087563	0.018914	0.039217	0.040391	0.023722	0.071227	0.065973	0.042254	0.049388	0.029709	0.021512	0.035696	0.041377	0.037433	0.055591	0.080695	0.037039	0.041021	0.031344	0.011655	0.040811	0.035266	0.034931	0.048828	0.020935	0.020591	0.015453	0.012134	0.016880	0.013730	0.016049	0.019480	0.013897	0.033011	0.015175	0.012067	0.012816	0.010926	0.007806	0.020500	0.012970	0.014268	0.016400	0.013642	0.025771	0.014887	0.016693	0.020366	0.018217	0.029784	0.015486	0.010731	0.009140	0.008828	0.003744	0.015486	0.018125	0.014725	0.020244	0.013148	0.028354
5.275000	0.084749	0.019138	0.038531	0.040482	0.024290	0.070916	0.065643	0.041738	0.048794	0.029636	0.021148	0.034341	0.042039	0.037545	0.055800	0.079369	0.036704	0.041119	0.030901	0.011299	0.039777	0.035274	0.034724	0.048747	0.020181	0.021460	0.016009	0.012468	0.016142	0.014801	0.016304	0.019633	0.014693	0.034107	0.016358	0.011717	0.013095	0.010920	0.008922	0.019424	0.012031	0.013933	0.015316	0.014426	0.027239	0.015641	0.016889	0.020125	0.018913	0.030682	0.015928	0.009311	0.007659	0.008118	0.003365	0.015492	0.017153	0.016273	0.019331	0.014040	0.029508
5.280000	0.081969	0.019399	0.038074	0.040184	0.024500	0.070193	0.064448	0.041263	0.048222	0.029338	0.020715	0.033136	0.041709	0.038059	0.055555	0.078179	0.036182	0.040258	0.030172	0.010861	0.038980	0.035700	0.034222	0.048796	0.019612	0.023682	0.015893	0.012239	0.016181	0.015030	0.015978	0.018308	0.014638	0.034630	0.016404	0.011380	0.012715	0.011412	0.010261	0.018742	0.012008	0.013741	0.013664	0.015122	0.027766	0.016782	0.017630	0.020483	0.019830	0.032143	0.016181	0.009052	0.006915	0.007704	0.004037	0.015028	0.014835	0.016920	0.018103	0.015599	0.031279
5.285000	0.078914	0.019752	0.037518	0.040250	0.025434	0.069798	0.063138	0.040874	0.047489	0.029140	0.020186	0.031878	0.042239	0.038328	0.056461	0.076601	0.035600	0.039675	0.029265	0.010338	0.037887	0.035626	0.034326	0.049086	0.018635	0.020979	0.015546	0.012480	0.015788	0.016363	0.016852	0.017239	0.016120	0.037288	0.016893	0.010698	0.012542	0.011926	0.012042	0.016179	0.012149	0.011843	0.011998	0.016314	0.028605	0.017083	0.017918	0.020057	0.019689	0.033009	0.015765	0.008704	0.005836	0.007927	0.005358	0.014794	0.012483	0.018052	0.016709	0.016838	0.033030
5.290000	0.076584	0.020224	0.039348	0.039771	0.025770	0.069351	0.062244	0.040291	0.047233	0.029203	0.020382	0.032589	0.040440	0.038865	0.056231	0.073653	0.035589	0.040283	0.028910	0.009170	0.035825	0.035966	0.034815	0.049092	0.016653	0.021291	0.015701	0.012537	0.015496	0.017694	0.017662	0.017416	0.017203	0.040206	0.019039	0.011328	0.013590	0.013078	0.014376	0.013541	0.013264	0.009079	0.012508	0.015773	0.028646	0.017509	0.017874	0.018620	0.018773	0.034023	0.015376	0.008858	0.005681	0.008679	0.006966	0.014119	0.009309	0.018735	0.014854	0.018380	0.034832
5.295000	0.073158	0.020731	0.038778	0.039443	0.026576	0.068743	0.060637	0.039692	0.045899	0.028809	0.019586	0.031436	0.040571	0.038716	0.057240	0.071967	0.034934	0.039627	0.028043	0.009051	0.034862	0.035971	0.034551	0.049217	0.020041	0.023466	0.015476	0.012327	0.014762	0.017774	0.017825	0.016179	0.017753	0.044956	0.022978	0.012818	0.014944	0.014945	0.017302	0.012509	0.013836	0.006958	0.016321	0.015307	0.029754	0.016635	0.016972	0.016771	0.016470	0.034911	0.015632	0.009172	0.005753	0.009782	0.008769	0.014194	0.008897	0.019724	0.014256	0.019928	0.036499
5.300000	0.069312	0.020589	0.037968	0.038410	0.026573	0.067406	0.058407	0.038635	0.044956	0.027868	0.018553	0.030048	0.039492	0.038623	0.058751	0.069524	0.033851	0.037812	0.026979	0.008673	0.033134	0.036293	0.034169	0.050216	0.018952	0.024176	0.015813	0.012522	0.014615	0.016569	0.016585	0.014419	0.017003	0.048771	0.027438	0.013612	0.016496	0.016168	0.018165	0.013209	0.014031	0.007337	0.018220	0.015030	0.030447	0.015925	0.015954	0.015463	0.014710	0.037351	0.018351	0.010375	0.007092	0.011487	0.010500	0.013855	0.009424	0.018587	0.015628	0.020789	0.037405
5.305000	0.065615	0.020868	0.037102	0.036919	0.026660	0.065931	0.055825	0.037203	0.043267	0.026959	0.017863	0.029549	0.039232	0.038781	0.059373	0.066761	0.032357	0.036733	0.025547	0.008997	0.031794	0.036101	0.034381	0.050277	0.020565	0.023616	0.016070	0.012679	0.014262	0.015162	0.015397	0.013184	0.016241	0.051259	0.032024	0.014467	0.016640	0.016734	0.017877	0.015275	0.012870	0.009905	0.018153	0.016014	0.031102	0.014969	0.014707	0.013950	0.013771	0.039691	0.022956	0.011664	0.007841	0.012610	0.011740	0.013046	0.009309	0.017140	0.016145	0.021791	0.038138
5.310000	0.062651	0.021477	0.037896	0.035159	0.026262	0.063967	0.052956	0.035212	0.041519	0.025920	0.016487	0.027407	0.039192	0.038545	0.059756	0.062720	0.030726	0.034724	0.024099	0.008992	0.028937	0.036194	0.034763	0.050638	0.020919	0.021821	0.016288	0.012812	0.014554	0.014199	0.013934	0.013931	0.014704	0.050775	0.035490	0.014585	0.016936	0.016367	0.016630	0.018684	0.010845	0.013256	0.018178	0.013907	0.029669	0.013791	0.013695	0.013130	0.013064	0.039490	0.025720	0.011792	0.008785	0.013144	0.011965	0.013132	0.008318	0.018125	0.016539	0.021759	0.037545
5.315000	0.059593	0.022105	0.036941	0.033924	0.026077	0.062069	0.050074	0.033807	0.039581	0.024192	0.015661	0.026281	0.038617	0.038339	0.060470	0.059994	0.028977	0.033112	0.022533	0.010001	0.027697	0.035934	0.034885	0.051977	0.021375	0.020394	0.016989	0.013460	0.014790	0.014053	0.013250	0.015431	0.012710	0.046332	0.035721	0.014150	0.015521	0.015155	0.015213	0.021581	0.009421	0.017702	0.017688	0.011040	0.031692	0.014228	0.013986	0.013548	0.012445	0.037738	0.027979	0.011954	0.009317	0.012877	0.011379	0.014539	0.007402	0.020481	0.016468	0.020121	0.035768
5.320000	0.057374	0.023153	0.036143	0.032417	0.025714	0.060554	0.047250	0.031890	0.037454	0.022632	0.014642	0.024816	0.039196	0.038063	0.061039	0.057239	0.026948	0.030855	0.020716	0.011680	0.025940	0.035734	0.035230	0.052744	0.021842	0.021637	0.018038	0.014172	0.015538	0.015260	0.014122	0.016934	0.012961	0.041797	0.034140	0.012712	0.013887	0.013084	0.013214	0.023011	0.008322	0.021830	0.015902	0.008128	0.033387	0.015544	0.015283	0.015094	0.012260	0.034817	0.028614	0.011524	0.009370	0.012188	0.010653	0.016682	0.007482	0.023525	0.016493	0.020129	0.034969
5.325000	0.055800	0.024118	0.035919	0.031379	0.025583	0.059149	0.044399	0.030202	0.035198	0.020976	0.013873	0.023405	0.039122	0.038310	0.061877	0.054944	0.024764	0.027914	0.018523	0.013730	0.024719	0.035534	0.035862	0.053427	0.023043	0.021564	0.019498	0.015215	0.016563	0.016933	0.016474	0.018501	0.014836	0.038227	0.031245	0.010983	0.012288	0.011414	0.011409	0.024775	0.007599	0.024727	0.013999	0.007228	0.035693	0.017060	0.016880	0.017011	0.012942	0.031373	0.028237	0.010595	0.008918	0.011240	0.009543	0.018902	0.007878	0.026975	0.015257	0.020120	0.035257
5.330000	0.055548	0.026799	0.038152	0.029296	0.024622	0.058088	0.041423	0.027910	0.032978	0.019160	0.013289	0.023077	0.039307	0.037981	0.062318	0.050797	0.022843	0.026049	0.016883	0.015042	0.021635	0.036778	0.036886	0.054114	0.023861	0.023239	0.021264	0.016188	0.017886	0.019453	0.018773	0.020067	0.017679	0.035517	0.028271	0.009510	0.011063	0.009972	0.009662	0.025335	0.007490	0.024525	0.013517	0.006537	0.037089	0.019140	0.018602	0.018963	0.014399	0.029325	0.028032	0.009903	0.008180	0.010124	0.008706	0.020347	0.009661	0.028209	0.014775	0.018163	0.036058
5.335000	0.054928	0.027900	0.038077	0.028102	0.024226	0.056790	0.038753	0.025940	0.030572	0.016905	0.012849	0.022053	0.039679	0.038602	0.063368	0.049137	0.020500	0.023749	0.014707	0.017427	0.020511	0.036993	0.037399	0.055224	0.024850	0.024249	0.022860	0.016989	0.019120	0.020689	0.019742	0.021087	0.019220	0.033556	0.025680	0.008493	0.009717	0.009314	0.008496	0.024342	0.007472	0.023617	0.013202	0.007447	0.038287	0.020610	0.019798	0.020099	0.015678	0.027712	0.025892	0.008883	0.007478	0.009174	0.007811	0.020652	0.010844	0.027828	0.016249	0.017230	0.036599
5.340000	0.054410	0.028946	0.038212	0.027373	0.023614	0.056108	0.036067	0.023671	0.027973	0.014594	0.012809	0.020879	0.040897	0.038820	0.064426	0.047703	0.018071	0.021645	0.012866	0.020257	0.019828	0.037491	0.037931	0.056261	0.025539	0.023027	0.023602	0.017432	0.019579	0.020929	0.019659	0.020425	0.019555	0.032625	0.023807	0.007782	0.009265	0.009054	0.007749	0.023138	0.008035	0.021960	0.013779	0.008622	0.038915	0.021058	0.020427	0.020581	0.016495	0.026729	0.024497	0.007898	0.006948	0.008350	0.007024	0.020165	0.011855	0.026459	0.016881	0.016249	0.037181
5.345000	0.054053	0.030091	0.038545	0.026742	0.023194	0.055385	0.033752	0.021715	0.025498	0.012227	0.013574	0.020443	0.041109	0.039319	0.065427	0.046672	0.016139	0.020541	0.011261	0.022863	0.019647	0.038014	0.038760	0.056947	0.025608	0.023690	0.023874	0.017347	0.019891	0.020129	0.018421	0.018992	0.018408	0.032496	0.022421	0.007379	0.009290	0.008914	0.007621	0.021366	0.007661	0.019304	0.014621	0.010411	0.039292	0.021136	0.020169	0.020653	0.016966	0.026204	0.023252	0.007767	0.007032	0.008284	0.006680	0.018971	0.011606	0.024436	0.017598	0.015336	0.037123
5.350000	0.053360	0.030950	0.039065	0.025984	0.022894	0.054393	0.031598	0.019527	0.022966	0.009838	0.014956	0.020042	0.042595	0.039698	0.066391	0.045530	0.014152	0.019298	0.010187	0.025696	0.019913	0.038878	0.039238	0.057564	0.024706	0.023031	0.023732	0.017348	0.019585	0.018199	0.016545	0.016603	0.016805	0.032499	0.020537	0.007479	0.009990	0.009326	0.007936	0.019619	0.008033	0.016261	0.015422	0.012173	0.040069	0.019224	0.018898	0.018988	0.016403	0.025376	0.021529	0.007219	0.006858	0.007953	0.005904	0.017783	0.012104	0.023003	0.017143	0.015163	0.037288
5.355000	0.052987	0.031846	0.039759	0.025834	0.023078	0.053379	0.029927	0.017768	0.021087	0.007993	0.016323	0.020176	0.043263	0.039987	0.067657	0.044945	0.013049	0.019090	0.010174	0.028079	0.020670	0.040180	0.039486	0.058513	0.025476	0.022550	0.023328	0.017037	0.019194	0.016456	0.015214	0.015035	0.015588	0.032412	0.019253	0.007506	0.010888	0.009856	0.008229	0.016583	0.008267	0.012808	0.016636	0.013621	0.040013	0.017526	0.017119	0.017576	0.016004	0.024924	0.019722	0.007109	0.007172	0.008003	0.005497	0.016757	0.013034	0.020934	0.017757	0.014205	0.037134
5.360000	0.051856	0.032660	0.039928	0.025672	0.022856	0.052706	0.028109	0.016626	0.019404	0.005481	0.018131	0.021877	0.043820	0.040257	0.068314	0.044846	0.013077	0.019513	0.010891	0.030318	0.021382	0.041074	0.039832	0.059462	0.025223	0.022340	0.022162	0.016524	0.017982	0.015684	0.014331	0.013876	0.014578	0.033100	0.017622	0.006955	0.011034	0.009449	0.008150	0.014948	0.009318	0.008561	0.017875	0.015874	0.041073	0.015652	0.015769	0.015862	0.015105	0.024818	0.018250	0.007084	0.007506	0.008303	0.005387	0.015261	0.012975	0.018849	0.018445	0.013968	0.037197
5.365000	0.051330	0.033290	0.040948	0.025675	0.022752	0.051748	0.026997	0.015837	0.018270	0.003798	0.019984	0.023434	0.044285	0.040431	0.068870	0.044250	0.013441	0.019974	0.012174	0.032136	0.022848	0.041804	0.040067	0.060207	0.024174	0.022503	0.021409	0.015973	0.017198	0.014998	0.013826	0.012957	0.013814	0.033777	0.016482	0.007338	0.011991	0.009749	0.009337	0.013582	0.010335	0.005178	0.018708	0.017855	0.042189	0.014323	0.014815	0.014644	0.014250	0.025459	0.016940	0.007082	0.007688	0.008740	0.005522	0.013779	0.012676	0.016901	0.018002	0.013769	0.036995
5.370000	0.050778	0.033597	0.042111	0.026065	0.023246	0.050893	0.026233	0.015461	0.017651	0.003924	0.021515	0.024380	0.045584	0.040602	0.069186	0.043757	0.013939	0.020877	0.013810	0.034175	0.024118	0.043265	0.039881	0.061087	0.023114	0.022111	0.020337	0.015500	0.016286	0.014752	0.014073	0.013553	0.013826	0.035193	0.015867	0.007813	0.012609	0.010344	0.011175	0.012867	0.011644	0.003274	0.019100	0.019323	0.041931	0.013241	0.013297	0.013495	0.013520	0.026340	0.015993	0.007285	0.007822	0.009150	0.006075	0.012266	0.012292	0.014882	0.018448	0.013807	0.037102
5.375000	0.050259	0.033981	0.043012	0.026198	0.023410	0.050265	0.025116	0.015378	0.017479	0.004298	0.022996	0.025772	0.044966	0.040905	0.069213	0.043256	0.014969	0.021795	0.015238	0.035788	0.025428	0.043611	0.039982	0.062485	0.022813	0.021687	0.019181	0.014808	0.015282	0.014655	0.014145	0.014839	0.013668	0.036533	0.015212	0.008644	0.013783	0.011717	0.012565	0.013139	0.013129	0.003707	0.019505	0.019773	0.043662	0.012886	0.013393	0.013414	0.013178	0.027644	0.015713	0.007717	0.008427	0.009778	0.006728	0.011087	0.011415	0.013027	0.019659	0.013920	0.037209
5.380000	0.049782	0.034270	0.043984	0.026140	0.023479	0.049792	0.024812	0.015831	0.017575	0.005344	0.024295	0.027039	0.045428	0.040830	0.069170	0.042738	0.015657	0.022276	0.016491	0.037269	0.027164	0.044398	0.040013	0.063242	0.021789	0.021668	0.017802	0.014218	0.014436	0.014521	0.014719	0.014730	0.013837	0.037879	0.015180	0.009466	0.014121	0.012373	0.013841	0.013700	0.014588	0.004678	0.019480	0.019783	0.043945	0.012780	0.013152	0.013177	0.013143	0.029119	0.015919	0.008404	0.008878	0.010584	0.007849	0.009903	0.010232	0.011449	0.019694	0.014333	0.037076
5.385000	0.049598	0.034560	0.044858	0.026095	0.023420	0.049703	0.024244	0.016232	0.018024	0.006251	0.025264	0.028061	0.044774	0.040891	0.069065	0.042055	0.016524	0.022308	0.017564	0.038981	0.028360	0.044728	0.039980	0.063852	0.021392	0.019896	0.016669	0.013713	0.013643	0.014805	0.015069	0.015510	0.014083	0.039094	0.015608	0.009873	0.014789	0.012926	0.014762	0.014117	0.015265	0.004752	0.019146	0.019345	0.043355	0.012944	0.013406	0.013476	0.013173	0.030372	0.016640	0.009500	0.009583	0.011189	0.008619	0.008878	0.009533	0.010358	0.020109	0.014812	0.037010
5.390000	0.049532	0.035127	0.045778	0.025986	0.023256	0.049811	0.024059	0.016523	0.018526	0.007039	0.026125	0.028739	0.044919	0.041202	0.068711	0.041278	0.017589	0.022351	0.018465	0.040069	0.029767	0.044529	0.040034	0.064960	0.020432	0.020710	0.015745	0.013049	0.013034	0.014603	0.015257	0.014855	0.014206	0.039723	0.016446	0.010093	0.015157	0.012991	0.015171	0.014105	0.015801	0.004643	0.018361	0.018436	0.043201	0.013599	0.014001	0.014223	0.013720	0.031931	0.017936	0.010643	0.010484	0.012064	0.009680	0.008071	0.008752	0.009749	0.019573	0.015112	0.036213
5.395000	0.049502	0.035527	0.046642	0.025045	0.022862	0.050023	0.023314	0.016870	0.019358	0.007871	0.026688	0.028552	0.045295	0.040818	0.068801	0.040406	0.017901	0.022502	0.019513	0.041261	0.031059	0.044769	0.039734	0.066655	0.019731	0.019089	0.014832	0.012667	0.012564	0.015349	0.015459	0.015239	0.014778	0.041161	0.017487	0.010595	0.015254	0.013560	0.015612	0.014098	0.015719	0.003467	0.017708	0.017265	0.041741	0.013478	0.013789	0.014147	0.013489	0.032815	0.019260	0.011029	0.010502	0.012325	0.010262	0.007844	0.008461	0.009832	0.018821	0.015595	0.035902
5.400000	0.049692	0.035999	0.047500	0.024494	0.022171	0.050169	0.023103	0.016859	0.019760	0.008097	0.027419	0.029076	0.044264	0.041549	0.068318	0.039603	0.017595	0.022167	0.019860	0.042218	0.032077	0.044816	0.040409	0.067422	0.019068	0.018179	0.014167	0.012357	0.012183	0.015347	0.015098	0.015064	0.014440	0.041345	0.018890	0.011240	0.015585	0.013505	0.015558	0.014319	0.015223	0.002555	0.016307	0.015730	0.040628	0.013817	0.014216	0.014496	0.013732	0.033420	0.020891	0.011624	0.010940	0.012794	0.010853	0.008320	0.007595	0.011304	0.018122	0.015676	0.035156
5.405000	0.049775	0.036409	0.048068	0.023739	0.021632	0.050361	0.023381	0.017290	0.019868	0.008256	0.027911	0.029720	0.043478	0.041876	0.068007	0.039025	0.017968	0.021931	0.020139	0.042754	0.033364	0.044928	0.041030	0.068555	0.018212	0.017612	0.013372	0.012049	0.011883	0.015415	0.015075	0.014683	0.014507	0.041213	0.020232	0.011308	0.015267	0.014018	0.015439	0.014339	0.014745	0.003619	0.015380	0.013963	0.039310	0.014214	0.014509	0.014573	0.014022	0.033671	0.022068	0.011926	0.011150	0.013078	0.011141	0.009089	0.006915	0.012371	0.017496	0.015790	0.034735
5.410000	0.049963	0.036667	0.048378	0.023077	0.020960	0.050569	0.023096	0.016979	0.020275	0.008283	0.027989	0.029632	0.043874	0.042105	0.067731	0.038587	0.017986	0.021738	0.020219	0.043435	0.034200	0.044792	0.041705	0.069748	0.017856	0.017542	0.012798	0.011919	0.011763	0.015489	0.015056	0.013985	0.014950	0.040733	0.021979	0.011477	0.014838	0.014099	0.015437	0.014627	0.014101	0.005784	0.014128	0.012118	0.037909	0.014745	0.014763	0.014685	0.014201	0.033656	0.023637	0.012448	0.010893	0.013068	0.011297	0.009805	0.006876	0.013954	0.017051	0.016181	0.034287
5.415000	0.050272	0.037065	0.049251	0.022210	0.020218	0.050527	0.022923	0.016457	0.020659	0.008551	0.028453	0.029661	0.043956	0.041885	0.067325	0.037850	0.017744	0.021360	0.020427	0.043738	0.034961	0.045232	0.042551	0.070285	0.017904	0.017813	0.012580	0.011560	0.011722	0.015367	0.014935	0.013806	0.014502	0.040496	0.023289	0.012051	0.014527	0.013937	0.015376	0.015000	0.013245	0.008386	0.013633	0.010663	0.037398	0.015325	0.015153	0.015057	0.014570	0.033422	0.024256	0.012153	0.010824	0.013062	0.011714	0.010768	0.005377	0.015880	0.016391	0.016645	0.034229
5.420000	0.050315	0.036786	0.049004	0.021715	0.019548	0.050804	0.022465	0.016449	0.020408	0.008445	0.028615	0.029993	0.043562	0.042130	0.067750	0.037992	0.017683	0.021569	0.020290	0.044251	0.036251	0.045267	0.043064	0.071153	0.017653	0.017289	0.012857	0.011869	0.011776	0.015934	0.014954	0.013815	0.014660	0.040320	0.024124	0.012274	0.013554	0.013523	0.015151	0.015764	0.012273	0.010680	0.013070	0.009334	0.037030	0.015920	0.015496	0.015228	0.014642	0.033036	0.024904	0.011942	0.010215	0.012745	0.011193	0.011436	0.005215	0.016979	0.015373	0.017095	0.034018
5.425000	0.050412	0.037291	0.049138	0.021045	0.018947	0.050400	0.022218	0.015906	0.020418	0.008682	0.028786	0.030270	0.043232	0.042624	0.067539	0.037844	0.017438	0.021166	0.020300	0.044520	0.036251	0.044904	0.043912	0.071899	0.018223	0.017428	0.012601	0.011691	0.012234	0.016772	0.015505	0.014435	0.015135	0.039876	0.024349	0.012650	0.013459	0.013800	0.015014	0.016275	0.011773	0.012890	0.013304	0.008647	0.036579	0.016720	0.015878	0.015644	0.014802	0.032603	0.024667	0.011798	0.009957	0.012403	0.011139	0.012349	0.004729	0.018337	0.015220	0.017084	0.034433
5.430000	0.050749	0.037310	0.049036	0.020693	0.018211	0.050442	0.022235	0.015993	0.020277	0.008644	0.028873	0.029982	0.043776	0.042524	0.067858	0.037863	0.017185	0.020942	0.020092	0.044755	0.036674	0.045256	0.044452	0.072646	0.018334	0.017490	0.013260	0.011884	0.012434	0.017253	0.015758	0.014802	0.015288	0.039446	0.025127	0.012009	0.013140	0.013241	0.014285	0.016651	0.011408	0.013862	0.012553	0.009083	0.036545	0.017827	0.016277	0.016162	0.014872	0.032344	0.024772	0.011581	0.009405	0.012069	0.010646	0.012422	0.005105	0.018539	0.015702	0.017291	0.034701
5.435000	0.050463	0.037600	0.048771	0.020278	0.017707	0.050024	0.021713	0.015971	0.020118	0.008896	0.029248	0.030400	0.043550	0.042901	0.067914	0.037683	0.016897	0.020436	0.019912	0.044887	0.036978	0.047360	0.045185	0.073052	0.019018	0.017694	0.013306	0.011889	0.012921	0.018041	0.016223	0.015434	0.015798	0.038802	0.024990	0.011824	0.012741	0.012882	0.013963	0.017554	0.010996	0.015041	0.012669	0.008802	0.036584	0.018366	0.016818	0.016740	0.015003	0.031872	0.023985	0.011024	0.008991	0.011673	0.010436	0.012789	0.005352	0.019277	0.014627	0.017363	0.035378
5.440000	0.050887	0.037133	0.048187	0.020190	0.017007	0.049618	0.021385	0.015722	0.019622	0.008810	0.029208	0.030402	0.043603	0.042620	0.068314	0.038048	0.017077	0.020436	0.019821	0.045085	0.037351	0.046885	0.045473	0.074007	0.019917	0.017739	0.013814	0.012189	0.013140	0.018730	0.016612	0.015966	0.016242	0.037929	0.025037	0.011045	0.012601	0.012330	0.013171	0.017342	0.010647	0.015143	0.011891	0.009345	0.036891	0.019103	0.017198	0.017241	0.015204	0.031372	0.023806	0.010725	0.008747	0.011365	0.009952	0.012711	0.005614	0.018826	0.014655	0.017245	0.035943
5.445000	0.050477	0.037082	0.047536	0.020201	0.016695	0.049344	0.021226	0.015695	0.018768	0.009169	0.029432	0.030661	0.044326	0.042780	0.068273	0.038220	0.017020	0.020090	0.019530	0.045116	0.037758	0.047127	0.046055	0.073886	0.019924	0.018623	0.014298	0.012093	0.013512	0.018606	0.016578	0.016196	0.016301	0.037445	0.024631	0.010388	0.012284	0.011645	0.012176	0.017163	0.010391	0.014664	0.011505	0.009469	0.037447	0.019977	0.018200	0.018190	0.015662	0.031033	0.024078	0.010514	0.008795	0.011428	0.009725	0.012542	0.006122	0.018261	0.015249	0.016734	0.036072
5.450000	0.050140	0.036822	0.046967	0.020334	0.016411	0.048847	0.020950	0.015389	0.018951	0.009522	0.029705	0.030925	0.043776	0.043108	0.068434	0.038443	0.017390	0.019958	0.019357	0.045507	0.038100	0.046800	0.046351	0.074746	0.020656	0.018939	0.014578	0.012041	0.013627	0.018408	0.016562	0.016249	0.016238	0.036817	0.024316	0.009640	0.011949	0.010974	0.011256	0.016630	0.010462	0.013751	0.011114	0.009652	0.037681	0.020066	0.018001	0.018116	0.015704	0.030747	0.023784	0.010027	0.008712	0.011081	0.009239	0.012066	0.006515	0.017437	0.015140	0.016820	0.036451
5.455000	0.049611	0.036589	0.046240	0.020553	0.016306	0.048276	0.020772	0.015204	0.018187	0.009836	0.030223	0.031353	0.044465	0.042960	0.068669	0.038391	0.017372	0.019669	0.019451	0.045789	0.038479	0.048429	0.046158	0.073701	0.021305	0.019389	0.014985	0.012153	0.013889	0.018081	0.016401	0.016108	0.015955	0.036596	0.023588	0.008948	0.011929	0.010568	0.010574	0.015995	0.010591	0.012080	0.011072	0.010091	0.037949	0.019516	0.017740	0.017994	0.015483	0.030193	0.023276	0.009413	0.008558	0.010865	0.008746	0.011460	0.007537	0.016433	0.014588	0.016744	0.036915
5.460000	0.048875	0.036432	0.045815	0.020568	0.016303	0.047555	0.020708	0.014716	0.017758	0.010193	0.030533	0.031527	0.044314	0.042943	0.069448	0.038308	0.017971	0.019702	0.019477	0.046155	0.038699	0.047838	0.046404	0.074288	0.021705	0.020106	0.015229	0.012278	0.013853	0.017369	0.015633	0.015233	0.015369	0.035229	0.022829	0.008068	0.012409	0.010878	0.010621	0.015297	0.010831	0.010477	0.010545	0.011067	0.038190	0.018669	0.016969	0.017269	0.015233	0.029847	0.022560	0.008917	0.008363	0.010432	0.008287	0.010969	0.007773	0.015210	0.015494	0.016487	0.037167
5.465000	0.047878	0.036189	0.044835	0.020720	0.016572	0.046689	0.020032	0.014899	0.017658	0.010892	0.031003	0.031872	0.044793	0.043502	0.069155	0.038461	0.018505	0.019941	0.019781	0.046856	0.039273	0.048298	0.046218	0.074573	0.022122	0.020806	0.014979	0.011995	0.013743	0.016318	0.014632	0.013689	0.014284	0.035429	0.021738	0.007560	0.011802	0.010335	0.010312	0.015345	0.011380	0.009308	0.010769	0.011465	0.038836	0.017500	0.016165	0.016296	0.014549	0.029402	0.021425	0.008437	0.008228	0.010232	0.007784	0.010652	0.008180	0.014211	0.014826	0.016501	0.037761
5.470000	0.047082	0.035687	0.044635	0.020547	0.016769	0.045827	0.019786	0.014413	0.017188	0.011501	0.031744	0.032386	0.045251	0.043282	0.069175	0.038174	0.019065	0.020110	0.020070	0.047444	0.039859	0.048992	0.046273	0.074603	0.022712	0.021367	0.015063	0.012174	0.013554	0.015420	0.013631	0.012578	0.013434	0.035137	0.020815	0.007306	0.011731	0.010136	0.010147	0.014732	0.011987	0.007714	0.010410	0.012077	0.039539	0.016257	0.014946	0.015249	0.013901	0.029185	0.020295	0.007889	0.007917	0.010056	0.007384	0.010074	0.008818	0.013094	0.015421	0.016515	0.038238
5.475000	0.046005	0.036183	0.044157	0.020254	0.017029	0.044980	0.019822	0.014432	0.017158	0.011971	0.032187	0.033082	0.045188	0.043132	0.069430	0.037900	0.019718	0.020551	0.020583	0.047993	0.040433	0.049075	0.046424	0.074740	0.022774	0.021465	0.014939	0.011876	0.013491	0.014521	0.013033	0.011757	0.012607	0.035034	0.019926	0.007190	0.011947	0.010107	0.010437	0.014196	0.012592	0.006633	0.010112	0.012669	0.040170	0.014763	0.013812	0.014144	0.012899	0.028963	0.018790	0.007391	0.007783	0.009643	0.007036	0.009810	0.009093	0.012236	0.016131	0.016777	0.038799
5.480000	0.045025	0.035510	0.043781	0.019881	0.017462	0.044001	0.019604	0.014387	0.016995	0.012603	0.032868	0.033818	0.045466	0.043346	0.069576	0.037529	0.020361	0.021174	0.021231	0.048788	0.041242	0.049997	0.046533	0.074560	0.022980	0.021646	0.014999	0.012045	0.013326	0.013912	0.012563	0.011228	0.011893	0.034738	0.018913	0.006888	0.012295	0.010184	0.010539	0.014212	0.013193	0.005074	0.010629	0.013427	0.040676	0.013702	0.012693	0.012871	0.012166	0.029098	0.017803	0.007185	0.007723	0.009582	0.006740	0.009568	0.009593	0.011017	0.016147	0.017216	0.039570
5.485000	0.043846	0.035269	0.043426	0.019138	0.017778	0.043385	0.019098	0.014681	0.016555	0.013175	0.033640	0.034649	0.045393	0.043904	0.069311	0.037163	0.021170	0.021794	0.022201	0.049666	0.041917	0.050646	0.046296	0.074930	0.022881	0.021758	0.014746	0.011692	0.013153	0.013229	0.011896	0.010605	0.011022	0.034943	0.018245	0.006900	0.012446	0.010280	0.010781	0.014353	0.013856	0.004385	0.010350	0.013665	0.041346	0.012248	0.011253	0.011739	0.011061	0.029251	0.016641	0.006527	0.007388	0.009287	0.006403	0.009758	0.009661	0.011282	0.015940	0.017951	0.040266
5.490000	0.042881	0.035484	0.043002	0.018517	0.017960	0.042573	0.019449	0.015099	0.017126	0.013957	0.034301	0.035397	0.045470	0.043818	0.069267	0.036803	0.022315	0.022299	0.022799	0.050301	0.042563	0.050703	0.046389	0.075014	0.022824	0.021713	0.014706	0.011918	0.012917	0.012641	0.011204	0.010288	0.010508	0.034951	0.017656	0.006904	0.012623	0.010344	0.010860	0.014040	0.014155	0.004222	0.010030	0.013995	0.041675	0.011462	0.010847	0.011434	0.010596	0.029302	0.015822	0.006445	0.007349	0.009378	0.006655	0.009870	0.010635	0.010990	0.015772	0.018478	0.040822
5.495000	0.041943	0.035590	0.042539	0.017843	0.018279	0.041916	0.018852	0.015159	0.017158	0.014677	0.035012	0.035757	0.045697	0.043664	0.069003	0.036456	0.022945	0.022946	0.023351	0.050903	0.043276	0.050545	0.046344	0.075055	0.022686	0.022489	0.014433	0.011470	0.012825	0.012220	0.010972	0.010049	0.009979	0.034930	0.017244	0.006783	0.012622	0.010434	0.010893	0.014285	0.014379	0.004355	0.009930	0.014118	0.041834	0.010909	0.010289	0.011089	0.010236	0.029231	0.015172	0.006250	0.007409	0.009432	0.006835	0.009988	0.010665	0.011375	0.015178	0.018755	0.041460
5.500000	0.041131	0.036143	0.042341	0.017124	0.018331	0.041139	0.018945	0.015853	0.017595	0.015396	0.035666	0.036502	0.045505	0.044084	0.068935	0.036099	0.023613	0.023631	0.024108	0.051711	0.044107	0.050886	0.046349	0.074989	0.022672	0.021900	0.014172	0.011497	0.012603	0.011872	0.010699	0.009754	0.009953	0.034708	0.017056	0.006533	0.012783	0.010320	0.010827	0.014002	0.014578	0.004010	0.009879	0.014275	0.041769	0.010304	0.009741	0.010773	0.009725	0.029119	0.014750	0.005923	0.007379	0.009390	0.006794	0.010447	0.010839	0.011675	0.014570	0.019399	0.042029
5.505000	0.040562	0.035555	0.041968	0.016803	0.018466	0.040623	0.018932	0.016200	0.018246	0.015981	0.036294	0.037037	0.045588	0.044209	0.068490	0.035961	0.024226	0.024161	0.024721	0.052165	0.044659	0.051343	0.046474	0.074445	0.022268	0.021947	0.014307	0.011643	0.012569	0.011720	0.010600	0.009649	0.009450	0.034321	0.017024	0.006629	0.013086	0.010434	0.010709	0.013835	0.014580	0.004479	0.009476	0.013899	0.041314	0.010381	0.009807	0.010819	0.009768	0.029165	0.014818	0.005795	0.007246	0.009520	0.006958	0.010565	0.010833	0.012042	0.013992	0.019679	0.042287
5.510000	0.039872	0.035736	0.041719	0.016135	0.018538	0.040052	0.019536	0.016678	0.018325	0.016621	0.036999	0.037467	0.045727	0.044123	0.068352	0.035596	0.024496	0.024637	0.025325	0.052737	0.045679	0.051741	0.046281	0.074541	0.022264	0.022268	0.013867	0.011276	0.012385	0.011278	0.010044	0.009197	0.009183	0.034045	0.017324	0.006048	0.012890	0.010049	0.010413	0.013992	0.014490	0.005077	0.009522	0.014361	0.041214	0.010624	0.009804	0.010718	0.009865	0.029084	0.014777	0.005722	0.007040	0.009433	0.007093	0.010737	0.010867	0.012556	0.013344	0.020233	0.042454
5.515000	0.039406	0.035448	0.041192	0.015814	0.018612	0.039682	0.019619	0.017201	0.019438	0.017224	0.037591	0.037763	0.045949	0.044537	0.067894	0.035632	0.025191	0.025125	0.025885	0.053266	0.045329	0.051425	0.046078	0.073990	0.021892	0.022499	0.013370	0.011051	0.012332	0.011005	0.009481	0.008860	0.008963	0.033730	0.017391	0.005970	0.012467	0.010126	0.010174	0.013928	0.014484	0.006002	0.009372	0.014147	0.040952	0.010558	0.009840	0.010716	0.009827	0.029089	0.015000	0.005610	0.006588	0.009027	0.006926	0.011009	0.010815	0.013635	0.012650	0.020455	0.042398
5.520000	0.039151	0.035733	0.040947	0.015545	0.018659	0.039417	0.019819	0.017710	0.019776	0.017561	0.038048	0.038472	0.046288	0.044901	0.067748	0.035777	0.025432	0.025598	0.026235	0.053668	0.045703	0.049761	0.045921	0.073786	0.022103	0.021760	0.013420	0.011134	0.012286	0.011017	0.009713	0.008665	0.008911	0.033534	0.018010	0.005926	0.012534	0.010147	0.009833	0.013749	0.014189	0.006651	0.009453	0.014041	0.040322	0.011014	0.009900	0.010556	0.009846	0.028703	0.015101	0.005256	0.006624	0.008868	0.006479	0.011248	0.011037	0.013774	0.012274	0.021069	0.042427
5.525000	0.038923	0.035678	0.040717	0.015291	0.018576	0.039066	0.019977	0.018294	0.020223	0.018031	0.038443	0.038885	0.046722	0.044940	0.067458	0.035555	0.025729	0.025819	0.026562	0.053817	0.045908	0.049641	0.045802	0.073428	0.022014	0.021658	0.013253	0.011123	0.012067	0.011036	0.009482	0.008543	0.008844	0.033066	0.018344	0.005634	0.012286	0.009864	0.009391	0.013814	0.013926	0.007725	0.009424	0.014134	0.040058	0.011241	0.009978	0.010597	0.009855	0.028841	0.015346	0.004702	0.006146	0.008527	0.006190	0.011486	0.011021	0.014575	0.011846	0.021258	0.042225
5.530000	0.038710	0.035428	0.040044	0.015184	0.018516	0.038943	0.020102	0.019001	0.020557	0.018133	0.038505	0.039384	0.046268	0.045050	0.067615	0.036000	0.025987	0.026430	0.027056	0.054188	0.045748	0.049587	0.045690	0.073118	0.021732	0.021735	0.013072	0.011017	0.011959	0.010882	0.009440	0.008575	0.008883	0.032262	0.018518	0.005680	0.011941	0.009889	0.009190	0.014026	0.013800	0.008954	0.009413	0.014567	0.039848	0.011695	0.010361	0.010768	0.010134	0.028477	0.015513	0.004549	0.006036	0.008341	0.006163	0.011661	0.010902	0.015339	0.011316	0.021766	0.042005
5.535000	0.038669	0.035483	0.039650	0.015110	0.018502	0.038915	0.020168	0.019136	0.020861	0.018543	0.039037	0.039811	0.046951	0.045620	0.066767	0.036186	0.026342	0.026599	0.027358	0.054448	0.046062	0.050258	0.046042	0.072104	0.021620	0.021832	0.012846	0.010946	0.012010	0.011369	0.009807	0.008989	0.009230	0.031834	0.019166	0.005186	0.011816	0.009611	0.008549	0.014232	0.013609	0.009736	0.009773	0.014739	0.039480	0.012580	0.011205	0.011440	0.010557	0.028029	0.015727	0.004491	0.006058	0.008177	0.005853	0.011870	0.010979	0.015738	0.011703	0.021720	0.041683
