Coordinates
version=1
nRows=109
nColumns=40
inDegrees=yes

Units are S.I. units (second, meters, Newtons, ...)
If the header above contains a line with 'inDegrees', this indicates whether rotational values are in degrees (yes) or radians (no).

endheader
time	pelvis_tilt	pelvis_list	pelvis_rotation	pelvis_tx	pelvis_ty	pelvis_tz	hip_flexion_r	hip_adduction_r	hip_rotation_r	knee_angle_r	knee_angle_r_beta	ankle_angle_r	subtalar_angle_r	mtp_angle_r	hip_flexion_l	hip_adduction_l	hip_rotation_l	knee_angle_l	knee_angle_l_beta	ankle_angle_l	subtalar_angle_l	mtp_angle_l	lumbar_extension	lumbar_bending	lumbar_rotation	arm_flex_r	arm_add_r	arm_rot_r	elbow_flex_r	pro_sup_r	wrist_flex_r	wrist_dev_r	arm_flex_l	arm_add_l	arm_rot_l	elbow_flex_l	pro_sup_l	wrist_flex_l	wrist_dev_l
      4.99500000	    -41.46371640	      5.32708825	      2.54504226	     -0.43944249	      0.60148337	     -0.94273264	    108.34570212	    -19.69080292	      3.15017592	     92.25018687	      1.61006950	     27.10714731	      0.00000000	      0.00000000	    102.01618390	     -7.51701842	     -4.53537303	     90.29689600	      1.57597814	     33.29008156	      0.00000000	      0.00000000	    -27.50981245	     -1.35940829	     -7.51158021	      7.79046680	    -50.43483606	     72.37055898	     92.22978186	     85.17844114	      0.00000000	      0.00000000	      2.85795560	    -52.88031972	     72.08316808	     90.74776655	     87.33439906	      0.00000000	      0.00000000
      5.00000000	    -40.89516526	      5.50870871	      2.49220056	     -0.43718502	      0.60277771	     -0.94250329	    107.65127078	    -19.67424209	      3.31037719	     92.36859882	      1.61213617	     27.23841479	      0.00000000	      0.00000000	    101.19314059	     -7.44998987	     -4.57107631	     90.34730817	      1.57685800	     33.37007128	      0.00000000	      0.00000000	    -27.96992516	     -1.55310425	     -7.57537832	      7.98896291	    -50.26209374	     72.36361085	     92.10076600	     85.18916346	      0.00000000	      0.00000000	      3.10815937	    -52.72378825	     72.08285058	     90.53341241	     87.33142848	      0.00000000	      0.00000000
      5.00500000	    -41.11276027	      5.24906223	      2.66801540	     -0.43677063	      0.60249173	     -0.94251815	    107.73748914	    -19.77329387	      3.19231719	     92.39725442	      1.61263631	     27.43559402	      0.00000000	      0.00000000	    101.45666887	     -7.24878350	     -4.31975156	     90.34199441	      1.57676526	     33.47460627	      0.00000000	      0.00000000	    -27.40509356	     -1.25744306	     -7.63058279	      8.43108408	    -50.41207033	     73.51077330	     92.37519120	     80.10647735	      0.00000000	      0.00000000	      3.50711289	    -52.70429544	     72.83375608	     90.36899629	     87.68111525	      0.00000000	      0.00000000
      5.01000000	    -40.56807405	      5.39790035	      2.63693510	     -0.43452229	      0.60405715	     -0.94224765	    106.99540724	    -19.73946633	      3.33817448	     92.41971379	      1.61302830	     27.53636048	      0.00000000	      0.00000000	    100.61015761	     -7.20726981	     -4.41725572	     90.30658602	      1.57614726	     33.58831292	      0.00000000	      0.00000000	    -27.77540198	     -1.41068453	     -7.68680632	      8.61555428	    -50.22694586	     73.40877345	     92.15572800	     80.42620365	      0.00000000	      0.00000000	      3.72121922	    -52.47297362	     72.78771283	     90.07873798	     87.52748581	      0.00000000	      0.00000000
      5.01500000	    -40.21148320	      5.33791363	      2.57798960	     -0.43280036	      0.60496387	     -0.94184232	    106.41814573	    -19.66022911	      3.30072351	     92.48325077	      1.61413723	     27.90557052	      0.00000000	      0.00000000	    100.09705407	     -7.25798578	     -4.36682774	     90.35804726	      1.57704543	     33.95512185	      0.00000000	      0.00000000	    -27.81423466	     -1.37664947	     -7.44486678	      8.59571997	    -50.26659067	     73.02258337	     92.09235655	     85.23667727	      0.00000000	      0.00000000	      4.53372036	    -52.38892710	     73.77553932	     89.71276597	     87.32203763	      0.00000000	      0.00000000
      5.02000000	    -40.34845577	      4.90541214	      2.66329125	     -0.43197438	      0.60542092	     -0.94147232	    106.20158655	    -19.65685730	      2.91583603	     92.37277912	      1.61220913	     28.01029534	      0.00000000	      0.00000000	    100.23148511	     -7.11991243	     -3.83289678	     90.26308087	      1.57538795	     33.92787123	      0.00000000	      0.00000000	    -27.25806944	     -0.97052450	     -7.33810638	      8.95831144	    -50.25577719	     73.39292314	     91.98786506	     85.27660346	      0.00000000	      0.00000000	      4.62305779	    -52.18302291	     73.88225233	     89.56284321	     87.33586290	      0.00000000	      0.00000000
      5.02500000	    -40.11062200	      4.78139966	      2.56134244	     -0.43038491	      0.60654765	     -0.94075114	    105.67553766	    -19.46030232	      2.78777683	     92.32000567	      1.61128806	     28.08900405	      0.00000000	      0.00000000	     99.82438013	     -7.20924657	     -3.62701198	     90.21743220	      1.57459123	     34.01379906	      0.00000000	      0.00000000	    -27.12678034	     -0.99356848	     -7.18388098	      9.09474991	    -50.13435702	     73.45568318	     91.80911448	     85.29181278	      0.00000000	      0.00000000	      4.76346062	    -52.11721424	     73.86073801	     89.37314123	     87.32381212	      0.00000000	      0.00000000
      5.03000000	    -39.41305333	      5.18183776	      2.52973142	     -0.42774077	      0.60886823	     -0.94086259	    104.80534696	    -19.50552228	      3.14670625	     92.29059466	      1.61077475	     28.23461366	      0.00000000	      0.00000000	     98.63443312	     -7.07793826	     -3.97736136	     90.06754246	      1.57197517	     34.20577125	      0.00000000	      0.00000000	    -27.52526135	     -1.34910803	     -7.34384693	      9.35095193	    -49.97167968	     73.55170716	     91.56258996	     85.30901687	      0.00000000	      0.00000000	      5.08354722	    -51.92930474	     73.90861822	     88.93472727	     87.32191386	      0.00000000	      0.00000000
      5.03500000	    -39.35541028	      5.12729978	      2.56211675	     -0.42638187	      0.60977733	     -0.94047360	    104.56963056	    -19.46503932	      3.13812832	     92.30556128	      1.61103596	     28.22192830	      0.00000000	      0.00000000	     98.43555821	     -7.06840070	     -3.94946512	     90.05933656	      1.57183195	     34.19877164	      0.00000000	      0.00000000	    -27.07897555	     -1.37461023	     -7.32724281	      9.35722980	    -49.95486070	     73.55144192	     91.57563903	     85.31014683	      0.00000000	      0.00000000	      5.07631837	    -51.92648150	     73.91120006	     88.92312610	     87.32127420	      0.00000000	      0.00000000
      5.04000000	    -39.61152030	      4.38045926	      3.30170986	     -0.42585706	      0.61083261	     -0.94152755	    104.33940911	    -20.20380046	      2.57396197	     92.12121559	      1.60781852	     28.45949037	      0.00000000	      0.00000000	     98.67465211	     -6.03050846	     -3.02537454	     89.61191556	      1.56402298	     34.29613576	      0.00000000	      0.00000000	    -26.22125728	     -0.35175913	     -7.55287305	      9.62282007	    -50.02183104	     73.87999904	     91.40056041	     85.36310671	      0.00000000	      0.00000000	      5.38614769	    -51.50571122	     74.19207874	     88.33949657	     87.32301847	      0.00000000	      0.00000000
      5.04500000	    -38.88628574	      4.77366653	      2.62513370	     -0.42283086	      0.61348026	     -0.94022945	    103.25256943	    -19.47524360	      2.72514289	     91.91645420	      1.60424476	     28.51878897	      0.00000000	      0.00000000	     97.43101730	     -6.70442580	     -3.31659132	     89.58289815	      1.56351653	     34.45682995	      0.00000000	      0.00000000	    -26.51785923	     -1.02777967	     -7.09925713	      9.89398965	    -49.79203965	     74.11651643	     91.03957112	     85.39144014	      0.00000000	      0.00000000	      5.66998678	    -51.37105410	     74.20841525	     87.91657067	     87.31114449	      0.00000000	      0.00000000
      5.05000000	    -38.73680492	      4.75713305	      2.65424994	     -0.42109888	      0.61513849	     -0.94012062	    102.81049769	    -19.44836228	      2.75650986	     91.80268050	      1.60225904	     28.53169891	      0.00000000	      0.00000000	     97.00139715	     -6.53381026	     -3.16342721	     89.38095904	      1.55999202	     34.47522389	      0.00000000	      0.00000000	    -26.07128068	     -1.06510517	     -7.06264243	      9.96976858	    -49.71077316	     74.16726908	     90.92921232	     85.39962175	      0.00000000	      0.00000000	      5.73126506	    -51.27619192	     74.23221708	     87.84844187	     87.30792028	      0.00000000	      0.00000000
      5.05500000	    -38.13459453	      4.77640369	      2.50181347	     -0.41848622	      0.61792779	     -0.93964504	    101.74380213	    -19.34089200	      2.60341088	     91.59243591	      1.59858958	     28.73286097	      0.00000000	      0.00000000	     95.95703686	     -6.59512982	     -3.13825577	     89.16764160	      1.55626893	     34.76072449	      0.00000000	      0.00000000	    -26.11322878	     -1.20313141	     -6.88889247	     10.28326862	    -49.47891102	     74.40055172	     90.33023274	     85.43147107	      0.00000000	      0.00000000	      5.99912423	    -51.04711651	     74.29944365	     87.24455576	     87.29567656	      0.00000000	      0.00000000
      5.06000000	    -37.46718704	      4.62484056	      2.38894809	     -0.41563218	      0.62081510	     -0.93915739	    100.52834002	    -19.26745175	      2.32222426	     91.40135443	      1.59525458	     28.86334629	      0.00000000	      0.00000000	     94.89253732	     -6.59067940	     -2.88585309	     88.98327006	      1.55305104	     34.95520938	      0.00000000	      0.00000000	    -26.16360755	     -1.14261915	     -6.66615169	     10.53467374	    -49.34680384	     74.61480284	     89.95784984	     85.46996626	      0.00000000	      0.00000000	      6.20673344	    -50.89473058	     74.30178328	     86.95810374	     87.28895632	      0.00000000	      0.00000000
      5.06500000	    -37.46728676	      4.36936091	      2.96177444	     -0.41445690	      0.62284965	     -0.94015194	    100.14135272	    -19.83421131	      2.15450947	     91.18519852	      1.59148194	     28.93354547	      0.00000000	      0.00000000	     94.64450074	     -5.78099147	     -2.52331882	     88.52342313	      1.54502520	     34.88490527	      0.00000000	      0.00000000	    -25.43041979	     -0.66930503	     -6.93129644	     10.64128532	    -49.46346602	     74.73208584	     89.86486941	     85.50819124	      0.00000000	      0.00000000	      6.37011849	    -50.71056121	     74.28898803	     86.71449243	     87.28837926	      0.00000000	      0.00000000
      5.07000000	    -36.53226489	      4.56695003	      2.14680306	     -0.41076158	      0.62646557	     -0.93838858	     98.61713262	    -18.99152417	      2.05750041	     90.86377199	      1.58587199	     28.99363298	      0.00000000	      0.00000000	     93.10695489	     -6.56796924	     -2.61386225	     88.44473887	      1.54365190	     35.16633144	      0.00000000	      0.00000000	    -25.71897629	     -1.30736559	     -6.25384250	     10.86518793	    -49.09105026	     74.88748411	     89.15955562	     85.52946132	      0.00000000	      0.00000000	      6.49823978	    -50.43775230	     74.12504098	     86.18695020	     87.25646185	      0.00000000	      0.00000000
      5.07500000	    -36.21387107	      4.66700741	      2.12892241	     -0.40834917	      0.62952373	     -0.93828365	     97.84421208	    -18.95429356	      2.10003726	     90.53734178	      1.58017471	     28.98452242	      0.00000000	      0.00000000	     92.26941023	     -6.37641736	     -2.56304701	     87.97226458	      1.53540567	     35.10536881	      0.00000000	      0.00000000	    -25.31421254	     -1.47229371	     -6.15857646	     10.85231442	    -49.02312657	     74.96767694	     88.94955698	     85.53239321	      0.00000000	      0.00000000	      6.54001075	    -50.30172223	     74.04130724	     86.04933851	     87.24883863	      0.00000000	      0.00000000
      5.08000000	    -36.12330445	      4.10300117	      2.90204064	     -0.40712665	      0.63206070	     -0.93961317	     97.13811822	    -19.72125183	      1.56262054	     90.22287222	      1.57468618	     29.15375508	      0.00000000	      0.00000000	     91.97246242	     -5.30144530	     -1.78433589	     87.43592321	      1.52604474	     35.19493641	      0.00000000	      0.00000000	    -24.57376463	     -0.70103538	     -6.54469364	     11.03723798	    -49.05040400	     74.92826269	     88.54981291	     85.55151670	      0.00000000	      0.00000000	      6.54039340	    -53.07608918	     74.73082819	     94.96449589	     87.58467326	      0.00000000	      0.00000000
      5.08500000	    -34.79031545	      4.56776859	      2.20493635	     -0.40261839	      0.63681648	     -0.93825713	     95.24946327	    -19.09551386	      1.78927186	     89.92821463	      1.56954344	     29.27578533	      0.00000000	      0.00000000	     89.81455138	     -5.90735799	     -2.27265631	     87.22182761	      1.52230807	     35.41436703	      0.00000000	      0.00000000	    -25.20923002	     -1.49217585	     -6.06828965	     11.28597840	    -48.66971285	     75.12767927	     87.76463523	     85.57322642	      0.00000000	      0.00000000	      6.80979576	    -53.00497147	     74.69079666	     94.61804930	     87.59138108	      0.00000000	      0.00000000
      5.09000000	    -34.49524782	      4.68164932	      2.25229982	     -0.40026525	      0.64025545	     -0.93837710	     94.45997051	    -19.09740603	      1.87048140	     89.48463704	      1.56180155	     29.21049888	      0.00000000	      0.00000000	     88.95852059	     -5.60119347	     -2.22606066	     86.67875828	      1.51282972	     35.34302219	      0.00000000	      0.00000000	    -24.65455185	     -1.64365660	     -5.91671823	     11.24266753	    -48.71703528	     75.23371049	     87.59756633	     85.58585571	      0.00000000	      0.00000000	      6.99855635	    -52.92381656	     74.48192885	     94.52548774	     87.57845489	      0.00000000	      0.00000000
      5.09500000	    -33.21021655	      4.85278314	      1.89418391	     -0.39602206	      0.64534912	     -0.93757414	     92.47320757	    -18.83943825	      1.83067805	     89.13932431	      1.55577470	     29.39638612	      0.00000000	      0.00000000	     86.85900555	     -5.79590248	     -2.41770414	     86.25310052	      1.50540059	     35.70305312	      0.00000000	      0.00000000	    -25.16088661	     -1.99037566	     -5.61438551	     11.40954395	    -48.22530248	     75.21179550	     86.69124037	     85.55292502	      0.00000000	      0.00000000	      7.13924054	    -52.69464080	     74.18259687	     93.91030048	     87.58041287	      0.00000000	      0.00000000
      5.10000000	    -32.89947816	      4.76830193	      2.83043785	     -0.39395949	      0.64919435	     -0.93968602	     91.61165321	    -19.89393454	      1.72216660	     88.76680631	      1.54927304	     29.41284320	      0.00000000	      0.00000000	     86.03675126	     -4.42210359	     -2.03872570	     85.47106004	      1.49175141	     35.59635296	      0.00000000	      0.00000000	    -24.58559406	     -1.51472211	     -6.25611365	     11.45045626	    -48.43004165	     75.17392240	     86.60413348	     85.55708885	      0.00000000	      0.00000000	      7.27070279	    -52.45513704	     73.98781337	     93.66104314	     87.58228215	      0.00000000	      0.00000000
      5.10500000	    -32.01824701	      4.87497422	      0.91773669	     -0.38979225	      0.65329946	     -0.93511930	     90.03405138	    -17.60770512	      1.69355154	     88.20511753	      1.53946972	     29.38228587	      0.00000000	      0.00000000	     84.41187263	     -6.60561272	     -2.40585584	     85.42731830	      1.49098798	     35.94215277	      0.00000000	      0.00000000	    -24.42245584	     -2.62376443	     -4.47233222	     11.47039728	    -47.94853045	     75.23175068	     85.92247417	     85.55643824	      0.00000000	      0.00000000	      6.97511422	    -52.55727592	     73.36877042	     93.34911099	     87.56161481	      0.00000000	      0.00000000
      5.11000000	    -31.47448095	      4.77038895	      0.79891501	     -0.38694702	      0.65761750	     -0.93461149	     88.79884108	    -17.37275415	      1.53054872	     87.66748756	      1.53008630	     29.24290071	      0.00000000	      0.00000000	     83.27319513	     -6.58284695	     -2.24078396	     84.84500583	      1.48082471	     35.87555446	      0.00000000	      0.00000000	    -24.00165113	     -2.65767021	     -4.20702077	     11.46025363	    -47.94442381	     75.06316594	     85.68809893	     85.55379704	      0.00000000	      0.00000000	      6.85621499	    -52.47555915	     72.82649854	     93.13040345	     87.55424395	      0.00000000	      0.00000000
      5.11500000	    -31.28280812	      4.66455586	      1.10039736	     -0.38476464	      0.66147052	     -0.93512107	     88.00057053	    -17.54901673	      1.44129148	     87.11910440	      1.52051521	     29.05883727	      0.00000000	      0.00000000	     82.55878108	     -6.08230559	     -2.00517396	     84.15448556	      1.46877285	     35.64150758	      0.00000000	      0.00000000	    -23.11850881	     -2.52142703	     -4.23637671	     11.39133021	    -48.12740736	     74.97702136	     85.70369618	     85.55462238	      0.00000000	      0.00000000	      6.87989850	    -52.42490320	     72.53367003	     93.12360143	     87.54266826	      0.00000000	      0.00000000
      5.12000000	    -30.40260677	      4.18148713	      1.02826438	     -0.38110260	      0.66659714	     -0.93429384	     86.12632997	    -17.36465192	      0.71860700	     86.55164610	      1.51061120	     29.05791836	      0.00000000	      0.00000000	     81.10524599	     -6.15908790	     -1.41455868	     83.64924103	      1.45995467	     35.56245827	      0.00000000	      0.00000000	    -23.03374171	     -2.14049417	     -4.06678252	     11.33682580	    -48.06883162	     74.38240120	     85.52707817	     85.59189673	      0.00000000	      0.00000000	      5.66964552	    -52.31565023	     70.58629696	     92.79545091	     87.57637754	      0.00000000	      0.00000000
      5.12500000	    -29.30631117	      4.60822135	      0.42921392	     -0.37699506	      0.67287930	     -0.93286866	     84.33338702	    -16.81904467	      1.03075503	     85.78448235	      1.49722166	     28.72970423	      0.00000000	      0.00000000	     78.93017427	     -6.50018242	     -1.94116222	     82.72847732	      1.44388431	     35.34626909	      0.00000000	      0.00000000	    -23.11252569	     -2.92597894	     -3.62013425	     11.51470043	    -47.89060935	     74.21861207	     85.28002151	     85.57842095	      0.00000000	      0.00000000	      5.74146865	    -52.35567397	     70.21551068	     92.50561654	     87.54883012	      0.00000000	      0.00000000
      5.13000000	    -28.90447534	      4.35336530	      0.77785449	     -0.37442294	      0.67712100	     -0.93300365	     83.25063658	    -17.05535288	      0.66167765	     85.37191040	      1.49002093	     28.55736792	      0.00000000	      0.00000000	     78.04220363	     -6.10841898	     -1.58810970	     82.17425726	      1.43421135	     35.27065291	      0.00000000	      0.00000000	    -22.37335364	     -2.66325083	     -3.75448350	     11.33891896	    -48.03648358	     73.78333282	     85.41573348	     85.57428170	      0.00000000	      0.00000000	      5.38623319	    -52.47982253	     69.63385766	     92.56216100	     87.54654255	      0.00000000	      0.00000000
      5.13500000	    -28.14847459	      4.30309803	      0.15795139	     -0.37079292	      0.68260210	     -0.93118749	     81.69707657	    -16.24957386	      0.59264246	     84.62256702	      1.47694242	     28.28922992	      0.00000000	      0.00000000	     76.49307250	     -6.77429409	     -1.77352957	     81.53576412	      1.42306754	     35.03474826	      0.00000000	      0.00000000	    -21.98688030	     -2.99837518	     -3.11344321	     11.19250358	    -48.02964584	     73.30974828	     85.45035053	     85.56869136	      0.00000000	      0.00000000	      4.95168442	    -52.56313737	     68.89812534	     92.45340923	     87.53340105	      0.00000000	      0.00000000
      5.14000000	    -27.73215974	      4.22697363	      0.41942525	     -0.36798436	      0.68799169	     -0.93132304	     80.47216112	    -16.39845052	      0.43918149	     83.83539312	      1.46320364	     27.98781644	      0.00000000	      0.00000000	     75.34869152	     -6.44676333	     -1.72179499	     80.58455892	      1.40646588	     34.50818284	      0.00000000	      0.00000000	    -21.22294086	     -2.92223229	     -3.18401370	     11.09465195	    -48.25863654	     73.08272103	     85.68895171	     85.56686672	      0.00000000	      0.00000000	      4.80682086	    -52.70656681	     68.67037544	     92.54549252	     87.52715580	      0.00000000	      0.00000000
      5.14500000	    -26.30995395	      4.15239270	      0.51462677	     -0.36354385	      0.69498758	     -0.93089919	     78.07387493	    -16.63938121	     -0.00480404	     83.18341347	      1.45182445	     27.66556353	      0.00000000	      0.00000000	     73.04043510	     -6.25760058	     -1.67127125	     79.75952106	      1.39206625	     34.19503709	      0.00000000	      0.00000000	    -21.64562153	     -2.88051224	     -3.23757696	     10.83745750	    -48.39781723	     72.11942803	     86.07964516	     85.54302054	      0.00000000	      0.00000000	      4.35872320	    -52.72583087	     67.68282459	     92.49800300	     87.50319753	      0.00000000	      0.00000000
      5.15000000	    -26.86029055	      3.89739124	      0.13759993	     -0.36212219	      0.69835424	     -0.92925343	     78.05405111	    -15.79244294	     -0.07407110	     82.38565483	      1.43790093	     27.11216917	      0.00000000	      0.00000000	     73.18793644	     -6.87156032	     -1.61096579	     79.12725102	      1.38103106	     33.53780705	      0.00000000	      0.00000000	    -19.81152639	     -2.94623710	     -2.66117934	      9.94864847	    -48.74878384	     70.78557714	     87.03900870	     85.54823794	      0.00000000	      0.00000000	      3.02301222	    -53.03521837	     66.08998468	     93.02870327	     87.49990547	      0.00000000	      0.00000000
      5.15500000	    -25.78627971	      3.72455114	      0.15964009	     -0.35775282	      0.70540163	     -0.92875067	     75.89095037	    -15.78588036	     -0.49270265	     81.46662114	      1.42186077	     26.87932894	      0.00000000	      0.00000000	     71.16867792	     -6.89766021	     -1.63874392	     78.13755736	      1.36375765	     33.23642362	      0.00000000	      0.00000000	    -19.81574829	     -2.81944848	     -2.61491604	      9.48571176	    -49.02869881	     69.74980325	     87.51228686	     85.53707317	      0.00000000	      0.00000000	      2.11256832	    -53.16687194	     64.65123487	     93.34424881	     87.52805619	      0.00000000	      0.00000000
      5.16000000	    -24.89986683	      3.38965347	      0.15150487	     -0.35413083	      0.71214815	     -0.92795568	     73.95063958	    -15.61633258	     -1.03509744	     80.52065995	      1.40535063	     26.33441369	      0.00000000	      0.00000000	     69.48798046	     -7.14034856	     -1.57856118	     77.20184929	      1.34742646	     32.68391246	      0.00000000	      0.00000000	    -19.58149088	     -2.55722813	     -2.45829621	      9.32115044	    -49.47782774	     69.25798603	     88.35424754	     85.53178646	      0.00000000	      0.00000000	      1.65209491	    -53.45615990	     64.18152795	     93.84258288	     87.50932878	      0.00000000	      0.00000000
      5.16500000	    -24.71843211	      3.24481205	     -0.10017057	     -0.35169004	      0.71786029	     -0.92647682	     72.97036592	    -15.06240386	     -1.12916333	     79.51566051	      1.38781008	     25.78272461	      0.00000000	      0.00000000	     68.57682358	     -7.55679771	     -1.69675054	     76.17720723	      1.32954308	     32.03649362	      0.00000000	      0.00000000	    -18.55991273	     -2.63318115	     -2.08707372	      9.15727722	    -49.88781186	     68.89475744	     89.23287256	     85.53064004	      0.00000000	      0.00000000	      1.27642187	    -53.93312070	     63.78548588	     94.64703776	     87.49830610	      0.00000000	      0.00000000
      5.17000000	    -23.54802274	      3.16442809	      0.02679937	     -0.34761999	      0.72567878	     -0.92630283	     70.71582370	    -15.25358020	     -1.59263833	     78.49429004	      1.36998381	     25.10870072	      0.00000000	      0.00000000	     66.44238680	     -7.50680026	     -1.87610285	     75.10374367	      1.31080761	     31.25825813	      0.00000000	      0.00000000	    -18.74428820	     -2.54200036	     -2.14568787	      8.58933607	    -50.46189184	     67.98790165	     90.40615069	     85.46393000	      0.00000000	      0.00000000	      0.56101028	    -54.37249400	     62.84571026	     95.58190511	     87.41977446	      0.00000000	      0.00000000
      5.17500000	    -22.96697132	      3.14808600	     -0.02721959	     -0.34447670	      0.73249938	     -0.92556374	     69.23340248	    -15.14175287	     -1.79535097	     77.40834213	      1.35103044	     24.47999918	      0.00000000	      0.00000000	     64.95937200	     -7.65573725	     -2.18194752	     73.93218521	      1.29036006	     30.58937302	      0.00000000	      0.00000000	    -18.21327921	     -2.41568937	     -3.10727297	     12.00517318	    -51.12488776	     72.13880178	     93.29982757	     87.38154555	      0.00000000	      0.00000000	     -3.50786290	    -54.63193500	     58.46082864	     96.63579311	     87.41874741	      0.00000000	      0.00000000
      5.18000000	    -22.00981807	      3.42188800	     -0.08758510	     -0.34058862	      0.74064206	     -0.92511299	     67.32113457	    -15.30201594	     -1.86640481	     76.22946671	      1.33045518	     23.64776907	      0.00000000	      0.00000000	     62.83465197	     -7.59852064	     -2.83161987	     72.53641193	      1.26599922	     29.72000351	      0.00000000	      0.00000000	    -18.12496853	     -2.75440200	     -3.15725207	     11.89580791	    -51.76058574	     71.66953474	     94.41307774	     87.25844948	      0.00000000	      0.00000000	     -3.99915231	    -55.19423488	     58.23578956	     97.65304611	     87.40737697	      0.00000000	      0.00000000
      5.18500000	    -22.17083983	      3.41988064	      0.28562298	     -0.33820503	      0.74696330	     -0.92566969	     66.53046167	    -15.60472458	     -2.21151823	     74.92989798	      1.30777343	     23.07240435	      0.00000000	      0.00000000	     62.17873155	     -7.31870188	     -3.07099365	     71.16857441	      1.24212595	     29.04673154	      0.00000000	      0.00000000	    -16.77566035	     -2.67162560	     -3.41480851	     11.65352397	    -52.52605351	     71.49428474	     95.27781019	     87.25069577	      0.00000000	      0.00000000	     -4.44854953	    -55.65394217	     58.18787201	     98.61227921	     87.41309589	      0.00000000	      0.00000000
      5.19000000	    -20.54556698	      3.47933959	      0.12795394	     -0.33355275	      0.75687789	     -0.92448435	     63.65651522	    -15.60311861	     -2.64279536	     73.58177107	      1.28424417	     21.92923120	      0.00000000	      0.00000000	     59.22021525	     -7.50199179	     -3.55680340	     69.60150748	      1.21477547	     27.79481278	      0.00000000	      0.00000000	    -17.54955467	     -2.87157706	     -3.40756466	     11.23727202	    -53.08736925	     70.52843851	     96.63836584	     87.18528506	      0.00000000	      0.00000000	     -5.36453888	    -56.39849671	     57.23049406	    100.13297643	     87.36178807	      0.00000000	      0.00000000
      5.19500000	    -19.84898240	      3.44694574	      0.11998681	     -0.33002037	      0.76552734	     -0.92369526	     61.75726759	    -15.52903373	     -3.06264920	     72.04658295	      1.25745009	     21.00659692	      0.00000000	      0.00000000	     57.34713828	     -7.62050322	     -3.98396759	     67.90592334	      1.18518194	     26.71697439	      0.00000000	      0.00000000	    -17.25846862	     -2.92176496	     -3.40080795	     10.68929770	    -53.72067245	     69.69786568	     97.76434139	     87.17063011	      0.00000000	      0.00000000	     -6.44820118	    -56.98922239	     56.32040523	    101.38253188	     87.33435111	      0.00000000	      0.00000000
      5.20000000	    -19.50879686	      3.55776569	      0.61091081	     -0.32682588	      0.77374785	     -0.92426699	     60.24698955	    -16.09849975	     -3.66292648	     70.56156488	      1.23153163	     20.10414532	      0.00000000	      0.00000000	     55.92254610	     -7.09557849	     -4.14094904	     66.16104668	      1.15472810	     25.57164634	      0.00000000	      0.00000000	    -16.71409892	     -2.91742388	     -4.72893483	     11.59355449	    -54.20738369	     70.23498105	     98.76079923	     87.19525927	      0.00000000	      0.00000000	    -10.59662623	    -57.29221550	     52.11195908	    102.82956934	     87.35160722	      0.00000000	      0.00000000
      5.20500000	    -19.23641479	      3.49163259	      0.70511830	     -0.32355599	      0.78237106	     -0.92379979	     58.72561748	    -16.02392347	     -4.14771209	     68.83925639	      1.20147168	     19.07120476	      0.00000000	      0.00000000	     54.45571778	     -7.10557101	     -4.40055699	     64.28329343	      1.12195512	     24.09971721	      0.00000000	      0.00000000	    -15.95894841	     -2.90629076	     -4.83475363	     11.31087517	    -54.88365186	     69.93780146	     99.77289935	     87.18570207	      0.00000000	      0.00000000	    -11.23614928	    -57.86879765	     51.92114790	    103.86471044	     87.34820815	      0.00000000	      0.00000000
      5.21000000	    -18.71617018	      3.61554701	      0.43852596	     -0.31989377	      0.79166229	     -0.92247440	     56.93487066	    -15.78851684	     -4.38804256	     66.95767318	      1.16863186	     18.01229637	      0.00000000	      0.00000000	     52.55459462	     -7.37740431	     -5.27884896	     62.28521150	      1.08708202	     23.03855974	      0.00000000	      0.00000000	    -15.58073621	     -3.22117812	     -4.74803985	     10.34327279	    -55.32630144	     68.55779236	    100.68903508	     87.15909777	      0.00000000	      0.00000000	    -12.99458453	    -58.40849238	     50.35171597	    104.96174191	     87.30309932	      0.00000000	      0.00000000
      5.21500000	    -18.34518094	      3.52867344	      0.59813693	     -0.31655617	      0.80135440	     -0.92207280	     55.12117065	    -15.79864466	     -5.11070192	     64.89721051	      1.13267000	     16.59096968	      0.00000000	      0.00000000	     50.86553354	     -7.35109391	     -5.59981344	     60.12157433	      1.04931942	     21.15610522	      0.00000000	      0.00000000	    -15.03435641	     -3.17370515	     -4.97338140	     10.13418115	    -55.88755401	     68.23491938	    101.48900959	     87.16093404	      0.00000000	      0.00000000	    -13.79202392	    -58.87352507	     50.04394142	    105.69249511	     87.30006773	      0.00000000	      0.00000000
      5.22000000	    -17.87368260	      3.56799199	      0.64761594	     -0.31310860	      0.81156732	     -0.92145667	     53.16621942	    -15.76424683	     -5.68018971	     62.69629352	      1.09425675	     15.20152814	      0.00000000	      0.00000000	     48.94044680	     -7.26760520	     -6.07687663	     57.76153163	      1.00812891	     19.46589536	      0.00000000	      0.00000000	    -14.62496486	     -3.27810572	     -5.16306266	      9.81786738	    -56.31422942	     67.75327964	    102.20643987	     87.15102452	      0.00000000	      0.00000000	    -14.64966140	    -59.26933315	     49.53325672	    106.28752942	     87.29347230	      0.00000000	      0.00000000
      5.22500000	    -17.57129208	      3.45512795	      1.00089554	     -0.30988199	      0.82191398	     -0.92144987	     51.21044635	    -15.84358381	     -6.56851215	     60.32926658	      1.05294434	     13.74876334	      0.00000000	      0.00000000	     47.24055236	     -7.02832930	     -6.22228629	     55.26094747	      0.96448548	     17.60626561	      0.00000000	      0.00000000	    -14.07846053	     -3.15559944	     -5.60361886	      9.45356124	    -56.76740380	     67.25952795	    102.87352750	     87.14591704	      0.00000000	      0.00000000	    -15.53491273	    -59.53933474	     49.01722669	    106.74964662	     87.28455899	      0.00000000	      0.00000000
      5.23000000	    -17.16578669	      3.47801636	      1.13594446	     -0.30644421	      0.83278460	     -0.92087098	     49.16631712	    -15.81103849	     -7.33217277	     57.80511704	      1.00888962	     12.05272104	      0.00000000	      0.00000000	     45.25774623	     -6.85803971	     -6.65472960	     52.56294338	      0.91739643	     15.56245363	      0.00000000	      0.00000000	    -13.70118035	     -3.25479089	     -5.92565011	      9.08780977	    -57.06094106	     66.71622348	    103.36448913	     87.13865678	      0.00000000	      0.00000000	    -16.51478606	    -59.77261926	     48.37200575	    107.02023161	     87.30579413	      0.00000000	      0.00000000
      5.23500000	    -16.50874629	      3.97809241	      0.79932503	     -0.30200938	      0.84455454	     -0.92018672	     46.93918915	    -15.82031863	     -7.40536467	     55.15188744	      0.96258202	     10.23880663	      0.00000000	      0.00000000	     42.56926942	     -6.49617709	     -7.68318583	     49.38188467	      0.86187648	     13.38843107	      0.00000000	      0.00000000	    -13.52257670	     -3.91238196	     -5.88124472	      8.72647052	    -57.22875830	     66.36565933	    103.65856281	     87.13154196	      0.00000000	      0.00000000	    -17.30558571	    -59.76788762	     47.83944398	    106.99230054	     87.30790342	      0.00000000	      0.00000000
      5.24000000	    -16.01353246	      4.16708136	      0.87527393	     -0.29819139	      0.85618847	     -0.91966407	     44.69479907	    -15.87287081	     -8.13264135	     52.36973456	      0.91402430	      8.22053283	      0.00000000	      0.00000000	     40.25503989	     -6.14271251	     -8.39134195	     46.25839307	      0.80736127	     11.15128159	      0.00000000	      0.00000000	    -13.24081339	     -4.20982203	     -6.18257741	      8.33170427	    -57.30933583	     65.84761626	    103.86004507	     87.11673281	      0.00000000	      0.00000000	    -18.21841072	    -59.80145700	     47.21368973	    106.90463099	     87.32212342	      0.00000000	      0.00000000
      5.24500000	    -16.09291046	      3.97317629	      1.01590259	     -0.29494745	      0.86725915	     -0.91926308	     42.95379884	    -15.49557208	     -8.89583517	     49.36480473	      0.86157838	      6.18145950	      0.00000000	      0.00000000	     38.66087036	     -6.01540727	     -8.56234953	     43.10068901	      0.75224893	      8.55997315	      0.00000000	      0.00000000	    -12.34902034	     -4.07089756	     -6.35498567	      7.98959074	    -57.42984021	     65.58845258	    104.13003995	     87.10544736	      0.00000000	      0.00000000	    -18.76085055	    -59.58872060	     46.83635514	    106.71327491	     87.31488678	      0.00000000	      0.00000000
      5.25000000	    -15.73182082	      3.63126860	      1.21520791	     -0.29118665	      0.87901318	     -0.91898726	     40.57321863	    -15.08141734	    -10.07103412	     46.19120721	      0.80618865	      3.53265342	      0.00000000	      0.00000000	     36.60349398	     -5.94593704	     -8.53879543	     39.92126922	      0.69675759	      5.57828504	      0.00000000	      0.00000000	    -11.95937205	     -3.72859919	     -6.62822696	      7.54405768	    -57.59939229	     65.18082028	    104.13301832	     87.08794476	      0.00000000	      0.00000000	    -19.54021277	    -59.29340472	     46.40219926	    106.04519366	     87.32187380	      0.00000000	      0.00000000
      5.25500000	    -15.59815089	      3.29280264	      1.35008502	     -0.28751775	      0.89094588	     -0.91861902	     38.40265777	    -14.50671723	    -11.06304398	     42.76628967	      0.74641256	      0.72942458	      0.00000000	      0.00000000	     34.67416672	     -5.91835780	     -8.66485891	     36.47692013	      0.63664236	      2.40294147	      0.00000000	      0.00000000	    -11.34432345	     -3.41078319	     -6.80178986	      7.07274051	    -57.56636295	     64.78360175	    104.08332136	     87.07155147	      0.00000000	      0.00000000	    -20.12755147	    -58.74764467	     45.88712444	    105.23310711	     87.31409224	      0.00000000	      0.00000000
      5.26000000	    -15.30299042	      3.04920215	      1.37541206	     -0.28362070	      0.90306662	     -0.91825667	     36.08048191	    -13.90862082	    -11.89194692	     39.28605419	      0.68567100	     -2.32611214	      0.00000000	      0.00000000	     32.48883733	     -5.80909267	     -8.84884955	     32.89471419	      0.57412107	     -1.05969396	      0.00000000	      0.00000000	    -10.89808634	     -3.19097183	     -6.89012144	      6.61120162	    -57.54699121	     64.42138965	    103.97258301	     87.05968583	      0.00000000	      0.00000000	    -20.67507033	    -58.19145724	     45.45245096	    104.31605139	     87.31136948	      0.00000000	      0.00000000
      5.26500000	    -15.12165312	      2.72642917	      1.48428880	     -0.27979788	      0.91534496	     -0.91798321	     33.82594196	    -13.25141943	    -12.86150923	     35.62185716	      0.62171869	     -5.78425561	      0.00000000	      0.00000000	     30.41238097	     -5.72084254	     -8.91685380	     29.16076319	      0.50895133	     -4.99968081	      0.00000000	      0.00000000	    -10.33917775	     -2.87647125	     -6.97504103	      6.01321082	    -57.43268588	     63.98347089	    103.72766182	     87.04393830	      0.00000000	      0.00000000	    -21.14674930	    -57.42433586	     44.94326260	    103.18836238	     87.31462412	      0.00000000	      0.00000000
      5.27000000	    -15.89680187	      1.09861416	      2.11465848	     -0.27727268	      0.92564235	     -0.91792461	     32.40790917	    -11.47466845	    -14.61664841	     31.76281348	      0.55436568	     -9.60537288	      0.00000000	      0.00000000	     30.15727304	     -6.73008936	     -7.80436756	     26.32645232	      0.45948327	     -8.85377112	      0.00000000	      0.00000000	     -8.76066106	     -1.09947726	     -7.35122727	      5.31184855	    -57.59615448	     63.52661883	    103.72168240	     87.04394824	      0.00000000	      0.00000000	    -21.55435023	    -56.53997226	     44.58151002	    102.07176379	     87.30417823	      0.00000000	      0.00000000
      5.27500000	    -15.40475991	      1.08767712	      1.84704568	     -0.27275088	      0.93872767	     -0.91709644	     29.91994369	    -10.76499631	    -15.02134324	     27.82996825	      0.48572458	    -14.07660492	      0.00000000	      0.00000000	     27.47303032	     -6.53431537	     -8.46316680	     22.17155903	      0.38696671	    -13.67532129	      0.00000000	      0.00000000	     -8.53281026	     -1.16320572	     -7.08896744	      4.65814570	    -57.23341485	     63.15593044	    103.21644931	     87.03312589	      0.00000000	      0.00000000	    -21.81594872	    -55.68310047	     44.18188821	    100.65535210	     87.26703231	      0.00000000	      0.00000000
      5.28000000	    -14.59050846	      1.38912548	      1.99459140	     -0.26813255	      0.95268145	     -0.91778238	     26.96249780	    -10.62229041	    -15.69789575	     23.75840874	      0.41466246	    -18.66380272	      0.00000000	      0.00000000	     24.35705257	     -5.66002996	     -8.70746096	     17.50808020	      0.30557365	    -19.36091245	      0.00000000	      0.00000000	     -8.74708499	     -1.42038142	     -7.20441024	      3.92044352	    -56.82309081	     62.59541819	    102.58515341	     87.03952288	      0.00000000	      0.00000000	    -21.83583431	    -54.71150136	     43.94254708	     99.22641294	     87.29650110	      0.00000000	      0.00000000
      5.28500000	    -14.40438329	      0.76585703	      2.31486703	     -0.26384136	      0.96518171	     -0.91809114	     24.59682355	     -9.51348955	    -16.76214845	     19.45906261	      0.33962471	    -23.81128180	      0.00000000	      0.00000000	     22.48434644	     -5.80188470	     -8.58710260	     13.62130864	      0.23773668	    -25.22831657	      0.00000000	      0.00000000	     -8.19536202	     -0.71091289	     -7.35810699	      3.03179436	    -56.57294855	     62.07187351	    102.02933359	     87.03113065	      0.00000000	      0.00000000	    -21.85657666	    -53.56672806	     43.80223356	     97.68144223	     87.28318226	      0.00000000	      0.00000000
      5.29000000	    -14.62124007	      0.46061822	      2.10032070	     -0.26070495	      0.97678724	     -0.91746691	     23.16000138	     -8.52847869	    -17.01061852	     15.62233162	      0.27266112	    -28.76336467	      0.00000000	      0.00000000	     20.92384849	     -5.81320556	     -8.73728866	      9.42034812	      0.16441609	    -31.01306441	      0.00000000	      0.00000000	     -7.33202890	     -0.44963081	     -5.73752882	     -1.91613269	    -56.22934969	     57.13806009	    101.89411788	     87.09884565	      0.00000000	      0.00000000	    -18.92262758	    -53.41735570	     46.92220873	     96.48011484	     87.33301012	      0.00000000	      0.00000000
      5.29500000	    -15.23982054	     -0.32539757	      2.04995397	     -0.25788882	      0.98788138	     -0.91687930	     22.13453548	     -7.10739322	    -17.61593082	     11.70869188	      0.20435522	    -33.76382109	      0.00000000	      0.00000000	     20.28313201	     -6.37552678	     -8.92406843	      6.08553941	      0.10621270	    -35.31843831	      0.00000000	      0.00000000	     -5.96953724	      0.36419955	     -5.51738621	     -2.46807518	    -55.87491989	     56.93200444	    101.31755951	     87.08595269	      0.00000000	      0.00000000	    -18.89975109	    -52.31920071	     46.75283968	     95.18412928	     87.28604497	      0.00000000	      0.00000000
      5.30000000	    -14.54847246	     -0.07281326	      1.99705897	     -0.25335804	      1.00128442	     -0.91708084	     19.70862113	     -6.81282583	    -18.52747271	      8.17235982	      0.14263459	    -36.95300160	      0.00000000	      0.00000000	     17.83587088	     -5.76028009	    -10.12655575	      2.65574471	      0.04635149	    -37.64528119	      0.00000000	      0.00000000	     -6.04865478	      0.12858482	     -5.38569217	     -3.02586443	    -55.22561694	     56.50935492	    100.35810675	     87.06099480	      0.00000000	      0.00000000	    -18.85321817	    -51.29217439	     46.54736111	     93.80244466	     87.26463957	      0.00000000	      0.00000000
      5.30500000	    -14.65469820	      0.02344634	      2.24366891	     -0.25020674	      1.01337448	     -0.91784240	     18.42562177	     -6.57985017	    -19.84302389	      5.43333618	      0.09482961	    -37.96839636	      0.00000000	      0.00000000	     17.10359057	     -5.28079196	    -11.39585867	      0.97794263	      0.01706832	    -38.01268772	      0.00000000	      0.00000000	     -5.32924461	      0.06782629	     -5.50431146	     -3.62225919	    -54.71495842	     56.18521654	     99.69848327	     87.04645731	      0.00000000	      0.00000000	    -18.77004054	    -50.39631607	     46.40802664	     92.85262682	     87.23998150	      0.00000000	      0.00000000
      5.31000000	    -14.76259405	      0.07995183	      1.93480051	     -0.24706184	      1.02528785	     -0.91751230	     17.31846735	     -6.07927107	    -20.77706636	      2.91739266	      0.05091811	    -38.31641872	      0.00000000	      0.00000000	     16.76709746	     -5.11474468	    -14.29445820	      0.54462599	      0.00950552	    -37.25211743	      0.00000000	      0.00000000	     -4.71446899	      0.00601376	     -4.40556779	     -6.52486661	    -54.00956593	     53.14679820	     99.15035661	     87.07272705	      0.00000000	      0.00000000	    -17.76435351	    -49.65754949	     46.95525368	     91.98878376	     87.26444345	      0.00000000	      0.00000000
      5.31500000	    -15.09347380	      0.21861339	      1.68064650	     -0.24464748	      1.03661396	     -0.91689605	     17.01212972	     -5.85970415	    -22.88952279	      1.67911706	      0.02930612	    -38.02344307	      0.00000000	      0.00000000	     16.75355408	     -4.84263129	    -17.09186304	      0.50996265	      0.00890053	    -36.05152044	      0.00000000	      0.00000000	     -3.79869108	     -0.19029649	     -4.04989672	     -6.79047382	    -53.39684720	     53.03974477	     98.25531053	     86.99748502	      0.00000000	      0.00000000	    -17.51642762	    -48.98271251	     46.98617679	     91.28792979	     87.19537767	      0.00000000	      0.00000000
      5.32000000	    -15.35202372	      0.23847486	      1.20722383	     -0.24250918	      1.04771210	     -0.91578493	     16.99001856	     -5.50309449	    -24.76984922	      1.31904256	      0.02302164	    -37.32804417	      0.00000000	      0.00000000	     16.63076078	     -4.75402245	    -19.86041079	      0.58651336	      0.01023659	    -35.19980967	      0.00000000	      0.00000000	     -3.03173304	     -0.27052978	     -3.41539504	     -7.14607874	    -52.81595127	     52.74346624	     97.54241601	     86.93986898	      0.00000000	      0.00000000	    -17.35550034	    -48.32884039	     46.80075692	     90.72012374	     87.12717043	      0.00000000	      0.00000000
      5.32500000	    -15.38108378	      0.17160123	      1.01783169	     -0.24050855	      1.05878855	     -0.91517504	     16.75038303	     -5.17975904	    -26.61432475	      1.23418357	      0.02154057	    -36.19536492	      0.00000000	      0.00000000	     16.34652966	     -4.64859342	    -21.90576616	      0.72422126	      0.01264005	    -35.02695599	      0.00000000	      0.00000000	     -2.58894271	     -0.22323093	     -3.06488569	     -7.45966374	    -52.35056782	     52.43131066	     96.90847880	     86.94356148	      0.00000000	      0.00000000	    -17.19615859	    -47.75701037	     46.65977068	     90.22602418	     87.13657574	      0.00000000	      0.00000000
      5.33000000	    -15.33382003	      0.29001321	      0.75400509	     -0.23913335	      1.06959251	     -0.91450441	     16.75276508	     -5.15482891	    -28.42146523	      1.79519366	      0.03133204	    -35.23391597	      0.00000000	      0.00000000	     16.13771478	     -4.38186836	    -24.10806936	      1.10570416	      0.01929818	    -35.83165520	      0.00000000	      0.00000000	     -2.34605569	     -0.35558284	     -1.13284195	    -11.82269231	    -51.34937391	     47.38368204	     96.68984702	     87.03443611	      0.00000000	      0.00000000	    -13.74711525	    -47.97186395	     50.03167571	     89.76222124	     87.18325390	      0.00000000	      0.00000000
      5.33500000	    -15.22158986	      0.38778544	      0.74087986	     -0.23800448	      1.08040979	     -0.91430331	     16.60114644	     -5.18472729	    -29.89350040	      2.35965051	      0.04118367	    -35.10830855	      0.00000000	      0.00000000	     16.02249686	     -4.16535385	    -25.60072991	      1.85852014	      0.03243730	    -37.09200439	      0.00000000	      0.00000000	     -2.21002363	     -0.46011289	     -1.01693502	    -11.78302703	    -50.90168688	     47.19939537	     96.01408503	     87.01898535	      0.00000000	      0.00000000	    -13.54016164	    -47.52089655	     49.87071114	     89.31445908	     87.15908297	      0.00000000	      0.00000000
      5.34000000	    -15.09358154	      0.47931541	      0.92653003	     -0.23760097	      1.09117896	     -0.91433913	     16.50696647	     -5.36203036	    -31.15550960	      3.22755590	      0.05633148	    -35.40494548	      0.00000000	      0.00000000	     16.16026355	     -3.99545598	    -26.41699477	      3.12720153	      0.05457996	    -38.30121575	      0.00000000	      0.00000000	     -2.18548981	     -0.57449705	     -1.02451979	    -11.72677319	    -50.45808885	     46.99517910	     95.36203782	     87.01252947	      0.00000000	      0.00000000	    -13.10070163	    -47.18654530	     49.81855005	     88.94027024	     87.16481686	      0.00000000	      0.00000000
      5.34500000	    -15.18158414	      0.83650768	      0.75687120	     -0.23779379	      1.10116696	     -0.91388085	     16.85692714	     -5.78014519	    -31.43124800	      4.37442138	      0.07634806	    -35.95018549	      0.00000000	      0.00000000	     16.66711552	     -3.73829551	    -27.20519280	      4.88041465	      0.08517930	    -38.89054649	      0.00000000	      0.00000000	     -1.98390198	     -0.98159089	     -0.63621711	    -11.69935479	    -50.08918918	     46.84921609	     94.89535690	     87.03102132	      0.00000000	      0.00000000	    -12.52327454	    -47.07668256	     50.09321486	     88.68643702	     87.19565356	      0.00000000	      0.00000000
      5.35000000	    -14.68545292	      0.86078350	      0.68385177	     -0.23732613	      1.11187742	     -0.91316683	     16.37778440	     -5.74874880	    -31.27799370	      5.21746043	      0.09106186	    -36.77129684	      0.00000000	      0.00000000	     16.35834092	     -3.69019686	    -26.94180796	      6.19657746	      0.10815068	    -39.25974914	      0.00000000	      0.00000000	     -2.44437796	     -1.04395189	     -0.37776353	    -11.52531668	    -49.75555389	     46.81918742	     94.40064261	     87.02758711	      0.00000000	      0.00000000	    -12.12045287	    -46.92843066	     50.02315786	     88.45970860	     87.18546805	      0.00000000	      0.00000000
      5.35500000	    -14.31051524	      0.91020214	      0.59021675	     -0.23714996	      1.12176241	     -0.91252551	     16.07832867	     -5.73816612	    -30.94470708	      6.07289836	      0.10599207	    -37.52102206	      0.00000000	      0.00000000	     16.24423216	     -3.63038253	    -26.58593019	      7.59463144	      0.13255132	    -39.33299288	      0.00000000	      0.00000000	     -2.79699614	     -1.13258494	     -0.09388134	    -11.34295589	    -49.48052405	     46.89253460	     93.93303474	     87.03693087	      0.00000000	      0.00000000	    -11.71472208	    -46.85923325	     50.11493371	     88.27127115	     87.19857560	      0.00000000	      0.00000000
      5.36000000	    -14.11461518	      0.93877379	      0.50795295	     -0.23730910	      1.13115685	     -0.91154468	     16.01218363	     -5.65972810	    -30.23572650	      6.96816489	      0.12161742	    -37.92214240	      0.00000000	      0.00000000	     16.52436448	     -3.65539275	    -26.21865657	      9.21822637	      0.16088840	    -39.32504163	      0.00000000	      0.00000000	     -2.86738782	     -1.24406110	      0.39978606	    -11.06947223	    -49.17632851	     47.34161992	     93.30352386	     87.10794255	      0.00000000	      0.00000000	    -10.08715400	    -47.15933274	     52.04832830	     88.01821150	     87.24339396	      0.00000000	      0.00000000
      5.36500000	    -13.79736950	      1.17558545	      0.39933098	     -0.23721348	      1.14014249	     -0.91101452	     15.78404246	     -5.76997891	    -28.93262041	      7.72115944	      0.13475965	    -38.22862378	      0.00000000	      0.00000000	     16.34589832	     -3.23198404	    -25.38026816	     10.09129493	      0.17612632	    -39.36150710	      0.00000000	      0.00000000	     -3.14228937	     -1.53756139	      0.84899527	    -11.03266469	    -48.99353388	     47.50184719	     92.87901511	     87.13995962	      0.00000000	      0.00000000	     -8.95148860	    -47.38303498	     53.34243580	     87.83743722	     87.25439921	      0.00000000	      0.00000000
      5.37000000	    -13.55583365	      1.33131851	      0.48401914	     -0.23698478	      1.14865015	     -0.91089543	     15.55575257	     -5.83025634	    -27.78779395	      8.29768226	      0.14482188	    -38.35545936	      0.00000000	      0.00000000	     16.18647345	     -2.75316510	    -23.99084286	     10.60511406	      0.18509416	    -39.38312237	      0.00000000	      0.00000000	     -3.32732094	     -1.73065759	      0.96655686	    -10.79816347	    -48.87184591	     47.85177888	     92.41394489	     87.16363504	      0.00000000	      0.00000000	     -8.46252652	    -47.46068319	     53.78245970	     87.69026640	     87.28165584	      0.00000000	      0.00000000
      5.37500000	    -13.44587146	      1.61292919	      0.60134526	     -0.23690355	      1.15665368	     -0.91117222	     15.42358778	     -6.00616379	    -26.35795981	      8.66551956	      0.15124185	    -38.43519563	      0.00000000	      0.00000000	     16.05048716	     -2.03992963	    -22.55775679	     10.74497223	      0.18753514	    -39.39366403	      0.00000000	      0.00000000	     -3.32344208	     -2.03281991	      1.04682651	    -10.24372542	    -48.86313877	     48.79886673	     91.90770567	     87.21310710	      0.00000000	      0.00000000	     -7.65460312	    -47.58679316	     54.90124272	     87.42096950	     87.32739650	      0.00000000	      0.00000000
      5.38000000	    -13.28257711	      1.91150139	      0.70032635	     -0.23654183	      1.16445399	     -0.91141698	     15.15780626	     -6.16807334	    -24.92914488	      8.84617408	      0.15439486	    -38.51868431	      0.00000000	      0.00000000	     15.69828670	     -1.27402622	    -21.04709990	     10.44836538	      0.18235838	    -39.40106863	      0.00000000	      0.00000000	     -3.35681588	     -2.36060873	      1.12968815	     -9.73697196	    -48.88467307	     49.67454872	     91.45574654	     87.22451907	      0.00000000	      0.00000000	     -6.96894880	    -47.67379012	     55.75624574	     87.18575278	     87.32471940	      0.00000000	      0.00000000
      5.38500000	    -13.04821244	      2.03166192	      0.89670349	     -0.23592170	      1.17206644	     -0.91188371	     14.64374889	     -6.11572481	    -23.82289026	      8.65375626	      0.15103654	    -38.57821657	      0.00000000	      0.00000000	     15.15532484	     -0.67822067	    -19.49499872	      9.93175609	      0.17334184	    -39.39394081	      0.00000000	      0.00000000	     -3.41131036	     -2.48009988	      1.14384601	     -9.09119876	    -48.95503801	     50.80344415	     90.91185923	     87.24169890	      0.00000000	      0.00000000	     -6.20228645	    -47.69670526	     56.83338177	     86.80976888	     87.32656792	      0.00000000	      0.00000000
      5.39000000	    -12.99674281	      2.30210154	      0.84716260	     -0.23547615	      1.17904480	     -0.91192331	     14.42267782	     -6.19096554	    -22.66288830	      8.50324200	      0.14840957	    -38.62890562	      0.00000000	      0.00000000	     14.76365402	     -0.06431148	    -18.65113881	      9.35402378	      0.16325851	    -39.37200717	      0.00000000	      0.00000000	     -3.23215522	     -2.78191131	      1.39756616	     -8.35409035	    -49.03329324	     52.14695307	     90.33354335	     87.22407252	      0.00000000	      0.00000000	     -5.47533731	    -47.79554353	     57.87125684	     86.57902780	     87.29802809	      0.00000000	      0.00000000
      5.39500000	    -12.61515563	      2.11217804	      0.93428460	     -0.23439840	      1.18644955	     -0.91195915	     13.66507640	     -5.80543423	    -22.30093207	      8.12766229	      0.14185447	    -38.56548229	      0.00000000	      0.00000000	     13.99100522	      0.05833252	    -17.61241047	      8.68561368	      0.15159256	    -39.28408785	      0.00000000	      0.00000000	     -3.38009687	     -2.57719011	      1.51967668	     -7.88451517	    -48.93759795	     52.91588402	     89.53131810	     87.22500090	      0.00000000	      0.00000000	     -4.99322448	    -47.56823684	     58.38032563	     85.98489457	     87.30634578	      0.00000000	      0.00000000
      5.40000000	    -12.37239505	      2.19924261	      0.95144253	     -0.23353138	      1.19338118	     -0.91196015	     13.04679709	     -5.70747900	    -21.88489078	      7.59173142	      0.13250071	    -38.59723320	      0.00000000	      0.00000000	     13.21421133	      0.45404684	    -16.94785428	      7.68111824	      0.13406080	    -39.27788182	      0.00000000	      0.00000000	     -3.36469530	     -2.66963301	      1.63123294	     -6.98546557	    -49.02446341	     54.40632273	     89.04284194	     87.22235047	      0.00000000	      0.00000000	     -4.41868178	    -47.58694494	     59.32469498	     85.66841802	     87.31926740	      0.00000000	      0.00000000
      5.40500000	    -12.21162236	      2.14342637	      0.87221619	     -0.23244464	      1.19997422	     -0.91175417	     12.56870077	     -5.49348541	    -22.13744686	      7.19098442	      0.12550635	    -38.47139541	      0.00000000	      0.00000000	     12.58263145	      0.58843619	    -16.87957675	      6.83035015	      0.11921210	    -39.19355514	      0.00000000	      0.00000000	     -3.19682351	     -2.61584528	      1.82223736	     -6.12846993	    -49.00468625	     55.79642399	     88.39247059	     87.19551175	      0.00000000	      0.00000000	     -4.05228466	    -47.48630417	     59.88670614	     85.35272465	     87.29550986	      0.00000000	      0.00000000
      5.41000000	    -11.99210257	      2.01946879	      0.83972722	     -0.23141570	      1.20644995	     -0.91149650	     12.03245787	     -5.23641216	    -22.77111899	      6.82168798	      0.11906092	    -38.32325231	      0.00000000	      0.00000000	     12.00372349	      0.57074166	    -17.21128505	      6.24254451	      0.10895296	    -39.12825329	      0.00000000	      0.00000000	     -3.09585197	     -2.49442908	      1.94833866	     -5.30479208	    -48.92391916	     57.01603365	     87.69768297	     87.18417353	      0.00000000	      0.00000000	     -3.89988743	    -47.31546043	     60.10558091	     84.99829228	     87.25780900	      0.00000000	      0.00000000
      5.41500000	    -11.92281953	      1.88238506	      0.77892858	     -0.23053013	      1.21252819	     -0.91115753	     11.68638108	     -4.98063134	    -23.50002886	      6.51440736	      0.11369786	    -37.96285231	      0.00000000	      0.00000000	     11.65590541	      0.47030499	    -17.75857016	      5.84521960	      0.10201833	    -38.90818683	      0.00000000	      0.00000000	     -2.88194963	     -2.35622222	      2.25749116	     -5.15582768	    -48.77058355	     57.26901626	     87.20042609	     87.18875237	      0.00000000	      0.00000000	     -3.71193581	    -47.11068417	     60.05765838	     84.75268817	     87.26291960	      0.00000000	      0.00000000
      5.42000000	    -11.31343120	      1.62589088	      0.82260116	     -0.22888673	      1.21917931	     -0.91072389	     10.68201622	     -4.61706102	    -25.21337212	      6.16929387	      0.10767449	    -37.99993547	      0.00000000	      0.00000000	     10.59679406	      0.22838592	    -18.81130101	      5.28297908	      0.09220538	    -38.95091902	      0.00000000	      0.00000000	     -3.17094863	     -2.10208517	      2.15086467	     -4.09108774	    -48.58856491	     58.56921995	     86.42859363	     87.19567160	      0.00000000	      0.00000000	     -3.58455705	    -46.92119660	     60.34645563	     84.31293146	     87.26884611	      0.00000000	      0.00000000
      5.42500000	    -11.25874119	      1.41284394	      0.80683775	     -0.22766200	      1.22484142	     -0.91033664	     10.33233751	     -4.29823402	    -26.37610328	      5.88495676	      0.10271187	    -37.68440986	      0.00000000	      0.00000000	     10.23621601	      0.02938794	    -19.74913679	      4.94109769	      0.08623842	    -38.84165945	      0.00000000	      0.00000000	     -2.88586786	     -1.88737278	      2.33198991	     -3.98417696	    -48.31964402	     58.70203345	     85.82016273	     87.19732499	      0.00000000	      0.00000000	     -3.56752613	    -46.69514688	     60.27755159	     84.03844706	     87.26792682	      0.00000000	      0.00000000
      5.43000000	    -10.76316316	      1.29354089	      0.85416366	     -0.22623955	      1.23098342	     -0.90979212	      9.58662846	     -4.13262015	    -28.12990128	      5.84695129	      0.10204855	    -37.72655909	      0.00000000	      0.00000000	      9.57947144	     -0.19844652	    -21.31515708	      5.03366556	      0.08785404	    -38.80546155	      0.00000000	      0.00000000	     -3.13628979	     -1.81465538	      2.28762229	     -3.55662876	    -47.97146229	     58.95281625	     85.19187385	     87.20367221	      0.00000000	      0.00000000	     -3.50786246	    -46.49920824	     60.23822795	     83.74602342	     87.27520495	      0.00000000	      0.00000000
      5.43500000	    -10.68150314	      1.15940611	      0.90620264	     -0.22515011	      1.23640267	     -0.90934244	      9.25404995	     -3.92033520	    -29.03876829	      5.74647749	      0.10029495	    -37.56093048	      0.00000000	      0.00000000	      9.32998454	     -0.36181379	    -22.13795005	      4.94912785	      0.08637858	    -38.73301959	      0.00000000	      0.00000000	     -2.91234229	     -1.70916085	      2.29745401	     -3.35585575	    -47.58275873	     58.94090811	     84.63849567	     87.19764632	      0.00000000	      0.00000000	     -3.50638840	    -46.34695554	     60.20116016	     83.53857491	     87.27881671	      0.00000000	      0.00000000
      5.44000000	    -10.39190824	      1.08765288	      1.00070725	     -0.22424990	      1.24189523	     -0.90862433	      8.79262116	     -3.79376941	    -30.10304091	      5.81014755	      0.10140620	    -37.54943745	      0.00000000	      0.00000000	      8.96947986	     -0.55593621	    -23.08480630	      5.17184012	      0.09026564	    -38.73418204	      0.00000000	      0.00000000	     -3.01243296	     -1.75218215	      2.17199701	     -3.07373477	    -47.12009347	     58.94988580	     83.93870519	     87.24213041	      0.00000000	      0.00000000	     -3.44787375	    -46.26774108	     60.15257552	     83.40105570	     87.28536708	      0.00000000	      0.00000000
      5.44500000	    -10.51410270	      1.30616830	      0.92477274	     -0.22356898	      1.24648270	     -0.90793124	      8.88412160	     -4.01930307	    -30.52418780	      6.03605549	      0.10534904	    -37.64324778	      0.00000000	      0.00000000	      9.05231422	     -0.41318179	    -23.69196380	      5.37546776	      0.09381961	    -38.74270551	      0.00000000	      0.00000000	     -2.62218830	     -2.07734155	      2.22227959	     -2.83291475	    -46.69411957	     58.94989354	     83.59521609	     87.27121521	      0.00000000	      0.00000000	     -3.52040466	    -46.21902686	     60.07415000	     83.36378107	     87.28404803	      0.00000000	      0.00000000
      5.45000000	    -10.67556664	      1.31871907	      1.11585577	     -0.22327425	      1.25094986	     -0.90742989	      9.04088705	     -4.05028633	    -30.60965921	      6.38312245	      0.11140650	    -37.66483881	      0.00000000	      0.00000000	      9.30353999	     -0.48211615	    -23.66318179	      5.75661320	      0.10047185	    -38.77393861	      0.00000000	      0.00000000	     -2.26761894	     -2.20019989	      1.98864496	     -2.60072812	    -46.22234699	     58.81072383	     83.15623731	     87.29429454	      0.00000000	      0.00000000	     -3.62190762	    -46.16493865	     59.95716323	     83.35139748	     87.29836657	      0.00000000	      0.00000000
      5.45500000	    -10.68336496	      1.34435990	      1.25663899	     -0.22279081	      1.25535124	     -0.90680619	      8.99039495	     -4.04457791	    -30.30916395	      6.61045827	      0.11537426	    -37.82324595	      0.00000000	      0.00000000	      9.31260551	     -0.51779122	    -23.45706403	      6.00132755	      0.10474293	    -38.86660289	      0.00000000	      0.00000000	     -2.08743022	     -2.32527423	      1.74645028	     -2.35125216	    -45.87885582	     58.58113929	     83.01109291	     87.27838445	      0.00000000	      0.00000000	     -3.63407638	    -46.16854576	     59.94829359	     83.31539066	     87.29338777	      0.00000000	      0.00000000
      5.46000000	    -10.77301273	      1.39691107	      1.37217934	     -0.22237082	      1.25948917	     -0.90608444	      9.07284215	     -4.06425447	    -29.70677928	      6.88591819	      0.12018194	    -37.99196822	      0.00000000	      0.00000000	      9.44324254	     -0.54377763	    -22.92795141	      6.33762413	      0.11061241	    -38.94388571	      0.00000000	      0.00000000	     -1.84476962	     -2.50260964	      1.58926808	     -2.21287103	    -45.36862253	     58.41672628	     82.62634151	     87.28197532	      0.00000000	      0.00000000	     -3.66737273	    -46.16779668	     59.93994534	     83.28550315	     87.29710102	      0.00000000	      0.00000000
      5.46500000	    -11.05002938	      1.38701066	      1.51141347	     -0.22221597	      1.26322767	     -0.90548736	      9.34008321	     -3.99716747	    -28.66909582	      7.10610828	      0.12402499	    -38.12722439	      0.00000000	      0.00000000	      9.85072830	     -0.60669192	    -21.83216220	      6.68620944	      0.11669637	    -38.94306650	      0.00000000	      0.00000000	     -1.37996296	     -2.60768778	      1.40757598	     -2.11561352	    -44.91437458	     58.13009795	     82.22348101	     87.28708310	      0.00000000	      0.00000000	     -3.73159209	    -46.12737803	     59.95846193	     83.25439301	     87.28321836	      0.00000000	      0.00000000
      5.47000000	    -11.11707549	      1.37151973	      1.69642291	     -0.22193250	      1.26691557	     -0.90497497	      9.38748888	     -3.94165253	    -27.76294727	      7.34209018	      0.12814365	    -38.28175700	      0.00000000	      0.00000000	      9.97736823	     -0.67886637	    -20.94059990	      6.99965970	      0.12216711	    -38.99974164	      0.00000000	      0.00000000	     -1.20318000	     -2.68719797	      1.18046820	     -2.01362703	    -44.55617167	     57.93895159	     81.98943831	     87.28922106	      0.00000000	      0.00000000	     -3.69657783	    -46.12364486	     59.97098651	     83.25960873	     87.29571862	      0.00000000	      0.00000000
      5.47500000	    -11.21407471	      1.30523297	      1.74100255	     -0.22178017	      1.27037636	     -0.90439578	      9.49600771	     -3.80185459	    -26.58930112	      7.57674544	      0.13223915	    -38.45023659	      0.00000000	      0.00000000	     10.10843541	     -0.80638403	    -20.17100154	      7.22323721	      0.12606927	    -39.06213955	      0.00000000	      0.00000000	     -0.96776215	     -2.69327963	      1.09795834	     -1.90426783	    -44.24747121	     57.83635936	     81.76606519	     87.30521399	      0.00000000	      0.00000000	     -3.64533716	    -46.05336545	     60.09489987	     83.16195796	     87.29565754	      0.00000000	      0.00000000
      5.48000000	    -11.22291037	      1.28849449	      1.91133713	     -0.22145735	      1.27361745	     -0.90392855	      9.50104367	     -3.75589278	    -25.88416867	      7.85515275	      0.13709828	    -38.64925063	      0.00000000	      0.00000000	     10.13703908	     -0.88517414	    -19.77049980	      7.42257463	      0.12954837	    -39.14452427	      0.00000000	      0.00000000	     -0.85664264	     -2.77089782	      0.83459626	     -1.79386110	    -43.97246148	     57.69234092	     81.69454818	     87.29764263	      0.00000000	      0.00000000	     -3.67371695	    -46.07449698	     60.21988159	     83.11658801	     87.29496032	      0.00000000	      0.00000000
      5.48500000	    -11.28901029	      1.17567381	      1.98624038	     -0.22113162	      1.27658488	     -0.90348368	      9.56911211	     -3.59504578	    -24.82456220	      8.09347512	      0.14125779	    -38.75011911	      0.00000000	      0.00000000	     10.24290457	     -1.08629964	    -19.15512704	      7.67622215	      0.13397535	    -39.16795026	      0.00000000	      0.00000000	     -0.66147228	     -2.71532651	      0.68280207	     -1.71734450	    -43.74211183	     57.59045581	     81.41581286	     87.29850113	      0.00000000	      0.00000000	     -3.71411521	    -46.02528038	     60.42431320	     83.01359310	     87.29477238	      0.00000000	      0.00000000
      5.49000000	    -11.39070784	      1.13653224	      2.16746668	     -0.22091048	      1.27908253	     -0.90307676	      9.60193780	     -3.51404138	    -24.06654574	      8.19053485	      0.14295180	    -38.81002988	      0.00000000	      0.00000000	     10.41502397	     -1.21998236	    -18.66652754	      7.92734556	      0.13835828	    -39.19226531	      0.00000000	      0.00000000	     -0.41707782	     -2.75312445	      0.51646101	     -1.72203549	    -43.56607989	     57.53639191	     81.24799829	     87.31105819	      0.00000000	      0.00000000	     -3.65654631	    -46.01275042	     60.50795878	     82.94355054	     87.29046997	      0.00000000	      0.00000000
      5.49500000	    -11.59872840	      1.11117279	      2.23427022	     -0.22075450	      1.28120915	     -0.90267499	      9.78681286	     -3.46312601	    -23.36585356	      8.30324444	      0.14491895	    -38.87860242	      0.00000000	      0.00000000	     10.66431833	     -1.34349601	    -18.40055481	      8.10123078	      0.14139315	    -39.20024266	      0.00000000	      0.00000000	     -0.04989055	     -2.80131770	      0.48146484	     -1.76134644	    -43.41798044	     57.47336333	     81.06631576	     87.32106032	      0.00000000	      0.00000000	     -3.63893282	    -45.95946801	     60.59925488	     82.82853467	     87.27679183	      0.00000000	      0.00000000
      5.50000000	    -11.48811143	      0.93308205	      2.45883047	     -0.22027907	      1.28355527	     -0.90239483	      9.55892692	     -3.28757210	    -23.32953683	      8.36276970	      0.14595787	    -38.90868629	      0.00000000	      0.00000000	     10.57358508	     -1.63833324	    -18.40140427	      8.26266705	      0.14421075	    -39.20307031	      0.00000000	      0.00000000	     -0.06028282	     -2.68005646	      0.26276219	     -1.78246557	    -43.35725868	     57.42040557	     80.94232329	     87.31464211	      0.00000000	      0.00000000	     -3.64456045	    -45.93295149	     60.69792474	     82.70364022	     87.26388600	      0.00000000	      0.00000000
      5.50500000	    -11.53895388	      0.93571537	      2.57982868	     -0.21986589	      1.28522707	     -0.90209300	      9.53069109	     -3.32369945	    -23.30241422	      8.43062641	      0.14714219	    -38.94996308	      0.00000000	      0.00000000	     10.58800635	     -1.73965732	    -18.43346691	      8.30134698	      0.14488584	    -39.21113431	      0.00000000	      0.00000000	      0.14903884	     -2.75903470	      0.15651392	     -1.85720043	    -43.34508217	     57.41669899	     80.89378257	     87.31527993	      0.00000000	      0.00000000	     -3.70941978	    -45.95703295	     60.74163356	     82.65729215	     87.26202140	      0.00000000	      0.00000000
      5.51000000	    -11.78161017	      0.95165413	      2.73312680	     -0.21983283	      1.28653695	     -0.90192870	      9.78166286	     -3.44328850	    -23.48448579	      8.61331655	      0.15033073	    -38.94980407	      0.00000000	      0.00000000	     10.94610221	     -1.85693542	    -18.57723244	      8.52552904	      0.14879855	    -39.18798331	      0.00000000	      0.00000000	      0.50823955	     -2.84545547	      0.01875104	     -1.91713350	    -43.27336074	     57.35201744	     80.67306683	     87.32045878	      0.00000000	      0.00000000	     -3.79387547	    -45.91058583	     60.71152589	     82.50513625	     87.24412778	      0.00000000	      0.00000000
      5.51500000	    -11.76954843	      0.94072568	      2.82442840	     -0.21951220	      1.28787536	     -0.90161123	      9.68912142	     -3.48665874	    -23.50213322	      8.63832600	      0.15076723	    -38.94876202	      0.00000000	      0.00000000	     10.89339714	     -1.98821552	    -18.59643267	      8.53082172	      0.14889093	    -39.18494941	      0.00000000	      0.00000000	      0.63508275	     -2.91373931	      0.00732999	     -1.95581296	    -43.31207959	     57.36217550	     80.65637758	     87.32204534	      0.00000000	      0.00000000	     -3.81921501	    -45.92222977	     60.71522949	     82.49153869	     87.24385828	      0.00000000	      0.00000000
      5.52000000	    -11.64116286	      0.72416674	      3.14305536	     -0.21902273	      1.28902381	     -0.90154741	      9.43233818	     -3.38476989	    -24.55293499	      8.68422567	      0.15156833	    -38.91742426	      0.00000000	      0.00000000	     10.81593960	     -2.36508644	    -18.83407911	      8.68072003	      0.15150715	    -39.14078650	      0.00000000	      0.00000000	      0.61592647	     -2.73956915	     -0.33894374	     -2.06297082	    -43.39031680	     57.24599337	     80.58787554	     87.25949480	      0.00000000	      0.00000000	     -4.01354119	    -45.91950271	     60.60143888	     82.41136991	     87.16647519	      0.00000000	      0.00000000
      5.52500000	    -11.70432092	      0.72798568	      3.30775852	     -0.21878032	      1.28973519	     -0.90132372	      9.45897099	     -3.50936714	    -24.94621548	      8.78970616	      0.15340931	    -38.85853250	      0.00000000	      0.00000000	     10.89923153	     -2.50826745	    -19.12348604	      8.70573954	      0.15194382	    -39.10036381	      0.00000000	      0.00000000	      0.77703067	     -2.82634402	     -0.44709634	     -2.26870405	    -43.45324295	     57.05767248	     80.56186957	     87.09783562	      0.00000000	      0.00000000	     -4.24123952	    -45.92001010	     60.29319550	     82.38775232	     87.10937360	      0.00000000	      0.00000000
      5.53000000	    -11.63488351	      0.74034503	      3.37929078	     -0.21848703	      1.29041185	     -0.90098917	      9.28628282	     -3.58326430	    -25.28967605	      8.74474696	      0.15262463	    -38.85965501	      0.00000000	      0.00000000	     10.76554000	     -2.63395531	    -19.36406778	      8.61013538	      0.15027521	    -39.06180459	      0.00000000	      0.00000000	      0.80989399	     -2.92797284	     -0.52194194	     -2.25245710	    -43.46694616	     57.14790585	     80.43646027	     86.95010247	      0.00000000	      0.00000000	     -4.30582833	    -45.92194276	     60.38674758	     82.22783674	     87.00310602	      0.00000000	      0.00000000
      5.53500000	    -11.69895449	      0.69567166	      3.50848623	     -0.21838700	      1.29057294	     -0.90070970	      9.30147012	     -3.65626276	    -25.96025075	      8.75852914	      0.15286517	    -38.79206110	      0.00000000	      0.00000000	     10.94394070	     -2.88100660	    -19.95983979	      8.82215870	      0.15397572	    -39.04938581	      0.00000000	      0.00000000	      0.97600206	     -2.95591276	     -0.56425071	     -2.46665885	    -43.61823200	     57.04220551	     80.65942046	     86.17900391	      0.00000000	      0.00000000	     -4.49466877	    -46.02646775	     60.20043788	     82.46760395	     86.25631535	      0.00000000	      0.00000000
