Model Marker Errors from IK
version=1
nRows=801
nColumns=4
inDegrees=no
endheader
time	total_squared_error	marker_error_RMS	marker_error_max
      1.50000000	      0.02805358	      0.02162313	      0.06088847
      1.50500000	      0.02806708	      0.02162833	      0.06097281
      1.51000000	      0.02797783	      0.02159391	      0.06015012
      1.51500000	      0.02813131	      0.02165306	      0.06028393
      1.52000000	      0.02804376	      0.02161934	      0.06096056
      1.52500000	      0.02809105	      0.02163756	      0.06109655
      1.53000000	      0.02809271	      0.02163820	      0.06137567
      1.53500000	      0.02820164	      0.02168011	      0.06147805
      1.54000000	      0.02827071	      0.02170665	      0.06167686
      1.54500000	      0.02823474	      0.02169283	      0.06203523
      1.55000000	      0.02815468	      0.02166205	      0.06204854
      1.55500000	      0.02833819	      0.02173254	      0.06259387
      1.56000000	      0.02821296	      0.02168446	      0.06283997
      1.56500000	      0.02827656	      0.02170889	      0.06298451
      1.57000000	      0.02832181	      0.02172626	      0.06292631
      1.57500000	      0.02832414	      0.02172715	      0.06289131
      1.58000000	      0.02850787	      0.02179750	      0.06329463
      1.58500000	      0.02853637	      0.02180840	      0.06361277
      1.59000000	      0.02854590	      0.02181204	      0.06388904
      1.59500000	      0.02848665	      0.02178939	      0.06429801
      1.60000000	      0.02848401	      0.02178838	      0.06403308
      1.60500000	      0.02848595	      0.02178912	      0.06440186
      1.61000000	      0.02858968	      0.02182876	      0.06451728
      1.61500000	      0.02864719	      0.02185070	      0.06497015
      1.62000000	      0.02877237	      0.02189839	      0.06516470
      1.62500000	      0.02872714	      0.02188117	      0.06526882
      1.63000000	      0.02875779	      0.02189284	      0.06541519
      1.63500000	      0.02877021	      0.02189757	      0.06533227
      1.64000000	      0.02876805	      0.02189674	      0.06582012
      1.64500000	      0.02885501	      0.02192981	      0.06604540
      1.65000000	      0.02880237	      0.02190980	      0.06623684
      1.65500000	      0.02878250	      0.02190225	      0.06622952
      1.66000000	      0.02886328	      0.02193296	      0.06635898
      1.66500000	      0.02885902	      0.02193134	      0.06612069
      1.67000000	      0.02896876	      0.02197300	      0.06667328
      1.67500000	      0.02892571	      0.02195667	      0.06675537
      1.68000000	      0.02901495	      0.02199051	      0.06663714
      1.68500000	      0.02904139	      0.02200053	      0.06669105
      1.69000000	      0.02905216	      0.02200460	      0.06714664
      1.69500000	      0.02905406	      0.02200532	      0.06711322
      1.70000000	      0.02916070	      0.02204567	      0.06766604
      1.70500000	      0.02899719	      0.02198378	      0.06758103
      1.71000000	      0.02907629	      0.02201374	      0.06747563
      1.71500000	      0.02913137	      0.02203458	      0.06765026
      1.72000000	      0.02918119	      0.02205342	      0.06754576
      1.72500000	      0.02926710	      0.02208585	      0.06804237
      1.73000000	      0.02929475	      0.02209629	      0.06810247
      1.73500000	      0.02960397	      0.02221260	      0.06861225
      1.74000000	      0.02936709	      0.02212355	      0.06817328
      1.74500000	      0.02947931	      0.02216578	      0.06840157
      1.75000000	      0.02954953	      0.02219217	      0.06857205
      1.75500000	      0.02960806	      0.02221413	      0.06885380
      1.76000000	      0.02967091	      0.02223770	      0.06919364
      1.76500000	      0.02962372	      0.02222000	      0.06897163
      1.77000000	      0.02977536	      0.02227680	      0.06923775
      1.77500000	      0.03008613	      0.02239276	      0.06979766
      1.78000000	      0.02993011	      0.02233462	      0.06964630
      1.78500000	      0.02985559	      0.02230680	      0.06973056
      1.79000000	      0.02983292	      0.02229832	      0.06984354
      1.79500000	      0.03019277	      0.02243240	      0.07035173
      1.80000000	      0.02999794	      0.02235991	      0.07001944
      1.80500000	      0.03008165	      0.02239109	      0.07003836
      1.81000000	      0.03021200	      0.02243955	      0.07067876
      1.81500000	      0.03044579	      0.02252620	      0.07103637
      1.82000000	      0.03049651	      0.02254496	      0.07109009
      1.82500000	      0.03022097	      0.02244288	      0.07081034
      1.83000000	      0.03039705	      0.02250817	      0.07120768
      1.83500000	      0.03050088	      0.02254657	      0.07139978
      1.84000000	      0.03053282	      0.02255837	      0.07145563
      1.84500000	      0.03068279	      0.02261371	      0.07161115
      1.85000000	      0.03064385	      0.02259935	      0.07166591
      1.85500000	      0.03065617	      0.02260390	      0.07182928
      1.86000000	      0.03085753	      0.02267801	      0.07164042
      1.86500000	      0.03100613	      0.02273255	      0.07213972
      1.87000000	      0.03078531	      0.02265146	      0.07186239
      1.87500000	      0.03097009	      0.02271934	      0.07255566
      1.88000000	      0.03078108	      0.02264990	      0.07244621
      1.88500000	      0.03069416	      0.02261790	      0.07219987
      1.89000000	      0.03111044	      0.02277075	      0.07331700
      1.89500000	      0.03090167	      0.02269422	      0.07298095
      1.90000000	      0.03099964	      0.02273017	      0.07296867
      1.90500000	      0.03118490	      0.02279799	      0.07364281
      1.91000000	      0.03093652	      0.02270702	      0.07303986
      1.91500000	      0.03111049	      0.02277077	      0.07334280
      1.92000000	      0.03132976	      0.02285088	      0.07385535
      1.92500000	      0.03130853	      0.02284313	      0.07400201
      1.93000000	      0.03151628	      0.02291880	      0.07410114
      1.93500000	      0.03156697	      0.02293722	      0.07422565
      1.94000000	      0.03124961	      0.02282163	      0.07363881
      1.94500000	      0.03163406	      0.02296158	      0.07415163
      1.95000000	      0.03164114	      0.02296415	      0.07452213
      1.95500000	      0.03180093	      0.02302207	      0.07444394
      1.96000000	      0.03152298	      0.02292123	      0.07420265
      1.96500000	      0.03174496	      0.02300180	      0.07437337
      1.97000000	      0.03194956	      0.02307580	      0.07504662
      1.97500000	      0.03197383	      0.02308456	      0.07515876
      1.98000000	      0.03184849	      0.02303928	      0.07508172
      1.98500000	      0.03186928	      0.02304679	      0.07515007
      1.99000000	      0.03186392	      0.02304485	      0.07530454
      1.99500000	      0.03196135	      0.02308006	      0.07585060
      2.00000000	      0.03202807	      0.02310414	      0.07574717
      2.00500000	      0.03221168	      0.02317027	      0.07599480
      2.01000000	      0.03227327	      0.02319241	      0.07608060
      2.01500000	      0.03237061	      0.02322736	      0.07678511
      2.02000000	      0.03251337	      0.02327852	      0.07674306
      2.02500000	      0.03248239	      0.02326743	      0.07703620
      2.03000000	      0.03248158	      0.02326714	      0.07660837
      2.03500000	      0.03244641	      0.02325454	      0.07675022
      2.04000000	      0.03260550	      0.02331148	      0.07686756
      2.04500000	      0.03268506	      0.02333990	      0.07730581
      2.05000000	      0.03289731	      0.02341556	      0.07778288
      2.05500000	      0.03283806	      0.02339447	      0.07772165
      2.06000000	      0.03279519	      0.02337919	      0.07748480
      2.06500000	      0.03267652	      0.02333685	      0.07783713
      2.07000000	      0.03301265	      0.02345657	      0.07798710
      2.07500000	      0.03312997	      0.02349822	      0.07801356
      2.08000000	      0.03288272	      0.02341037	      0.07792328
      2.08500000	      0.03322227	      0.02353093	      0.07847334
      2.09000000	      0.03325263	      0.02354168	      0.07878208
      2.09500000	      0.03326200	      0.02354499	      0.07873752
      2.10000000	      0.03333330	      0.02357021	      0.07922788
      2.10500000	      0.03348680	      0.02362442	      0.07976693
      2.11000000	      0.03357488	      0.02365547	      0.07974074
      2.11500000	      0.03362315	      0.02367247	      0.07976903
      2.12000000	      0.03371007	      0.02370305	      0.08010914
      2.12500000	      0.03365703	      0.02368439	      0.07989598
      2.13000000	      0.03397101	      0.02379461	      0.08043212
      2.13500000	      0.03385342	      0.02375339	      0.08065392
      2.14000000	      0.03390708	      0.02377221	      0.08061959
      2.14500000	      0.03396125	      0.02379119	      0.08052682
      2.15000000	      0.03400191	      0.02380543	      0.08066249
      2.15500000	      0.03402512	      0.02381355	      0.08107271
      2.16000000	      0.03405160	      0.02382282	      0.08096000
      2.16500000	      0.03410313	      0.02384084	      0.08121912
      2.17000000	      0.03412628	      0.02384893	      0.08167481
      2.17500000	      0.03436997	      0.02393393	      0.08175517
      2.18000000	      0.03440415	      0.02394582	      0.08187714
      2.18500000	      0.03453665	      0.02399189	      0.08217429
      2.19000000	      0.03434443	      0.02392503	      0.08207497
      2.19500000	      0.03459540	      0.02401229	      0.08303708
      2.20000000	      0.03470936	      0.02405180	      0.08292429
      2.20500000	      0.03465601	      0.02403331	      0.08270929
      2.21000000	      0.03472791	      0.02405823	      0.08309063
      2.21500000	      0.03478372	      0.02407755	      0.08270670
      2.22000000	      0.03506420	      0.02417444	      0.08330616
      2.22500000	      0.03503161	      0.02416320	      0.08332937
      2.23000000	      0.03514994	      0.02420397	      0.08406190
      2.23500000	      0.03541850	      0.02429626	      0.08429936
      2.24000000	      0.03544017	      0.02430369	      0.08453675
      2.24500000	      0.03539974	      0.02428983	      0.08463970
      2.25000000	      0.03557175	      0.02434877	      0.08485240
      2.25500000	      0.03576128	      0.02441355	      0.08577011
      2.26000000	      0.03579198	      0.02442402	      0.08587749
      2.26500000	      0.03583940	      0.02444020	      0.08592216
      2.27000000	      0.03600590	      0.02449690	      0.08647816
      2.27500000	      0.03624043	      0.02457656	      0.08660003
      2.28000000	      0.03620881	      0.02456583	      0.08694972
      2.28500000	      0.03630960	      0.02460000	      0.08722910
      2.29000000	      0.03676904	      0.02475515	      0.08792359
      2.29500000	      0.03663834	      0.02471111	      0.08774473
      2.30000000	      0.03687606	      0.02479115	      0.08861500
      2.30500000	      0.03695965	      0.02481923	      0.08857214
      2.31000000	      0.03705027	      0.02484964	      0.08904845
      2.31500000	      0.03709472	      0.02486454	      0.08904057
      2.32000000	      0.03724432	      0.02491463	      0.08949077
      2.32500000	      0.03719208	      0.02489715	      0.08975921
      2.33000000	      0.03741879	      0.02497291	      0.08989937
      2.33500000	      0.03741402	      0.02497132	      0.09046734
      2.34000000	      0.03748043	      0.02499348	      0.09045057
      2.34500000	      0.03754012	      0.02501337	      0.09098535
      2.35000000	      0.03762281	      0.02504090	      0.09128083
      2.35500000	      0.03765120	      0.02505035	      0.09121471
      2.36000000	      0.03780567	      0.02510168	      0.09160786
      2.36500000	      0.03789612	      0.02513169	      0.09181160
      2.37000000	      0.03785592	      0.02511836	      0.09230278
      2.37500000	      0.03797139	      0.02515664	      0.09266859
      2.38000000	      0.03794545	      0.02514805	      0.09225505
      2.38500000	      0.03801364	      0.02517063	      0.09298630
      2.39000000	      0.03799003	      0.02516281	      0.09291535
      2.39500000	      0.03814051	      0.02521260	      0.09354791
      2.40000000	      0.03819065	      0.02522917	      0.09324104
      2.40500000	      0.03825441	      0.02525022	      0.09358652
      2.41000000	      0.03846324	      0.02531904	      0.09421168
      2.41500000	      0.03840198	      0.02529887	      0.09431229
      2.42000000	      0.03849966	      0.02533103	      0.09475110
      2.42500000	      0.03864052	      0.02537733	      0.09451323
      2.43000000	      0.03884589	      0.02544468	      0.09464372
      2.43500000	      0.03882008	      0.02543622	      0.09506028
      2.44000000	      0.03878761	      0.02542558	      0.09506346
      2.44500000	      0.03884493	      0.02544436	      0.09538044
      2.45000000	      0.03914514	      0.02554250	      0.09557234
      2.45500000	      0.03896048	      0.02548218	      0.09585211
      2.46000000	      0.03939039	      0.02562238	      0.09638381
      2.46500000	      0.03942418	      0.02563337	      0.09628349
      2.47000000	      0.03946014	      0.02564506	      0.09668265
      2.47500000	      0.03946513	      0.02564668	      0.09703895
      2.48000000	      0.03948071	      0.02565174	      0.09738033
      2.48500000	      0.03957879	      0.02568358	      0.09692261
      2.49000000	      0.03965266	      0.02570754	      0.09756808
      2.49500000	      0.03977037	      0.02574567	      0.09755918
      2.50000000	      0.04025866	      0.02590324	      0.09806718
      2.50500000	      0.04007422	      0.02584383	      0.09820370
      2.51000000	      0.04049206	      0.02597822	      0.09878669
      2.51500000	      0.04025175	      0.02590101	      0.09911436
      2.52000000	      0.04027623	      0.02590889	      0.09882223
      2.52500000	      0.04053847	      0.02599310	      0.09928633
      2.53000000	      0.04052034	      0.02598728	      0.09934564
      2.53500000	      0.04055707	      0.02599906	      0.09919496
      2.54000000	      0.04065953	      0.02603188	      0.09964232
      2.54500000	      0.04084534	      0.02609130	      0.09999676
      2.55000000	      0.04074641	      0.02605968	      0.10002816
      2.55500000	      0.04085611	      0.02609473	      0.10054522
      2.56000000	      0.04108830	      0.02616878	      0.10092602
      2.56500000	      0.04110809	      0.02617508	      0.10054962
      2.57000000	      0.04123015	      0.02621391	      0.10071210
      2.57500000	      0.04135686	      0.02625416	      0.10097638
      2.58000000	      0.04145935	      0.02628667	      0.10119866
      2.58500000	      0.04150803	      0.02630210	      0.10126160
      2.59000000	      0.04160224	      0.02633193	      0.10146879
      2.59500000	      0.04184039	      0.02640719	      0.10221946
      2.60000000	      0.04149395	      0.02629764	      0.10148674
      2.60500000	      0.04186170	      0.02641392	      0.10220859
      2.61000000	      0.04185748	      0.02641258	      0.10214419
      2.61500000	      0.04187397	      0.02641779	      0.10204654
      2.62000000	      0.04213593	      0.02650029	      0.10279391
      2.62500000	      0.04234579	      0.02656620	      0.10336607
      2.63000000	      0.04244937	      0.02659867	      0.10328472
      2.63500000	      0.04248314	      0.02660925	      0.10338395
      2.64000000	      0.04235542	      0.02656922	      0.10341406
      2.64500000	      0.04267649	      0.02666974	      0.10383682
      2.65000000	      0.04274810	      0.02669210	      0.10395369
      2.65500000	      0.04283994	      0.02672076	      0.10456342
      2.66000000	      0.04292522	      0.02674734	      0.10457452
      2.66500000	      0.04306163	      0.02678981	      0.10463229
      2.67000000	      0.04313595	      0.02681292	      0.10498762
      2.67500000	      0.04346108	      0.02691378	      0.10538200
      2.68000000	      0.04365661	      0.02697425	      0.10581506
      2.68500000	      0.04359090	      0.02695394	      0.10583147
      2.69000000	      0.04379016	      0.02701548	      0.10621846
      2.69500000	      0.04398432	      0.02707530	      0.10667638
      2.70000000	      0.04401466	      0.02708464	      0.10645352
      2.70500000	      0.04430161	      0.02717278	      0.10714734
      2.71000000	      0.04435991	      0.02719066	      0.10747112
      2.71500000	      0.04447179	      0.02722493	      0.10759391
      2.72000000	      0.04456962	      0.02725485	      0.10766323
      2.72500000	      0.04482448	      0.02733267	      0.10802800
      2.73000000	      0.04507909	      0.02741018	      0.10882558
      2.73500000	      0.04508209	      0.02741110	      0.10906787
      2.74000000	      0.04513172	      0.02742618	      0.10885618
      2.74500000	      0.04541735	      0.02751283	      0.10939448
      2.75000000	      0.04563879	      0.02757982	      0.10968647
      2.75500000	      0.04587056	      0.02764976	      0.11022869
      2.76000000	      0.04598707	      0.02768486	      0.11070056
      2.76500000	      0.04601293	      0.02769264	      0.11061631
      2.77000000	      0.04632841	      0.02778741	      0.11082457
      2.77500000	      0.04667389	      0.02789082	      0.11144694
      2.78000000	      0.04698725	      0.02798430	      0.11210380
      2.78500000	      0.04719510	      0.02804612	      0.11213501
      2.79000000	      0.04736388	      0.02809623	      0.11247851
      2.79500000	      0.04753298	      0.02814634	      0.11269030
      2.80000000	      0.04800533	      0.02828584	      0.11341634
      2.80500000	      0.04831256	      0.02837621	      0.11378799
      2.81000000	      0.04859457	      0.02845891	      0.11396552
      2.81500000	      0.04889946	      0.02854805	      0.11447805
      2.82000000	      0.04909151	      0.02860405	      0.11484177
      2.82500000	      0.04928516	      0.02866041	      0.11518936
      2.83000000	      0.04974565	      0.02879400	      0.11629125
      2.83500000	      0.04994049	      0.02885033	      0.11642766
      2.84000000	      0.05012883	      0.02890468	      0.11661434
      2.84500000	      0.05020763	      0.02892739	      0.11690011
      2.85000000	      0.05046328	      0.02900094	      0.11712048
      2.85500000	      0.05070916	      0.02907151	      0.11759596
      2.86000000	      0.05097816	      0.02914852	      0.11787323
      2.86500000	      0.05120040	      0.02921198	      0.11849064
      2.87000000	      0.05127687	      0.02923379	      0.11839187
      2.87500000	      0.05154306	      0.02930957	      0.11871882
      2.88000000	      0.05170270	      0.02935492	      0.11890325
      2.88500000	      0.05194733	      0.02942429	      0.11952663
      2.89000000	      0.05217698	      0.02948926	      0.11991749
      2.89500000	      0.05230437	      0.02952523	      0.11977314
      2.90000000	      0.05242882	      0.02956034	      0.11987298
      2.90500000	      0.05263759	      0.02961914	      0.12048120
      2.91000000	      0.05285143	      0.02967924	      0.12038617
      2.91500000	      0.05295236	      0.02970756	      0.12070538
      2.92000000	      0.05309715	      0.02974815	      0.12102787
      2.92500000	      0.05313949	      0.02976001	      0.12111179
      2.93000000	      0.05316290	      0.02976656	      0.12125444
      2.93500000	      0.05347851	      0.02985479	      0.12156264
      2.94000000	      0.05347857	      0.02985481	      0.12163008
      2.94500000	      0.05360540	      0.02989019	      0.12181699
      2.95000000	      0.05353268	      0.02986991	      0.12172337
      2.95500000	      0.05366638	      0.02990718	      0.12193378
      2.96000000	      0.05379747	      0.02994369	      0.12212691
      2.96500000	      0.05394269	      0.02998408	      0.12227530
      2.97000000	      0.05411059	      0.03003070	      0.12237284
      2.97500000	      0.05417765	      0.03004931	      0.12252410
      2.98000000	      0.05429696	      0.03008237	      0.12272867
      2.98500000	      0.05448706	      0.03013499	      0.12273015
      2.99000000	      0.05441937	      0.03011627	      0.12293514
      2.99500000	      0.05479012	      0.03021868	      0.12324209
      3.00000000	      0.05464930	      0.03017982	      0.12266585
      3.00500000	      0.05483283	      0.03023046	      0.12308002
      3.01000000	      0.05506139	      0.03029339	      0.12367535
      3.01500000	      0.05507781	      0.03029791	      0.12366489
      3.02000000	      0.05506180	      0.03029351	      0.12355267
      3.02500000	      0.05519926	      0.03033130	      0.12375625
      3.03000000	      0.05543580	      0.03039622	      0.12416420
      3.03500000	      0.05559451	      0.03043970	      0.12451858
      3.04000000	      0.05570294	      0.03046937	      0.12458546
      3.04500000	      0.05571769	      0.03047340	      0.12434214
      3.05000000	      0.05579002	      0.03049317	      0.12460932
      3.05500000	      0.05590614	      0.03052489	      0.12482644
      3.06000000	      0.05596706	      0.03054152	      0.12488808
      3.06500000	      0.05596481	      0.03054090	      0.12505978
      3.07000000	      0.05621921	      0.03061024	      0.12520713
      3.07500000	      0.05629707	      0.03063143	      0.12527283
      3.08000000	      0.05651467	      0.03069057	      0.12561097
      3.08500000	      0.05658844	      0.03071060	      0.12579406
      3.09000000	      0.05688405	      0.03079070	      0.12600493
      3.09500000	      0.05693907	      0.03080559	      0.12637072
      3.10000000	      0.05718218	      0.03087129	      0.12671249
      3.10500000	      0.05734359	      0.03091483	      0.12670476
      3.11000000	      0.05761314	      0.03098740	      0.12701917
      3.11500000	      0.05753325	      0.03096591	      0.12699334
      3.12000000	      0.05774827	      0.03102372	      0.12734854
      3.12500000	      0.05810706	      0.03111995	      0.12778206
      3.13000000	      0.05827058	      0.03116370	      0.12793285
      3.13500000	      0.05845514	      0.03121302	      0.12783839
      3.14000000	      0.05883757	      0.03131495	      0.12839518
      3.14500000	      0.05884992	      0.03131824	      0.12851224
      3.15000000	      0.05892157	      0.03133730	      0.12880846
      3.15500000	      0.05923414	      0.03142031	      0.12923752
      3.16000000	      0.05945860	      0.03147978	      0.12907598
      3.16500000	      0.05972106	      0.03154918	      0.12986196
      3.17000000	      0.05987201	      0.03158903	      0.12988922
      3.17500000	      0.05990427	      0.03159754	      0.13001603
      3.18000000	      0.06012830	      0.03165657	      0.13023407
      3.18500000	      0.06041091	      0.03173088	      0.13062319
      3.19000000	      0.06050251	      0.03175492	      0.13092271
      3.19500000	      0.06054202	      0.03176529	      0.13062041
      3.20000000	      0.06083614	      0.03184236	      0.13117127
      3.20500000	      0.06090242	      0.03185970	      0.13120673
      3.21000000	      0.06096910	      0.03187713	      0.13126444
      3.21500000	      0.06111604	      0.03191552	      0.13145726
      3.22000000	      0.06113058	      0.03191932	      0.13179074
      3.22500000	      0.06126827	      0.03195525	      0.13214942
      3.23000000	      0.06138327	      0.03198522	      0.13185428
      3.23500000	      0.06149101	      0.03201328	      0.13196139
      3.24000000	      0.06155136	      0.03202899	      0.13225095
      3.24500000	      0.06193025	      0.03212742	      0.13240933
      3.25000000	      0.06174802	      0.03208011	      0.13202159
      3.25500000	      0.06181280	      0.03209694	      0.13219756
      3.26000000	      0.06207116	      0.03216395	      0.13240785
      3.26500000	      0.06205292	      0.03215922	      0.13268706
      3.27000000	      0.06203305	      0.03215407	      0.13252970
      3.27500000	      0.06229226	      0.03222118	      0.13278059
      3.28000000	      0.06254341	      0.03228607	      0.13314784
      3.28500000	      0.06251795	      0.03227950	      0.13305681
      3.29000000	      0.06266883	      0.03231842	      0.13318956
      3.29500000	      0.06273028	      0.03233426	      0.13332674
      3.30000000	      0.06279913	      0.03235200	      0.13347126
      3.30500000	      0.06290227	      0.03237856	      0.13361609
      3.31000000	      0.06287995	      0.03237282	      0.13379557
      3.31500000	      0.06320331	      0.03245595	      0.13427556
      3.32000000	      0.06325517	      0.03246926	      0.13429401
      3.32500000	      0.06334422	      0.03249211	      0.13409356
      3.33000000	      0.06339271	      0.03250454	      0.13437717
      3.33500000	      0.06356216	      0.03254796	      0.13446553
      3.34000000	      0.06368423	      0.03257919	      0.13452017
      3.34500000	      0.06371088	      0.03258601	      0.13469597
      3.35000000	      0.06368210	      0.03257865	      0.13475767
      3.35500000	      0.06389816	      0.03263387	      0.13497097
      3.36000000	      0.06408753	      0.03268219	      0.13516313
      3.36500000	      0.06415919	      0.03270046	      0.13480643
      3.37000000	      0.06431945	      0.03274127	      0.13516219
      3.37500000	      0.06429998	      0.03273632	      0.13503382
      3.38000000	      0.06453444	      0.03279594	      0.13529809
      3.38500000	      0.06479580	      0.03286229	      0.13539415
      3.39000000	      0.06459629	      0.03281166	      0.13560015
      3.39500000	      0.06463757	      0.03282214	      0.13558541
      3.40000000	      0.06490222	      0.03288926	      0.13589347
      3.40500000	      0.06515021	      0.03295204	      0.13625730
      3.41000000	      0.06530520	      0.03299121	      0.13657769
      3.41500000	      0.06520617	      0.03296619	      0.13645151
      3.42000000	      0.06542697	      0.03302196	      0.13688138
      3.42500000	      0.06543914	      0.03302503	      0.13671529
      3.43000000	      0.06543767	      0.03302465	      0.13691399
      3.43500000	      0.06552613	      0.03304697	      0.13685953
      3.44000000	      0.06574155	      0.03310125	      0.13710359
      3.44500000	      0.06582077	      0.03312118	      0.13737842
      3.45000000	      0.06582833	      0.03312309	      0.13726872
      3.45500000	      0.06571669	      0.03309499	      0.13746600
      3.46000000	      0.06581295	      0.03311922	      0.13729081
      3.46500000	      0.06601995	      0.03317126	      0.13759083
      3.47000000	      0.06597460	      0.03315987	      0.13753573
      3.47500000	      0.06577693	      0.03311015	      0.13707107
      3.48000000	      0.06590818	      0.03314317	      0.13729188
      3.48500000	      0.06584686	      0.03312775	      0.13729674
      3.49000000	      0.06575734	      0.03310522	      0.13727765
      3.49500000	      0.06596195	      0.03315669	      0.13757565
      3.50000000	      0.06610003	      0.03319137	      0.13783367
      3.50500000	      0.06605120	      0.03317911	      0.13763757
      3.51000000	      0.06625788	      0.03323098	      0.13779451
      3.51500000	      0.06616765	      0.03320835	      0.13733574
      3.52000000	      0.06601910	      0.03317105	      0.13745346
      3.52500000	      0.06587239	      0.03313417	      0.13736969
      3.53000000	      0.06586470	      0.03313224	      0.13733350
      3.53500000	      0.06593688	      0.03315038	      0.13732432
      3.54000000	      0.06593568	      0.03315008	      0.13762994
      3.54500000	      0.06594825	      0.03315324	      0.13742431
      3.55000000	      0.06620886	      0.03321868	      0.13779148
      3.55500000	      0.06613383	      0.03319986	      0.13770716
      3.56000000	      0.06610701	      0.03319312	      0.13754523
      3.56500000	      0.06606258	      0.03318197	      0.13763203
      3.57000000	      0.06607555	      0.03318523	      0.13758209
      3.57500000	      0.06600657	      0.03316790	      0.13744503
      3.58000000	      0.06603940	      0.03317615	      0.13757295
      3.58500000	      0.06632222	      0.03324711	      0.13782899
      3.59000000	      0.06618361	      0.03321235	      0.13768050
      3.59500000	      0.06627066	      0.03323418	      0.13760591
      3.60000000	      0.06631015	      0.03324409	      0.13785144
      3.60500000	      0.06639502	      0.03326535	      0.13786596
      3.61000000	      0.06629414	      0.03324007	      0.13773671
      3.61500000	      0.06638854	      0.03326373	      0.13800145
      3.62000000	      0.06662976	      0.03332410	      0.13815043
      3.62500000	      0.06651811	      0.03329617	      0.13819113
      3.63000000	      0.06648648	      0.03328826	      0.13809586
      3.63500000	      0.06647611	      0.03328566	      0.13797760
      3.64000000	      0.06667190	      0.03333464	      0.13797505
      3.64500000	      0.06635031	      0.03325415	      0.13764429
      3.65000000	      0.06642875	      0.03327380	      0.13774705
      3.65500000	      0.06665947	      0.03333153	      0.13802038
      3.66000000	      0.06639962	      0.03326650	      0.13797006
      3.66500000	      0.06654046	      0.03330177	      0.13822082
      3.67000000	      0.06659870	      0.03331634	      0.13822984
      3.67500000	      0.06661467	      0.03332033	      0.13821076
      3.68000000	      0.06671339	      0.03334501	      0.13818541
      3.68500000	      0.06669288	      0.03333989	      0.13827674
      3.69000000	      0.06701872	      0.03342123	      0.13842088
      3.69500000	      0.06679560	      0.03336555	      0.13827664
      3.70000000	      0.06682648	      0.03337326	      0.13837359
      3.70500000	      0.06684384	      0.03337760	      0.13833884
      3.71000000	      0.06713421	      0.03345001	      0.13849771
      3.71500000	      0.06695067	      0.03340426	      0.13842340
      3.72000000	      0.06696788	      0.03340855	      0.13839804
      3.72500000	      0.06695762	      0.03340599	      0.13838348
      3.73000000	      0.06697121	      0.03340938	      0.13831483
      3.73500000	      0.06695220	      0.03340464	      0.13835969
      3.74000000	      0.06696363	      0.03340749	      0.13839706
      3.74500000	      0.06720369	      0.03346732	      0.13849149
      3.75000000	      0.06692471	      0.03339778	      0.13839278
      3.75500000	      0.06691101	      0.03339436	      0.13835259
      3.76000000	      0.06680380	      0.03336760	      0.13835449
      3.76500000	      0.06704855	      0.03342867	      0.13851520
      3.77000000	      0.06685874	      0.03338132	      0.13861179
      3.77500000	      0.06687882	      0.03338633	      0.13864425
      3.78000000	      0.06716741	      0.03345829	      0.13890293
      3.78500000	      0.06688145	      0.03338699	      0.13874966
      3.79000000	      0.06713567	      0.03345038	      0.13881520
      3.79500000	      0.06686836	      0.03338372	      0.13877937
      3.80000000	      0.06695461	      0.03340524	      0.13880307
      3.80500000	      0.06694645	      0.03340321	      0.13873291
      3.81000000	      0.06701036	      0.03341915	      0.13869377
      3.81500000	      0.06706755	      0.03343340	      0.13867224
      3.82000000	      0.06706160	      0.03343192	      0.13891120
      3.82500000	      0.06688607	      0.03338814	      0.13836580
      3.83000000	      0.06675751	      0.03335604	      0.13825119
      3.83500000	      0.06695854	      0.03340622	      0.13856966
      3.84000000	      0.06672110	      0.03334694	      0.13826033
      3.84500000	      0.06674011	      0.03335169	      0.13824079
      3.85000000	      0.06671507	      0.03334543	      0.13819422
      3.85500000	      0.06675915	      0.03335645	      0.13845657
      3.86000000	      0.06673459	      0.03335031	      0.13818665
      3.86500000	      0.06691302	      0.03339487	      0.13858948
      3.87000000	      0.06703183	      0.03342450	      0.13856633
      3.87500000	      0.06679589	      0.03336562	      0.13856793
      3.88000000	      0.06684611	      0.03337816	      0.13857446
      3.88500000	      0.06675462	      0.03335532	      0.13855697
      3.89000000	      0.06676844	      0.03335877	      0.13867865
      3.89500000	      0.06693143	      0.03339946	      0.13880261
      3.90000000	      0.06700895	      0.03341879	      0.13874743
      3.90500000	      0.06680953	      0.03336903	      0.13875867
      3.91000000	      0.06688981	      0.03338907	      0.13879884
      3.91500000	      0.06690848	      0.03339373	      0.13881780
      3.92000000	      0.06698481	      0.03341277	      0.13881410
      3.92500000	      0.06668157	      0.03333706	      0.13865220
      3.93000000	      0.06649504	      0.03329040	      0.13845268
      3.93500000	      0.06652059	      0.03329679	      0.13851114
      3.94000000	      0.06646722	      0.03328343	      0.13839361
      3.94500000	      0.06649199	      0.03328964	      0.13834855
      3.95000000	      0.06649048	      0.03328926	      0.13831721
      3.95500000	      0.06638859	      0.03326374	      0.13821905
      3.96000000	      0.06637965	      0.03326150	      0.13819257
      3.96500000	      0.06653490	      0.03330038	      0.13833004
      3.97000000	      0.06636466	      0.03325775	      0.13845657
      3.97500000	      0.06632225	      0.03324712	      0.13843324
      3.98000000	      0.06624769	      0.03322842	      0.13826268
      3.98500000	      0.06626299	      0.03323226	      0.13807236
      3.99000000	      0.06639144	      0.03326446	      0.13823004
      3.99500000	      0.06620489	      0.03321769	      0.13801722
      4.00000000	      0.06632230	      0.03324713	      0.13794382
      4.00500000	      0.06646181	      0.03328208	      0.13831244
      4.01000000	      0.06597737	      0.03316056	      0.13798583
      4.01500000	      0.06597584	      0.03316018	      0.13788742
      4.02000000	      0.06601304	      0.03316952	      0.13793377
      4.02500000	      0.06606605	      0.03318284	      0.13782244
      4.03000000	      0.06619136	      0.03321429	      0.13798961
      4.03500000	      0.06621430	      0.03322005	      0.13796500
      4.04000000	      0.06629506	      0.03324030	      0.13807800
      4.04500000	      0.06614271	      0.03320209	      0.13809328
      4.05000000	      0.06616798	      0.03320843	      0.13812624
      4.05500000	      0.06624582	      0.03322795	      0.13815462
      4.06000000	      0.06630411	      0.03324257	      0.13826025
      4.06500000	      0.06628088	      0.03323675	      0.13819592
      4.07000000	      0.06624694	      0.03322824	      0.13799925
      4.07500000	      0.06630597	      0.03324304	      0.13790656
      4.08000000	      0.06619854	      0.03321609	      0.13790524
      4.08500000	      0.06631129	      0.03324437	      0.13780897
      4.09000000	      0.06623816	      0.03322603	      0.13792713
      4.09500000	      0.06622023	      0.03322154	      0.13792862
      4.10000000	      0.06611355	      0.03319477	      0.13764352
      4.10500000	      0.06613628	      0.03320047	      0.13762871
      4.11000000	      0.06590667	      0.03314279	      0.13760852
      4.11500000	      0.06626813	      0.03323355	      0.13772351
      4.12000000	      0.06614200	      0.03320191	      0.13757728
      4.12500000	      0.06615276	      0.03320461	      0.13769393
      4.13000000	      0.06616142	      0.03320678	      0.13777790
      4.13500000	      0.06620335	      0.03321730	      0.13793560
      4.14000000	      0.06628457	      0.03323767	      0.13794892
      4.14500000	      0.06623629	      0.03322556	      0.13779581
      4.15000000	      0.06620370	      0.03321739	      0.13770040
      4.15500000	      0.06630422	      0.03324260	      0.13798689
      4.16000000	      0.06633454	      0.03325020	      0.13781463
      4.16500000	      0.06654538	      0.03330300	      0.13793053
      4.17000000	      0.06626835	      0.03323360	      0.13763101
      4.17500000	      0.06625909	      0.03323128	      0.13765942
      4.18000000	      0.06626621	      0.03323307	      0.13766647
      4.18500000	      0.06615503	      0.03320518	      0.13753978
      4.19000000	      0.06590344	      0.03314198	      0.13731859
      4.19500000	      0.06603646	      0.03317541	      0.13756777
      4.20000000	      0.06574662	      0.03310252	      0.13713547
      4.20500000	      0.06569243	      0.03308888	      0.13693945
      4.21000000	      0.06592615	      0.03314769	      0.13736588
      4.21500000	      0.06586476	      0.03313225	      0.13682005
      4.22000000	      0.06543937	      0.03302508	      0.13647516
      4.22500000	      0.06549744	      0.03303973	      0.13651485
      4.23000000	      0.06545986	      0.03303025	      0.13621123
      4.23500000	      0.06530238	      0.03299050	      0.13615743
      4.24000000	      0.06550871	      0.03304258	      0.13608382
      4.24500000	      0.06548405	      0.03303636	      0.13612034
      4.25000000	      0.06505285	      0.03292741	      0.13577608
      4.25500000	      0.06520221	      0.03296519	      0.13579508
      4.26000000	      0.06506471	      0.03293041	      0.13572119
      4.26500000	      0.06526397	      0.03298080	      0.13586352
      4.27000000	      0.06505166	      0.03292711	      0.13555926
      4.27500000	      0.06503414	      0.03292267	      0.13551911
      4.28000000	      0.06463112	      0.03282050	      0.13524321
      4.28500000	      0.06488277	      0.03288434	      0.13543946
      4.29000000	      0.06468071	      0.03283309	      0.13510255
      4.29500000	      0.06474104	      0.03284840	      0.13521565
      4.30000000	      0.06460008	      0.03281262	      0.13514472
      4.30500000	      0.06465207	      0.03282582	      0.13518402
      4.31000000	      0.06441121	      0.03276462	      0.13481574
      4.31500000	      0.06434322	      0.03274732	      0.13466419
      4.32000000	      0.06432243	      0.03274203	      0.13475865
      4.32500000	      0.06421818	      0.03271548	      0.13464497
      4.33000000	      0.06417992	      0.03270574	      0.13458172
      4.33500000	      0.06411159	      0.03268832	      0.13418825
      4.34000000	      0.06420789	      0.03271286	      0.13455735
      4.34500000	      0.06403513	      0.03266883	      0.13432132
      4.35000000	      0.06399396	      0.03265832	      0.13395923
      4.35500000	      0.06402835	      0.03266710	      0.13395140
      4.36000000	      0.06404132	      0.03267040	      0.13374508
      4.36500000	      0.06397259	      0.03265287	      0.13328824
      4.37000000	      0.06383170	      0.03261689	      0.13329352
      4.37500000	      0.06359326	      0.03255592	      0.13311285
      4.38000000	      0.06383423	      0.03261754	      0.13322358
      4.38500000	      0.06373789	      0.03259292	      0.13288793
      4.39000000	      0.06369834	      0.03258280	      0.13275195
      4.39500000	      0.06363637	      0.03256695	      0.13261468
      4.40000000	      0.06360295	      0.03255840	      0.13243815
      4.40500000	      0.06352682	      0.03253890	      0.13237242
      4.41000000	      0.06332536	      0.03248727	      0.13223349
      4.41500000	      0.06314583	      0.03244118	      0.13177958
      4.42000000	      0.06286215	      0.03236823	      0.13128456
      4.42500000	      0.06263218	      0.03230897	      0.13084668
      4.43000000	      0.06249127	      0.03227261	      0.13098502
      4.43500000	      0.06230930	      0.03222559	      0.13035206
      4.44000000	      0.06208024	      0.03216630	      0.13019640
      4.44500000	      0.06204153	      0.03215627	      0.13014770
      4.45000000	      0.06192367	      0.03212571	      0.12931698
      4.45500000	      0.06153539	      0.03202483	      0.12886934
      4.46000000	      0.06165736	      0.03205656	      0.12884490
      4.46500000	      0.06118905	      0.03193458	      0.12761127
      4.47000000	      0.06116654	      0.03192871	      0.12765712
      4.47500000	      0.06074962	      0.03181971	      0.12751224
      4.48000000	      0.06074955	      0.03181969	      0.12680042
      4.48500000	      0.06051611	      0.03175849	      0.12691883
      4.49000000	      0.06024171	      0.03168641	      0.12622372
      4.49500000	      0.06010159	      0.03164954	      0.12613521
      4.50000000	      0.05980321	      0.03157088	      0.12565627
      4.50500000	      0.05969032	      0.03154106	      0.12526359
      4.51000000	      0.05950522	      0.03149212	      0.12475256
      4.51500000	      0.05951330	      0.03149426	      0.12443552
      4.52000000	      0.05947312	      0.03148363	      0.12438385
      4.52500000	      0.05913787	      0.03139476	      0.12346752
      4.53000000	      0.05894410	      0.03134329	      0.12356339
      4.53500000	      0.05895265	      0.03134556	      0.12316183
      4.54000000	      0.05877620	      0.03129862	      0.12297274
      4.54500000	      0.05877635	      0.03129866	      0.12289320
      4.55000000	      0.05859262	      0.03124970	      0.12276701
      4.55500000	      0.05856526	      0.03124240	      0.12245230
      4.56000000	      0.05823886	      0.03115522	      0.12176834
      4.56500000	      0.05834943	      0.03118478	      0.12199512
      4.57000000	      0.05817989	      0.03113944	      0.12119745
      4.57500000	      0.05782611	      0.03104462	      0.12112796
      4.58000000	      0.05802767	      0.03109868	      0.12134302
      4.58500000	      0.05796110	      0.03108084	      0.12110086
      4.59000000	      0.05754502	      0.03096908	      0.12059776
      4.59500000	      0.05776232	      0.03102749	      0.12073815
      4.60000000	      0.05767935	      0.03100520	      0.12019219
      4.60500000	      0.05760321	      0.03098473	      0.12007313
      4.61000000	      0.05746141	      0.03094657	      0.11981440
      4.61500000	      0.05756828	      0.03097534	      0.11964403
      4.62000000	      0.05763028	      0.03099201	      0.11961330
      4.62500000	      0.05722008	      0.03088152	      0.11907698
      4.63000000	      0.05722187	      0.03088200	      0.11883996
      4.63500000	      0.05736600	      0.03092087	      0.11921024
      4.64000000	      0.05706778	      0.03084039	      0.11905010
      4.64500000	      0.05704652	      0.03083465	      0.11871368
      4.65000000	      0.05692397	      0.03080151	      0.11835680
      4.65500000	      0.05700339	      0.03082299	      0.11840539
      4.66000000	      0.05699570	      0.03082091	      0.11823939
      4.66500000	      0.05695650	      0.03081031	      0.11819597
      4.67000000	      0.05685672	      0.03078331	      0.11838502
      4.67500000	      0.05674875	      0.03075406	      0.11806231
      4.68000000	      0.05677196	      0.03076035	      0.11814243
      4.68500000	      0.05660738	      0.03071573	      0.11785819
      4.69000000	      0.05637051	      0.03065140	      0.11779785
      4.69500000	      0.05635629	      0.03064754	      0.11795609
      4.70000000	      0.05615261	      0.03059210	      0.11761195
      4.70500000	      0.05606835	      0.03056914	      0.11748483
      4.71000000	      0.05611908	      0.03058297	      0.11714960
      4.71500000	      0.05589073	      0.03052068	      0.11685066
      4.72000000	      0.05569899	      0.03046829	      0.11694180
      4.72500000	      0.05560470	      0.03044249	      0.11659156
      4.73000000	      0.05554237	      0.03042542	      0.11633168
      4.73500000	      0.05522826	      0.03033927	      0.11618673
      4.74000000	      0.05542207	      0.03039245	      0.11617201
      4.74500000	      0.05517985	      0.03032597	      0.11572840
      4.75000000	      0.05504728	      0.03028951	      0.11572792
      4.75500000	      0.05470601	      0.03019548	      0.11509304
      4.76000000	      0.05473051	      0.03020224	      0.11513974
      4.76500000	      0.05441412	      0.03011481	      0.11498171
      4.77000000	      0.05427702	      0.03007685	      0.11462966
      4.77500000	      0.05381394	      0.02994827	      0.11440306
      4.78000000	      0.05388041	      0.02996676	      0.11408298
      4.78500000	      0.05369198	      0.02991432	      0.11384492
      4.79000000	      0.05343708	      0.02984322	      0.11346430
      4.79500000	      0.05322887	      0.02978503	      0.11336627
      4.80000000	      0.05287177	      0.02968495	      0.11296513
      4.80500000	      0.05255122	      0.02959482	      0.11249243
      4.81000000	      0.05264096	      0.02962008	      0.11249066
      4.81500000	      0.05254859	      0.02959408	      0.11151143
      4.82000000	      0.05193571	      0.02942100	      0.11127795
      4.82500000	      0.05171017	      0.02935705	      0.11109219
      4.83000000	      0.05130675	      0.02924231	      0.11023646
      4.83500000	      0.05171628	      0.02935878	      0.11073470
      4.84000000	      0.05118737	      0.02920827	      0.10974075
      4.84500000	      0.05078776	      0.02909403	      0.10942344
      4.85000000	      0.05070068	      0.02906908	      0.10911242
      4.85500000	      0.05052819	      0.02901959	      0.10874084
      4.86000000	      0.05055230	      0.02902651	      0.10848897
      4.86500000	      0.05023370	      0.02893490	      0.10776119
      4.87000000	      0.05008438	      0.02889186	      0.10797307
      4.87500000	      0.04992319	      0.02884533	      0.10749811
      4.88000000	      0.04961285	      0.02875554	      0.10722883
      4.88500000	      0.04931753	      0.02866982	      0.10718723
      4.89000000	      0.04958722	      0.02874811	      0.10654961
      4.89500000	      0.04943188	      0.02870304	      0.10619268
      4.90000000	      0.04880679	      0.02852098	      0.10626492
      4.90500000	      0.04899096	      0.02857474	      0.10612174
      4.91000000	      0.04850076	      0.02843143	      0.10547529
      4.91500000	      0.04849468	      0.02842964	      0.10535464
      4.92000000	      0.04820325	      0.02834409	      0.10455344
      4.92500000	      0.04825697	      0.02835988	      0.10471364
      4.93000000	      0.04790895	      0.02825743	      0.10480340
      4.93500000	      0.04769431	      0.02819406	      0.10402940
      4.94000000	      0.04757254	      0.02815805	      0.10394197
      4.94500000	      0.04747303	      0.02812858	      0.10356268
      4.95000000	      0.04722260	      0.02805429	      0.10340841
      4.95500000	      0.04723222	      0.02805715	      0.10296057
      4.96000000	      0.05041065	      0.02898582	      0.10271437
      4.96500000	      0.05028750	      0.02895039	      0.10269118
      4.97000000	      0.05001882	      0.02887295	      0.10242801
      4.97500000	      0.04998264	      0.02886250	      0.10231532
      4.98000000	      0.04997233	      0.02885953	      0.10176283
      4.98500000	      0.04974223	      0.02879301	      0.10188694
      4.99000000	      0.04964227	      0.02876406	      0.10170428
      4.99500000	      0.04962209	      0.02875821	      0.10133085
      5.00000000	      0.04953961	      0.02873430	      0.10105694
      5.00500000	      0.04929315	      0.02866274	      0.10095125
      5.01000000	      0.04915229	      0.02862175	      0.10062456
      5.01500000	      0.04913003	      0.02861527	      0.10055525
      5.02000000	      0.04883158	      0.02852823	      0.09989190
      5.02500000	      0.04867101	      0.02848128	      0.10005236
      5.03000000	      0.04850581	      0.02843291	      0.09968211
      5.03500000	      0.04824380	      0.02835601	      0.09902186
      5.04000000	      0.04801306	      0.02828812	      0.09922887
      5.04500000	      0.04793885	      0.02826625	      0.09906944
      5.05000000	      0.04786958	      0.02824582	      0.09867407
      5.05500000	      0.04754210	      0.02814904	      0.09832581
      5.06000000	      0.04718577	      0.02804335	      0.09787310
      5.06500000	      0.04719123	      0.02804497	      0.09767731
      5.07000000	      0.04665341	      0.02788471	      0.09685997
      5.07500000	      0.04704764	      0.02800227	      0.09728890
      5.08000000	      0.04650788	      0.02784118	      0.09684066
      5.08500000	      0.04655461	      0.02785516	      0.09654726
      5.09000000	      0.04616498	      0.02773835	      0.09625480
      5.09500000	      0.04599231	      0.02768643	      0.09568554
      5.10000000	      0.04599188	      0.02768630	      0.09571786
      5.10500000	      0.04560533	      0.02756971	      0.09552055
      5.11000000	      0.04574655	      0.02761236	      0.09527861
      5.11500000	      0.04536095	      0.02749574	      0.09461559
      5.12000000	      0.04514727	      0.02743090	      0.09475539
      5.12500000	      0.04488544	      0.02735125	      0.09418052
      5.13000000	      0.04500508	      0.02738767	      0.09412241
      5.13500000	      0.04502009	      0.02739224	      0.09396311
      5.14000000	      0.04461883	      0.02726990	      0.09334570
      5.14500000	      0.04408520	      0.02710633	      0.09275629
      5.15000000	      0.04400248	      0.02708089	      0.09264735
      5.15500000	      0.04373008	      0.02699694	      0.09241791
      5.16000000	      0.04352595	      0.02693385	      0.09173410
      5.16500000	      0.04353669	      0.02693718	      0.09148782
      5.17000000	      0.04342474	      0.02690252	      0.09151509
      5.17500000	      0.04319813	      0.02683223	      0.09108581
      5.18000000	      0.04291938	      0.02674552	      0.09035479
      5.18500000	      0.04267096	      0.02666801	      0.09016362
      5.19000000	      0.04252829	      0.02662339	      0.09005190
      5.19500000	      0.04233869	      0.02656398	      0.08989523
      5.20000000	      0.04207317	      0.02648055	      0.08883072
      5.20500000	      0.04191997	      0.02643229	      0.08901225
      5.21000000	      0.04172337	      0.02637024	      0.08868823
      5.21500000	      0.04135722	      0.02625427	      0.08787768
      5.22000000	      0.04137773	      0.02626078	      0.08785749
      5.22500000	      0.04124091	      0.02621733	      0.08770678
      5.23000000	      0.04089481	      0.02610709	      0.08738125
      5.23500000	      0.04073390	      0.02605568	      0.08635710
      5.24000000	      0.04047392	      0.02597239	      0.08615969
      5.24500000	      0.04027206	      0.02590755	      0.08607553
      5.25000000	      0.03998848	      0.02581617	      0.08585651
      5.25500000	      0.03999968	      0.02581978	      0.08555632
      5.26000000	      0.03949413	      0.02565610	      0.08460422
      5.26500000	      0.03938781	      0.02562154	      0.08401132
      5.27000000	      0.03918144	      0.02555434	      0.08381145
      5.27500000	      0.03911921	      0.02553403	      0.08340707
      5.28000000	      0.03898750	      0.02549101	      0.08297506
      5.28500000	      0.03863524	      0.02537559	      0.08230252
      5.29000000	      0.03848940	      0.02532765	      0.08210513
      5.29500000	      0.03840659	      0.02530039	      0.08149852
      5.30000000	      0.03825583	      0.02525069	      0.08154455
      5.30500000	      0.03794201	      0.02514691	      0.08078062
      5.31000000	      0.03806062	      0.02518618	      0.08080424
      5.31500000	      0.03791785	      0.02513890	      0.08040745
      5.32000000	      0.03765171	      0.02505052	      0.08002469
      5.32500000	      0.03752455	      0.02500818	      0.07985757
      5.33000000	      0.03751532	      0.02500511	      0.07944973
      5.33500000	      0.03741366	      0.02497120	      0.07926849
      5.34000000	      0.03716879	      0.02488935	      0.07903842
      5.34500000	      0.03706349	      0.02485407	      0.07872784
      5.35000000	      0.03722153	      0.02490700	      0.07834490
      5.35500000	      0.03732734	      0.02494238	      0.07804538
      5.36000000	      0.03692286	      0.02480688	      0.07752742
      5.36500000	      0.03690817	      0.02480194	      0.07737040
      5.37000000	      0.03663831	      0.02471110	      0.07665397
      5.37500000	      0.03641153	      0.02463451	      0.07638911
      5.38000000	      0.03666890	      0.02472142	      0.07644719
      5.38500000	      0.03654825	      0.02468071	      0.07602173
      5.39000000	      0.03625697	      0.02458217	      0.07559728
      5.39500000	      0.03619654	      0.02456167	      0.07549280
      5.40000000	      0.03616707	      0.02455167	      0.07520732
      5.40500000	      0.03598039	      0.02448823	      0.07472251
      5.41000000	      0.03588475	      0.02445566	      0.07458629
      5.41500000	      0.03592196	      0.02446833	      0.07459631
      5.42000000	      0.03582066	      0.02443381	      0.07439448
      5.42500000	      0.03572256	      0.02440033	      0.07381131
      5.43000000	      0.03554465	      0.02433949	      0.07352131
      5.43500000	      0.03546225	      0.02431126	      0.07314745
      5.44000000	      0.03538464	      0.02428465	      0.07291367
      5.44500000	      0.03522931	      0.02423129	      0.07228313
      5.45000000	      0.03521221	      0.02422541	      0.07186938
      5.45500000	      0.03524390	      0.02423630	      0.07148593
      5.46000000	      0.03510529	      0.02418860	      0.07146684
      5.46500000	      0.03488739	      0.02411341	      0.07105334
      5.47000000	      0.03476733	      0.02407188	      0.07049974
      5.47500000	      0.03482126	      0.02409054	      0.07021631
      5.48000000	      0.03462278	      0.02402179	      0.06977824
      5.48500000	      0.03402075	      0.02381202	      0.06919854
      5.49000000	      0.03403109	      0.02381564	      0.06864813
      5.49500000	      0.03395167	      0.02378784	      0.06849986
      5.50000000	      0.03392270	      0.02377769	      0.06816348
