Model Marker Errors from IK
version=1
nRows=701
nColumns=4
inDegrees=no
endheader
time	total_squared_error	marker_error_RMS	marker_error_max
      1.25000000	      0.03386221	      0.02375647	      0.06415584
      1.25500000	      0.03379693	      0.02373357	      0.06438411
      1.26000000	      0.03388090	      0.02376303	      0.06444659
      1.26500000	      0.03404964	      0.02382213	      0.06451873
      1.27000000	      0.03416065	      0.02386093	      0.06473691
      1.27500000	      0.03423328	      0.02388629	      0.06482334
      1.28000000	      0.03427038	      0.02389922	      0.06495708
      1.28500000	      0.03423422	      0.02388662	      0.06487320
      1.29000000	      0.03426553	      0.02389753	      0.06521677
      1.29500000	      0.03436128	      0.02393090	      0.06529359
      1.30000000	      0.03458779	      0.02400965	      0.06544241
      1.30500000	      0.03472006	      0.02405551	      0.06557883
      1.31000000	      0.03487339	      0.02410857	      0.06576135
      1.31500000	      0.03494781	      0.02413428	      0.06587112
      1.32000000	      0.03500929	      0.02415550	      0.06635200
      1.32500000	      0.03536951	      0.02427945	      0.06647969
      1.33000000	      0.03524996	      0.02423838	      0.06668886
      1.33500000	      0.03555215	      0.02434206	      0.06681028
      1.34000000	      0.03567943	      0.02438559	      0.06702895
      1.34500000	      0.03561592	      0.02436388	      0.06715952
      1.35000000	      0.03559908	      0.02435812	      0.06725918
      1.35500000	      0.03594908	      0.02447757	      0.06742860
      1.36000000	      0.03614749	      0.02454502	      0.06749695
      1.36500000	      0.03613224	      0.02453985	      0.06778904
      1.37000000	      0.03612042	      0.02453583	      0.06789464
      1.37500000	      0.03637526	      0.02462223	      0.06807223
      1.38000000	      0.03665146	      0.02471553	      0.06843165
      1.38500000	      0.03677456	      0.02475701	      0.06831004
      1.39000000	      0.03668814	      0.02472790	      0.06836974
      1.39500000	      0.03683842	      0.02477849	      0.06859513
      1.40000000	      0.03700306	      0.02483380	      0.06883128
      1.40500000	      0.03703159	      0.02484337	      0.06882660
      1.41000000	      0.03722691	      0.02490880	      0.06908541
      1.41500000	      0.03701798	      0.02483881	      0.06906420
      1.42000000	      0.03720526	      0.02490156	      0.06917810
      1.42500000	      0.03743519	      0.02497839	      0.06956542
      1.43000000	      0.03748236	      0.02499412	      0.06967663
      1.43500000	      0.03769743	      0.02506572	      0.06973902
      1.44000000	      0.03771922	      0.02507297	      0.06995074
      1.44500000	      0.03774871	      0.02508276	      0.06995893
      1.45000000	      0.03776261	      0.02508738	      0.06991887
      1.45500000	      0.03784430	      0.02511451	      0.06989590
      1.46000000	      0.03808237	      0.02519338	      0.07019917
      1.46500000	      0.03799193	      0.02516344	      0.07014114
      1.47000000	      0.03831472	      0.02527012	      0.07022476
      1.47500000	      0.03833571	      0.02527704	      0.06997450
      1.48000000	      0.03827222	      0.02525610	      0.06996342
      1.48500000	      0.03829782	      0.02526454	      0.06995370
      1.49000000	      0.03853053	      0.02534118	      0.07009860
      1.49500000	      0.03883321	      0.02544052	      0.07017885
      1.50000000	      0.03887284	      0.02545350	      0.07046240
      1.50500000	      0.03911362	      0.02553221	      0.07052069
      1.51000000	      0.03930024	      0.02559305	      0.07050749
      1.51500000	      0.03912916	      0.02553728	      0.07077102
      1.52000000	      0.03934599	      0.02560794	      0.07086084
      1.52500000	      0.03959193	      0.02568785	      0.07115756
      1.53000000	      0.03988778	      0.02578365	      0.07158740
      1.53500000	      0.04007883	      0.02584532	      0.07157874
      1.54000000	      0.04023795	      0.02589657	      0.07179087
      1.54500000	      0.04043978	      0.02596144	      0.07183330
      1.55000000	      0.04078130	      0.02607083	      0.07224373
      1.55500000	      0.04101059	      0.02614402	      0.07257232
      1.56000000	      0.04123236	      0.02621461	      0.07288786
      1.56500000	      0.04157715	      0.02632399	      0.07329718
      1.57000000	      0.04170216	      0.02636353	      0.07349193
      1.57500000	      0.04205067	      0.02647347	      0.07360164
      1.58000000	      0.04218391	      0.02651538	      0.07384648
      1.58500000	      0.04266243	      0.02666534	      0.07418952
      1.59000000	      0.04295592	      0.02675690	      0.07455229
      1.59500000	      0.04353453	      0.02693651	      0.07497317
      1.60000000	      0.04386403	      0.02703826	      0.07527453
      1.60500000	      0.04432189	      0.02717900	      0.07588433
      1.61000000	      0.04464680	      0.02727844	      0.07591283
      1.61500000	      0.04507686	      0.02740951	      0.07597111
      1.62000000	      0.04548664	      0.02753381	      0.07652319
      1.62500000	      0.04560407	      0.02756933	      0.07674697
      1.63000000	      0.04597027	      0.02767980	      0.07676714
      1.63500000	      0.04623482	      0.02775933	      0.07726937
      1.64000000	      0.04661928	      0.02787450	      0.07731978
      1.64500000	      0.04702319	      0.02799500	      0.07791597
      1.65000000	      0.04699559	      0.02798678	      0.07767410
      1.65500000	      0.04746068	      0.02812492	      0.07790325
      1.66000000	      0.04744570	      0.02812048	      0.07825833
      1.66500000	      0.04790608	      0.02825659	      0.07818055
      1.67000000	      0.04815158	      0.02832890	      0.07846887
      1.67500000	      0.04832001	      0.02837840	      0.07871465
      1.68000000	      0.04865678	      0.02847712	      0.07896515
      1.68500000	      0.04902941	      0.02858595	      0.07959281
      1.69000000	      0.04921996	      0.02864145	      0.07928960
      1.69500000	      0.04950067	      0.02872301	      0.07963899
      1.70000000	      0.04979335	      0.02880780	      0.07994049
      1.70500000	      0.05048563	      0.02900736	      0.08032127
      1.71000000	      0.05068281	      0.02906395	      0.08063641
      1.71500000	      0.05106265	      0.02917266	      0.08108169
      1.72000000	      0.05225275	      0.02951066	      0.08146517
      1.72500000	      0.05198154	      0.02943398	      0.08152066
      1.73000000	      0.05236444	      0.02954218	      0.08190354
      1.73500000	      0.05279055	      0.02966214	      0.08291811
      1.74000000	      0.05328083	      0.02979956	      0.08252442
      1.74500000	      0.05355314	      0.02987561	      0.08244588
      1.75000000	      0.05362060	      0.02989442	      0.08274132
      1.75500000	      0.05348165	      0.02985567	      0.08267497
      1.76000000	      0.05377659	      0.02993788	      0.08297041
      1.76500000	      0.05397405	      0.02999279	      0.08326163
      1.77000000	      0.05418394	      0.03005105	      0.08324634
      1.77500000	      0.05425308	      0.03007022	      0.08321703
      1.78000000	      0.05469149	      0.03019147	      0.08344454
      1.78500000	      0.05502732	      0.03028402	      0.08390034
      1.79000000	      0.05546374	      0.03040388	      0.08386688
      1.79500000	      0.05585217	      0.03051015	      0.08459683
      1.80000000	      0.05618237	      0.03060021	      0.08452663
      1.80500000	      0.05670992	      0.03074354	      0.08481507
      1.81000000	      0.05702045	      0.03082760	      0.08497159
      1.81500000	      0.05748364	      0.03095256	      0.08583597
      1.82000000	      0.05849728	      0.03122426	      0.08568594
      1.82500000	      0.05861219	      0.03125492	      0.08579782
      1.83000000	      0.05958109	      0.03151219	      0.08640505
      1.83500000	      0.05926704	      0.03142903	      0.08647160
      1.84000000	      0.05922390	      0.03141759	      0.08635884
      1.84500000	      0.06031795	      0.03170645	      0.08704102
      1.85000000	      0.06056286	      0.03177076	      0.08735322
      1.85500000	      0.06063205	      0.03178890	      0.08738563
      1.86000000	      0.06142120	      0.03199510	      0.08778862
      1.86500000	      0.06167738	      0.03206176	      0.08803259
      1.87000000	      0.06251761	      0.03227941	      0.08811363
      1.87500000	      0.06284588	      0.03236404	      0.08875740
      1.88000000	      0.06286530	      0.03236904	      0.08841075
      1.88500000	      0.06306760	      0.03242108	      0.08908894
      1.89000000	      0.06358349	      0.03255341	      0.08889121
      1.89500000	      0.06385824	      0.03262367	      0.08910117
      1.90000000	      0.06453941	      0.03279721	      0.08941452
      1.90500000	      0.06488453	      0.03288478	      0.08970389
      1.91000000	      0.06581499	      0.03311973	      0.09010754
      1.91500000	      0.06565204	      0.03307870	      0.09019859
      1.92000000	      0.06609599	      0.03319036	      0.09024550
      1.92500000	      0.06705610	      0.03343055	      0.09164780
      1.93000000	      0.06793339	      0.03364852	      0.09118978
      1.93500000	      0.06671128	      0.03334449	      0.09084335
      1.94000000	      0.06842951	      0.03377117	      0.09149072
      1.94500000	      0.06920314	      0.03396153	      0.09182944
      1.95000000	      0.06926031	      0.03397556	      0.09190341
      1.95500000	      0.06941820	      0.03401426	      0.09213110
      1.96000000	      0.07037611	      0.03424814	      0.09256044
      1.96500000	      0.07149511	      0.03451934	      0.09267605
      1.97000000	      0.07107163	      0.03441696	      0.09274640
      1.97500000	      0.07182681	      0.03459933	      0.09305522
      1.98000000	      0.07270444	      0.03481007	      0.09375083
      1.98500000	      0.07312976	      0.03491174	      0.09370893
      1.99000000	      0.07348925	      0.03499744	      0.09370714
      1.99500000	      0.07407409	      0.03513642	      0.09403761
      2.00000000	      0.07450936	      0.03523950	      0.09411514
      2.00500000	      0.07498156	      0.03535099	      0.09439943
      2.01000000	      0.07529052	      0.03542375	      0.09445679
      2.01500000	      0.07574780	      0.03553116	      0.09470032
      2.02000000	      0.07576938	      0.03553622	      0.09487852
      2.02500000	      0.07718923	      0.03586763	      0.09533829
      2.03000000	      0.07747554	      0.03593409	      0.09555600
      2.03500000	      0.07741602	      0.03592029	      0.09564707
      2.04000000	      0.07826170	      0.03611595	      0.09600552
      2.04500000	      0.07889961	      0.03626284	      0.09628825
      2.05000000	      0.07901366	      0.03628904	      0.09640738
      2.05500000	      0.07976311	      0.03646073	      0.09661118
      2.06000000	      0.07967388	      0.03644033	      0.09647749
      2.06500000	      0.08054337	      0.03663863	      0.09739920
      2.07000000	      0.08088033	      0.03671519	      0.09693465
      2.07500000	      0.08077649	      0.03669162	      0.09697407
      2.08000000	      0.08157893	      0.03687342	      0.09737527
      2.08500000	      0.08192541	      0.03695164	      0.09748703
      2.09000000	      0.08212959	      0.03699766	      0.09729554
      2.09500000	      0.08252880	      0.03708746	      0.09751693
      2.10000000	      0.08360584	      0.03732868	      0.10064161
      2.10500000	      0.08318271	      0.03723410	      0.09772050
      2.11000000	      0.08272953	      0.03713254	      0.09752377
      2.11500000	      0.08383667	      0.03738018	      0.09872217
      2.12000000	      0.08368798	      0.03734702	      0.09781006
      2.12500000	      0.08488357	      0.03761285	      0.10120366
      2.13000000	      0.08354478	      0.03731505	      0.09775970
      2.13500000	      0.08431428	      0.03748651	      0.09806155
      2.14000000	      0.08461406	      0.03755309	      0.09816527
      2.14500000	      0.08464838	      0.03756070	      0.09840166
      2.15000000	      0.08494801	      0.03762712	      0.09841559
      2.15500000	      0.08531661	      0.03770867	      0.09853811
      2.16000000	      0.08551458	      0.03775239	      0.09849363
      2.16500000	      0.08582200	      0.03782019	      0.09860245
      2.17000000	      0.08629696	      0.03792470	      0.09869815
      2.17500000	      0.08677120	      0.03802876	      0.09888563
      2.18000000	      0.08694684	      0.03806723	      0.09910513
      2.18500000	      0.08748553	      0.03818497	      0.09930328
      2.19000000	      0.08796547	      0.03828957	      0.09952562
      2.19500000	      0.08840902	      0.03838598	      0.09962790
      2.20000000	      0.08864551	      0.03843729	      0.09981371
      2.20500000	      0.08904848	      0.03852455	      0.10029354
      2.21000000	      0.08941763	      0.03860432	      0.10022945
      2.21500000	      0.09005628	      0.03874194	      0.10066904
      2.22000000	      0.09050616	      0.03883859	      0.10094382
      2.22500000	      0.09123508	      0.03899467	      0.10109878
      2.23000000	      0.09198784	      0.03915521	      0.10113700
      2.23500000	      0.09214560	      0.03918877	      0.10151308
      2.24000000	      0.09265576	      0.03929711	      0.10145649
      2.24500000	      0.09319872	      0.03941208	      0.10159480
      2.25000000	      0.09350713	      0.03947724	      0.10198554
      2.25500000	      0.09397974	      0.03957688	      0.10178221
      2.26000000	      0.09458542	      0.03970420	      0.10259047
      2.26500000	      0.09510206	      0.03981249	      0.10239832
      2.27000000	      0.09632549	      0.04006775	      0.10539450
      2.27500000	      0.09576225	      0.03995044	      0.10244222
      2.28000000	      0.09619620	      0.04004085	      0.10262993
      2.28500000	      0.09683299	      0.04017316	      0.10287127
      2.29000000	      0.09711199	      0.04023100	      0.10323829
      2.29500000	      0.09787160	      0.04038803	      0.10351452
      2.30000000	      0.09860830	      0.04053975	      0.10358507
      2.30500000	      0.09896269	      0.04061254	      0.10386715
      2.31000000	      0.09953433	      0.04072966	      0.10415953
      2.31500000	      0.10032644	      0.04089141	      0.10449267
      2.32000000	      0.10061342	      0.04094985	      0.10451405
      2.32500000	      0.10133057	      0.04109553	      0.10499859
      2.33000000	      0.10173538	      0.04117754	      0.10513805
      2.33500000	      0.10264284	      0.04136078	      0.10540457
      2.34000000	      0.10320397	      0.04147368	      0.10622504
      2.34500000	      0.10446471	      0.04172623	      0.10903415
      2.35000000	      0.10388204	      0.04160970	      0.10595251
      2.35500000	      0.10488583	      0.04181025	      0.10634992
      2.36000000	      0.10547951	      0.04192841	      0.10765858
      2.36500000	      0.10568733	      0.04196970	      0.10661350
      2.37000000	      0.10596214	      0.04202423	      0.10678880
      2.37500000	      0.10677081	      0.04218428	      0.10695169
      2.38000000	      0.10752309	      0.04233263	      0.10873315
      2.38500000	      0.10740563	      0.04230950	      0.10733004
      2.39000000	      0.10908068	      0.04263814	      0.10972924
      2.39500000	      0.10897491	      0.04261747	      0.10801739
      2.40000000	      0.10976536	      0.04277175	      0.10828676
      2.40500000	      0.11052380	      0.04291926	      0.10862836
      2.41000000	      0.11085733	      0.04298397	      0.10874891
      2.41500000	      0.11162041	      0.04313166	      0.10918079
      2.42000000	      0.11229101	      0.04326103	      0.11016749
      2.42500000	      0.11300972	      0.04339925	      0.10964499
      2.43000000	      0.11439433	      0.04366431	      0.11275171
      2.43500000	      0.11537008	      0.04385014	      0.11427081
      2.44000000	      0.11479011	      0.04373978	      0.11028392
      2.44500000	      0.11535981	      0.04384819	      0.11066489
      2.45000000	      0.11579057	      0.04392998	      0.11217720
      2.45500000	      0.11640987	      0.04404730	      0.11125501
      2.46000000	      0.11720944	      0.04419831	      0.11140859
      2.46500000	      0.11725365	      0.04420664	      0.11085508
      2.47000000	      0.11848575	      0.04443830	      0.11178417
      2.47500000	      0.11846781	      0.04443494	      0.11176217
      2.48000000	      0.11981355	      0.04468660	      0.11387840
      2.48500000	      0.11879123	      0.04449555	      0.11154847
      2.49000000	      0.12038846	      0.04479369	      0.11334296
      2.49500000	      0.12030335	      0.04477785	      0.11169129
      2.50000000	      0.12055843	      0.04482530	      0.11182107
      2.50500000	      0.12188552	      0.04507134	      0.11478299
      2.51000000	      0.12150397	      0.04500074	      0.11242082
      2.51500000	      0.12204972	      0.04510168	      0.11267962
      2.52000000	      0.12292416	      0.04526296	      0.11447368
      2.52500000	      0.12299620	      0.04527623	      0.11315708
      2.53000000	      0.12301987	      0.04528058	      0.11335675
      2.53500000	      0.12364540	      0.04539556	      0.11386479
      2.54000000	      0.12454125	      0.04555971	      0.11562474
      2.54500000	      0.12569031	      0.04576941	      0.11785789
      2.55000000	      0.12699790	      0.04600687	      0.11944899
      2.55500000	      0.12786628	      0.04616389	      0.12027739
      2.56000000	      0.12803013	      0.04619346	      0.12076631
      2.56500000	      0.12836879	      0.04625451	      0.12113945
      2.57000000	      0.12713223	      0.04603119	      0.11541572
      2.57500000	      0.12742946	      0.04608497	      0.11548708
      2.58000000	      0.12766211	      0.04612702	      0.11555194
      2.58500000	      0.12800386	      0.04618872	      0.11710463
      2.59000000	      0.12776736	      0.04614603	      0.11554545
      2.59500000	      0.12816214	      0.04621727	      0.11571525
      2.60000000	      0.12901173	      0.04637020	      0.11830127
      2.60500000	      0.12905103	      0.04637726	      0.11906878
      2.61000000	      0.12906458	      0.04637970	      0.11591669
      2.61500000	      0.12961871	      0.04647916	      0.11762147
      2.62000000	      0.12991236	      0.04653177	      0.11637320
      2.62500000	      0.13016341	      0.04657671	      0.11681256
      2.63000000	      0.13079586	      0.04668973	      0.11696134
      2.63500000	      0.13144886	      0.04680614	      0.11732958
      2.64000000	      0.13200580	      0.04690519	      0.11725582
      2.64500000	      0.13210342	      0.04692253	      0.11740010
      2.65000000	      0.13345845	      0.04716257	      0.12035551
      2.65500000	      0.13313156	      0.04710477	      0.11754696
      2.66000000	      0.13337170	      0.04714723	      0.11772703
      2.66500000	      0.13376004	      0.04721582	      0.11783308
      2.67000000	      0.13435373	      0.04732049	      0.11791771
      2.67500000	      0.13495455	      0.04742618	      0.12089816
      2.68000000	      0.13407983	      0.04727223	      0.11777639
      2.68500000	      0.13407532	      0.04727144	      0.11776407
      2.69000000	      0.13463308	      0.04736966	      0.12050375
      2.69500000	      0.13487052	      0.04741141	      0.12172657
      2.70000000	      0.13408972	      0.04727397	      0.11761419
      2.70500000	      0.13419965	      0.04729335	      0.11754175
      2.71000000	      0.13406746	      0.04727005	      0.11747208
      2.71500000	      0.13425447	      0.04730301	      0.11754916
      2.72000000	      0.13403774	      0.04726481	      0.11743957
      2.72500000	      0.13453686	      0.04735273	      0.11921724
      2.73000000	      0.13406982	      0.04727047	      0.11757468
      2.73500000	      0.13425374	      0.04730288	      0.11764938
      2.74000000	      0.13488876	      0.04741462	      0.11863411
      2.74500000	      0.13566891	      0.04755153	      0.12107652
      2.75000000	      0.13617067	      0.04763939	      0.12224042
      2.75500000	      0.13635296	      0.04767126	      0.12242300
      2.76000000	      0.13529003	      0.04748509	      0.11808099
      2.76500000	      0.13533481	      0.04749295	      0.11814619
      2.77000000	      0.13610306	      0.04762756	      0.11947638
      2.77500000	      0.13667670	      0.04772782	      0.12132321
      2.78000000	      0.13608705	      0.04762476	      0.11824092
      2.78500000	      0.13628418	      0.04765924	      0.11837499
      2.79000000	      0.13666579	      0.04772592	      0.11993278
      2.79500000	      0.13662939	      0.04771956	      0.11884883
      2.80000000	      0.13714128	      0.04780887	      0.12018601
      2.80500000	      0.13749704	      0.04787084	      0.11887050
      2.81000000	      0.13743133	      0.04785940	      0.11939587
      2.81500000	      0.13750021	      0.04787139	      0.12011705
      2.82000000	      0.13746091	      0.04786455	      0.11908302
      2.82500000	      0.13779013	      0.04792183	      0.11960130
      2.83000000	      0.13810085	      0.04797584	      0.12021486
      2.83500000	      0.13798879	      0.04795637	      0.11945030
      2.84000000	      0.13828449	      0.04800772	      0.12022477
      2.84500000	      0.13877290	      0.04809243	      0.12074017
      2.85000000	      0.13900493	      0.04813262	      0.12119232
      2.85500000	      0.13939605	      0.04820029	      0.12166311
      2.86000000	      0.13916198	      0.04815980	      0.12031571
      2.86500000	      0.13940645	      0.04820208	      0.12111273
      2.87000000	      0.13964471	      0.04824326	      0.12167688
      2.87500000	      0.13993563	      0.04829348	      0.12219425
      2.88000000	      0.13982479	      0.04827435	      0.12222357
      2.88500000	      0.13989414	      0.04828632	      0.12277948
      2.89000000	      0.14010770	      0.04832316	      0.12277281
      2.89500000	      0.14009200	      0.04832046	      0.12307910
      2.90000000	      0.13953112	      0.04822363	      0.12030255
      2.90500000	      0.13967208	      0.04824799	      0.12094070
      2.91000000	      0.13947572	      0.04821406	      0.12041186
      2.91500000	      0.13951630	      0.04822107	      0.12079577
      2.92000000	      0.13938735	      0.04819878	      0.12113025
      2.92500000	      0.13972881	      0.04825778	      0.12163040
      2.93000000	      0.13978569	      0.04826760	      0.12200280
      2.93500000	      0.13989165	      0.04828589	      0.12257048
      2.94000000	      0.13949369	      0.04821716	      0.12040523
      2.94500000	      0.13972183	      0.04825658	      0.12095946
      2.95000000	      0.13988724	      0.04828513	      0.12140604
      2.95500000	      0.14039230	      0.04837222	      0.12267059
      2.96000000	      0.14040054	      0.04837364	      0.12297732
      2.96500000	      0.14020540	      0.04834001	      0.12080797
      2.97000000	      0.14048560	      0.04838829	      0.12154734
      2.97500000	      0.14066929	      0.04841991	      0.12199250
      2.98000000	      0.14067740	      0.04842131	      0.12103590
      2.98500000	      0.14104477	      0.04848449	      0.12169759
      2.99000000	      0.14149901	      0.04856251	      0.12306430
      2.99500000	      0.14125177	      0.04852006	      0.12129119
      3.00000000	      0.14150288	      0.04856317	      0.12220942
      3.00500000	      0.14187447	      0.04862689	      0.12247859
      3.01000000	      0.14175729	      0.04860681	      0.12151751
      3.01500000	      0.14211851	      0.04866870	      0.12214370
      3.02000000	      0.14210337	      0.04866610	      0.12266265
      3.02500000	      0.14224525	      0.04869039	      0.12332075
      3.03000000	      0.14199720	      0.04864792	      0.12147255
      3.03500000	      0.14222669	      0.04868721	      0.12318594
      3.04000000	      0.14308092	      0.04883321	      0.12409880
      3.04500000	      0.14248086	      0.04873070	      0.12152756
      3.05000000	      0.14293284	      0.04880793	      0.12225644
      3.05500000	      0.14357155	      0.04891686	      0.12403664
      3.06000000	      0.14391192	      0.04897481	      0.12443234
      3.06500000	      0.14420542	      0.04902472	      0.12491706
      3.07000000	      0.14375313	      0.04894778	      0.12175099
      3.07500000	      0.14423014	      0.04902893	      0.12348629
      3.08000000	      0.14378777	      0.04895368	      0.12193271
      3.08500000	      0.14410038	      0.04900687	      0.12365759
      3.09000000	      0.14439151	      0.04905635	      0.12450382
      3.09500000	      0.14441910	      0.04906103	      0.12203312
      3.10000000	      0.14496671	      0.04915396	      0.12332811
      3.10500000	      0.14534313	      0.04921774	      0.12426078
      3.11000000	      0.14517021	      0.04918845	      0.12482297
      3.11500000	      0.14457081	      0.04908679	      0.12194658
      3.12000000	      0.14493160	      0.04914801	      0.12359345
      3.12500000	      0.14461690	      0.04909462	      0.12208001
      3.13000000	      0.14455739	      0.04908452	      0.12190761
      3.13500000	      0.14470556	      0.04910967	      0.12193370
      3.14000000	      0.14480687	      0.04912685	      0.12213544
      3.14500000	      0.14485277	      0.04913464	      0.12214435
      3.15000000	      0.14520415	      0.04919420	      0.12325641
      3.15500000	      0.14547902	      0.04924074	      0.12389322
      3.16000000	      0.14523256	      0.04919901	      0.12215074
      3.16500000	      0.14563172	      0.04926657	      0.12339608
      3.17000000	      0.14602484	      0.04933303	      0.12435008
      3.17500000	      0.14611756	      0.04934868	      0.12241310
      3.18000000	      0.14636603	      0.04939063	      0.12346043
      3.18500000	      0.14679327	      0.04946266	      0.12447515
      3.19000000	      0.14649675	      0.04941268	      0.12259642
      3.19500000	      0.14712950	      0.04951927	      0.12360099
      3.20000000	      0.14763477	      0.04960423	      0.12444835
      3.20500000	      0.14805347	      0.04967452	      0.12564458
      3.21000000	      0.14745425	      0.04957389	      0.12288829
      3.21500000	      0.14754343	      0.04958888	      0.12297178
      3.22000000	      0.14793801	      0.04965515	      0.12423862
      3.22500000	      0.14799982	      0.04966552	      0.12303450
      3.23000000	      0.14830116	      0.04971605	      0.12423451
      3.23500000	      0.14870270	      0.04978331	      0.12515022
      3.24000000	      0.14838482	      0.04973007	      0.12320978
      3.24500000	      0.14832382	      0.04971985	      0.12317413
      3.25000000	      0.14847546	      0.04974526	      0.12376552
      3.25500000	      0.14867186	      0.04977815	      0.12414055
      3.26000000	      0.14869659	      0.04978229	      0.12441391
      3.26500000	      0.14864702	      0.04977399	      0.12478328
      3.27000000	      0.14813641	      0.04968843	      0.12314723
      3.27500000	      0.14799016	      0.04966390	      0.12439672
      3.28000000	      0.14805109	      0.04967412	      0.12456288
      3.28500000	      0.14797316	      0.04966104	      0.12477522
      3.29000000	      0.14773576	      0.04962119	      0.12285108
      3.29500000	      0.14770932	      0.04961675	      0.12374029
      3.30000000	      0.14781779	      0.04963497	      0.12501008
      3.30500000	      0.14816684	      0.04969353	      0.12603854
      3.31000000	      0.14768661	      0.04961294	      0.12284423
      3.31500000	      0.14801750	      0.04966848	      0.12417383
      3.32000000	      0.14840201	      0.04973296	      0.12508288
      3.32500000	      0.14808580	      0.04967994	      0.12315812
      3.33000000	      0.14859163	      0.04976472	      0.12442206
      3.33500000	      0.14845219	      0.04974136	      0.12308631
      3.34000000	      0.14853356	      0.04975499	      0.12313626
      3.34500000	      0.14930169	      0.04988348	      0.12559194
      3.35000000	      0.14943891	      0.04990640	      0.12558761
      3.35500000	      0.14915329	      0.04985868	      0.12319767
      3.36000000	      0.14923241	      0.04987190	      0.12325483
      3.36500000	      0.14956931	      0.04992817	      0.12430319
      3.37000000	      0.14918176	      0.04986344	      0.12324581
      3.37500000	      0.14927016	      0.04987821	      0.12332855
      3.38000000	      0.14848206	      0.04974637	      0.12414854
      3.38500000	      0.14834276	      0.04972303	      0.12308151
      3.39000000	      0.14822497	      0.04970328	      0.12303182
      3.39500000	      0.14827769	      0.04971212	      0.12307648
      3.40000000	      0.14824436	      0.04970653	      0.12399636
      3.40500000	      0.14886448	      0.04981039	      0.12482252
      3.41000000	      0.14847145	      0.04974459	      0.12296590
      3.41500000	      0.14865105	      0.04977467	      0.12307337
      3.42000000	      0.14914676	      0.04985759	      0.12463719
      3.42500000	      0.14899444	      0.04983212	      0.12324287
      3.43000000	      0.14936671	      0.04989434	      0.12433409
      3.43500000	      0.15020859	      0.05003475	      0.12519782
      3.44000000	      0.14998812	      0.04999802	      0.12343159
      3.44500000	      0.15070186	      0.05011684	      0.12568912
      3.45000000	      0.15032380	      0.05005394	      0.12349778
      3.45500000	      0.15043787	      0.05007293	      0.12418885
      3.46000000	      0.15083310	      0.05013866	      0.12491507
      3.46500000	      0.15067094	      0.05011170	      0.12356594
      3.47000000	      0.15075553	      0.05012576	      0.12432824
      3.47500000	      0.15076942	      0.05012807	      0.12360914
      3.48000000	      0.15080981	      0.05013479	      0.12365831
      3.48500000	      0.15092576	      0.05015406	      0.12494088
      3.49000000	      0.15086095	      0.05014329	      0.12352069
      3.49500000	      0.15099896	      0.05016622	      0.12411624
      3.50000000	      0.15160762	      0.05026722	      0.12550162
      3.50500000	      0.15161902	      0.05026911	      0.12366692
      3.51000000	      0.15194846	      0.05032370	      0.12448362
      3.51500000	      0.15241999	      0.05040172	      0.12480437
      3.52000000	      0.15256671	      0.05042597	      0.12420698
      3.52500000	      0.15317117	      0.05052576	      0.12517369
      3.53000000	      0.15342577	      0.05056774	      0.12554071
      3.53500000	      0.15390706	      0.05064699	      0.12555541
      3.54000000	      0.15424961	      0.05070332	      0.12579847
      3.54500000	      0.15440365	      0.05072863	      0.12500364
      3.55000000	      0.15516446	      0.05085346	      0.12646517
      3.55500000	      0.15523581	      0.05086515	      0.12529509
      3.56000000	      0.15597855	      0.05098669	      0.12635829
      3.56500000	      0.15575422	      0.05095001	      0.12533020
      3.57000000	      0.15598802	      0.05098824	      0.12544677
      3.57500000	      0.15599647	      0.05098962	      0.12547072
      3.58000000	      0.15614871	      0.05101449	      0.12672777
      3.58500000	      0.15667304	      0.05110007	      0.12763164
      3.59000000	      0.15605174	      0.05099865	      0.12529588
      3.59500000	      0.15624762	      0.05103065	      0.12619400
      3.60000000	      0.15647199	      0.05106727	      0.12738387
      3.60500000	      0.15665973	      0.05109790	      0.12781723
      3.61000000	      0.15667442	      0.05110030	      0.12840861
      3.61500000	      0.15542540	      0.05089620	      0.12518688
      3.62000000	      0.15549668	      0.05090787	      0.12530866
      3.62500000	      0.15600333	      0.05099074	      0.12635591
      3.63000000	      0.15634453	      0.05104647	      0.12711822
      3.63500000	      0.15666155	      0.05109820	      0.12797405
      3.64000000	      0.15676334	      0.05111480	      0.12834512
      3.64500000	      0.15700109	      0.05115354	      0.12839642
      3.65000000	      0.15630070	      0.05103931	      0.12585025
      3.65500000	      0.15648715	      0.05106975	      0.12603497
      3.66000000	      0.15614413	      0.05101375	      0.12586009
      3.66500000	      0.15625224	      0.05103140	      0.12574239
      3.67000000	      0.15633503	      0.05104492	      0.12593820
      3.67500000	      0.15625836	      0.05103240	      0.12585787
      3.68000000	      0.15664094	      0.05109484	      0.12595047
      3.68500000	      0.15667386	      0.05110021	      0.12608318
      3.69000000	      0.15639178	      0.05105418	      0.12586626
      3.69500000	      0.15653853	      0.05107813	      0.12585492
      3.70000000	      0.15656022	      0.05108167	      0.12585547
      3.70500000	      0.15567873	      0.05093766	      0.12537758
      3.71000000	      0.15599693	      0.05098969	      0.12547844
      3.71500000	      0.15589967	      0.05097380	      0.12555592
      3.72000000	      0.15509734	      0.05084246	      0.12525600
      3.72500000	      0.15490720	      0.05081128	      0.12509739
      3.73000000	      0.15479125	      0.05079227	      0.12495575
      3.73500000	      0.15475736	      0.05078670	      0.12486542
      3.74000000	      0.15506221	      0.05083670	      0.12475617
      3.74500000	      0.15439975	      0.05072799	      0.12474622
      3.75000000	      0.15437644	      0.05072416	      0.12471826
      3.75500000	      0.15427015	      0.05070670	      0.12455110
      3.76000000	      0.15400171	      0.05066256	      0.12448805
      3.76500000	      0.15432941	      0.05071644	      0.12475338
      3.77000000	      0.15404626	      0.05066989	      0.12462064
      3.77500000	      0.15444247	      0.05073501	      0.12452004
      3.78000000	      0.15369361	      0.05061186	      0.12438942
      3.78500000	      0.15399297	      0.05066112	      0.12443753
      3.79000000	      0.15348266	      0.05057711	      0.12430823
      3.79500000	      0.15303319	      0.05050300	      0.12417872
      3.80000000	      0.15309741	      0.05051360	      0.12414246
      3.80500000	      0.15296458	      0.05049168	      0.12443845
      3.81000000	      0.15197599	      0.05032825	      0.12386880
      3.81500000	      0.15189363	      0.05031461	      0.12379130
      3.82000000	      0.15153704	      0.05025552	      0.12353587
      3.82500000	      0.15113829	      0.05018936	      0.12330761
      3.83000000	      0.15091765	      0.05015271	      0.12345836
      3.83500000	      0.15020251	      0.05003374	      0.12320193
      3.84000000	      0.14968505	      0.04994748	      0.12293025
      3.84500000	      0.14966660	      0.04994440	      0.12303920
      3.85000000	      0.14907769	      0.04984604	      0.12298157
      3.85500000	      0.14890240	      0.04981673	      0.12301843
      3.86000000	      0.14890414	      0.04981702	      0.12276780
      3.86500000	      0.14828031	      0.04971256	      0.12293182
      3.87000000	      0.14755340	      0.04959056	      0.12257393
      3.87500000	      0.14743388	      0.04957047	      0.12259006
      3.88000000	      0.14747781	      0.04957785	      0.12288353
      3.88500000	      0.14738596	      0.04956241	      0.12300109
      3.89000000	      0.14682804	      0.04946852	      0.12254962
      3.89500000	      0.14647842	      0.04940958	      0.12236807
      3.90000000	      0.14634624	      0.04938729	      0.12235343
      3.90500000	      0.14620055	      0.04936270	      0.12223297
      3.91000000	      0.14596022	      0.04932211	      0.12223948
      3.91500000	      0.14549273	      0.04924306	      0.12206033
      3.92000000	      0.14572226	      0.04928189	      0.12213720
      3.92500000	      0.14479324	      0.04912454	      0.12169136
      3.93000000	      0.14446867	      0.04906945	      0.12183035
      3.93500000	      0.14416831	      0.04901842	      0.12155544
      3.94000000	      0.14367852	      0.04893508	      0.12138310
      3.94500000	      0.14330521	      0.04887147	      0.12130731
      3.95000000	      0.14291518	      0.04880491	      0.12131845
      3.95500000	      0.14226184	      0.04869323	      0.12111455
      3.96000000	      0.14202211	      0.04865219	      0.12096933
      3.96500000	      0.14172448	      0.04860118	      0.12090647
      3.97000000	      0.14154257	      0.04856998	      0.12081658
      3.97500000	      0.14076245	      0.04843595	      0.12059150
      3.98000000	      0.14073352	      0.04843097	      0.12072035
      3.98500000	      0.14066379	      0.04841897	      0.12049858
      3.99000000	      0.14041707	      0.04837649	      0.12053359
      3.99500000	      0.14009694	      0.04832131	      0.12042444
      4.00000000	      0.13999538	      0.04830379	      0.12035993
      4.00500000	      0.13952992	      0.04822343	      0.12023609
      4.01000000	      0.13917966	      0.04816286	      0.11994180
      4.01500000	      0.13872266	      0.04808372	      0.11989123
      4.02000000	      0.13842400	      0.04803193	      0.11971057
      4.02500000	      0.13784613	      0.04793157	      0.11954996
      4.03000000	      0.13675558	      0.04774159	      0.11927302
      4.03500000	      0.13677078	      0.04774425	      0.11911679
      4.04000000	      0.13619331	      0.04764335	      0.11877513
      4.04500000	      0.13583501	      0.04758064	      0.11852054
      4.05000000	      0.13521697	      0.04747227	      0.11848025
      4.05500000	      0.13457309	      0.04735911	      0.11824365
      4.06000000	      0.13454607	      0.04735435	      0.11815303
      4.06500000	      0.13389716	      0.04724002	      0.11779094
      4.07000000	      0.13358797	      0.04718544	      0.11773134
      4.07500000	      0.13262652	      0.04701534	      0.11743241
      4.08000000	      0.13232026	      0.04696102	      0.11725065
      4.08500000	      0.13185924	      0.04687914	      0.11712448
      4.09000000	      0.13158887	      0.04683106	      0.11694921
      4.09500000	      0.13093328	      0.04671425	      0.11658685
      4.10000000	      0.13058670	      0.04665239	      0.11645974
      4.10500000	      0.13018494	      0.04658056	      0.11642886
      4.11000000	      0.12985607	      0.04652169	      0.11643736
      4.11500000	      0.12943932	      0.04644698	      0.11625812
      4.12000000	      0.12842025	      0.04626378	      0.11606172
      4.12500000	      0.12868228	      0.04631096	      0.11594917
      4.13000000	      0.12861192	      0.04629829	      0.11595476
      4.13500000	      0.12820697	      0.04622535	      0.11573340
      4.14000000	      0.12792434	      0.04617437	      0.11563405
      4.14500000	      0.12765503	      0.04612574	      0.11569325
      4.15000000	      0.12761226	      0.04611801	      0.11547029
      4.15500000	      0.12694547	      0.04599737	      0.11541971
      4.16000000	      0.12604803	      0.04583449	      0.11558890
      4.16500000	      0.12556995	      0.04574749	      0.11536643
      4.17000000	      0.12519188	      0.04567857	      0.11528516
      4.17500000	      0.12556199	      0.04574604	      0.11502589
      4.18000000	      0.12441582	      0.04553677	      0.11492582
      4.18500000	      0.12438936	      0.04553192	      0.11459176
      4.19000000	      0.12434224	      0.04552330	      0.11445503
      4.19500000	      0.12378094	      0.04542043	      0.11428229
      4.20000000	      0.12343402	      0.04535674	      0.11432697
      4.20500000	      0.12304098	      0.04528447	      0.11379545
      4.21000000	      0.12254991	      0.04519401	      0.11358575
      4.21500000	      0.12230464	      0.04514876	      0.11356076
      4.22000000	      0.12192865	      0.04507931	      0.11335929
      4.22500000	      0.12160952	      0.04502028	      0.11324987
      4.23000000	      0.12098744	      0.04490498	      0.11295017
      4.23500000	      0.12057091	      0.04482762	      0.11275619
      4.24000000	      0.12009393	      0.04473886	      0.11271382
      4.24500000	      0.11918485	      0.04456921	      0.11252350
      4.25000000	      0.11938229	      0.04460611	      0.11238707
      4.25500000	      0.11923706	      0.04457897	      0.11231047
      4.26000000	      0.11906054	      0.04454596	      0.11229984
      4.26500000	      0.11857777	      0.04445555	      0.11210701
      4.27000000	      0.11814215	      0.04437382	      0.11182905
      4.27500000	      0.11765483	      0.04428221	      0.11168640
      4.28000000	      0.11761909	      0.04427548	      0.11166093
      4.28500000	      0.11704205	      0.04416674	      0.11148861
      4.29000000	      0.11711446	      0.04418040	      0.11142097
      4.29500000	      0.11617385	      0.04400262	      0.11098808
      4.30000000	      0.11685615	      0.04413165	      0.11139931
      4.30500000	      0.11648114	      0.04406078	      0.11120258
      4.31000000	      0.11518390	      0.04381474	      0.11082127
      4.31500000	      0.11531725	      0.04384010	      0.11082224
      4.32000000	      0.11577424	      0.04392688	      0.11103097
      4.32500000	      0.11489323	      0.04375942	      0.11077003
      4.33000000	      0.11510698	      0.04380011	      0.11084119
      4.33500000	      0.11459177	      0.04370198	      0.11073055
      4.34000000	      0.11436478	      0.04365867	      0.11069677
      4.34500000	      0.11464737	      0.04371258	      0.11053234
      4.35000000	      0.11437594	      0.04366080	      0.11053966
      4.35500000	      0.11408823	      0.04360585	      0.11048646
      4.36000000	      0.11400328	      0.04358962	      0.11041270
      4.36500000	      0.11346515	      0.04348662	      0.11029746
      4.37000000	      0.11258914	      0.04331842	      0.11001112
      4.37500000	      0.11334118	      0.04346285	      0.11021145
      4.38000000	      0.11225963	      0.04325499	      0.10989628
      4.38500000	      0.11187761	      0.04318132	      0.10976990
      4.39000000	      0.11126728	      0.04306338	      0.10944137
      4.39500000	      0.11133627	      0.04307673	      0.10932386
      4.40000000	      0.11088700	      0.04298973	      0.10922053
      4.40500000	      0.11087838	      0.04298806	      0.10916159
      4.41000000	      0.10996557	      0.04281074	      0.10901783
      4.41500000	      0.10984210	      0.04278670	      0.10888985
      4.42000000	      0.10973047	      0.04276495	      0.10890197
      4.42500000	      0.10940300	      0.04270109	      0.10868383
      4.43000000	      0.10907567	      0.04263717	      0.10865617
      4.43500000	      0.10807146	      0.04244044	      0.10847405
      4.44000000	      0.10806525	      0.04243922	      0.10854239
      4.44500000	      0.10848727	      0.04252201	      0.10874299
      4.45000000	      0.10758949	      0.04234570	      0.10839390
      4.45500000	      0.10708477	      0.04224626	      0.10819082
      4.46000000	      0.10693250	      0.04221621	      0.10826557
      4.46500000	      0.10630778	      0.04209271	      0.10777876
      4.47000000	      0.10632927	      0.04209697	      0.10785708
      4.47500000	      0.10555857	      0.04194412	      0.10768605
      4.48000000	      0.10516443	      0.04186574	      0.10751630
      4.48500000	      0.10577303	      0.04198671	      0.10774630
      4.49000000	      0.10439147	      0.04171160	      0.10735459
      4.49500000	      0.10465263	      0.04176375	      0.10740478
      4.50000000	      0.10356426	      0.04154601	      0.10701496
      4.50500000	      0.10308280	      0.04144933	      0.10710573
      4.51000000	      0.10277445	      0.04138729	      0.10685917
      4.51500000	      0.10164216	      0.04115867	      0.10644045
      4.52000000	      0.10233484	      0.04129868	      0.10656590
      4.52500000	      0.10169658	      0.04116969	      0.10659056
      4.53000000	      0.10148507	      0.04112685	      0.10638046
      4.53500000	      0.10085937	      0.04099987	      0.10612188
      4.54000000	      0.10067419	      0.04096222	      0.10603567
      4.54500000	      0.09917473	      0.04065602	      0.10550115
      4.55000000	      0.09983607	      0.04079135	      0.10564896
      4.55500000	      0.09849540	      0.04051654	      0.10499114
      4.56000000	      0.09835279	      0.04048720	      0.10532239
      4.56500000	      0.09808038	      0.04043109	      0.10522082
      4.57000000	      0.09778668	      0.04037051	      0.10505917
      4.57500000	      0.09700820	      0.04020949	      0.10471984
      4.58000000	      0.09682708	      0.04017194	      0.10472906
      4.58500000	      0.09617735	      0.04003693	      0.10451894
      4.59000000	      0.09556244	      0.03990874	      0.10426647
      4.59500000	      0.09499611	      0.03979031	      0.10397516
      4.60000000	      0.09454038	      0.03969475	      0.10372081
      4.60500000	      0.09362530	      0.03950217	      0.10337487
      4.61000000	      0.09355166	      0.03948663	      0.10327001
      4.61500000	      0.09282024	      0.03933197	      0.10325391
      4.62000000	      0.09195378	      0.03914796	      0.10292953
      4.62500000	      0.09105912	      0.03895705	      0.10242903
      4.63000000	      0.09118229	      0.03898339	      0.10245719
      4.63500000	      0.09086391	      0.03891527	      0.10233036
      4.64000000	      0.09004885	      0.03874034	      0.10187773
      4.64500000	      0.08923901	      0.03856575	      0.10177898
      4.65000000	      0.08888976	      0.03849021	      0.10137097
      4.65500000	      0.08829417	      0.03836104	      0.10099045
      4.66000000	      0.08739011	      0.03816414	      0.10082810
      4.66500000	      0.08679006	      0.03803289	      0.10055554
      4.67000000	      0.08626646	      0.03791800	      0.10034369
      4.67500000	      0.08639994	      0.03794732	      0.10043188
      4.68000000	      0.08586467	      0.03782959	      0.10014574
      4.68500000	      0.08471217	      0.03757485	      0.09954125
      4.69000000	      0.08397477	      0.03741095	      0.09940976
      4.69500000	      0.08398441	      0.03741310	      0.09923350
      4.70000000	      0.08318380	      0.03723435	      0.09877809
      4.70500000	      0.08264993	      0.03711467	      0.09886812
      4.71000000	      0.08232738	      0.03704218	      0.09862162
      4.71500000	      0.08281072	      0.03715076	      0.09861948
      4.72000000	      0.08188677	      0.03694292	      0.09844340
      4.72500000	      0.08135246	      0.03682220	      0.09825391
      4.73000000	      0.08022873	      0.03656700	      0.09776301
      4.73500000	      0.07955372	      0.03641285	      0.09750315
      4.74000000	      0.07925081	      0.03634346	      0.09717952
      4.74500000	      0.07856689	      0.03618630	      0.09702633
      4.75000000	      0.07840202	      0.03614831	      0.09670180
