Model Marker Errors from IK
version=1
nRows=482
nColumns=4
inDegrees=no
endheader
time	total_squared_error	marker_error_RMS	marker_error_max
      4.95000000	      0.15962464	      0.05115464	      0.17929813
      4.95500000	      0.15992355	      0.05120252	      0.17923092
      4.96000000	      0.15999201	      0.05121347	      0.17955024
      4.96500000	      0.15985996	      0.05119233	      0.17927938
      4.97000000	      0.16010181	      0.05123104	      0.17932358
      4.97500000	      0.15978601	      0.05118049	      0.17845317
      4.98000000	      0.15995416	      0.05120741	      0.17868220
      4.98500000	      0.16008920	      0.05122903	      0.17850922
      4.99000000	      0.16018394	      0.05124418	      0.17835492
      4.99500000	      0.15995451	      0.05120747	      0.17829054
      5.00000000	      0.15961134	      0.05115251	      0.17984336
      5.00500000	      0.15987754	      0.05119515	      0.17970960
      5.01000000	      0.15982709	      0.05118707	      0.17901894
      5.01500000	      0.16003783	      0.05122081	      0.17972142
      5.02000000	      0.16035405	      0.05127139	      0.17935249
      5.02500000	      0.16044654	      0.05128617	      0.17902624
      5.03000000	      0.16029298	      0.05126162	      0.17934592
      5.03500000	      0.16026038	      0.05125641	      0.17964729
      5.04000000	      0.16002556	      0.05121884	      0.17895951
      5.04500000	      0.15981577	      0.05118526	      0.17921491
      5.05000000	      0.16006675	      0.05122543	      0.17896207
      5.05500000	      0.16016516	      0.05124118	      0.17907693
      5.06000000	      0.16050925	      0.05129619	      0.17948803
      5.06500000	      0.16040719	      0.05127988	      0.17949795
      5.07000000	      0.16016206	      0.05124068	      0.17950107
      5.07500000	      0.16023661	      0.05125261	      0.17952526
      5.08000000	      0.16032639	      0.05126696	      0.17959189
      5.08500000	      0.16050303	      0.05129520	      0.17943079
      5.09000000	      0.16029073	      0.05126126	      0.17976286
      5.09500000	      0.16052709	      0.05129904	      0.17954188
      5.10000000	      0.16063280	      0.05131593	      0.17969477
      5.10500000	      0.16067276	      0.05132231	      0.17953834
      5.11000000	      0.16053047	      0.05129958	      0.17950482
      5.11500000	      0.16062707	      0.05131501	      0.17953488
      5.12000000	      0.16069258	      0.05132548	      0.17942011
      5.12500000	      0.16096014	      0.05136819	      0.17937925
      5.13000000	      0.16111965	      0.05139363	      0.17934970
      5.13500000	      0.16102961	      0.05137927	      0.17908117
      5.14000000	      0.16096151	      0.05136841	      0.17925522
      5.14500000	      0.16088596	      0.05135635	      0.17940799
      5.15000000	      0.16096271	      0.05136860	      0.17927133
      5.15500000	      0.16088011	      0.05135542	      0.17911623
      5.16000000	      0.16102305	      0.05137823	      0.17909521
      5.16500000	      0.16082605	      0.05134679	      0.17930414
      5.17000000	      0.16073523	      0.05133229	      0.17925802
      5.17500000	      0.16041463	      0.05128107	      0.17834937
      5.18000000	      0.16045676	      0.05128780	      0.17834624
      5.18500000	      0.16066234	      0.05132065	      0.17848169
      5.19000000	      0.16067595	      0.05132282	      0.17815195
      5.19500000	      0.16014762	      0.05123837	      0.17869025
      5.20000000	      0.16014246	      0.05123755	      0.17866698
      5.20500000	      0.16020608	      0.05124772	      0.17823560
      5.21000000	      0.16009242	      0.05122954	      0.17846715
      5.21500000	      0.16019202	      0.05124547	      0.17864373
      5.22000000	      0.16027299	      0.05125842	      0.17832181
      5.22500000	      0.16040833	      0.05128006	      0.17831710
      5.23000000	      0.16039252	      0.05127753	      0.17789684
      5.23500000	      0.16033574	      0.05126846	      0.17803548
      5.24000000	      0.16038955	      0.05127706	      0.17789470
      5.24500000	      0.16040671	      0.05127980	      0.17790389
      5.25000000	      0.16063167	      0.05131575	      0.17897984
      5.25500000	      0.16048484	      0.05129229	      0.17903129
      5.26000000	      0.16083646	      0.05134845	      0.17886407
      5.26500000	      0.16086690	      0.05135331	      0.17899397
      5.27000000	      0.16053897	      0.05130094	      0.17901514
      5.27500000	      0.16070676	      0.05132774	      0.17891901
      5.28000000	      0.16077277	      0.05133828	      0.17882341
      5.28500000	      0.16076271	      0.05133668	      0.17868073
      5.29000000	      0.16082729	      0.05134699	      0.17879225
      5.29500000	      0.16086162	      0.05135246	      0.17863792
      5.30000000	      0.16087504	      0.05135461	      0.17873436
      5.30500000	      0.16078990	      0.05134102	      0.17871203
      5.31000000	      0.16080174	      0.05134291	      0.17865350
      5.31500000	      0.16100320	      0.05137506	      0.17842214
      5.32000000	      0.16102261	      0.05137816	      0.17831587
      5.32500000	      0.16077877	      0.05133924	      0.17855505
      5.33000000	      0.16083709	      0.05134855	      0.17849608
      5.33500000	      0.16057835	      0.05130723	      0.17879454
      5.34000000	      0.16072251	      0.05133026	      0.17872057
      5.34500000	      0.16102527	      0.05137858	      0.17853561
      5.35000000	      0.16105816	      0.05138383	      0.17851814
      5.35500000	      0.16100800	      0.05137583	      0.17848187
      5.36000000	      0.16086963	      0.05135374	      0.17855220
      5.36500000	      0.16078713	      0.05134057	      0.17856225
      5.37000000	      0.16081553	      0.05134511	      0.17861512
      5.37500000	      0.16078293	      0.05133990	      0.17823743
      5.38000000	      0.16044226	      0.05128549	      0.17843028
      5.38500000	      0.16031553	      0.05126523	      0.17838203
      5.39000000	      0.16028962	      0.05126108	      0.17857810
      5.39500000	      0.16047863	      0.05129130	      0.17827468
      5.40000000	      0.16062691	      0.05131499	      0.17842791
      5.40500000	      0.16015397	      0.05123939	      0.17778959
      5.41000000	      0.16039263	      0.05127755	      0.17782829
      5.41500000	      0.16026145	      0.05125658	      0.17767700
      5.42000000	      0.16026529	      0.05125719	      0.17775389
      5.42500000	      0.16022609	      0.05125092	      0.17785813
      5.43000000	      0.16037036	      0.05127399	      0.17753946
      5.43500000	      0.16044887	      0.05128654	      0.17769744
      5.44000000	      0.16042580	      0.05128285	      0.17753098
      5.44500000	      0.16038068	      0.05127564	      0.17761558
      5.45000000	      0.16044791	      0.05128639	      0.17767150
      5.45500000	      0.16044707	      0.05128625	      0.17756303
      5.46000000	      0.16070223	      0.05132702	      0.17706814
      5.46500000	      0.16059616	      0.05131008	      0.17725013
      5.47000000	      0.16086817	      0.05135351	      0.17806124
      5.47500000	      0.16059994	      0.05131068	      0.17721273
      5.48000000	      0.16105366	      0.05138311	      0.17795761
      5.48500000	      0.16075665	      0.05133571	      0.17704574
      5.49000000	      0.16098556	      0.05137224	      0.17779286
      5.49500000	      0.16082409	      0.05134647	      0.17777707
      5.50000000	      0.16096280	      0.05136861	      0.17768676
      5.50500000	      0.16091836	      0.05136152	      0.17760900
      5.51000000	      0.16083173	      0.05134769	      0.17785359
      5.51500000	      0.16095417	      0.05136724	      0.17792933
      5.52000000	      0.16096997	      0.05136976	      0.17772935
      5.52500000	      0.16100653	      0.05137559	      0.17770416
      5.53000000	      0.16078680	      0.05134052	      0.17788901
      5.53500000	      0.16106035	      0.05138418	      0.17753764
      5.54000000	      0.16110988	      0.05139208	      0.17737657
      5.54500000	      0.16088626	      0.05135640	      0.17764509
      5.55000000	      0.16099448	      0.05137367	      0.17759299
      5.55500000	      0.16094601	      0.05136593	      0.17763601
      5.56000000	      0.16090953	      0.05136011	      0.17768764
      5.56500000	      0.16087146	      0.05135404	      0.17767287
      5.57000000	      0.16085340	      0.05135115	      0.17765338
      5.57500000	      0.16100874	      0.05137594	      0.17731882
      5.58000000	      0.16088043	      0.05135547	      0.17760431
      5.58500000	      0.16071882	      0.05132967	      0.17762664
      5.59000000	      0.16053116	      0.05129969	      0.17769724
      5.59500000	      0.16054936	      0.05130260	      0.17768747
      5.60000000	      0.16055057	      0.05130279	      0.17765552
      5.60500000	      0.16057748	      0.05130709	      0.17780939
      5.61000000	      0.16066285	      0.05132073	      0.17768005
      5.61500000	      0.16064370	      0.05131767	      0.17776004
      5.62000000	      0.16069655	      0.05132611	      0.17783881
      5.62500000	      0.16079712	      0.05134217	      0.17753273
      5.63000000	      0.16075500	      0.05133544	      0.17781810
      5.63500000	      0.16078008	      0.05133945	      0.17752457
      5.64000000	      0.16094117	      0.05136516	      0.17748545
      5.64500000	      0.16094591	      0.05136592	      0.17747681
      5.65000000	      0.16097182	      0.05137005	      0.17753646
      5.65500000	      0.16086063	      0.05135231	      0.17775680
      5.66000000	      0.16085044	      0.05135068	      0.17781345
      5.66500000	      0.16094237	      0.05136535	      0.17754209
      5.67000000	      0.16081227	      0.05134459	      0.17803432
      5.67500000	      0.16106494	      0.05138491	      0.17746348
      5.68000000	      0.16094143	      0.05136520	      0.17771589
      5.68500000	      0.16101919	      0.05137761	      0.17755929
      5.69000000	      0.16090384	      0.05135920	      0.17757354
      5.69500000	      0.16100346	      0.05137510	      0.17755724
      5.70000000	      0.16086864	      0.05135359	      0.17766877
      5.70500000	      0.16005654	      0.05122380	      0.17825865
      5.71000000	      0.16069006	      0.05132507	      0.17757981
      5.71500000	      0.15996498	      0.05120915	      0.17820813
      5.72000000	      0.15996793	      0.05120962	      0.17806208
      5.72500000	      0.15987084	      0.05119408	      0.17816521
      5.73000000	      0.15985668	      0.05119181	      0.17814445
      5.73500000	      0.15989505	      0.05119795	      0.17807648
      5.74000000	      0.15990866	      0.05120013	      0.17799558
      5.74500000	      0.15993653	      0.05120459	      0.17787755
      5.75000000	      0.15981193	      0.05118464	      0.17804503
      5.75500000	      0.15984198	      0.05118945	      0.17806527
      5.76000000	      0.15965745	      0.05115990	      0.17810284
      5.76500000	      0.15966535	      0.05116116	      0.17805773
      5.77000000	      0.15961917	      0.05115377	      0.17812175
      5.77500000	      0.15968950	      0.05116503	      0.17794335
      5.78000000	      0.15973328	      0.05117205	      0.17771731
      5.78500000	      0.15960247	      0.05115109	      0.17795957
      5.79000000	      0.15970811	      0.05116801	      0.17791403
      5.79500000	      0.15964743	      0.05115829	      0.17796575
      5.80000000	      0.15978507	      0.05118034	      0.17791726
      5.80500000	      0.15976924	      0.05117781	      0.17794597
      5.81000000	      0.15978028	      0.05117957	      0.17795587
      5.81500000	      0.15978031	      0.05117958	      0.17793991
      5.82000000	      0.15969054	      0.05116520	      0.17801623
      5.82500000	      0.15968045	      0.05116358	      0.17773774
      5.83000000	      0.15969071	      0.05116523	      0.17791011
      5.83500000	      0.15976832	      0.05117766	      0.17786095
      5.84000000	      0.15972743	      0.05117111	      0.17799946
      5.84500000	      0.15976531	      0.05117718	      0.17795342
      5.85000000	      0.15968659	      0.05116457	      0.17804080
      5.85500000	      0.15961721	      0.05115345	      0.17799132
      5.86000000	      0.15966796	      0.05116158	      0.17804820
      5.86500000	      0.15966256	      0.05116072	      0.17790971
      5.87000000	      0.15958849	      0.05114885	      0.17796149
      5.87500000	      0.15964283	      0.05115756	      0.17805839
      5.88000000	      0.15963837	      0.05115684	      0.17805542
      5.88500000	      0.15967825	      0.05116323	      0.17825711
      5.89000000	      0.15976902	      0.05117777	      0.17793865
      5.89500000	      0.15967340	      0.05116245	      0.17797841
      5.90000000	      0.15966830	      0.05116164	      0.17798993
      5.90500000	      0.15966289	      0.05116077	      0.17810837
      5.91000000	      0.15961728	      0.05115346	      0.17803066
      5.91500000	      0.15964794	      0.05115837	      0.17791708
      5.92000000	      0.15967561	      0.05116281	      0.17771323
      5.92500000	      0.15976365	      0.05117691	      0.17779780
      5.93000000	      0.15964514	      0.05115793	      0.17794664
      5.93500000	      0.15963852	      0.05115687	      0.17790215
      5.94000000	      0.15966887	      0.05116173	      0.17771645
      5.94500000	      0.15968090	      0.05116366	      0.17784592
      5.95000000	      0.15961496	      0.05115309	      0.17789570
      5.95500000	      0.15961115	      0.05115248	      0.17775330
      5.96000000	      0.15952863	      0.05113926	      0.17774718
      5.96500000	      0.15954514	      0.05114190	      0.17797330
      5.97000000	      0.15960277	      0.05115114	      0.17777423
      5.97500000	      0.15963755	      0.05115671	      0.17772241
      5.98000000	      0.15958496	      0.05114828	      0.17758603
      5.98500000	      0.15949351	      0.05113363	      0.17791239
      5.99000000	      0.15948854	      0.05113283	      0.17783665
      5.99500000	      0.15952935	      0.05113937	      0.17768433
      6.00000000	      0.15948357	      0.05113203	      0.17772084
      6.00500000	      0.15934979	      0.05111058	      0.17788946
      6.01000000	      0.15972563	      0.05117082	      0.17742890
      6.01500000	      0.15957534	      0.05114674	      0.17751073
      6.02000000	      0.15954926	      0.05114256	      0.17761936
      6.02500000	      0.15986301	      0.05119282	      0.17739483
      6.03000000	      0.15978417	      0.05118020	      0.17750363
      6.03500000	      0.15980549	      0.05118361	      0.17748716
      6.04000000	      0.15983944	      0.05118905	      0.17736081
      6.04500000	      0.15988919	      0.05119701	      0.17733666
      6.05000000	      0.15982878	      0.05118734	      0.17735370
      6.05500000	      0.15985310	      0.05119124	      0.17744891
      6.06000000	      0.15992308	      0.05120244	      0.17745352
      6.06500000	      0.15992758	      0.05120316	      0.17723030
      6.07000000	      0.16001478	      0.05121712	      0.17737959
      6.07500000	      0.15979478	      0.05118190	      0.17742711
      6.08000000	      0.16004319	      0.05122166	      0.17728329
      6.08500000	      0.15990382	      0.05119936	      0.17745394
      6.09000000	      0.16001159	      0.05121661	      0.17729573
      6.09500000	      0.15984929	      0.05119063	      0.17739129
      6.10000000	      0.16008151	      0.05122780	      0.17737759
      6.10500000	      0.16007396	      0.05122659	      0.17728358
      6.11000000	      0.16020639	      0.05124777	      0.17710824
      6.11500000	      0.15993429	      0.05120423	      0.17736290
      6.12000000	      0.15998706	      0.05121268	      0.17731951
      6.12500000	      0.16007768	      0.05122718	      0.17744072
      6.13000000	      0.16016259	      0.05124077	      0.17730726
      6.13500000	      0.16000681	      0.05121584	      0.17736765
      6.14000000	      0.16007338	      0.05122650	      0.17740274
      6.14500000	      0.16014783	      0.05123841	      0.17733537
      6.15000000	      0.16017124	      0.05124215	      0.17737824
      6.15500000	      0.16019404	      0.05124580	      0.17732281
      6.16000000	      0.16007488	      0.05122673	      0.17734898
      6.16500000	      0.16009253	      0.05122956	      0.17724843
      6.17000000	      0.15934029	      0.05110906	      0.17787918
      6.17500000	      0.16005776	      0.05122400	      0.17740798
      6.18000000	      0.15995472	      0.05120750	      0.17736398
      6.18500000	      0.16014062	      0.05123725	      0.17741281
      6.19000000	      0.15992217	      0.05120229	      0.17741024
      6.19500000	      0.16011653	      0.05123340	      0.17732645
      6.20000000	      0.16016546	      0.05124123	      0.17720437
      6.20500000	      0.16027642	      0.05125897	      0.17708216
      6.21000000	      0.16014357	      0.05123772	      0.17726239
      6.21500000	      0.16016382	      0.05124096	      0.17735768
      6.22000000	      0.16028311	      0.05126004	      0.17728038
      6.22500000	      0.16022992	      0.05125154	      0.17733580
      6.23000000	      0.16017711	      0.05124309	      0.17727491
      6.23500000	      0.16020376	      0.05124735	      0.17733152
      6.24000000	      0.16020759	      0.05124797	      0.17733743
      6.24500000	      0.16021898	      0.05124979	      0.17717411
      6.25000000	      0.16026105	      0.05125651	      0.17727040
      6.25500000	      0.16021646	      0.05124938	      0.17728006
      6.26000000	      0.16022165	      0.05125021	      0.17729050
      6.26500000	      0.16024688	      0.05125425	      0.17726933
      6.27000000	      0.16018362	      0.05124413	      0.17726249
      6.27500000	      0.16013767	      0.05123678	      0.17751353
      6.28000000	      0.16015755	      0.05123996	      0.17727998
      6.28500000	      0.16023431	      0.05125224	      0.17733748
      6.29000000	      0.16030952	      0.05126427	      0.17739927
      6.29500000	      0.16025480	      0.05125552	      0.17725166
      6.30000000	      0.16027694	      0.05125906	      0.17731031
      6.30500000	      0.16022940	      0.05125145	      0.17737562
      6.31000000	      0.16023085	      0.05125168	      0.17715405
      6.31500000	      0.16013109	      0.05123573	      0.17732840
      6.32000000	      0.16012428	      0.05123464	      0.17735809
      6.32500000	      0.16012297	      0.05123443	      0.17725451
      6.33000000	      0.16010707	      0.05123188	      0.17728885
      6.33500000	      0.16015108	      0.05123893	      0.17724201
      6.34000000	      0.16018030	      0.05124360	      0.17760839
      6.34500000	      0.16014498	      0.05123795	      0.17719810
      6.35000000	      0.16025726	      0.05125591	      0.17709141
      6.35500000	      0.16017673	      0.05124303	      0.17752773
      6.36000000	      0.16014329	      0.05123768	      0.17733736
      6.36500000	      0.16021430	      0.05124904	      0.17739698
      6.37000000	      0.16025354	      0.05125531	      0.17725843
      6.37500000	      0.16020479	      0.05124752	      0.17739825
      6.38000000	      0.16028903	      0.05126099	      0.17724336
      6.38500000	      0.16024911	      0.05125461	      0.17746687
      6.39000000	      0.16005646	      0.05122379	      0.17683474
      6.39500000	      0.16046405	      0.05128897	      0.17740232
      6.40000000	      0.16019099	      0.05124531	      0.17679866
      6.40500000	      0.16057619	      0.05130689	      0.17724488
      6.41000000	      0.16020201	      0.05124707	      0.17680847
      6.41500000	      0.16017895	      0.05124338	      0.17672941
      6.42000000	      0.16021138	      0.05124857	      0.17691198
      6.42500000	      0.16024159	      0.05125340	      0.17687819
      6.43000000	      0.15981282	      0.05118479	      0.17709186
      6.43500000	      0.16026825	      0.05125767	      0.17689905
      6.44000000	      0.16030129	      0.05126295	      0.17675225
      6.44500000	      0.15976628	      0.05117733	      0.17708952
      6.45000000	      0.15974303	      0.05117361	      0.17698183
      6.45500000	      0.15973635	      0.05117254	      0.17692159
      6.46000000	      0.15968136	      0.05116373	      0.17697817
      6.46500000	      0.15971434	      0.05116901	      0.17701512
      6.47000000	      0.15954010	      0.05114109	      0.17709880
      6.47500000	      0.15980285	      0.05118319	      0.17780800
      6.48000000	      0.16034918	      0.05127061	      0.17742389
      6.48500000	      0.16047436	      0.05129062	      0.17739500
      6.49000000	      0.16046687	      0.05128942	      0.17763658
      6.49500000	      0.16062638	      0.05131490	      0.17769447
      6.50000000	      0.16077979	      0.05133940	      0.17751973
      6.50500000	      0.16082571	      0.05134673	      0.17741654
      6.51000000	      0.16089084	      0.05135713	      0.17757668
      6.51500000	      0.16081114	      0.05134441	      0.17774776
      6.52000000	      0.16086761	      0.05135342	      0.17753704
      6.52500000	      0.16095298	      0.05136705	      0.17769455
      6.53000000	      0.16103460	      0.05138007	      0.17742953
      6.53500000	      0.16017675	      0.05124303	      0.17801258
      6.54000000	      0.16010507	      0.05123156	      0.17727897
      6.54500000	      0.16074600	      0.05133401	      0.17681357
      6.55000000	      0.16075985	      0.05133622	      0.17689751
      6.55500000	      0.16052856	      0.05129928	      0.17692075
      6.56000000	      0.15980644	      0.05118376	      0.17734504
      6.56500000	      0.16083890	      0.05134884	      0.17752926
      6.57000000	      0.16086195	      0.05135252	      0.17734304
      6.57500000	      0.16086389	      0.05135283	      0.17756701
      6.58000000	      0.16082385	      0.05134644	      0.17742970
      6.58500000	      0.16087145	      0.05135403	      0.17742934
      6.59000000	      0.16099431	      0.05137364	      0.17747653
      6.59500000	      0.16097267	      0.05137019	      0.17740665
      6.60000000	      0.16110453	      0.05139122	      0.17733930
      6.60500000	      0.16110030	      0.05139055	      0.17750563
      6.61000000	      0.16111950	      0.05139361	      0.17769386
      6.61500000	      0.16119419	      0.05140552	      0.17774282
      6.62000000	      0.16130557	      0.05142328	      0.17783978
      6.62500000	      0.16149196	      0.05145298	      0.17795532
      6.63000000	      0.16153302	      0.05145952	      0.17825934
      6.63500000	      0.16154531	      0.05146148	      0.17826321
      6.64000000	      0.16149706	      0.05145379	      0.17808827
      6.64500000	      0.16166458	      0.05148047	      0.17802872
      6.65000000	      0.16174293	      0.05149295	      0.17811006
      6.65500000	      0.16147267	      0.05144991	      0.17766550
      6.66000000	      0.16162136	      0.05147359	      0.17771902
      6.66500000	      0.16156907	      0.05146526	      0.17783201
      6.67000000	      0.16174696	      0.05149359	      0.17773440
      6.67500000	      0.16174473	      0.05149323	      0.17778275
      6.68000000	      0.16160592	      0.05147113	      0.17737393
      6.68500000	      0.16178890	      0.05150026	      0.17752634
      6.69000000	      0.16190882	      0.05151935	      0.17775079
      6.69500000	      0.16199548	      0.05153313	      0.17778198
      6.70000000	      0.16213834	      0.05155585	      0.17788700
      6.70500000	      0.16221738	      0.05156841	      0.17866209
      6.71000000	      0.16204469	      0.05154096	      0.17803971
      6.71500000	      0.16211750	      0.05155254	      0.17833157
      6.72000000	      0.16196463	      0.05152822	      0.17880446
      6.72500000	      0.16221412	      0.05156790	      0.17905950
      6.73000000	      0.16232775	      0.05158595	      0.17926577
      6.73500000	      0.16137651	      0.05143459	      0.17994819
      6.74000000	      0.16157795	      0.05146668	      0.18032684
      6.74500000	      0.16129599	      0.05142175	      0.18029962
      6.75000000	      0.16121679	      0.05140913	      0.18048396
      6.75500000	      0.16141545	      0.05144079	      0.17936063
      6.76000000	      0.16114173	      0.05139716	      0.17938072
      6.76500000	      0.16065324	      0.05131919	      0.17952990
      6.77000000	      0.16039615	      0.05127812	      0.17939173
      6.77500000	      0.16003503	      0.05122036	      0.17927455
      6.78000000	      0.16074003	      0.05133305	      0.17887108
      6.78500000	      0.16001624	      0.05121735	      0.17837072
      6.79000000	      0.15857913	      0.05098684	      0.17830301
      6.79500000	      0.15908041	      0.05106736	      0.17746619
      6.80000000	      0.15856967	      0.05098532	      0.17676230
      6.80500000	      0.15777656	      0.05085765	      0.17659339
      6.81000000	      0.15653594	      0.05065731	      0.17610209
      6.81500000	      0.15619207	      0.05060164	      0.17587646
      6.82000000	      0.15566163	      0.05051564	      0.17509435
      6.82500000	      0.15494595	      0.05039938	      0.17538341
      6.83000000	      0.15457510	      0.05033903	      0.17526225
      6.83500000	      0.15422180	      0.05028147	      0.17468832
      6.84000000	      0.15390802	      0.05023029	      0.17477366
      6.84500000	      0.15389719	      0.05022853	      0.17461399
      6.85000000	      0.15396942	      0.05024031	      0.17470720
      6.85500000	      0.15316186	      0.05010838	      0.17436630
      6.86000000	      0.15308614	      0.05009600	      0.17480772
      6.86500000	      0.15298746	      0.05007985	      0.17496083
      6.87000000	      0.15250648	      0.05000106	      0.17510438
      6.87500000	      0.15251404	      0.05000230	      0.17466119
      6.88000000	      0.15307701	      0.05009450	      0.17456537
      6.88500000	      0.15251865	      0.05000306	      0.17446737
      6.89000000	      0.15220447	      0.04995153	      0.17413699
      6.89500000	      0.15221985	      0.04995405	      0.17462664
      6.90000000	      0.15224205	      0.04995770	      0.17446035
      6.90500000	      0.15200358	      0.04991855	      0.17446610
      6.91000000	      0.15210864	      0.04993580	      0.17472535
      6.91500000	      0.15184818	      0.04989303	      0.17429182
      6.92000000	      0.15175226	      0.04987727	      0.17462883
      6.92500000	      0.15165497	      0.04986128	      0.17501945
      6.93000000	      0.15172569	      0.04987290	      0.17511654
      6.93500000	      0.15158341	      0.04984951	      0.17539474
      6.94000000	      0.15127386	      0.04979859	      0.17557793
      6.94500000	      0.15125138	      0.04979489	      0.17603086
      6.95000000	      0.15112688	      0.04977439	      0.17625331
      6.95500000	      0.15080527	      0.04972140	      0.17643435
      6.96000000	      0.15042394	      0.04965850	      0.17652467
      6.96500000	      0.14989384	      0.04957092	      0.17708070
      6.97000000	      0.14933078	      0.04947773	      0.17764238
      6.97500000	      0.14851112	      0.04934175	      0.17815989
      6.98000000	      0.14789412	      0.04923915	      0.17865209
      6.98500000	      0.14707413	      0.04910246	      0.17855402
      6.99000000	      0.14618418	      0.04895367	      0.17905924
      6.99500000	      0.14519569	      0.04878788	      0.17959983
      7.00000000	      0.14444412	      0.04866145	      0.18020594
      7.00500000	      0.14338002	      0.04848187	      0.18036369
      7.01000000	      0.14261939	      0.04835311	      0.18088421
      7.01500000	      0.14207496	      0.04826073	      0.18106798
      7.02000000	      0.14123627	      0.04811807	      0.18161358
      7.02500000	      0.14065861	      0.04801957	      0.18165422
      7.03000000	      0.14001037	      0.04790879	      0.18192692
      7.03500000	      0.13918473	      0.04776732	      0.18223662
      7.04000000	      0.13816967	      0.04759282	      0.18183172
      7.04500000	      0.13712206	      0.04741205	      0.18178464
      7.05000000	      0.13602596	      0.04722217	      0.18158446
      7.05500000	      0.13454214	      0.04696391	      0.18142927
      7.06000000	      0.13272428	      0.04664556	      0.18111491
      7.06500000	      0.13065649	      0.04628077	      0.18100580
      7.07000000	      0.12865185	      0.04592436	      0.18081548
      7.07500000	      0.12790718	      0.04579126	      0.18052711
      7.08000000	      0.12916393	      0.04601566	      0.18050060
      7.08500000	      0.13090857	      0.04632539	      0.18013368
      7.09000000	      0.13142477	      0.04641664	      0.18017462
      7.09500000	      0.12984087	      0.04613609	      0.17910351
      7.10000000	      0.12689386	      0.04560951	      0.17801194
      7.10500000	      0.12359339	      0.04501246	      0.17709830
      7.11000000	      0.12112262	      0.04456026	      0.17555266
      7.11500000	      0.11981860	      0.04431974	      0.17362046
      7.12000000	      0.11891121	      0.04415160	      0.17139884
      7.12500000	      0.11807551	      0.04399618	      0.16977625
      7.13000000	      0.11670514	      0.04374013	      0.16780007
      7.13500000	      0.11586416	      0.04358225	      0.16666474
      7.14000000	      0.11505465	      0.04342973	      0.16594430
      7.14500000	      0.11453461	      0.04333147	      0.16599928
      7.15000000	      0.11410829	      0.04325075	      0.16648946
      7.15500000	      0.11365189	      0.04316417	      0.16749099
      7.16000000	      0.11316501	      0.04307162	      0.16847931
      7.16500000	      0.11281772	      0.04300547	      0.16994091
      7.17000000	      0.11214084	      0.04287627	      0.17074376
      7.17500000	      0.11142532	      0.04273926	      0.17129294
      7.18000000	      0.11083922	      0.04262671	      0.17133684
      7.18500000	      0.11017018	      0.04249786	      0.17104690
      7.19000000	      0.10962271	      0.04239214	      0.17023690
      7.19500000	      0.10916953	      0.04230442	      0.16948133
      7.20000000	      0.10874662	      0.04222241	      0.16799056
      7.20500000	      0.10839331	      0.04215376	      0.16710876
      7.21000000	      0.10824800	      0.04212549	      0.16567256
      7.21500000	      0.10825265	      0.04212640	      0.16482181
      7.22000000	      0.10815072	      0.04210656	      0.16377813
      7.22500000	      0.10806847	      0.04209055	      0.16260365
      7.23000000	      0.10825364	      0.04212659	      0.16197670
      7.23500000	      0.10853466	      0.04218124	      0.16123047
      7.24000000	      0.10882014	      0.04223668	      0.16035233
      7.24500000	      0.10932277	      0.04233411	      0.16015997
      7.25000000	      0.11001420	      0.04246777	      0.16063418
      7.25500000	      0.11049539	      0.04256054	      0.16104269
      7.26000000	      0.11053720	      0.04256859	      0.16123859
      7.26500000	      0.11060622	      0.04258188	      0.16182711
      7.27000000	      0.11059386	      0.04257950	      0.16241020
      7.27500000	      0.11052075	      0.04256543	      0.16304975
      7.28000000	      0.11042844	      0.04254765	      0.16367473
      7.28500000	      0.11049261	      0.04256001	      0.16422367
      7.29000000	      0.11051437	      0.04256420	      0.16482989
      7.29500000	      0.11058103	      0.04257703	      0.16563437
      7.30000000	      0.11042771	      0.04254751	      0.16600055
      7.30500000	      0.11001827	      0.04246856	      0.16561676
      7.31000000	      0.10998556	      0.04246224	      0.16592790
      7.31500000	      0.10970611	      0.04240826	      0.16565208
      7.32000000	      0.10920400	      0.04231110	      0.16482086
      7.32500000	      0.10909814	      0.04229059	      0.16481840
      7.33000000	      0.10864489	      0.04220265	      0.16439188
      7.33500000	      0.10826585	      0.04212897	      0.16385281
      7.34000000	      0.10817809	      0.04211189	      0.16329363
      7.34500000	      0.10793364	      0.04206428	      0.16311681
      7.35000000	      0.10781437	      0.04204104	      0.16292058
      7.35500000	      0.10781157	      0.04204049	      0.16258856
