Model Marker Errors from IK
version=1
nRows=283
nColumns=4
inDegrees=no
endheader
time	total_squared_error	marker_error_RMS	marker_error_max
      2.91000000	      0.10271147	      0.04103407	      0.14483784
      2.91500000	      0.10267577	      0.04102693	      0.14518962
      2.92000000	      0.10271583	      0.04103494	      0.14558657
      2.92500000	      0.10268097	      0.04102797	      0.14489171
      2.93000000	      0.10267414	      0.04102661	      0.14488860
      2.93500000	      0.10265497	      0.04102278	      0.14508317
      2.94000000	      0.10271116	      0.04103400	      0.14529975
      2.94500000	      0.10267419	      0.04102662	      0.14479524
      2.95000000	      0.10267606	      0.04102699	      0.14508615
      2.95500000	      0.10269431	      0.04103064	      0.14522872
      2.96000000	      0.10282805	      0.04105735	      0.14598335
      2.96500000	      0.10264802	      0.04102139	      0.14481484
      2.97000000	      0.10276794	      0.04104534	      0.14520349
      2.97500000	      0.10267518	      0.04102682	      0.14480282
      2.98000000	      0.10266523	      0.04102483	      0.14496930
      2.98500000	      0.10266965	      0.04102571	      0.14469312
      2.99000000	      0.10266927	      0.04102564	      0.14468868
      2.99500000	      0.10273191	      0.04103815	      0.14500821
      3.00000000	      0.10270123	      0.04103202	      0.14471942
      3.00500000	      0.10272621	      0.04103701	      0.14569434
      3.01000000	      0.10274797	      0.04104136	      0.14505296
      3.01500000	      0.10265926	      0.04102364	      0.14466126
      3.02000000	      0.10269295	      0.04103037	      0.14539107
      3.02500000	      0.10265428	      0.04102264	      0.14454338
      3.03000000	      0.10261697	      0.04101519	      0.14474932
      3.03500000	      0.10266442	      0.04102467	      0.14506653
      3.04000000	      0.10265463	      0.04102271	      0.14520730
      3.04500000	      0.10262947	      0.04101768	      0.14453206
      3.05000000	      0.10261700	      0.04101519	      0.14445612
      3.05500000	      0.10258405	      0.04100860	      0.14477084
      3.06000000	      0.10263940	      0.04101967	      0.14456436
      3.06500000	      0.10269127	      0.04103003	      0.14506727
      3.07000000	      0.10265480	      0.04102274	      0.14460964
      3.07500000	      0.10267204	      0.04102619	      0.14491473
      3.08000000	      0.10262097	      0.04101599	      0.14451151
      3.08500000	      0.10269026	      0.04102983	      0.14484254
      3.09000000	      0.10264737	      0.04102126	      0.14506115
      3.09500000	      0.10264484	      0.04102075	      0.14453536
      3.10000000	      0.10264906	      0.04102160	      0.14457848
      3.10500000	      0.10261434	      0.04101466	      0.14459870
      3.11000000	      0.10262210	      0.04101621	      0.14493058
      3.11500000	      0.10266319	      0.04102442	      0.14509066
      3.12000000	      0.10268652	      0.04102908	      0.14525039
      3.12500000	      0.10287963	      0.04106764	      0.14589394
      3.13000000	      0.10281774	      0.04105529	      0.14582837
      3.13500000	      0.10277018	      0.04104579	      0.14485933
      3.14000000	      0.10269998	      0.04103177	      0.14465035
      3.14500000	      0.10269423	      0.04103062	      0.14494172
      3.15000000	      0.10273851	      0.04103947	      0.14484121
      3.15500000	      0.10281792	      0.04105532	      0.14515383
      3.16000000	      0.10273903	      0.04103957	      0.14478183
      3.16500000	      0.10279795	      0.04105134	      0.14535192
      3.17000000	      0.10279271	      0.04105029	      0.14549099
      3.17500000	      0.10277172	      0.04104610	      0.14494338
      3.18000000	      0.10275965	      0.04104369	      0.14503856
      3.18500000	      0.10285729	      0.04106318	      0.14524760
      3.19000000	      0.10290573	      0.04107285	      0.14597899
      3.19500000	      0.10282981	      0.04105770	      0.14492783
      3.20000000	      0.10293102	      0.04107790	      0.14537990
      3.20500000	      0.10289143	      0.04107000	      0.14500723
      3.21000000	      0.10301377	      0.04109441	      0.14576975
      3.21500000	      0.10297566	      0.04108681	      0.14529345
      3.22000000	      0.10296669	      0.04108502	      0.14498881
      3.22500000	      0.10295148	      0.04108198	      0.14534039
      3.23000000	      0.10299908	      0.04109148	      0.14564145
      3.23500000	      0.10300977	      0.04109361	      0.14507058
      3.24000000	      0.10300781	      0.04109322	      0.14545027
      3.24500000	      0.10298107	      0.04108788	      0.14515377
      3.25000000	      0.10303958	      0.04109955	      0.14515298
      3.25500000	      0.10310419	      0.04111244	      0.14568037
      3.26000000	      0.10305951	      0.04110353	      0.14522978
      3.26500000	      0.10314765	      0.04112110	      0.14564610
      3.27000000	      0.10307245	      0.04110611	      0.14531306
      3.27500000	      0.10316727	      0.04112501	      0.14571574
      3.28000000	      0.10313224	      0.04111803	      0.14537325
      3.28500000	      0.10314533	      0.04112064	      0.14533376
      3.29000000	      0.10320312	      0.04113216	      0.14585146
      3.29500000	      0.10324117	      0.04113974	      0.14579667
      3.30000000	      0.10324676	      0.04114085	      0.14557857
      3.30500000	      0.10324599	      0.04114070	      0.14546149
      3.31000000	      0.10326240	      0.04114397	      0.14541041
      3.31500000	      0.10330615	      0.04115268	      0.14590004
      3.32000000	      0.10346856	      0.04118502	      0.14680744
      3.32500000	      0.10336049	      0.04116351	      0.14546112
      3.33000000	      0.10334996	      0.04116141	      0.14578039
      3.33500000	      0.10335808	      0.04116303	      0.14551837
      3.34000000	      0.10342767	      0.04117688	      0.14586046
      3.34500000	      0.10343315	      0.04117797	      0.14559253
      3.35000000	      0.10344918	      0.04118116	      0.14572889
      3.35500000	      0.10349929	      0.04119114	      0.14592802
      3.36000000	      0.10348581	      0.04118845	      0.14563736
      3.36500000	      0.10350465	      0.04119220	      0.14596701
      3.37000000	      0.10363861	      0.04121885	      0.14640734
      3.37500000	      0.10357714	      0.04120662	      0.14579324
      3.38000000	      0.10364492	      0.04122011	      0.14604298
      3.38500000	      0.10369355	      0.04122977	      0.14613778
      3.39000000	      0.10370118	      0.04123129	      0.14589873
      3.39500000	      0.10372301	      0.04123563	      0.14641790
      3.40000000	      0.10372586	      0.04123620	      0.14595359
      3.40500000	      0.10372407	      0.04123584	      0.14618727
      3.41000000	      0.10382463	      0.04125583	      0.14682620
      3.41500000	      0.10376347	      0.04124367	      0.14600684
      3.42000000	      0.10385276	      0.04126141	      0.14623649
      3.42500000	      0.10378562	      0.04124807	      0.14609137
      3.43000000	      0.10384650	      0.04126017	      0.14646530
      3.43500000	      0.10391287	      0.04127335	      0.14648021
      3.44000000	      0.10391378	      0.04127353	      0.14635747
      3.44500000	      0.10390569	      0.04127193	      0.14661141
      3.45000000	      0.10394124	      0.04127899	      0.14632500
      3.45500000	      0.10400731	      0.04129211	      0.14675030
      3.46000000	      0.10401645	      0.04129392	      0.14678581
      3.46500000	      0.10415740	      0.04132189	      0.14817341
      3.47000000	      0.10407992	      0.04130651	      0.14637422
      3.47500000	      0.10414775	      0.04131997	      0.14699132
      3.48000000	      0.10409330	      0.04130917	      0.14641123
      3.48500000	      0.10411077	      0.04131264	      0.14641947
      3.49000000	      0.10412324	      0.04131511	      0.14665388
      3.49500000	      0.10416505	      0.04132340	      0.14642464
      3.50000000	      0.10419290	      0.04132893	      0.14677961
      3.50500000	      0.10422637	      0.04133557	      0.14651022
      3.51000000	      0.10424628	      0.04133951	      0.14654327
      3.51500000	      0.10421828	      0.04133396	      0.14640286
      3.52000000	      0.10426855	      0.04134393	      0.14651513
      3.52500000	      0.10432982	      0.04135607	      0.14687882
      3.53000000	      0.10437733	      0.04136549	      0.14700099
      3.53500000	      0.10439211	      0.04136842	      0.14750764
      3.54000000	      0.10446448	      0.04138276	      0.14698473
      3.54500000	      0.10445434	      0.04138075	      0.14737637
      3.55000000	      0.10453842	      0.04139740	      0.14766754
      3.55500000	      0.10458187	      0.04140600	      0.14686700
      3.56000000	      0.10467784	      0.04142499	      0.14716858
      3.56500000	      0.10476511	      0.04144226	      0.14796893
      3.57000000	      0.10484033	      0.04145713	      0.14784973
      3.57500000	      0.10482960	      0.04145501	      0.14714676
      3.58000000	      0.10487460	      0.04146391	      0.14714826
      3.58500000	      0.10494744	      0.04147831	      0.14747376
      3.59000000	      0.10507550	      0.04150361	      0.14780107
      3.59500000	      0.10500655	      0.04148999	      0.14728382
      3.60000000	      0.10504527	      0.04149763	      0.14773931
      3.60500000	      0.10514894	      0.04151811	      0.14793008
      3.61000000	      0.10520309	      0.04152879	      0.14807879
      3.61500000	      0.10514465	      0.04151726	      0.14756105
      3.62000000	      0.10519760	      0.04152771	      0.14805885
      3.62500000	      0.10529705	      0.04154734	      0.14849573
      3.63000000	      0.10521494	      0.04153113	      0.14794768
      3.63500000	      0.10523714	      0.04153552	      0.14861522
      3.64000000	      0.10531809	      0.04155149	      0.14853734
      3.64500000	      0.10524612	      0.04153729	      0.14799201
      3.65000000	      0.10514631	      0.04151759	      0.14828259
      3.65500000	      0.10506638	      0.04150180	      0.14838263
      3.66000000	      0.10505866	      0.04150028	      0.14808068
      3.66500000	      0.10520575	      0.04152932	      0.14846620
      3.67000000	      0.10508293	      0.04150507	      0.14859757
      3.67500000	      0.10505784	      0.04150012	      0.14859397
      3.68000000	      0.10492883	      0.04147463	      0.14864472
      3.68500000	      0.10488719	      0.04146640	      0.14892508
      3.69000000	      0.10477206	      0.04144363	      0.14875805
      3.69500000	      0.10464081	      0.04141767	      0.14837994
      3.70000000	      0.10453261	      0.04139625	      0.14840280
      3.70500000	      0.10442104	      0.04137415	      0.14853532
      3.71000000	      0.10417219	      0.04132482	      0.14852820
      3.71500000	      0.10427901	      0.04134600	      0.14865582
      3.72000000	      0.10406276	      0.04130311	      0.14856267
      3.72500000	      0.10357412	      0.04120602	      0.14829005
      3.73000000	      0.10350677	      0.04119262	      0.14837312
      3.73500000	      0.10338324	      0.04116804	      0.14815182
      3.74000000	      0.10300147	      0.04109195	      0.14796117
      3.74500000	      0.10270518	      0.04103281	      0.14767112
      3.75000000	      0.10259742	      0.04101128	      0.14766279
      3.75500000	      0.10234611	      0.04096102	      0.14746590
      3.76000000	      0.10216668	      0.04092510	      0.14734476
      3.76500000	      0.10185757	      0.04086314	      0.14724235
      3.77000000	      0.10163749	      0.04081897	      0.14677534
      3.77500000	      0.10145125	      0.04078156	      0.14658677
      3.78000000	      0.10109592	      0.04071007	      0.14651333
      3.78500000	      0.10093623	      0.04067791	      0.14637879
      3.79000000	      0.10055446	      0.04060091	      0.14578923
      3.79500000	      0.10029400	      0.04054829	      0.14571949
      3.80000000	      0.09991934	      0.04047248	      0.14537993
      3.80500000	      0.09976004	      0.04044021	      0.14516363
      3.81000000	      0.09946527	      0.04038042	      0.14432393
      3.81500000	      0.09909622	      0.04030544	      0.14438711
      3.82000000	      0.09875755	      0.04023650	      0.14455063
      3.82500000	      0.09851296	      0.04018665	      0.14441852
      3.83000000	      0.09823279	      0.04012946	      0.14426889
      3.83500000	      0.09791941	      0.04006540	      0.14414815
      3.84000000	      0.09765520	      0.04001131	      0.14417737
      3.84500000	      0.09714542	      0.03990674	      0.14398619
      3.85000000	      0.09690256	      0.03985683	      0.14389409
      3.85500000	      0.09658790	      0.03979206	      0.14360613
      3.86000000	      0.09626567	      0.03972563	      0.14337579
      3.86500000	      0.09598328	      0.03966732	      0.14330932
      3.87000000	      0.09579326	      0.03962804	      0.14315087
      3.87500000	      0.09546316	      0.03955970	      0.14293905
      3.88000000	      0.09506469	      0.03947705	      0.14246678
      3.88500000	      0.09470523	      0.03940234	      0.14243748
      3.89000000	      0.09429215	      0.03931632	      0.14231500
      3.89500000	      0.09421107	      0.03929941	      0.14170658
      3.90000000	      0.09359471	      0.03917065	      0.14202107
      3.90500000	      0.09295290	      0.03903611	      0.14117596
      3.91000000	      0.09250497	      0.03894194	      0.14120374
      3.91500000	      0.09195178	      0.03882533	      0.14089151
      3.92000000	      0.09153011	      0.03873621	      0.13936842
      3.92500000	      0.09077046	      0.03857513	      0.13972720
      3.93000000	      0.09013285	      0.03843940	      0.13970959
      3.93500000	      0.08949004	      0.03830209	      0.13856167
      3.94000000	      0.08862804	      0.03811717	      0.13790914
      3.94500000	      0.08817022	      0.03801859	      0.13562471
      3.95000000	      0.08716818	      0.03780194	      0.13606716
      3.95500000	      0.08650006	      0.03765679	      0.13511490
      3.96000000	      0.08555548	      0.03745062	      0.13403272
      3.96500000	      0.08470224	      0.03726340	      0.13217604
      3.97000000	      0.08374737	      0.03705277	      0.13097135
      3.97500000	      0.08283161	      0.03684963	      0.13059396
      3.98000000	      0.08203951	      0.03667302	      0.12921849
      3.98500000	      0.08113849	      0.03647107	      0.12782829
      3.99000000	      0.08029929	      0.03628198	      0.12629901
      3.99500000	      0.07948224	      0.03609692	      0.12413018
      4.00000000	      0.07856418	      0.03588784	      0.12209536
      4.00500000	      0.07773389	      0.03569770	      0.12113528
      4.01000000	      0.07687879	      0.03550082	      0.11921775
      4.01500000	      0.07594868	      0.03528541	      0.11864558
      4.02000000	      0.07508367	      0.03508390	      0.11626279
      4.02500000	      0.07433554	      0.03490867	      0.11448949
      4.03000000	      0.07357371	      0.03472933	      0.11248611
      4.03500000	      0.07279502	      0.03454506	      0.11028103
      4.04000000	      0.07211311	      0.03438288	      0.10826214
      4.04500000	      0.07168645	      0.03428101	      0.10648345
      4.05000000	      0.07086502	      0.03408404	      0.10425989
      4.05500000	      0.07011768	      0.03390384	      0.10095484
      4.06000000	      0.07003709	      0.03388435	      0.10020309
      4.06500000	      0.06967812	      0.03379740	      0.09725466
      4.07000000	      0.06940193	      0.03373035	      0.09448717
      4.07500000	      0.06912719	      0.03366352	      0.09138556
      4.08000000	      0.06908757	      0.03365387	      0.08830834
      4.08500000	      0.07029627	      0.03394699	      0.08486694
      4.09000000	      0.07273964	      0.03453191	      0.08160130
      4.09500000	      0.07469680	      0.03499340	      0.07811741
      4.10000000	      0.07539215	      0.03515589	      0.07535972
      4.10500000	      0.07499480	      0.03506313	      0.07272165
      4.11000000	      0.07381929	      0.03478724	      0.07031828
      4.11500000	      0.07194702	      0.03434326	      0.06850046
      4.12000000	      0.07016278	      0.03391474	      0.06678273
      4.12500000	      0.06900878	      0.03363468	      0.06557263
      4.13000000	      0.06842995	      0.03349332	      0.06397257
      4.13500000	      0.06814718	      0.03342405	      0.06273113
      4.14000000	      0.06779198	      0.03333683	      0.06172392
      4.14500000	      0.06750173	      0.03326538	      0.06028451
      4.15000000	      0.06711149	      0.03316909	      0.05925157
      4.15500000	      0.06684621	      0.03310347	      0.05961992
      4.16000000	      0.06651604	      0.03302161	      0.06019092
      4.16500000	      0.06627927	      0.03296279	      0.06068147
      4.17000000	      0.06610856	      0.03292031	      0.06121928
      4.17500000	      0.06563127	      0.03280126	      0.06150803
      4.18000000	      0.06514520	      0.03267957	      0.06159506
      4.18500000	      0.06435084	      0.03247971	      0.06134319
      4.19000000	      0.06348248	      0.03225983	      0.06076420
      4.19500000	      0.06255614	      0.03202359	      0.06042314
      4.20000000	      0.06159590	      0.03177686	      0.05961490
      4.20500000	      0.06071697	      0.03154933	      0.05943533
      4.21000000	      0.05995921	      0.03135184	      0.05912958
      4.21500000	      0.05948621	      0.03122793	      0.05937869
      4.22000000	      0.05902508	      0.03110666	      0.05959717
      4.22500000	      0.05867267	      0.03101366	      0.05961256
      4.23000000	      0.05849720	      0.03096725	      0.05977693
      4.23500000	      0.05870774	      0.03102293	      0.05993862
      4.24000000	      0.05873629	      0.03103047	      0.05989097
      4.24500000	      0.05884994	      0.03106047	      0.05979427
      4.25000000	      0.05920554	      0.03115418	      0.05974454
      4.25500000	      0.05953261	      0.03124011	      0.05988108
      4.26000000	      0.05992731	      0.03134350	      0.05974763
      4.26500000	      0.06031556	      0.03144487	      0.05994243
      4.27000000	      0.06080967	      0.03157340	      0.05977195
      4.27500000	      0.06118403	      0.03167044	      0.06010386
      4.28000000	      0.06187311	      0.03184828	      0.06100228
      4.28500000	      0.06217275	      0.03192531	      0.06115289
      4.29000000	      0.06268415	      0.03205634	      0.06202677
      4.29500000	      0.06308735	      0.03215927	      0.06236320
      4.30000000	      0.06345331	      0.03225241	      0.06263516
      4.30500000	      0.06371889	      0.03231984	      0.06263049
      4.31000000	      0.06407653	      0.03241041	      0.06306358
      4.31500000	      0.06414558	      0.03242787	      0.06220332
      4.32000000	      0.06450960	      0.03251975	      0.06315573
