Model Marker Errors from IK
version=1
nRows=621
nColumns=4
inDegrees=no
endheader
time	total_squared_error	marker_error_RMS	marker_error_max
      3.80000000	      0.08451307	      0.03722177	      0.16117346
      3.80500000	      0.08455010	      0.03722992	      0.16105965
      3.81000000	      0.08454112	      0.03722795	      0.16102274
      3.81500000	      0.08457029	      0.03723437	      0.16100736
      3.82000000	      0.08463087	      0.03724770	      0.16108223
      3.82500000	      0.08451959	      0.03722321	      0.16096512
      3.83000000	      0.08467741	      0.03725794	      0.16104138
      3.83500000	      0.08477136	      0.03727861	      0.16105635
      3.84000000	      0.08504170	      0.03733800	      0.16201044
      3.84500000	      0.08474315	      0.03727240	      0.16121562
      3.85000000	      0.08508864	      0.03734830	      0.16181440
      3.85500000	      0.08518501	      0.03736945	      0.16186655
      3.86000000	      0.08509975	      0.03735074	      0.16169145
      3.86500000	      0.08508969	      0.03734853	      0.16189839
      3.87000000	      0.08513722	      0.03735896	      0.16188300
      3.87500000	      0.08518810	      0.03737012	      0.16177235
      3.88000000	      0.08505693	      0.03734134	      0.16130846
      3.88500000	      0.08520470	      0.03737377	      0.16160905
      3.89000000	      0.08514024	      0.03735962	      0.16151911
      3.89500000	      0.08485413	      0.03729680	      0.16093039
      3.90000000	      0.08496729	      0.03732166	      0.16110775
      3.90500000	      0.08500432	      0.03732979	      0.16092259
      3.91000000	      0.08501802	      0.03733280	      0.16077160
      3.91500000	      0.08498762	      0.03732613	      0.16063188
      3.92000000	      0.08507272	      0.03734481	      0.16080830
      3.92500000	      0.08491232	      0.03730959	      0.16041651
      3.93000000	      0.08488766	      0.03730417	      0.16015010
      3.93500000	      0.08502747	      0.03733488	      0.16047772
      3.94000000	      0.08486101	      0.03729831	      0.16009476
      3.94500000	      0.08489035	      0.03730476	      0.16007968
      3.95000000	      0.08494862	      0.03731756	      0.16016843
      3.95500000	      0.08499322	      0.03732736	      0.16031714
      3.96000000	      0.08490059	      0.03730701	      0.16047996
      3.96500000	      0.08514842	      0.03736142	      0.16045872
      3.97000000	      0.08521723	      0.03737651	      0.16048081
      3.97500000	      0.08539935	      0.03741643	      0.15963418
      3.98000000	      0.08517738	      0.03736777	      0.16009868
      3.98500000	      0.08521804	      0.03737669	      0.15994993
      3.99000000	      0.08528299	      0.03739093	      0.16029983
      3.99500000	      0.08537037	      0.03741008	      0.16016638
      4.00000000	      0.08530690	      0.03739617	      0.16000566
      4.00500000	      0.08518185	      0.03736875	      0.15962565
      4.01000000	      0.08521370	      0.03737574	      0.15911322
      4.01500000	      0.08509300	      0.03734926	      0.15948037
      4.02000000	      0.08533879	      0.03740316	      0.15994281
      4.02500000	      0.08524333	      0.03738224	      0.15961977
      4.03000000	      0.08527033	      0.03738816	      0.15955472
      4.03500000	      0.08527363	      0.03738888	      0.15970820
      4.04000000	      0.08535815	      0.03740741	      0.15986064
      4.04500000	      0.08543000	      0.03742314	      0.15982526
      4.05000000	      0.08543656	      0.03742458	      0.15931903
      4.05500000	      0.08567994	      0.03747785	      0.15866081
      4.06000000	      0.08543795	      0.03742489	      0.15951376
      4.06500000	      0.08541826	      0.03742057	      0.15932113
      4.07000000	      0.08568081	      0.03747804	      0.15961585
      4.07500000	      0.08558041	      0.03745607	      0.15917792
      4.08000000	      0.08569222	      0.03748053	      0.15955973
      4.08500000	      0.08576114	      0.03749560	      0.15884284
      4.09000000	      0.08556253	      0.03745216	      0.15896414
      4.09500000	      0.08596708	      0.03754060	      0.15896156
      4.10000000	      0.08572686	      0.03748811	      0.15939936
      4.10500000	      0.08577788	      0.03749926	      0.15909458
      4.11000000	      0.08564591	      0.03747041	      0.15879306
      4.11500000	      0.08606676	      0.03756236	      0.15848848
      4.12000000	      0.08576263	      0.03749593	      0.15904827
      4.12500000	      0.08571864	      0.03748631	      0.15853049
      4.13000000	      0.08591271	      0.03752872	      0.15881840
      4.13500000	      0.08610668	      0.03757107	      0.15820577
      4.14000000	      0.08637822	      0.03763026	      0.15755002
      4.14500000	      0.08584831	      0.03751465	      0.15862518
      4.15000000	      0.08598030	      0.03754348	      0.15910453
      4.15500000	      0.08604202	      0.03755696	      0.15892955
      4.16000000	      0.08621858	      0.03759547	      0.15922378
      4.16500000	      0.08615106	      0.03758075	      0.15886455
      4.17000000	      0.08605403	      0.03755958	      0.15853160
      4.17500000	      0.08614752	      0.03757997	      0.15852610
      4.18000000	      0.08630378	      0.03761404	      0.15885397
      4.18500000	      0.08635916	      0.03762611	      0.15872603
      4.19000000	      0.08635815	      0.03762589	      0.15816617
      4.19500000	      0.08653688	      0.03766480	      0.15907673
      4.20000000	      0.08652648	      0.03766254	      0.15888999
      4.20500000	      0.08651754	      0.03766059	      0.15847227
      4.21000000	      0.08632313	      0.03761826	      0.15858439
      4.21500000	      0.08655925	      0.03766967	      0.15849977
      4.22000000	      0.08646302	      0.03764873	      0.15844202
      4.22500000	      0.08683318	      0.03772923	      0.15913612
      4.23000000	      0.08669440	      0.03769907	      0.15846639
      4.23500000	      0.08676585	      0.03771460	      0.15887875
      4.24000000	      0.08689626	      0.03774293	      0.15867977
      4.24500000	      0.08800707	      0.03798340	      0.16169182
      4.25000000	      0.08710878	      0.03778906	      0.15836191
      4.25500000	      0.08716882	      0.03780208	      0.15909554
      4.26000000	      0.08722002	      0.03781318	      0.15872705
      4.26500000	      0.08729944	      0.03783039	      0.15856634
      4.27000000	      0.08724991	      0.03781966	      0.15915694
      4.27500000	      0.08747132	      0.03786761	      0.15925666
      4.28000000	      0.08695734	      0.03775619	      0.15856673
      4.28500000	      0.08757937	      0.03789099	      0.15916947
      4.29000000	      0.08747304	      0.03786799	      0.15924485
      4.29500000	      0.08757436	      0.03788991	      0.15906703
      4.30000000	      0.08748106	      0.03786972	      0.15896406
      4.30500000	      0.08741244	      0.03785486	      0.15865067
      4.31000000	      0.08734255	      0.03783973	      0.15861378
      4.31500000	      0.08748595	      0.03787078	      0.15798015
      4.32000000	      0.08766706	      0.03790996	      0.15893392
      4.32500000	      0.08752994	      0.03788030	      0.15727299
      4.33000000	      0.08759706	      0.03789482	      0.15738314
      4.33500000	      0.08768069	      0.03791290	      0.15731333
      4.34000000	      0.08780796	      0.03794041	      0.15771420
      4.34500000	      0.08788136	      0.03795626	      0.15686003
      4.35000000	      0.08784975	      0.03794944	      0.15737758
      4.35500000	      0.08811208	      0.03800606	      0.15729273
      4.36000000	      0.08839460	      0.03806694	      0.15763093
      4.36500000	      0.08823752	      0.03803310	      0.15745011
      4.37000000	      0.08842766	      0.03807406	      0.15776733
      4.37500000	      0.08852913	      0.03809590	      0.15694205
      4.38000000	      0.08895155	      0.03818668	      0.15794297
      4.38500000	      0.08880620	      0.03815546	      0.15781516
      4.39000000	      0.08897669	      0.03819207	      0.15743785
      4.39500000	      0.08928904	      0.03825905	      0.15775280
      4.40000000	      0.08954247	      0.03831330	      0.15786097
      4.40500000	      0.08934593	      0.03827124	      0.15756588
      4.41000000	      0.08943768	      0.03829088	      0.15746471
      4.41500000	      0.08934790	      0.03827166	      0.15773073
      4.42000000	      0.08959414	      0.03832436	      0.15773293
      4.42500000	      0.08964590	      0.03833543	      0.15739614
      4.43000000	      0.08980863	      0.03837020	      0.15751591
      4.43500000	      0.08991584	      0.03839310	      0.15760369
      4.44000000	      0.08995531	      0.03840153	      0.15742008
      4.44500000	      0.09010709	      0.03843391	      0.15724216
      4.45000000	      0.09025498	      0.03846544	      0.15756217
      4.45500000	      0.09031738	      0.03847873	      0.15751860
      4.46000000	      0.09039783	      0.03849587	      0.15746675
      4.46500000	      0.09091632	      0.03860611	      0.15827962
      4.47000000	      0.09087275	      0.03859685	      0.15750075
      4.47500000	      0.09072276	      0.03856499	      0.15776226
      4.48000000	      0.09085780	      0.03859368	      0.15748806
      4.48500000	      0.09085920	      0.03859398	      0.15760770
      4.49000000	      0.09091249	      0.03860529	      0.15765933
      4.49500000	      0.09101104	      0.03862621	      0.15752572
      4.50000000	      0.09133015	      0.03869387	      0.15758283
      4.50500000	      0.09132525	      0.03869283	      0.15752545
      4.51000000	      0.09157732	      0.03874619	      0.15789383
      4.51500000	      0.09133633	      0.03869518	      0.15739059
      4.52000000	      0.09163186	      0.03875773	      0.15766034
      4.52500000	      0.09149545	      0.03872887	      0.15741239
      4.53000000	      0.09168698	      0.03876939	      0.15742241
      4.53500000	      0.09151408	      0.03873281	      0.15727599
      4.54000000	      0.09199192	      0.03883380	      0.15749087
      4.54500000	      0.09222031	      0.03888198	      0.15663932
      4.55000000	      0.09177342	      0.03878766	      0.15644909
      4.55500000	      0.09209395	      0.03885533	      0.15672341
      4.56000000	      0.09187969	      0.03881011	      0.15632933
      4.56500000	      0.09225916	      0.03889017	      0.15668570
      4.57000000	      0.09241107	      0.03892217	      0.15652667
      4.57500000	      0.09241006	      0.03892196	      0.15626849
      4.58000000	      0.09240238	      0.03892034	      0.15651001
      4.58500000	      0.09261647	      0.03896541	      0.15644002
      4.59000000	      0.09292103	      0.03902942	      0.15679157
      4.59500000	      0.09296144	      0.03903790	      0.15675066
      4.60000000	      0.09292445	      0.03903014	      0.15663271
      4.60500000	      0.09331128	      0.03911129	      0.15694616
      4.61000000	      0.09327813	      0.03910434	      0.15671925
      4.61500000	      0.09337779	      0.03912523	      0.15678229
      4.62000000	      0.09352311	      0.03915566	      0.15672951
      4.62500000	      0.09358128	      0.03916784	      0.15667761
      4.63000000	      0.09361266	      0.03917440	      0.15681898
      4.63500000	      0.09349888	      0.03915059	      0.15595569
      4.64000000	      0.09352631	      0.03915633	      0.15614347
      4.64500000	      0.09365853	      0.03918400	      0.15674889
      4.65000000	      0.09354945	      0.03916117	      0.15620892
      4.65500000	      0.09369217	      0.03919104	      0.15612999
      4.66000000	      0.09376780	      0.03920685	      0.15616230
      4.66500000	      0.09412699	      0.03928187	      0.15642033
      4.67000000	      0.09416909	      0.03929065	      0.15687421
      4.67500000	      0.09418275	      0.03929351	      0.15687787
      4.68000000	      0.09427147	      0.03931201	      0.15691777
      4.68500000	      0.09440572	      0.03933999	      0.15665814
      4.69000000	      0.09420561	      0.03929827	      0.15686009
      4.69500000	      0.09438288	      0.03933523	      0.15694151
      4.70000000	      0.09446119	      0.03935154	      0.15664967
      4.70500000	      0.09456072	      0.03937227	      0.15681593
      4.71000000	      0.09469640	      0.03940051	      0.15692984
      4.71500000	      0.09478081	      0.03941806	      0.15689115
      4.72000000	      0.09490824	      0.03944455	      0.15690173
      4.72500000	      0.09494186	      0.03945154	      0.15711542
      4.73000000	      0.09489971	      0.03944278	      0.15682396
      4.73500000	      0.09509526	      0.03948340	      0.15704110
      4.74000000	      0.09531403	      0.03952879	      0.15748848
      4.74500000	      0.09553515	      0.03957461	      0.15741035
      4.75000000	      0.09553672	      0.03957494	      0.15671349
      4.75500000	      0.09539491	      0.03954556	      0.15716110
      4.76000000	      0.09571211	      0.03961125	      0.15747908
      4.76500000	      0.09576682	      0.03962257	      0.15734885
      4.77000000	      0.09579476	      0.03962835	      0.15703863
      4.77500000	      0.09566158	      0.03960079	      0.15712324
      4.78000000	      0.09565054	      0.03959851	      0.15652841
      4.78500000	      0.09622022	      0.03971625	      0.15715068
      4.79000000	      0.09623202	      0.03971869	      0.15680194
      4.79500000	      0.09643815	      0.03976120	      0.15621578
      4.80000000	      0.09671240	      0.03981770	      0.15652571
      4.80500000	      0.09650262	      0.03977449	      0.15697719
      4.81000000	      0.09669588	      0.03981430	      0.15687755
      4.81500000	      0.09736991	      0.03995282	      0.15812261
      4.82000000	      0.09751123	      0.03998181	      0.15816343
      4.82500000	      0.09769745	      0.04001996	      0.15812766
      4.83000000	      0.09792915	      0.04006739	      0.15824032
      4.83500000	      0.09809275	      0.04010085	      0.15761476
      4.84000000	      0.09841099	      0.04016584	      0.15815126
      4.84500000	      0.09854756	      0.04019370	      0.15836329
      4.85000000	      0.09875150	      0.04023527	      0.15829354
      4.85500000	      0.09913145	      0.04031260	      0.15828037
      4.86000000	      0.09961964	      0.04041174	      0.15859286
      4.86500000	      0.09961503	      0.04041081	      0.15822316
      4.87000000	      0.10029171	      0.04054783	      0.15877749
      4.87500000	      0.10002959	      0.04049481	      0.15835847
      4.88000000	      0.10009760	      0.04050857	      0.15833878
      4.88500000	      0.10029832	      0.04054917	      0.15843740
      4.89000000	      0.10067836	      0.04062591	      0.15869103
      4.89500000	      0.10054764	      0.04059953	      0.15828028
      4.90000000	      0.10083084	      0.04065667	      0.15844388
      4.90500000	      0.10136465	      0.04076415	      0.15820809
      4.91000000	      0.10134810	      0.04076082	      0.15828764
      4.91500000	      0.10175955	      0.04084347	      0.15851208
      4.92000000	      0.10176394	      0.04084435	      0.15878218
      4.92500000	      0.10182426	      0.04085646	      0.15875622
      4.93000000	      0.10205268	      0.04090226	      0.15865933
      4.93500000	      0.10227980	      0.04094775	      0.15851225
      4.94000000	      0.10257073	      0.04100594	      0.15856358
      4.94500000	      0.10298958	      0.04108958	      0.15889229
      4.95000000	      0.10265891	      0.04102356	      0.15854628
      4.95500000	      0.10300567	      0.04109279	      0.15887577
      4.96000000	      0.10334936	      0.04116129	      0.15900068
      4.96500000	      0.10354106	      0.04119945	      0.15885429
      4.97000000	      0.10384360	      0.04125959	      0.15910808
      4.97500000	      0.10414190	      0.04131881	      0.15913243
      4.98000000	      0.10441764	      0.04137348	      0.15924514
      4.98500000	      0.10481249	      0.04145163	      0.15951098
      4.99000000	      0.10481074	      0.04145128	      0.15933451
      4.99500000	      0.10507535	      0.04150358	      0.15913326
      5.00000000	      0.10566536	      0.04161994	      0.15921961
      5.00500000	      0.10570730	      0.04162819	      0.15930723
      5.01000000	      0.10580100	      0.04164664	      0.15923593
      5.01500000	      0.10609280	      0.04170403	      0.15926058
      5.02000000	      0.10670365	      0.04182392	      0.15942599
      5.02500000	      0.10707458	      0.04189655	      0.15956189
      5.03000000	      0.10722098	      0.04192518	      0.15936612
      5.03500000	      0.10753981	      0.04198747	      0.15958266
      5.04000000	      0.10796830	      0.04207104	      0.15966028
      5.04500000	      0.10822763	      0.04212153	      0.15961655
      5.05000000	      0.10877342	      0.04222761	      0.15986678
      5.05500000	      0.10901022	      0.04227355	      0.15944697
      5.06000000	      0.10907863	      0.04228681	      0.15977745
      5.06500000	      0.10967866	      0.04240296	      0.15991261
      5.07000000	      0.11008626	      0.04248168	      0.16004794
      5.07500000	      0.11030622	      0.04252410	      0.16002218
      5.08000000	      0.11052828	      0.04256688	      0.15999967
      5.08500000	      0.11114366	      0.04268521	      0.16011099
      5.09000000	      0.11167740	      0.04278758	      0.16024350
      5.09500000	      0.11176947	      0.04280521	      0.16020024
      5.10000000	      0.11203102	      0.04285527	      0.16009287
      5.10500000	      0.11235518	      0.04291722	      0.15990725
      5.11000000	      0.11269663	      0.04298239	      0.15995954
      5.11500000	      0.11304340	      0.04304847	      0.15996476
      5.12000000	      0.11356900	      0.04314843	      0.16001778
      5.12500000	      0.11359692	      0.04315373	      0.15988942
      5.13000000	      0.11393978	      0.04321881	      0.16013279
      5.13500000	      0.11459841	      0.04334354	      0.16028322
      5.14000000	      0.11487082	      0.04339502	      0.16036553
      5.14500000	      0.11511919	      0.04344191	      0.16033875
      5.15000000	      0.11542498	      0.04349957	      0.16033918
      5.15500000	      0.11601990	      0.04361153	      0.16012030
      5.16000000	      0.11645862	      0.04369391	      0.16000421
      5.16500000	      0.11673251	      0.04374526	      0.16008823
      5.17000000	      0.11702754	      0.04380050	      0.16014836
      5.17500000	      0.11735650	      0.04386202	      0.16012887
      5.18000000	      0.11794644	      0.04397213	      0.16021203
      5.18500000	      0.11824742	      0.04402820	      0.16034857
      5.19000000	      0.11814800	      0.04400969	      0.16043896
      5.19500000	      0.11847466	      0.04407048	      0.16032176
      5.20000000	      0.11862343	      0.04409814	      0.16033991
      5.20500000	      0.11896712	      0.04416198	      0.16038210
      5.21000000	      0.11926476	      0.04421719	      0.16020294
      5.21500000	      0.11938121	      0.04423877	      0.16030470
      5.22000000	      0.11948969	      0.04425887	      0.16015132
      5.22500000	      0.11969699	      0.04429724	      0.16007522
      5.23000000	      0.12028957	      0.04440676	      0.16037527
      5.23500000	      0.12012685	      0.04437671	      0.16021239
      5.24000000	      0.12044064	      0.04443463	      0.16019965
      5.24500000	      0.12056010	      0.04445667	      0.16007133
      5.25000000	      0.12070199	      0.04448282	      0.16000873
      5.25500000	      0.12119846	      0.04457421	      0.15985618
      5.26000000	      0.12094831	      0.04452818	      0.16009807
      5.26500000	      0.12125078	      0.04458383	      0.16029128
      5.27000000	      0.12159600	      0.04464725	      0.16053018
      5.27500000	      0.12201093	      0.04472336	      0.16058645
      5.28000000	      0.12181427	      0.04468731	      0.16039860
      5.28500000	      0.12231398	      0.04477887	      0.16041179
      5.29000000	      0.12215823	      0.04475035	      0.16038877
      5.29500000	      0.12234334	      0.04478424	      0.16045239
      5.30000000	      0.12265754	      0.04484171	      0.16057112
      5.30500000	      0.12275673	      0.04485984	      0.16043795
      5.31000000	      0.12255496	      0.04482296	      0.16024507
      5.31500000	      0.12278895	      0.04486573	      0.16024659
      5.32000000	      0.12290872	      0.04488761	      0.16004788
      5.32500000	      0.12322440	      0.04494521	      0.16011856
      5.33000000	      0.12302953	      0.04490966	      0.16020244
      5.33500000	      0.12330984	      0.04496079	      0.15999502
      5.34000000	      0.12346576	      0.04498921	      0.16009907
      5.34500000	      0.12378595	      0.04504751	      0.16010484
      5.35000000	      0.12396801	      0.04508062	      0.16002864
      5.35500000	      0.12405459	      0.04509636	      0.16027245
      5.36000000	      0.12407358	      0.04509981	      0.16000356
      5.36500000	      0.12428879	      0.04513891	      0.16021737
      5.37000000	      0.12452146	      0.04518114	      0.15978117
      5.37500000	      0.12464482	      0.04520351	      0.16008002
      5.38000000	      0.12497942	      0.04526415	      0.16016710
      5.38500000	      0.12512416	      0.04529035	      0.16035284
      5.39000000	      0.12526280	      0.04531543	      0.16025076
      5.39500000	      0.12564002	      0.04538361	      0.16053803
      5.40000000	      0.12531134	      0.04532421	      0.16037672
      5.40500000	      0.12538799	      0.04533807	      0.16027013
      5.41000000	      0.12554892	      0.04536716	      0.16025544
      5.41500000	      0.12564668	      0.04538482	      0.16032564
      5.42000000	      0.12589241	      0.04542918	      0.16043918
      5.42500000	      0.12599725	      0.04544809	      0.16034227
      5.43000000	      0.12599974	      0.04544854	      0.16040596
      5.43500000	      0.12603771	      0.04545538	      0.16048715
      5.44000000	      0.12646251	      0.04553192	      0.16051992
      5.44500000	      0.12621313	      0.04548701	      0.16043482
      5.45000000	      0.12654784	      0.04554728	      0.16044989
      5.45500000	      0.12634679	      0.04551108	      0.16007519
      5.46000000	      0.12644169	      0.04552817	      0.16009850
      5.46500000	      0.12663648	      0.04556323	      0.16030307
      5.47000000	      0.12677737	      0.04558857	      0.16027995
      5.47500000	      0.12677907	      0.04558887	      0.16049523
      5.48000000	      0.12701419	      0.04563113	      0.16047062
      5.48500000	      0.12702323	      0.04563275	      0.16045265
      5.49000000	      0.12709379	      0.04564542	      0.16041301
      5.49500000	      0.12716579	      0.04565835	      0.16037737
      5.50000000	      0.12708209	      0.04564332	      0.16012028
      5.50500000	      0.12739274	      0.04569908	      0.16005317
      5.51000000	      0.12738714	      0.04569807	      0.16031262
      5.51500000	      0.12763166	      0.04574191	      0.16040626
      5.52000000	      0.12773038	      0.04575960	      0.16047679
      5.52500000	      0.12795264	      0.04579939	      0.16061356
      5.53000000	      0.12780199	      0.04577242	      0.16050700
      5.53500000	      0.12802713	      0.04581272	      0.16066064
      5.54000000	      0.12804033	      0.04581508	      0.16048912
      5.54500000	      0.12797758	      0.04580386	      0.16036835
      5.55000000	      0.12806087	      0.04581876	      0.16014667
      5.55500000	      0.12807953	      0.04582210	      0.16026544
      5.56000000	      0.12840293	      0.04587991	      0.16013401
      5.56500000	      0.12845618	      0.04588942	      0.15990387
      5.57000000	      0.12860460	      0.04591593	      0.16031342
      5.57500000	      0.12834606	      0.04586975	      0.16034920
      5.58000000	      0.12849990	      0.04589723	      0.16034618
      5.58500000	      0.12877329	      0.04594603	      0.16043467
      5.59000000	      0.12874689	      0.04594132	      0.16043434
      5.59500000	      0.12886582	      0.04596253	      0.16039357
      5.60000000	      0.12874811	      0.04594154	      0.16053652
      5.60500000	      0.12916887	      0.04601655	      0.16088273
      5.61000000	      0.12907406	      0.04599965	      0.16065858
      5.61500000	      0.12937909	      0.04605398	      0.16092762
      5.62000000	      0.12946887	      0.04606995	      0.16090008
      5.62500000	      0.12959440	      0.04609228	      0.16108207
      5.63000000	      0.12971212	      0.04611321	      0.16096915
      5.63500000	      0.12976807	      0.04612315	      0.16100601
      5.64000000	      0.12990312	      0.04614715	      0.16090265
      5.64500000	      0.12999737	      0.04616389	      0.16107653
      5.65000000	      0.13009754	      0.04618167	      0.16104699
      5.65500000	      0.13013604	      0.04618850	      0.16104534
      5.66000000	      0.13019634	      0.04619920	      0.16118343
      5.66500000	      0.13033353	      0.04622354	      0.16117760
      5.67000000	      0.13065694	      0.04628085	      0.16113946
      5.67500000	      0.13093371	      0.04632984	      0.16127251
      5.68000000	      0.13058630	      0.04626834	      0.16131916
      5.68500000	      0.13067114	      0.04628336	      0.16132993
      5.69000000	      0.13067749	      0.04628449	      0.16134942
      5.69500000	      0.13094328	      0.04633153	      0.16147694
      5.70000000	      0.13124420	      0.04638474	      0.16146632
      5.70500000	      0.13119202	      0.04637552	      0.16155484
      5.71000000	      0.13142074	      0.04641593	      0.16176458
      5.71500000	      0.13141473	      0.04641487	      0.16154536
      5.72000000	      0.13170706	      0.04646646	      0.16168541
      5.72500000	      0.13176594	      0.04647685	      0.16160391
      5.73000000	      0.13206644	      0.04652981	      0.16159553
      5.73500000	      0.13220783	      0.04655472	      0.16170571
      5.74000000	      0.13267965	      0.04663771	      0.16166694
      5.74500000	      0.13274998	      0.04665007	      0.16173858
      5.75000000	      0.13289236	      0.04667508	      0.16189033
      5.75500000	      0.13270250	      0.04664173	      0.16190808
      5.76000000	      0.13282882	      0.04666392	      0.16192806
      5.76500000	      0.13285261	      0.04666810	      0.16179233
      5.77000000	      0.13304272	      0.04670148	      0.16165858
      5.77500000	      0.13299603	      0.04669328	      0.16164641
      5.78000000	      0.13313297	      0.04671732	      0.16172578
      5.78500000	      0.13306539	      0.04670546	      0.16159330
      5.79000000	      0.13293702	      0.04668292	      0.16158157
      5.79500000	      0.13306292	      0.04670503	      0.16158077
      5.80000000	      0.13356988	      0.04679391	      0.16168494
      5.80500000	      0.13381773	      0.04683731	      0.16187143
      5.81000000	      0.13334290	      0.04675414	      0.16157209
      5.81500000	      0.13330759	      0.04674795	      0.16191738
      5.82000000	      0.13286511	      0.04667030	      0.16215740
      5.82500000	      0.13269655	      0.04664068	      0.16210813
      5.83000000	      0.13251829	      0.04660934	      0.16218916
      5.83500000	      0.13245472	      0.04659816	      0.16236959
      5.84000000	      0.13271704	      0.04664428	      0.16219945
      5.84500000	      0.13244591	      0.04659661	      0.16244810
      5.85000000	      0.13188718	      0.04649823	      0.16216169
      5.85500000	      0.13167223	      0.04646032	      0.16228796
      5.86000000	      0.13152752	      0.04643478	      0.16211344
      5.86500000	      0.13127889	      0.04639087	      0.16236426
      5.87000000	      0.13106740	      0.04635349	      0.16220838
      5.87500000	      0.13076783	      0.04630049	      0.16238586
      5.88000000	      0.13059391	      0.04626969	      0.16224982
      5.88500000	      0.13010144	      0.04618236	      0.16242925
      5.89000000	      0.12990874	      0.04614815	      0.16206500
      5.89500000	      0.12989295	      0.04614534	      0.16244428
      5.90000000	      0.12948701	      0.04607318	      0.16227583
      5.90500000	      0.12910582	      0.04600531	      0.16227398
      5.91000000	      0.12888546	      0.04596604	      0.16233847
      5.91500000	      0.12840183	      0.04587971	      0.16240058
      5.92000000	      0.12848958	      0.04589539	      0.16248273
      5.92500000	      0.12806245	      0.04581904	      0.16236072
      5.93000000	      0.12785247	      0.04578146	      0.16249311
      5.93500000	      0.12824731	      0.04585210	      0.16257871
      5.94000000	      0.12759391	      0.04573514	      0.16252818
      5.94500000	      0.12713113	      0.04565213	      0.16256950
      5.95000000	      0.12715756	      0.04565687	      0.16246474
      5.95500000	      0.12641892	      0.04552407	      0.16272208
      5.96000000	      0.12634218	      0.04551025	      0.16243951
      5.96500000	      0.12626382	      0.04549614	      0.16251026
      5.97000000	      0.12554405	      0.04536628	      0.16264180
      5.97500000	      0.12515788	      0.04529645	      0.16265274
      5.98000000	      0.12473483	      0.04521983	      0.16275203
      5.98500000	      0.12417590	      0.04511840	      0.16273765
      5.99000000	      0.12377729	      0.04504593	      0.16300348
      5.99500000	      0.12328329	      0.04495595	      0.16290436
      6.00000000	      0.12253107	      0.04481859	      0.16252995
      6.00500000	      0.12217429	      0.04475329	      0.16274154
      6.01000000	      0.12142099	      0.04461511	      0.16269079
      6.01500000	      0.12095848	      0.04453006	      0.16272406
      6.02000000	      0.12033246	      0.04441467	      0.16269455
      6.02500000	      0.11997469	      0.04434860	      0.16273254
      6.03000000	      0.11952171	      0.04426480	      0.16258044
      6.03500000	      0.11892984	      0.04415506	      0.16292842
      6.04000000	      0.11851042	      0.04407713	      0.16278596
      6.04500000	      0.11830502	      0.04403892	      0.16278802
      6.05000000	      0.11770701	      0.04392748	      0.16277259
      6.05500000	      0.11730359	      0.04385213	      0.16259139
      6.06000000	      0.11723250	      0.04383884	      0.16252545
      6.06500000	      0.11639244	      0.04368149	      0.16260923
      6.07000000	      0.11606096	      0.04361925	      0.16237115
      6.07500000	      0.11591841	      0.04359245	      0.16232501
      6.08000000	      0.11534984	      0.04348541	      0.16229455
      6.08500000	      0.11476192	      0.04337445	      0.16232591
      6.09000000	      0.11438238	      0.04330267	      0.16244638
      6.09500000	      0.11401065	      0.04323225	      0.16232439
      6.10000000	      0.11375966	      0.04318463	      0.16240416
      6.10500000	      0.11327207	      0.04309199	      0.16255237
      6.11000000	      0.11264922	      0.04297335	      0.16208030
      6.11500000	      0.11241000	      0.04292769	      0.16254948
      6.12000000	      0.11193367	      0.04283665	      0.16256863
      6.12500000	      0.11160662	      0.04277402	      0.16260806
      6.13000000	      0.11130556	      0.04271629	      0.16253561
      6.13500000	      0.11072313	      0.04260438	      0.16272796
      6.14000000	      0.11037583	      0.04253751	      0.16274412
      6.14500000	      0.11003250	      0.04247130	      0.16287180
      6.15000000	      0.10959285	      0.04238637	      0.16282347
      6.15500000	      0.10943975	      0.04235675	      0.16306924
      6.16000000	      0.10880748	      0.04223422	      0.16307741
      6.16500000	      0.10826674	      0.04212914	      0.16270360
      6.17000000	      0.10784630	      0.04204726	      0.16283847
      6.17500000	      0.10749525	      0.04197877	      0.16251205
      6.18000000	      0.10703018	      0.04188786	      0.16257083
      6.18500000	      0.10654616	      0.04179304	      0.16260890
      6.19000000	      0.10620190	      0.04172547	      0.16279800
      6.19500000	      0.10578634	      0.04164376	      0.16267415
      6.20000000	      0.10554710	      0.04159664	      0.16265881
      6.20500000	      0.10511593	      0.04151159	      0.16305920
      6.21000000	      0.10483718	      0.04145651	      0.16301256
      6.21500000	      0.10461055	      0.04141168	      0.16311625
      6.22000000	      0.10420267	      0.04133087	      0.16306381
      6.22500000	      0.10379597	      0.04125013	      0.16307048
      6.23000000	      0.10365653	      0.04122241	      0.16293441
      6.23500000	      0.10305088	      0.04110181	      0.16299735
      6.24000000	      0.10238163	      0.04096813	      0.16310199
      6.24500000	      0.10224911	      0.04094160	      0.16307581
      6.25000000	      0.10176002	      0.04084357	      0.16300528
      6.25500000	      0.10141940	      0.04077515	      0.16270590
      6.26000000	      0.10080600	      0.04065166	      0.16257174
      6.26500000	      0.10056259	      0.04060255	      0.16259979
      6.27000000	      0.10005503	      0.04049996	      0.16250214
      6.27500000	      0.09951894	      0.04039131	      0.16254221
      6.28000000	      0.09931127	      0.04034915	      0.16256822
      6.28500000	      0.09900139	      0.04028615	      0.16276261
      6.29000000	      0.09881385	      0.04024797	      0.16310923
      6.29500000	      0.09843633	      0.04017101	      0.16290663
      6.30000000	      0.09831657	      0.04014657	      0.16310647
      6.30500000	      0.09800201	      0.04008229	      0.16322396
      6.31000000	      0.09761500	      0.04000307	      0.16373268
      6.31500000	      0.09759451	      0.03999887	      0.16334617
      6.32000000	      0.09722901	      0.03992390	      0.16359149
      6.32500000	      0.09700821	      0.03987855	      0.16350710
      6.33000000	      0.09674279	      0.03982395	      0.16354323
      6.33500000	      0.09655949	      0.03978621	      0.16353042
      6.34000000	      0.09647854	      0.03976953	      0.16432356
      6.34500000	      0.09601450	      0.03967377	      0.16379642
      6.35000000	      0.09604906	      0.03968091	      0.16425901
      6.35500000	      0.09552162	      0.03957181	      0.16399063
      6.36000000	      0.09545924	      0.03955889	      0.16432799
      6.36500000	      0.09519020	      0.03950310	      0.16423024
      6.37000000	      0.09492341	      0.03944771	      0.16433872
      6.37500000	      0.09483856	      0.03943007	      0.16462248
      6.38000000	      0.09478940	      0.03941985	      0.16478157
      6.38500000	      0.09455331	      0.03937073	      0.16464307
      6.39000000	      0.09389795	      0.03923405	      0.16344822
      6.39500000	      0.09361881	      0.03917569	      0.16362864
      6.40000000	      0.09357514	      0.03916655	      0.16372359
      6.40500000	      0.09338737	      0.03912723	      0.16351433
      6.41000000	      0.09322321	      0.03909283	      0.16350580
      6.41500000	      0.09302140	      0.03905049	      0.16383657
      6.42000000	      0.09302192	      0.03905060	      0.16358297
      6.42500000	      0.09268012	      0.03897879	      0.16349070
      6.43000000	      0.09252905	      0.03894701	      0.16356877
      6.43500000	      0.09229568	      0.03889787	      0.16343533
      6.44000000	      0.09236950	      0.03891342	      0.16362563
      6.44500000	      0.09175330	      0.03878340	      0.16313463
      6.45000000	      0.09157039	      0.03874473	      0.16332154
      6.45500000	      0.09139923	      0.03870850	      0.16316485
      6.46000000	      0.09137345	      0.03870304	      0.16332941
      6.46500000	      0.09115732	      0.03865724	      0.16331776
      6.47000000	      0.09096333	      0.03861609	      0.16351817
      6.47500000	      0.09083050	      0.03858788	      0.16331928
      6.48000000	      0.09075853	      0.03857259	      0.16343193
      6.48500000	      0.09035021	      0.03848572	      0.16295196
      6.49000000	      0.09025019	      0.03846442	      0.16301620
      6.49500000	      0.09011597	      0.03843580	      0.16292490
      6.50000000	      0.09011000	      0.03843453	      0.16330817
      6.50500000	      0.08981799	      0.03837221	      0.16286644
      6.51000000	      0.08971674	      0.03835057	      0.16292359
      6.51500000	      0.08947435	      0.03829873	      0.16288227
      6.52000000	      0.08929670	      0.03826069	      0.16311082
      6.52500000	      0.08920853	      0.03824180	      0.16268297
      6.53000000	      0.08892547	      0.03818108	      0.16271376
      6.53500000	      0.08880171	      0.03815450	      0.16245981
      6.54000000	      0.08875536	      0.03814454	      0.16228212
      6.54500000	      0.08857281	      0.03810529	      0.16248025
      6.55000000	      0.08840986	      0.03807022	      0.16245228
      6.55500000	      0.08830481	      0.03804760	      0.16225992
      6.56000000	      0.08824560	      0.03803484	      0.16223358
      6.56500000	      0.08811072	      0.03800576	      0.16256122
      6.57000000	      0.08762639	      0.03790116	      0.16155512
      6.57500000	      0.08756347	      0.03788755	      0.16170384
      6.58000000	      0.08766931	      0.03791045	      0.16188576
      6.58500000	      0.08744120	      0.03786109	      0.16176690
      6.59000000	      0.08734638	      0.03784056	      0.16203660
      6.59500000	      0.08730909	      0.03783248	      0.16179894
      6.60000000	      0.08734241	      0.03783970	      0.16217773
      6.60500000	      0.08711181	      0.03778971	      0.16171419
      6.61000000	      0.08676910	      0.03771531	      0.16144144
      6.61500000	      0.08676524	      0.03771447	      0.16167453
      6.62000000	      0.08659378	      0.03767718	      0.16116654
      6.62500000	      0.08655801	      0.03766940	      0.16113423
      6.63000000	      0.08655035	      0.03766773	      0.16116181
      6.63500000	      0.08638463	      0.03763165	      0.16109662
      6.64000000	      0.08629156	      0.03761138	      0.16102422
      6.64500000	      0.08612938	      0.03757602	      0.16096523
      6.65000000	      0.08609830	      0.03756924	      0.16069260
      6.65500000	      0.08620799	      0.03759316	      0.16056688
      6.66000000	      0.08603696	      0.03755585	      0.16092649
      6.66500000	      0.08580058	      0.03750422	      0.16078097
      6.67000000	      0.08594514	      0.03753581	      0.16069773
      6.67500000	      0.08573688	      0.03749030	      0.16068379
      6.68000000	      0.08561491	      0.03746362	      0.16065767
      6.68500000	      0.08551683	      0.03744216	      0.16064244
      6.69000000	      0.08575443	      0.03749414	      0.16010984
      6.69500000	      0.08537676	      0.03741148	      0.16047842
      6.70000000	      0.08527772	      0.03738978	      0.16070028
      6.70500000	      0.08528836	      0.03739211	      0.16056035
      6.71000000	      0.08511879	      0.03735492	      0.16041938
      6.71500000	      0.08527822	      0.03738989	      0.16046831
      6.72000000	      0.08512328	      0.03735590	      0.16085499
      6.72500000	      0.08505506	      0.03734093	      0.16124412
      6.73000000	      0.08510946	      0.03735287	      0.16115320
      6.73500000	      0.08493226	      0.03731397	      0.16109891
      6.74000000	      0.08503825	      0.03733724	      0.16139124
      6.74500000	      0.08495082	      0.03731804	      0.16143761
      6.75000000	      0.08496565	      0.03732130	      0.16180868
      6.75500000	      0.08492810	      0.03731305	      0.16216095
      6.76000000	      0.08482927	      0.03729134	      0.16174278
      6.76500000	      0.08471137	      0.03726541	      0.16178454
      6.77000000	      0.08493683	      0.03731497	      0.16232554
      6.77500000	      0.08485934	      0.03729795	      0.16216817
      6.78000000	      0.08491055	      0.03730920	      0.16240013
      6.78500000	      0.08506928	      0.03734405	      0.16224383
      6.79000000	      0.08492186	      0.03731168	      0.16260918
      6.79500000	      0.08491744	      0.03731071	      0.16270093
      6.80000000	      0.08493336	      0.03731421	      0.16286371
      6.80500000	      0.08503385	      0.03733628	      0.16303165
      6.81000000	      0.08498686	      0.03732596	      0.16297303
      6.81500000	      0.08505971	      0.03734195	      0.16321808
      6.82000000	      0.08498465	      0.03732547	      0.16340537
      6.82500000	      0.08499024	      0.03732670	      0.16373741
      6.83000000	      0.08496998	      0.03732225	      0.16348676
      6.83500000	      0.08497091	      0.03732246	      0.16347611
      6.84000000	      0.08488850	      0.03730435	      0.16351985
      6.84500000	      0.08474799	      0.03727347	      0.16343472
      6.85000000	      0.08483599	      0.03729281	      0.16343712
      6.85500000	      0.08489838	      0.03730652	      0.16355806
      6.86000000	      0.08483122	      0.03729177	      0.16345208
      6.86500000	      0.08474356	      0.03727249	      0.16362780
      6.87000000	      0.08468450	      0.03725950	      0.16354697
      6.87500000	      0.08483936	      0.03729355	      0.16345212
      6.88000000	      0.08465812	      0.03725370	      0.16350785
      6.88500000	      0.08464713	      0.03725128	      0.16351209
      6.89000000	      0.08463576	      0.03724878	      0.16341480
      6.89500000	      0.08455967	      0.03723203	      0.16340019
      6.90000000	      0.08461145	      0.03724343	      0.16343856
