Model Marker Errors from IK
version=1
nRows=721
nColumns=4
inDegrees=no
endheader
time	total_squared_error	marker_error_RMS	marker_error_max
      2.10000000	      0.08192915	      0.03664834	      0.15412776
      2.10500000	      0.08202765	      0.03667036	      0.15443673
      2.11000000	      0.08204520	      0.03667429	      0.15471247
      2.11500000	      0.08205611	      0.03667672	      0.15482797
      2.12000000	      0.08222922	      0.03671539	      0.15495894
      2.12500000	      0.08232129	      0.03673594	      0.15524504
      2.13000000	      0.08225700	      0.03672159	      0.15529080
      2.13500000	      0.08194759	      0.03665246	      0.15454564
      2.14000000	      0.08200090	      0.03666438	      0.15432417
      2.14500000	      0.08198898	      0.03666172	      0.15477495
      2.15000000	      0.08186367	      0.03663369	      0.15455908
      2.15500000	      0.08198029	      0.03665978	      0.15452199
      2.16000000	      0.08200671	      0.03666568	      0.15488054
      2.16500000	      0.08201131	      0.03666671	      0.15476000
      2.17000000	      0.08215117	      0.03669796	      0.15497716
      2.17500000	      0.08207452	      0.03668084	      0.15516436
      2.18000000	      0.08209352	      0.03668508	      0.15506142
      2.18500000	      0.08217910	      0.03670420	      0.15532809
      2.19000000	      0.08186319	      0.03663359	      0.15466551
      2.19500000	      0.08175959	      0.03661040	      0.15431953
      2.20000000	      0.08195766	      0.03665472	      0.15426987
      2.20500000	      0.08170583	      0.03659836	      0.15427569
      2.21000000	      0.08173326	      0.03660450	      0.15454410
      2.21500000	      0.08189263	      0.03664017	      0.15501795
      2.22000000	      0.08176400	      0.03661138	      0.15476486
      2.22500000	      0.08168903	      0.03659459	      0.15467567
      2.23000000	      0.08161515	      0.03657804	      0.15483081
      2.23500000	      0.08161573	      0.03657817	      0.15492658
      2.24000000	      0.08162474	      0.03658019	      0.15521093
      2.24500000	      0.08164777	      0.03658535	      0.15538368
      2.25000000	      0.08169906	      0.03659684	      0.15562286
      2.25500000	      0.08153447	      0.03655996	      0.15504310
      2.26000000	      0.08157694	      0.03656948	      0.15518862
      2.26500000	      0.08160148	      0.03657498	      0.15542331
      2.27000000	      0.08148855	      0.03654966	      0.15514964
      2.27500000	      0.08144328	      0.03653951	      0.15486977
      2.28000000	      0.08146873	      0.03654522	      0.15527293
      2.28500000	      0.08146693	      0.03654481	      0.15530220
      2.29000000	      0.08155041	      0.03656353	      0.15535021
      2.29500000	      0.08156986	      0.03656789	      0.15539062
      2.30000000	      0.08159665	      0.03657390	      0.15568329
      2.30500000	      0.08159865	      0.03657435	      0.15532937
      2.31000000	      0.08157044	      0.03656802	      0.15513876
      2.31500000	      0.08156496	      0.03656679	      0.15506431
      2.32000000	      0.08159630	      0.03657382	      0.15536967
      2.32500000	      0.08166262	      0.03658868	      0.15551498
      2.33000000	      0.08174085	      0.03660620	      0.15581962
      2.33500000	      0.08167361	      0.03659114	      0.15587548
      2.34000000	      0.08159271	      0.03657301	      0.15587029
      2.34500000	      0.08166373	      0.03658893	      0.15592878
      2.35000000	      0.08167490	      0.03659143	      0.15588905
      2.35500000	      0.08184796	      0.03663018	      0.15579381
      2.36000000	      0.08174360	      0.03660682	      0.15582033
      2.36500000	      0.08184683	      0.03662992	      0.15600234
      2.37000000	      0.08177001	      0.03661273	      0.15599748
      2.37500000	      0.08187794	      0.03663688	      0.15630962
      2.38000000	      0.08174149	      0.03660634	      0.15623008
      2.38500000	      0.08183308	      0.03662685	      0.15635422
      2.39000000	      0.08177556	      0.03661397	      0.15589511
      2.39500000	      0.08196202	      0.03665569	      0.15611823
      2.40000000	      0.08206731	      0.03667923	      0.15653618
      2.40500000	      0.08208434	      0.03668303	      0.15650832
      2.41000000	      0.08202955	      0.03667079	      0.15648207
      2.41500000	      0.08201942	      0.03666853	      0.15640346
      2.42000000	      0.08203418	      0.03667182	      0.15638511
      2.42500000	      0.08218242	      0.03670494	      0.15650653
      2.43000000	      0.08202802	      0.03667045	      0.15604834
      2.43500000	      0.08202418	      0.03666959	      0.15647648
      2.44000000	      0.08202461	      0.03666968	      0.15624087
      2.44500000	      0.08208639	      0.03668349	      0.15654224
      2.45000000	      0.08182439	      0.03662490	      0.15557685
      2.45500000	      0.08196216	      0.03665572	      0.15595522
      2.46000000	      0.08225036	      0.03672011	      0.15597324
      2.46500000	      0.08192156	      0.03664664	      0.15618301
      2.47000000	      0.08201262	      0.03666700	      0.15616575
      2.47500000	      0.08218428	      0.03670536	      0.15615753
      2.48000000	      0.08225764	      0.03672174	      0.15515692
      2.48500000	      0.08220863	      0.03671079	      0.15610643
      2.49000000	      0.08211542	      0.03668998	      0.15565236
      2.49500000	      0.08213481	      0.03669431	      0.15549178
      2.50000000	      0.08226116	      0.03672252	      0.15562222
      2.50500000	      0.08213736	      0.03669488	      0.15568660
      2.51000000	      0.08209442	      0.03668529	      0.15573188
      2.51500000	      0.08241189	      0.03675615	      0.15601165
      2.52000000	      0.08239597	      0.03675260	      0.15573661
      2.52500000	      0.08234105	      0.03674035	      0.15542267
      2.53000000	      0.08241498	      0.03675684	      0.15600498
      2.53500000	      0.08262466	      0.03680357	      0.15611706
      2.54000000	      0.08262950	      0.03680465	      0.15549047
      2.54500000	      0.08285914	      0.03685575	      0.15613273
      2.55000000	      0.08268834	      0.03681775	      0.15607361
      2.55500000	      0.08272129	      0.03682508	      0.15597751
      2.56000000	      0.08278290	      0.03683879	      0.15605513
      2.56500000	      0.08276491	      0.03683479	      0.15591296
      2.57000000	      0.08285370	      0.03685454	      0.15583759
      2.57500000	      0.08276024	      0.03683375	      0.15589553
      2.58000000	      0.08281315	      0.03684552	      0.15584921
      2.58500000	      0.08299306	      0.03688552	      0.15599559
      2.59000000	      0.08296865	      0.03688010	      0.15606451
      2.59500000	      0.08310892	      0.03691126	      0.15590879
      2.60000000	      0.08302216	      0.03689199	      0.15619261
      2.60500000	      0.08307644	      0.03690405	      0.15601305
      2.61000000	      0.08310587	      0.03691058	      0.15606795
      2.61500000	      0.08324042	      0.03694045	      0.15615426
      2.62000000	      0.08321243	      0.03693424	      0.15577175
      2.62500000	      0.08317592	      0.03692614	      0.15589085
      2.63000000	      0.08311895	      0.03691349	      0.15576783
      2.63500000	      0.08328707	      0.03695080	      0.15575140
      2.64000000	      0.08344184	      0.03698512	      0.15580229
      2.64500000	      0.08337856	      0.03697109	      0.15569888
      2.65000000	      0.08349260	      0.03699637	      0.15592365
      2.65500000	      0.08344446	      0.03698570	      0.15562405
      2.66000000	      0.08345998	      0.03698914	      0.15562022
      2.66500000	      0.08334551	      0.03696376	      0.15545246
      2.67000000	      0.08349728	      0.03699740	      0.15544357
      2.67500000	      0.08345919	      0.03698896	      0.15512732
      2.68000000	      0.08365115	      0.03703148	      0.15478423
      2.68500000	      0.08357442	      0.03701449	      0.15524692
      2.69000000	      0.08360970	      0.03702230	      0.15496232
      2.69500000	      0.08374811	      0.03705293	      0.15552800
      2.70000000	      0.08365543	      0.03703243	      0.15548800
      2.70500000	      0.08367876	      0.03703759	      0.15493604
      2.71000000	      0.08358932	      0.03701779	      0.15515335
      2.71500000	      0.08374875	      0.03705307	      0.15548292
      2.72000000	      0.08383952	      0.03707315	      0.15507211
      2.72500000	      0.08383675	      0.03707254	      0.15501056
      2.73000000	      0.08394966	      0.03709749	      0.15516239
      2.73500000	      0.08395005	      0.03709758	      0.15499453
      2.74000000	      0.08408469	      0.03712731	      0.15520591
      2.74500000	      0.08416023	      0.03714399	      0.15557600
      2.75000000	      0.08408659	      0.03712774	      0.15526943
      2.75500000	      0.08407362	      0.03712487	      0.15526406
      2.76000000	      0.08393876	      0.03709508	      0.15481200
      2.76500000	      0.08406512	      0.03712299	      0.15510980
      2.77000000	      0.08403367	      0.03711605	      0.15483269
      2.77500000	      0.08429372	      0.03717343	      0.15500285
      2.78000000	      0.08429110	      0.03717286	      0.15478744
      2.78500000	      0.08418817	      0.03715015	      0.15520675
      2.79000000	      0.08416766	      0.03714563	      0.15495053
      2.79500000	      0.08427383	      0.03716905	      0.15481631
      2.80000000	      0.08438608	      0.03719379	      0.15498630
      2.80500000	      0.08441643	      0.03720048	      0.15464269
      2.81000000	      0.08444508	      0.03720680	      0.15493675
      2.81500000	      0.08453618	      0.03722686	      0.15473427
      2.82000000	      0.08447063	      0.03721242	      0.15481654
      2.82500000	      0.08462516	      0.03724645	      0.15473780
      2.83000000	      0.08461162	      0.03724347	      0.15470950
      2.83500000	      0.08463836	      0.03724935	      0.15487789
      2.84000000	      0.08493541	      0.03731466	      0.15511962
      2.84500000	      0.08485442	      0.03729686	      0.15474307
      2.85000000	      0.08477689	      0.03727982	      0.15457035
      2.85500000	      0.08496117	      0.03732032	      0.15445086
      2.86000000	      0.08504664	      0.03733908	      0.15426540
      2.86500000	      0.08479585	      0.03728399	      0.15443199
      2.87000000	      0.08506777	      0.03734372	      0.15489997
      2.87500000	      0.08520403	      0.03737362	      0.15498206
      2.88000000	      0.08540452	      0.03741757	      0.15488831
      2.88500000	      0.08537452	      0.03741099	      0.15489899
      2.89000000	      0.08532947	      0.03740112	      0.15501316
      2.89500000	      0.08545282	      0.03742814	      0.15471426
      2.90000000	      0.08549046	      0.03743639	      0.15484315
      2.90500000	      0.08535848	      0.03740748	      0.15468762
      2.91000000	      0.08557688	      0.03745530	      0.15486906
      2.91500000	      0.08558260	      0.03745655	      0.15466002
      2.92000000	      0.08576452	      0.03749634	      0.15481762
      2.92500000	      0.08585236	      0.03751554	      0.15485475
      2.93000000	      0.08575445	      0.03749414	      0.15481409
      2.93500000	      0.08572365	      0.03748741	      0.15470254
      2.94000000	      0.08588656	      0.03752301	      0.15469660
      2.94500000	      0.08596834	      0.03754087	      0.15475688
      2.95000000	      0.08624426	      0.03760107	      0.15478191
      2.95500000	      0.08595888	      0.03753881	      0.15476086
      2.96000000	      0.08609096	      0.03756764	      0.15464156
      2.96500000	      0.08632253	      0.03761813	      0.15482231
      2.97000000	      0.08621850	      0.03759545	      0.15480407
      2.97500000	      0.08636598	      0.03762759	      0.15470036
      2.98000000	      0.08608244	      0.03756578	      0.15442587
      2.98500000	      0.08647955	      0.03765232	      0.15510654
      2.99000000	      0.08629177	      0.03761142	      0.15492582
      2.99500000	      0.08676296	      0.03771397	      0.15460757
      3.00000000	      0.08641959	      0.03763927	      0.15500270
      3.00500000	      0.08638589	      0.03763193	      0.15501393
      3.01000000	      0.08635581	      0.03762538	      0.15496254
      3.01500000	      0.08643970	      0.03764365	      0.15513678
      3.02000000	      0.08630556	      0.03761443	      0.15505125
      3.02500000	      0.08659017	      0.03767640	      0.15502997
      3.03000000	      0.08645617	      0.03764723	      0.15506755
      3.03500000	      0.08648638	      0.03765381	      0.15501085
      3.04000000	      0.08672545	      0.03770582	      0.15476086
      3.04500000	      0.08636170	      0.03762666	      0.15515098
      3.05000000	      0.08655958	      0.03766974	      0.15541138
      3.05500000	      0.08649481	      0.03765565	      0.15485798
      3.06000000	      0.08638039	      0.03763073	      0.15535677
      3.06500000	      0.08635923	      0.03762612	      0.15539121
      3.07000000	      0.08644103	      0.03764394	      0.15547907
      3.07500000	      0.08640580	      0.03763627	      0.15539761
      3.08000000	      0.08683061	      0.03772867	      0.15540770
      3.08500000	      0.08630771	      0.03761490	      0.15539962
      3.09000000	      0.08666296	      0.03769223	      0.15589315
      3.09500000	      0.08665788	      0.03769113	      0.15587956
      3.10000000	      0.08662202	      0.03768333	      0.15590762
      3.10500000	      0.08664623	      0.03768859	      0.15581147
      3.11000000	      0.08673763	      0.03770846	      0.15611556
      3.11500000	      0.08685713	      0.03773443	      0.15614264
      3.12000000	      0.08671031	      0.03770253	      0.15613524
      3.12500000	      0.08668038	      0.03769602	      0.15606890
      3.13000000	      0.08691862	      0.03774779	      0.15617322
      3.13500000	      0.08691920	      0.03774791	      0.15618998
      3.14000000	      0.08695504	      0.03775569	      0.15608203
      3.14500000	      0.08709651	      0.03778639	      0.15628795
      3.15000000	      0.08706827	      0.03778027	      0.15618695
      3.15500000	      0.08716432	      0.03780110	      0.15629149
      3.16000000	      0.08714024	      0.03779588	      0.15639475
      3.16500000	      0.08732762	      0.03783649	      0.15661001
      3.17000000	      0.08736398	      0.03784437	      0.15649488
      3.17500000	      0.08738664	      0.03784928	      0.15642406
      3.18000000	      0.08749871	      0.03787354	      0.15676024
      3.18500000	      0.08770436	      0.03791802	      0.15639513
      3.19000000	      0.08752123	      0.03787841	      0.15646458
      3.19500000	      0.08789702	      0.03795965	      0.15667529
      3.20000000	      0.08786794	      0.03795337	      0.15669378
      3.20500000	      0.08796125	      0.03797351	      0.15684092
      3.21000000	      0.08835090	      0.03805753	      0.15690838
      3.21500000	      0.08820434	      0.03802595	      0.15660077
      3.22000000	      0.08873582	      0.03814034	      0.15655014
      3.22500000	      0.08855538	      0.03810154	      0.15711776
      3.23000000	      0.08846136	      0.03808131	      0.15716474
      3.23500000	      0.08873475	      0.03814011	      0.15725481
      3.24000000	      0.08862341	      0.03811617	      0.15731096
      3.24500000	      0.08873204	      0.03813953	      0.15717488
      3.25000000	      0.08887163	      0.03816952	      0.15723557
      3.25500000	      0.08898380	      0.03819360	      0.15727052
      3.26000000	      0.08919203	      0.03823826	      0.15729606
      3.26500000	      0.08923418	      0.03824729	      0.15738803
      3.27000000	      0.08915436	      0.03823018	      0.15729516
      3.27500000	      0.08950277	      0.03830481	      0.15775434
      3.28000000	      0.08949653	      0.03830348	      0.15754876
      3.28500000	      0.08970025	      0.03834705	      0.15765442
      3.29000000	      0.08974142	      0.03835585	      0.15752943
      3.29500000	      0.09031757	      0.03847877	      0.15759811
      3.30000000	      0.09033342	      0.03848215	      0.15800302
      3.30500000	      0.09037798	      0.03849164	      0.15795141
      3.31000000	      0.09034171	      0.03848391	      0.15814879
      3.31500000	      0.09078624	      0.03857848	      0.15829871
      3.32000000	      0.09079292	      0.03857990	      0.15818515
      3.32500000	      0.09103201	      0.03863066	      0.15820994
      3.33000000	      0.09135531	      0.03869920	      0.15828783
      3.33500000	      0.09162835	      0.03875699	      0.15848479
      3.34000000	      0.09173742	      0.03878005	      0.15842135
      3.34500000	      0.09205807	      0.03884776	      0.15849297
      3.35000000	      0.09232925	      0.03890494	      0.15845242
      3.35500000	      0.09261448	      0.03896499	      0.15883529
      3.36000000	      0.09295216	      0.03903596	      0.15920120
      3.36500000	      0.09331003	      0.03911103	      0.15892867
      3.37000000	      0.09345491	      0.03914138	      0.15921304
      3.37500000	      0.09381147	      0.03921598	      0.15927551
      3.38000000	      0.09420922	      0.03929903	      0.15979328
      3.38500000	      0.09434846	      0.03932806	      0.15940022
      3.39000000	      0.09449626	      0.03935885	      0.15961321
      3.39500000	      0.09481468	      0.03942511	      0.15960547
      3.40000000	      0.09534006	      0.03953419	      0.15914881
      3.40500000	      0.09511853	      0.03948823	      0.15974914
      3.41000000	      0.09526041	      0.03951767	      0.15972418
      3.41500000	      0.09560370	      0.03958881	      0.16008500
      3.42000000	      0.09582263	      0.03963411	      0.15987214
      3.42500000	      0.09631179	      0.03973514	      0.16002905
      3.43000000	      0.09630326	      0.03973339	      0.16013919
      3.43500000	      0.09654933	      0.03978412	      0.16012184
      3.44000000	      0.09701524	      0.03987999	      0.16033824
      3.44500000	      0.09710898	      0.03989925	      0.16026318
      3.45000000	      0.09764270	      0.04000875	      0.16062896
      3.45500000	      0.09764411	      0.04000904	      0.16061875
      3.46000000	      0.09781259	      0.04004354	      0.16048089
      3.46500000	      0.09836353	      0.04015616	      0.16083057
      3.47000000	      0.09803086	      0.04008819	      0.16061127
      3.47500000	      0.09868130	      0.04022097	      0.16092132
      3.48000000	      0.09878469	      0.04024203	      0.16089762
      3.48500000	      0.09910774	      0.04030778	      0.16079283
      3.49000000	      0.09902615	      0.04029118	      0.16069349
      3.49500000	      0.09931026	      0.04034894	      0.16101987
      3.50000000	      0.09950198	      0.04038787	      0.16092079
      3.50500000	      0.09970006	      0.04042805	      0.16108564
      3.51000000	      0.10013020	      0.04051517	      0.16144779
      3.51500000	      0.10051214	      0.04059236	      0.16174863
      3.52000000	      0.10090470	      0.04067156	      0.16168366
      3.52500000	      0.10111356	      0.04071363	      0.16174127
      3.53000000	      0.10159229	      0.04080989	      0.16187686
      3.53500000	      0.10142393	      0.04077606	      0.16155413
      3.54000000	      0.10170761	      0.04083305	      0.16171577
      3.54500000	      0.10179626	      0.04085084	      0.16157167
      3.55000000	      0.10202082	      0.04089587	      0.16151719
      3.55500000	      0.10278535	      0.04104882	      0.16211542
      3.56000000	      0.10271420	      0.04103461	      0.16146536
      3.56500000	      0.10305874	      0.04110338	      0.16188610
      3.57000000	      0.10341372	      0.04117411	      0.16207395
      3.57500000	      0.10364898	      0.04122091	      0.16216118
      3.58000000	      0.10392603	      0.04127597	      0.16200930
      3.58500000	      0.10437706	      0.04136544	      0.16223234
      3.59000000	      0.10465121	      0.04141972	      0.16206721
      3.59500000	      0.10506100	      0.04150074	      0.16231218
      3.60000000	      0.10511910	      0.04151222	      0.16206499
      3.60500000	      0.10571042	      0.04162881	      0.16241817
      3.61000000	      0.10607472	      0.04170048	      0.16249210
      3.61500000	      0.10632087	      0.04174883	      0.16259213
      3.62000000	      0.10662577	      0.04180865	      0.16256104
      3.62500000	      0.10653997	      0.04179183	      0.16239851
      3.63000000	      0.10700598	      0.04188313	      0.16244083
      3.63500000	      0.10732226	      0.04194498	      0.16265017
      3.64000000	      0.10763909	      0.04200685	      0.16257351
      3.64500000	      0.10774560	      0.04202763	      0.16244707
      3.65000000	      0.10790028	      0.04205778	      0.16255796
      3.65500000	      0.10836663	      0.04214857	      0.16312835
      3.66000000	      0.10836338	      0.04214794	      0.16263924
      3.66500000	      0.10874941	      0.04222295	      0.16287932
      3.67000000	      0.10928121	      0.04232606	      0.16312142
      3.67500000	      0.10945117	      0.04235896	      0.16332983
      3.68000000	      0.10952682	      0.04237360	      0.16331231
      3.68500000	      0.10972615	      0.04241214	      0.16305601
      3.69000000	      0.11004620	      0.04247395	      0.16299712
      3.69500000	      0.11046637	      0.04255495	      0.16331198
      3.70000000	      0.11062626	      0.04258574	      0.16340795
      3.70500000	      0.11094143	      0.04264636	      0.16330154
      3.71000000	      0.11047507	      0.04255663	      0.16206857
      3.71500000	      0.11074938	      0.04260943	      0.16198603
      3.72000000	      0.11102800	      0.04266300	      0.16227695
      3.72500000	      0.11129143	      0.04271358	      0.16231501
      3.73000000	      0.11172836	      0.04279734	      0.16231954
      3.73500000	      0.11199433	      0.04284825	      0.16241365
      3.74000000	      0.11216903	      0.04288166	      0.16243587
      3.74500000	      0.11250436	      0.04294571	      0.16254414
      3.75000000	      0.11287112	      0.04301565	      0.16248462
      3.75500000	      0.11302016	      0.04304404	      0.16232680
      3.76000000	      0.11338542	      0.04311354	      0.16226357
      3.76500000	      0.11379528	      0.04319139	      0.16228423
      3.77000000	      0.11416577	      0.04326165	      0.16229096
      3.77500000	      0.11484502	      0.04339015	      0.16263398
      3.78000000	      0.11497188	      0.04341411	      0.16231925
      3.78500000	      0.11541166	      0.04349706	      0.16240193
      3.79000000	      0.11648108	      0.04369812	      0.16316238
      3.79500000	      0.11652029	      0.04370548	      0.16285267
      3.80000000	      0.11670046	      0.04373925	      0.16270575
      3.80500000	      0.11720976	      0.04383459	      0.16271797
      3.81000000	      0.11748782	      0.04388656	      0.16269229
      3.81500000	      0.11795575	      0.04397386	      0.16265437
      3.82000000	      0.11840313	      0.04405718	      0.16262582
      3.82500000	      0.11887645	      0.04414515	      0.16288727
      3.83000000	      0.11913214	      0.04419260	      0.16284935
      3.83500000	      0.12027045	      0.04440323	      0.16339050
      3.84000000	      0.11982499	      0.04432092	      0.16275060
      3.84500000	      0.12034113	      0.04441627	      0.16301793
      3.85000000	      0.12070799	      0.04448392	      0.16310864
      3.85500000	      0.12131100	      0.04459490	      0.16323652
      3.86000000	      0.12183005	      0.04469020	      0.16318606
      3.86500000	      0.12224723	      0.04476665	      0.16340117
      3.87000000	      0.12259613	      0.04483049	      0.16335056
      3.87500000	      0.12327723	      0.04495485	      0.16339907
      3.88000000	      0.12351736	      0.04499861	      0.16346418
      3.88500000	      0.12418157	      0.04511944	      0.16350862
      3.89000000	      0.12459719	      0.04519488	      0.16337905
      3.89500000	      0.12486265	      0.04524300	      0.16321521
      3.90000000	      0.12606041	      0.04545948	      0.16379562
      3.90500000	      0.12658733	      0.04555439	      0.16347106
      3.91000000	      0.12624433	      0.04549263	      0.16351826
      3.91500000	      0.12639008	      0.04551888	      0.16356282
      3.92000000	      0.12678350	      0.04558967	      0.16353787
      3.92500000	      0.12718737	      0.04566223	      0.16354818
      3.93000000	      0.12761547	      0.04573901	      0.16383906
      3.93500000	      0.12791820	      0.04579323	      0.16379877
      3.94000000	      0.12794350	      0.04579776	      0.16374369
      3.94500000	      0.12820394	      0.04584435	      0.16383284
      3.95000000	      0.12861182	      0.04591721	      0.16383819
      3.95500000	      0.12865881	      0.04592560	      0.16369028
      3.96000000	      0.12882747	      0.04595569	      0.16368691
      3.96500000	      0.12899496	      0.04598556	      0.16376605
      3.97000000	      0.12929592	      0.04603917	      0.16378801
      3.97500000	      0.12953011	      0.04608085	      0.16369911
      3.98000000	      0.12974156	      0.04611844	      0.16395359
      3.98500000	      0.12992370	      0.04615080	      0.16388643
      3.99000000	      0.13015216	      0.04619136	      0.16401299
      3.99500000	      0.13031342	      0.04621997	      0.16384816
      4.00000000	      0.13053539	      0.04625932	      0.16392427
      4.00500000	      0.13082765	      0.04631107	      0.16389296
      4.01000000	      0.13112189	      0.04636312	      0.16389448
      4.01500000	      0.13149968	      0.04642987	      0.16387066
      4.02000000	      0.13178705	      0.04648057	      0.16381905
      4.02500000	      0.13217084	      0.04654820	      0.16371778
      4.03000000	      0.13244622	      0.04659667	      0.16400386
      4.03500000	      0.13286116	      0.04666960	      0.16401466
      4.04000000	      0.13309273	      0.04671026	      0.16396243
      4.04500000	      0.13356158	      0.04679246	      0.16409955
      4.05000000	      0.13365474	      0.04680877	      0.16394332
      4.05500000	      0.13397874	      0.04686548	      0.16398533
      4.06000000	      0.13426464	      0.04691545	      0.16445761
      4.06500000	      0.13434286	      0.04692912	      0.16438089
      4.07000000	      0.13454894	      0.04696510	      0.16436422
      4.07500000	      0.13483982	      0.04701584	      0.16440273
      4.08000000	      0.13502746	      0.04704854	      0.16439838
      4.08500000	      0.13548079	      0.04712745	      0.16457137
      4.09000000	      0.13573218	      0.04717115	      0.16466502
      4.09500000	      0.13632778	      0.04727454	      0.16496002
      4.10000000	      0.13686387	      0.04736739	      0.16508880
      4.10500000	      0.13666110	      0.04733229	      0.16470130
      4.11000000	      0.13689257	      0.04737236	      0.16467993
      4.11500000	      0.13713372	      0.04741407	      0.16467756
      4.12000000	      0.13731393	      0.04744521	      0.16465628
      4.12500000	      0.13739803	      0.04745974	      0.16467032
      4.13000000	      0.13770571	      0.04751285	      0.16465873
      4.13500000	      0.13806351	      0.04757453	      0.16465462
      4.14000000	      0.13810690	      0.04758201	      0.16456223
      4.14500000	      0.13817732	      0.04759414	      0.16451462
      4.15000000	      0.13815838	      0.04759088	      0.16444059
      4.15500000	      0.13827291	      0.04761060	      0.16445240
      4.16000000	      0.13832561	      0.04761967	      0.16435206
      4.16500000	      0.13834008	      0.04762216	      0.16436775
      4.17000000	      0.13830615	      0.04761632	      0.16443762
      4.17500000	      0.13829294	      0.04761405	      0.16430850
      4.18000000	      0.13820085	      0.04759819	      0.16429640
      4.18500000	      0.13819954	      0.04759796	      0.16429840
      4.19000000	      0.13800397	      0.04756427	      0.16411069
      4.19500000	      0.13808381	      0.04757803	      0.16416573
      4.20000000	      0.13788239	      0.04754332	      0.16408845
      4.20500000	      0.13771072	      0.04751371	      0.16399282
      4.21000000	      0.13767815	      0.04750809	      0.16394273
      4.21500000	      0.13763775	      0.04750112	      0.16397757
      4.22000000	      0.13750763	      0.04747866	      0.16389988
      4.22500000	      0.13742007	      0.04746354	      0.16396817
      4.23000000	      0.13733316	      0.04744853	      0.16399232
      4.23500000	      0.13732848	      0.04744773	      0.16407662
      4.24000000	      0.13720168	      0.04742581	      0.16401911
      4.24500000	      0.13725983	      0.04743586	      0.16403341
      4.25000000	      0.13711302	      0.04741049	      0.16419707
      4.25500000	      0.13722196	      0.04742932	      0.16419357
      4.26000000	      0.13734206	      0.04745007	      0.16394803
      4.26500000	      0.13716280	      0.04741909	      0.16441676
      4.27000000	      0.13719494	      0.04742465	      0.16452061
      4.27500000	      0.13701507	      0.04739355	      0.16446655
      4.28000000	      0.13693895	      0.04738038	      0.16446182
      4.28500000	      0.13711243	      0.04741039	      0.16469823
      4.29000000	      0.13710125	      0.04740845	      0.16468858
      4.29500000	      0.13732416	      0.04744698	      0.16484992
      4.30000000	      0.13739726	      0.04745961	      0.16497886
      4.30500000	      0.13763255	      0.04750022	      0.16496496
      4.31000000	      0.13796034	      0.04755675	      0.16503423
      4.31500000	      0.13791975	      0.04754976	      0.16493373
      4.32000000	      0.13817792	      0.04759424	      0.16531318
      4.32500000	      0.13819952	      0.04759796	      0.16539878
      4.33000000	      0.13828313	      0.04761236	      0.16554976
      4.33500000	      0.13838149	      0.04762929	      0.16564291
      4.34000000	      0.13872098	      0.04768768	      0.16618954
      4.34500000	      0.13868422	      0.04768136	      0.16575845
      4.35000000	      0.13896816	      0.04773014	      0.16599303
      4.35500000	      0.13923805	      0.04777647	      0.16637658
      4.36000000	      0.13949703	      0.04782088	      0.16648185
      4.36500000	      0.13945522	      0.04781371	      0.16602060
      4.37000000	      0.13995666	      0.04789960	      0.16663618
      4.37500000	      0.13991575	      0.04789260	      0.16606624
      4.38000000	      0.13996504	      0.04790103	      0.16604705
      4.38500000	      0.14019723	      0.04794075	      0.16604642
      4.39000000	      0.14028789	      0.04795625	      0.16612304
      4.39500000	      0.14040369	      0.04797603	      0.16631499
      4.40000000	      0.14050257	      0.04799292	      0.16624870
      4.40500000	      0.14051165	      0.04799447	      0.16593453
      4.41000000	      0.14055181	      0.04800133	      0.16593971
      4.41500000	      0.14060414	      0.04801027	      0.16599990
      4.42000000	      0.14079647	      0.04804309	      0.16621445
      4.42500000	      0.14058034	      0.04800620	      0.16589896
      4.43000000	      0.14051476	      0.04799501	      0.16588096
      4.43500000	      0.14045510	      0.04798482	      0.16605848
      4.44000000	      0.14022474	      0.04794545	      0.16587288
      4.44500000	      0.14012229	      0.04792793	      0.16593581
      4.45000000	      0.13987272	      0.04788523	      0.16580108
      4.45500000	      0.13971392	      0.04785804	      0.16582230
      4.46000000	      0.13946761	      0.04781584	      0.16580338
      4.46500000	      0.13926813	      0.04778163	      0.16583633
      4.47000000	      0.13937613	      0.04780015	      0.16597786
      4.47500000	      0.13918373	      0.04776715	      0.16577515
      4.48000000	      0.13888559	      0.04771596	      0.16578925
      4.48500000	      0.13883576	      0.04770740	      0.16579565
      4.49000000	      0.13871953	      0.04768743	      0.16584399
      4.49500000	      0.13843057	      0.04763773	      0.16567867
      4.50000000	      0.13826085	      0.04760852	      0.16588201
      4.50500000	      0.13818205	      0.04759495	      0.16578746
      4.51000000	      0.13811532	      0.04758346	      0.16593291
      4.51500000	      0.13821052	      0.04759985	      0.16599765
      4.52000000	      0.13793230	      0.04755192	      0.16598212
      4.52500000	      0.13785631	      0.04753882	      0.16603221
      4.53000000	      0.13790694	      0.04754755	      0.16606132
      4.53500000	      0.13750657	      0.04747848	      0.16620140
      4.54000000	      0.13747260	      0.04747261	      0.16625410
      4.54500000	      0.13752123	      0.04748101	      0.16591717
      4.55000000	      0.13722902	      0.04743054	      0.16594128
      4.55500000	      0.13724467	      0.04743324	      0.16609399
      4.56000000	      0.13712204	      0.04741205	      0.16635875
      4.56500000	      0.13696777	      0.04738537	      0.16611027
      4.57000000	      0.13680331	      0.04735691	      0.16611044
      4.57500000	      0.13680284	      0.04735683	      0.16616413
      4.58000000	      0.13640460	      0.04728785	      0.16618959
      4.58500000	      0.13618784	      0.04725026	      0.16594279
      4.59000000	      0.13645974	      0.04729741	      0.16614258
      4.59500000	      0.13611637	      0.04723786	      0.16604580
      4.60000000	      0.13583866	      0.04718965	      0.16596857
      4.60500000	      0.13571774	      0.04716864	      0.16596262
      4.61000000	      0.13567422	      0.04716108	      0.16632164
      4.61500000	      0.13530421	      0.04709673	      0.16594067
      4.62000000	      0.13513486	      0.04706725	      0.16598349
      4.62500000	      0.13492612	      0.04703088	      0.16591330
      4.63000000	      0.13463318	      0.04697980	      0.16593752
      4.63500000	      0.13441623	      0.04694193	      0.16591620
      4.64000000	      0.13416829	      0.04689862	      0.16592219
      4.64500000	      0.13403556	      0.04687541	      0.16610131
      4.65000000	      0.13335099	      0.04675555	      0.16598515
      4.65500000	      0.13345605	      0.04677397	      0.16587697
      4.66000000	      0.13296828	      0.04668841	      0.16590634
      4.66500000	      0.13298134	      0.04669071	      0.16592476
      4.67000000	      0.13247286	      0.04660135	      0.16604820
      4.67500000	      0.13212242	      0.04653967	      0.16588928
      4.68000000	      0.13186818	      0.04649487	      0.16590085
      4.68500000	      0.13150656	      0.04643108	      0.16610164
      4.69000000	      0.13126672	      0.04638872	      0.16595417
      4.69500000	      0.13086177	      0.04631711	      0.16577120
      4.70000000	      0.13051217	      0.04625520	      0.16589967
      4.70500000	      0.13056285	      0.04626418	      0.16583684
      4.71000000	      0.12988987	      0.04614480	      0.16555277
      4.71500000	      0.12997675	      0.04616023	      0.16592444
      4.72000000	      0.12950789	      0.04607689	      0.16557851
      4.72500000	      0.12923605	      0.04602851	      0.16535868
      4.73000000	      0.12879287	      0.04594952	      0.16561185
      4.73500000	      0.12866832	      0.04592730	      0.16546846
      4.74000000	      0.12828877	      0.04585951	      0.16539615
      4.74500000	      0.12791764	      0.04579313	      0.16531618
      4.75000000	      0.12786714	      0.04578409	      0.16559637
      4.75500000	      0.12734635	      0.04569075	      0.16532458
      4.76000000	      0.12737495	      0.04569589	      0.16543513
      4.76500000	      0.12718281	      0.04566141	      0.16537429
      4.77000000	      0.12683354	      0.04559867	      0.16523475
      4.77500000	      0.12673070	      0.04558018	      0.16542766
      4.78000000	      0.12634142	      0.04551012	      0.16524411
      4.78500000	      0.12614522	      0.04547477	      0.16536081
      4.79000000	      0.12574657	      0.04540285	      0.16522640
      4.79500000	      0.12553294	      0.04536427	      0.16510026
      4.80000000	      0.12521298	      0.04530642	      0.16536055
      4.80500000	      0.12472363	      0.04521780	      0.16537536
      4.81000000	      0.12460089	      0.04519555	      0.16529115
      4.81500000	      0.12419166	      0.04512127	      0.16526863
      4.82000000	      0.12407339	      0.04509978	      0.16529261
      4.82500000	      0.12374367	      0.04503981	      0.16523297
      4.83000000	      0.12338882	      0.04497519	      0.16536292
      4.83500000	      0.12295653	      0.04489633	      0.16543666
      4.84000000	      0.12274740	      0.04485814	      0.16542286
      4.84500000	      0.12220190	      0.04475835	      0.16542007
      4.85000000	      0.12206754	      0.04473374	      0.16556142
      4.85500000	      0.12180288	      0.04468522	      0.16555271
      4.86000000	      0.12131264	      0.04459520	      0.16553953
      4.86500000	      0.12119234	      0.04457308	      0.16553048
      4.87000000	      0.12087323	      0.04451436	      0.16563182
      4.87500000	      0.12031138	      0.04441078	      0.16520762
      4.88000000	      0.12006556	      0.04436539	      0.16557946
      4.88500000	      0.11974490	      0.04430611	      0.16550109
      4.89000000	      0.11942405	      0.04424671	      0.16546866
      4.89500000	      0.11945188	      0.04425186	      0.16631310
      4.90000000	      0.11900571	      0.04416914	      0.16605740
      4.90500000	      0.11851977	      0.04407887	      0.16609842
      4.91000000	      0.11814777	      0.04400964	      0.16621199
      4.91500000	      0.11808243	      0.04399747	      0.16640042
      4.92000000	      0.11762260	      0.04391172	      0.16613363
      4.92500000	      0.11729940	      0.04385135	      0.16647003
      4.93000000	      0.11703084	      0.04380112	      0.16646837
      4.93500000	      0.11680258	      0.04375839	      0.16685719
      4.94000000	      0.11654136	      0.04370943	      0.16667621
      4.94500000	      0.11592330	      0.04359337	      0.16668921
      4.95000000	      0.11551001	      0.04351559	      0.16669733
      4.95500000	      0.11519811	      0.04345680	      0.16669357
      4.96000000	      0.11478828	      0.04337943	      0.16645072
      4.96500000	      0.11448188	      0.04332150	      0.16691198
      4.97000000	      0.11424516	      0.04327669	      0.16663809
      4.97500000	      0.11419318	      0.04326684	      0.16712866
      4.98000000	      0.11348582	      0.04313262	      0.16632841
      4.98500000	      0.11328266	      0.04309400	      0.16639349
      4.99000000	      0.11321340	      0.04308082	      0.16713806
      4.99500000	      0.11281575	      0.04300510	      0.16654465
      5.00000000	      0.11224170	      0.04289555	      0.16664161
      5.00500000	      0.11237059	      0.04292017	      0.16686085
      5.01000000	      0.11195504	      0.04284073	      0.16665369
      5.01500000	      0.11179048	      0.04280924	      0.16659715
      5.02000000	      0.11148968	      0.04275160	      0.16692322
      5.02500000	      0.11122830	      0.04270146	      0.16674010
      5.03000000	      0.11100804	      0.04265916	      0.16689381
      5.03500000	      0.11073410	      0.04260649	      0.16668567
      5.04000000	      0.11044956	      0.04255172	      0.16693088
      5.04500000	      0.11006594	      0.04247776	      0.16648749
      5.05000000	      0.10989345	      0.04244446	      0.16711230
      5.05500000	      0.10977045	      0.04242070	      0.16701304
      5.06000000	      0.10932904	      0.04233532	      0.16660238
      5.06500000	      0.10909899	      0.04229076	      0.16657642
      5.07000000	      0.10908973	      0.04228896	      0.16684174
      5.07500000	      0.10856787	      0.04218769	      0.16652624
      5.08000000	      0.10853512	      0.04218133	      0.16672921
      5.08500000	      0.10827236	      0.04213024	      0.16635285
      5.09000000	      0.10799628	      0.04207649	      0.16659599
      5.09500000	      0.10793255	      0.04206407	      0.16699051
      5.10000000	      0.10742449	      0.04196495	      0.16611394
      5.10500000	      0.10732595	      0.04194570	      0.16639632
      5.11000000	      0.10697570	      0.04187720	      0.16621239
      5.11500000	      0.10688712	      0.04185986	      0.16648322
      5.12000000	      0.10675295	      0.04183358	      0.16638015
      5.12500000	      0.10651697	      0.04178732	      0.16644738
      5.13000000	      0.10645135	      0.04177444	      0.16649643
      5.13500000	      0.10614163	      0.04171363	      0.16627110
      5.14000000	      0.10610078	      0.04170560	      0.16625714
      5.14500000	      0.10593675	      0.04167335	      0.16645683
      5.15000000	      0.10568384	      0.04162357	      0.16647498
      5.15500000	      0.10554943	      0.04159710	      0.16673502
      5.16000000	      0.10509365	      0.04150719	      0.16626707
      5.16500000	      0.10486525	      0.04146206	      0.16637578
      5.17000000	      0.10459765	      0.04140913	      0.16631963
      5.17500000	      0.10443979	      0.04137787	      0.16636792
      5.18000000	      0.10389465	      0.04126973	      0.16631595
      5.18500000	      0.10391852	      0.04127448	      0.16642733
      5.19000000	      0.10373747	      0.04123851	      0.16646788
      5.19500000	      0.10334909	      0.04116124	      0.16620441
      5.20000000	      0.10289097	      0.04106991	      0.16599034
      5.20500000	      0.10264661	      0.04102111	      0.16651252
      5.21000000	      0.10210926	      0.04091360	      0.16605030
      5.21500000	      0.10198909	      0.04088951	      0.16668073
      5.22000000	      0.10184732	      0.04086108	      0.16652595
      5.22500000	      0.10119418	      0.04072985	      0.16589082
      5.23000000	      0.10118100	      0.04072720	      0.16644023
      5.23500000	      0.10080134	      0.04065072	      0.16630495
      5.24000000	      0.10043438	      0.04057666	      0.16586148
      5.24500000	      0.10018430	      0.04052611	      0.16648718
      5.25000000	      0.10020708	      0.04053072	      0.16650361
      5.25500000	      0.09955397	      0.04039842	      0.16541042
      5.26000000	      0.09950406	      0.04038829	      0.16586569
      5.26500000	      0.09923651	      0.04033396	      0.16595775
      5.27000000	      0.09890936	      0.04026742	      0.16559734
      5.27500000	      0.09881982	      0.04024919	      0.16582568
      5.28000000	      0.09837833	      0.04015918	      0.16562457
      5.28500000	      0.09821025	      0.04012486	      0.16559181
      5.29000000	      0.09787333	      0.04005597	      0.16563156
      5.29500000	      0.09775410	      0.04003157	      0.16583966
      5.30000000	      0.09739793	      0.03995857	      0.16542490
      5.30500000	      0.09714522	      0.03990670	      0.16577179
      5.31000000	      0.09697593	      0.03987191	      0.16536335
      5.31500000	      0.09652965	      0.03978006	      0.16506916
      5.32000000	      0.09653642	      0.03978146	      0.16537228
      5.32500000	      0.09608045	      0.03968740	      0.16511708
      5.33000000	      0.09574131	      0.03961729	      0.16487728
      5.33500000	      0.09537697	      0.03954184	      0.16447319
      5.34000000	      0.09554528	      0.03957671	      0.16491482
      5.34500000	      0.09499701	      0.03946299	      0.16418473
      5.35000000	      0.09488598	      0.03943993	      0.16486163
      5.35500000	      0.09454872	      0.03936977	      0.16424582
      5.36000000	      0.09430474	      0.03931894	      0.16423111
      5.36500000	      0.09406368	      0.03926866	      0.16405919
      5.37000000	      0.09395602	      0.03924618	      0.16422354
      5.37500000	      0.09392099	      0.03923886	      0.16403723
      5.38000000	      0.09363105	      0.03917825	      0.16389222
      5.38500000	      0.09326406	      0.03910139	      0.16390833
      5.39000000	      0.09307544	      0.03906183	      0.16383868
      5.39500000	      0.09283922	      0.03901223	      0.16338696
      5.40000000	      0.09277257	      0.03899823	      0.16370234
      5.40500000	      0.09236967	      0.03891345	      0.16373566
      5.41000000	      0.09207407	      0.03885114	      0.16344061
      5.41500000	      0.09179893	      0.03879305	      0.16354216
      5.42000000	      0.09155587	      0.03874166	      0.16328989
      5.42500000	      0.09113384	      0.03865226	      0.16304725
      5.43000000	      0.09097494	      0.03861855	      0.16289762
      5.43500000	      0.09083090	      0.03858797	      0.16321555
      5.44000000	      0.09057612	      0.03853381	      0.16302157
      5.44500000	      0.09023975	      0.03846219	      0.16239130
      5.45000000	      0.09009488	      0.03843131	      0.16232171
      5.45500000	      0.08975684	      0.03835914	      0.16232876
      5.46000000	      0.08966340	      0.03833917	      0.16222837
      5.46500000	      0.08960177	      0.03832599	      0.16184356
      5.47000000	      0.08922151	      0.03824458	      0.16201868
      5.47500000	      0.08894687	      0.03818567	      0.16184308
      5.48000000	      0.08878451	      0.03815080	      0.16151219
      5.48500000	      0.08855251	      0.03810092	      0.16136349
      5.49000000	      0.08849171	      0.03808784	      0.16138108
      5.49500000	      0.08830024	      0.03804661	      0.16139478
      5.50000000	      0.08798380	      0.03797838	      0.16117705
      5.50500000	      0.08773210	      0.03792402	      0.16090939
      5.51000000	      0.08750159	      0.03787416	      0.16064786
      5.51500000	      0.08733816	      0.03783878	      0.16049586
      5.52000000	      0.08738523	      0.03784897	      0.16043173
      5.52500000	      0.08693965	      0.03775235	      0.16009550
      5.53000000	      0.08719896	      0.03780861	      0.15959637
      5.53500000	      0.08678171	      0.03771805	      0.16007037
      5.54000000	      0.08664232	      0.03768774	      0.15984482
      5.54500000	      0.08650248	      0.03765732	      0.15971433
      5.55000000	      0.08649430	      0.03765554	      0.15976332
      5.55500000	      0.08627370	      0.03760748	      0.15972804
      5.56000000	      0.08651532	      0.03766011	      0.15903190
      5.56500000	      0.08626350	      0.03760526	      0.15987817
      5.57000000	      0.08606808	      0.03756264	      0.15942241
      5.57500000	      0.08601673	      0.03755144	      0.15933713
      5.58000000	      0.08602418	      0.03755306	      0.15972620
      5.58500000	      0.08618271	      0.03758765	      0.15935436
      5.59000000	      0.08567533	      0.03747684	      0.15937153
      5.59500000	      0.08580540	      0.03750528	      0.15907898
      5.60000000	      0.08638857	      0.03763251	      0.15900604
      5.60500000	      0.08434142	      0.03718395	      0.15532883
      5.61000000	      0.08538574	      0.03741345	      0.15905220
      5.61500000	      0.08538964	      0.03741430	      0.15848744
      5.62000000	      0.08525293	      0.03738434	      0.15886451
      5.62500000	      0.08514802	      0.03736133	      0.15938971
      5.63000000	      0.08487728	      0.03730189	      0.15860032
      5.63500000	      0.08496040	      0.03732015	      0.15888497
      5.64000000	      0.08488579	      0.03730376	      0.15921095
      5.64500000	      0.08462202	      0.03724576	      0.15899768
      5.65000000	      0.08465334	      0.03725265	      0.15928019
      5.65500000	      0.08505065	      0.03733997	      0.15950705
      5.66000000	      0.08455549	      0.03723111	      0.15970849
      5.66500000	      0.08455345	      0.03723066	      0.15980599
      5.67000000	      0.08451623	      0.03722247	      0.16000812
      5.67500000	      0.08421507	      0.03715609	      0.15959577
      5.68000000	      0.08400263	      0.03710919	      0.15909743
      5.68500000	      0.08273670	      0.03682851	      0.15507498
      5.69000000	      0.08272713	      0.03682638	      0.15474233
      5.69500000	      0.08242204	      0.03675841	      0.15520088
      5.70000000	      0.08380081	      0.03706459	      0.15970944
